{"type":"FeatureCollection","features":[{"type":"Feature","properties":{"name":"青森市","code":"02201"},"geometry":{"type":"MultiPolygon","coordinates":[[[[140.661,40.948],[140.652,40.95],[140.616,40.952],[140.609,40.95],[140.605,40.96],[140.601,40.962],[140.587,40.965],[140.582,40.963],[140.563,40.97],[140.554,40.969],[140.553,40.961],[140.556,40.955],[140.562,40.953],[140.567,40.945],[140.576,40.939],[140.58,40.94],[140.588,40.934],[140.583,40.926],[140.586,40.923],[140.579,40.912],[140.579,40.907],[140.575,40.904],[140.575,40.897],[140.584,40.894],[140.588,40.88],[140.592,40.869],[140.59,40.853],[140.585,40.844],[140.58,40.841],[140.582,40.833],[140.577,40.829],[140.578,40.815],[140.574,40.81],[140.574,40.801],[140.573,40.794],[140.577,40.787],[140.572,40.78],[140.578,40.767],[140.573,40.761],[140.564,40.761],[140.558,40.757],[140.556,40.748],[140.544,40.746],[140.539,40.739],[140.53,40.737],[140.527,40.731],[140.52,40.73],[140.521,40.722],[140.525,40.72],[140.537,40.706],[140.547,40.7],[140.549,40.695],[140.541,40.688],[140.544,40.677],[140.549,40.674],[140.556,40.679],[140.556,40.685],[140.559,40.688],[140.572,40.689],[140.578,40.687],[140.599,40.692],[140.615,40.687],[140.634,40.69],[140.636,40.684],[140.641,40.677],[140.652,40.67],[140.659,40.662],[140.668,40.657],[140.695,40.661],[140.701,40.657],[140.706,40.662],[140.716,40.662],[140.723,40.666],[140.73,40.666],[140.733,40.662],[140.741,40.661],[140.752,40.663],[140.761,40.661],[140.766,40.666],[140.776,40.656],[140.784,40.651],[140.806,40.645],[140.812,40.641],[140.826,40.624],[140.838,40.614],[140.844,40.611],[140.844,40.606],[140.853,40.609],[140.863,40.61],[140.877,40.614],[140.876,40.624],[140.884,40.636],[140.884,40.641],[140.876,40.647],[140.88,40.657],[140.887,40.653],[140.905,40.654],[140.911,40.653],[140.921,40.645],[140.939,40.643],[140.955,40.647],[140.956,40.656],[140.961,40.659],[140.96,40.665],[140.968,40.674],[140.968,40.682],[140.971,40.693],[140.979,40.698],[140.97,40.706],[140.953,40.719],[140.939,40.722],[140.929,40.722],[140.926,40.727],[140.92,40.726],[140.916,40.73],[140.91,40.729],[140.901,40.738],[140.902,40.743],[140.911,40.757],[140.916,40.757],[140.92,40.762],[140.94,40.759],[140.945,40.763],[140.953,40.766],[140.961,40.773],[140.958,40.78],[140.97,40.787],[140.976,40.792],[140.977,40.801],[140.981,40.806],[140.968,40.815],[140.96,40.815],[140.955,40.821],[140.956,40.83],[140.95,40.837],[140.942,40.839],[140.938,40.843],[140.93,40.845],[140.933,40.851],[140.931,40.856],[140.924,40.859],[140.919,40.863],[140.913,40.865],[140.91,40.871],[140.897,40.879],[140.888,40.889],[140.889,40.896],[140.883,40.897],[140.881,40.902],[140.872,40.901],[140.859,40.904],[140.86,40.889],[140.85,40.883],[140.85,40.878],[140.845,40.873],[140.835,40.872],[140.835,40.867],[140.822,40.861],[140.821,40.854],[140.802,40.839],[140.789,40.834],[140.78,40.832],[140.76,40.835],[140.754,40.832],[140.738,40.83],[140.728,40.837],[140.72,40.843],[140.708,40.85],[140.702,40.851],[140.692,40.86],[140.685,40.871],[140.677,40.889],[140.674,40.906],[140.668,40.927],[140.662,40.941],[140.661,40.948]]]]}},{"type":"Feature","properties":{"name":"弘前市","code":"02202"},"geometry":{"type":"MultiPolygon","coordinates":[[[[140.34,40.759],[140.333,40.761],[140.329,40.757],[140.322,40.754],[140.316,40.747],[140.307,40.742],[140.301,40.733],[140.296,40.733],[140.288,40.727],[140.287,40.72],[140.288,40.709],[140.295,40.694],[140.309,40.704],[140.315,40.702],[140.337,40.699],[140.332,40.693],[140.322,40.688],[140.315,40.681],[140.303,40.678],[140.289,40.669],[140.278,40.662],[140.28,40.655],[140.269,40.653],[140.256,40.649],[140.246,40.649],[140.24,40.645],[140.233,40.645],[140.22,40.641],[140.217,40.631],[140.219,40.624],[140.208,40.62],[140.205,40.609],[140.189,40.606],[140.193,40.601],[140.191,40.594],[140.184,40.596],[140.175,40.594],[140.165,40.587],[140.157,40.588],[140.155,40.571],[140.162,40.565],[140.163,40.557],[140.166,40.561],[140.178,40.567],[140.183,40.56],[140.19,40.556],[140.198,40.557],[140.202,40.566],[140.207,40.567],[140.211,40.572],[140.211,40.582],[140.22,40.586],[140.222,40.589],[140.231,40.59],[140.235,40.597],[140.237,40.604],[140.248,40.603],[140.249,40.607],[140.259,40.614],[140.269,40.616],[140.286,40.611],[140.288,40.607],[140.298,40.606],[140.296,40.6],[140.301,40.594],[140.308,40.594],[140.31,40.588],[140.306,40.585],[140.309,40.579],[140.304,40.574],[140.31,40.568],[140.31,40.552],[140.303,40.547],[140.302,40.528],[140.306,40.521],[140.311,40.52],[140.314,40.515],[140.32,40.515],[140.323,40.509],[140.32,40.506],[140.32,40.5],[140.33,40.491],[140.328,40.483],[140.336,40.479],[140.338,40.475],[140.345,40.472],[140.348,40.468],[140.361,40.478],[140.378,40.477],[140.387,40.487],[140.396,40.482],[140.397,40.478],[140.406,40.475],[140.417,40.48],[140.427,40.483],[140.437,40.478],[140.444,40.48],[140.449,40.478],[140.454,40.481],[140.459,40.48],[140.465,40.487],[140.459,40.493],[140.463,40.503],[140.477,40.504],[140.484,40.508],[140.482,40.515],[140.484,40.519],[140.494,40.522],[140.51,40.524],[140.52,40.523],[140.535,40.53],[140.541,40.545],[140.554,40.539],[140.554,40.549],[140.559,40.549],[140.564,40.543],[140.569,40.544],[140.576,40.538],[140.598,40.543],[140.599,40.548],[140.593,40.551],[140.592,40.555],[140.584,40.559],[140.579,40.564],[140.57,40.563],[140.56,40.564],[140.553,40.561],[140.548,40.555],[140.54,40.558],[140.535,40.563],[140.526,40.578],[140.528,40.588],[140.526,40.598],[140.526,40.609],[140.524,40.614],[140.514,40.615],[140.511,40.621],[140.504,40.624],[140.498,40.635],[140.497,40.643],[140.494,40.651],[140.483,40.652],[140.48,40.646],[140.467,40.655],[140.466,40.661],[140.461,40.661],[140.462,40.667],[140.465,40.671],[140.461,40.685],[140.456,40.688],[140.454,40.695],[140.446,40.698],[140.442,40.706],[140.436,40.708],[140.428,40.717],[140.427,40.722],[140.42,40.724],[140.42,40.737],[140.402,40.738],[140.399,40.747],[140.389,40.743],[140.382,40.748],[140.357,40.749],[140.356,40.755],[140.34,40.759]]]]}},{"type":"Feature","properties":{"name":"八戸市","code":"02203"},"geometry":{"type":"MultiPolygon","coordinates":[[[[141.647,40.475],[141.634,40.484],[141.632,40.494],[141.622,40.499],[141.62,40.504],[141.611,40.506],[141.609,40.514],[141.592,40.519],[141.588,40.522],[141.58,40.535],[141.582,40.538],[141.576,40.543],[141.566,40.543],[141.553,40.531],[141.544,40.528],[141.535,40.527],[141.524,40.53],[141.515,40.539],[141.514,40.543],[141.505,40.54],[141.5,40.557],[141.487,40.557],[141.485,40.561],[141.492,40.565],[141.489,40.571],[141.482,40.569],[141.477,40.579],[141.476,40.585],[141.47,40.589],[141.466,40.601],[141.461,40.6],[141.452,40.6],[141.447,40.597],[141.436,40.595],[141.411,40.581],[141.408,40.575],[141.42,40.573],[141.424,40.562],[141.42,40.554],[141.41,40.547],[141.419,40.539],[141.403,40.537],[141.393,40.533],[141.385,40.524],[141.377,40.524],[141.369,40.52],[141.355,40.517],[141.358,40.511],[141.357,40.506],[141.366,40.497],[141.381,40.503],[141.381,40.493],[141.385,40.489],[141.392,40.488],[141.393,40.48],[141.401,40.473],[141.415,40.471],[141.423,40.472],[141.428,40.459],[141.435,40.457],[141.441,40.453],[141.453,40.448],[141.444,40.439],[141.44,40.429],[141.416,40.425],[141.408,40.425],[141.401,40.423],[141.401,40.415],[141.394,40.408],[141.387,40.406],[141.385,40.4],[141.384,40.391],[141.387,40.387],[141.384,40.38],[141.383,40.369],[141.393,40.361],[141.397,40.367],[141.401,40.367],[141.407,40.357],[141.419,40.364],[141.427,40.365],[141.434,40.372],[141.442,40.376],[141.454,40.373],[141.466,40.377],[141.48,40.376],[141.496,40.367],[141.499,40.362],[141.507,40.363],[141.515,40.354],[141.526,40.35],[141.532,40.351],[141.539,40.348],[141.545,40.351],[141.554,40.359],[141.542,40.379],[141.529,40.393],[141.524,40.397],[141.52,40.404],[141.519,40.416],[141.522,40.426],[141.519,40.457],[141.526,40.46],[141.533,40.46],[141.538,40.453],[141.552,40.456],[141.553,40.464],[141.559,40.466],[141.557,40.474],[141.57,40.48],[141.585,40.476],[141.595,40.477],[141.593,40.468],[141.606,40.463],[141.623,40.467],[141.632,40.475],[141.647,40.475]]]]}},{"type":"Feature","properties":{"name":"黒石市","code":"02204"},"geometry":{"type":"MultiPolygon","coordinates":[[[[140.578,40.687],[140.577,40.68],[140.571,40.673],[140.568,40.669],[140.574,40.663],[140.573,40.658],[140.567,40.654],[140.575,40.649],[140.574,40.638],[140.582,40.635],[140.582,40.631],[140.589,40.63],[140.592,40.622],[140.599,40.622],[140.607,40.612],[140.618,40.611],[140.626,40.603],[140.638,40.602],[140.65,40.594],[140.656,40.587],[140.659,40.578],[140.657,40.571],[140.651,40.566],[140.656,40.558],[140.67,40.561],[140.673,40.566],[140.682,40.57],[140.686,40.567],[140.686,40.56],[140.693,40.557],[140.693,40.549],[140.71,40.537],[140.733,40.535],[140.747,40.537],[140.75,40.546],[140.754,40.547],[140.756,40.554],[140.753,40.56],[140.76,40.566],[140.768,40.57],[140.776,40.567],[140.789,40.566],[140.803,40.569],[140.812,40.573],[140.821,40.588],[140.825,40.598],[140.843,40.603],[140.844,40.611],[140.838,40.614],[140.826,40.624],[140.812,40.641],[140.806,40.645],[140.784,40.651],[140.776,40.656],[140.766,40.666],[140.761,40.661],[140.752,40.663],[140.741,40.661],[140.733,40.662],[140.73,40.666],[140.723,40.666],[140.716,40.662],[140.706,40.662],[140.701,40.657],[140.695,40.661],[140.668,40.657],[140.659,40.662],[140.652,40.67],[140.641,40.677],[140.636,40.684],[140.634,40.69],[140.615,40.687],[140.599,40.692],[140.578,40.687]]]]}},{"type":"Feature","properties":{"name":"五所川原市","code":"02205"},"geometry":{"type":"MultiPolygon","coordinates":[[[[140.554,40.969],[140.548,40.971],[140.551,40.978],[140.546,40.983],[140.538,40.984],[140.522,40.996],[140.517,40.992],[140.518,40.983],[140.512,40.976],[140.515,40.971],[140.514,40.965],[140.507,40.952],[140.502,40.948],[140.49,40.946],[140.487,40.942],[140.479,40.943],[140.463,40.935],[140.447,40.936],[140.432,40.93],[140.435,40.923],[140.431,40.92],[140.422,40.919],[140.417,40.913],[140.428,40.911],[140.428,40.907],[140.423,40.899],[140.425,40.894],[140.419,40.892],[140.421,40.887],[140.414,40.883],[140.404,40.881],[140.407,40.871],[140.4,40.866],[140.4,40.85],[140.407,40.846],[140.411,40.836],[140.425,40.821],[140.419,40.815],[140.423,40.807],[140.437,40.81],[140.436,40.798],[140.437,40.79],[140.439,40.781],[140.444,40.78],[140.445,40.771],[140.455,40.772],[140.459,40.769],[140.462,40.761],[140.476,40.757],[140.478,40.763],[140.486,40.765],[140.494,40.756],[140.499,40.757],[140.501,40.76],[140.514,40.757],[140.512,40.737],[140.52,40.73],[140.527,40.731],[140.53,40.737],[140.539,40.739],[140.544,40.746],[140.556,40.748],[140.558,40.757],[140.564,40.761],[140.573,40.761],[140.578,40.767],[140.572,40.78],[140.577,40.787],[140.573,40.794],[140.574,40.801],[140.574,40.81],[140.578,40.815],[140.577,40.829],[140.582,40.833],[140.58,40.841],[140.585,40.844],[140.59,40.853],[140.592,40.869],[140.588,40.88],[140.584,40.894],[140.575,40.897],[140.575,40.904],[140.579,40.907],[140.579,40.912],[140.586,40.923],[140.583,40.926],[140.588,40.934],[140.58,40.94],[140.576,40.939],[140.567,40.945],[140.562,40.953],[140.556,40.955],[140.553,40.961],[140.554,40.969]]],[[[140.391,41.127],[140.374,41.128],[140.359,41.121],[140.351,41.11],[140.343,41.11],[140.336,41.107],[140.33,41.106],[140.325,41.109],[140.314,41.106],[140.306,41.107],[140.312,41.097],[140.319,41.093],[140.323,41.08],[140.324,41.056],[140.323,41.032],[140.319,41.0],[140.322,41.0],[140.33,41.008],[140.338,41.008],[140.347,40.999],[140.359,40.994],[140.366,40.999],[140.36,41.005],[140.367,41.012],[140.378,41.019],[140.392,41.023],[140.405,41.023],[140.408,41.018],[140.413,41.02],[140.415,41.027],[140.408,41.032],[140.403,41.039],[140.386,41.04],[140.389,41.044],[140.399,41.045],[140.407,41.043],[140.415,41.045],[140.421,41.057],[140.433,41.065],[140.438,41.073],[140.445,41.077],[140.452,41.079],[140.453,41.083],[140.449,41.09],[140.449,41.097],[140.451,41.104],[140.457,41.104],[140.465,41.112],[140.461,41.117],[140.443,41.116],[140.427,41.121],[140.419,41.119],[140.407,41.121],[140.399,41.122],[140.391,41.127]]]]}},{"type":"Feature","properties":{"name":"十和田市","code":"02206"},"geometry":{"type":"MultiPolygon","coordinates":[[[[140.863,40.61],[140.858,40.604],[140.863,40.598],[140.859,40.588],[140.866,40.585],[140.867,40.574],[140.862,40.554],[140.851,40.545],[140.861,40.54],[140.868,40.53],[140.871,40.522],[140.88,40.51],[140.878,40.498],[140.861,40.441],[140.892,40.423],[140.907,40.425],[140.911,40.423],[140.919,40.427],[140.927,40.421],[140.933,40.421],[140.942,40.43],[140.951,40.426],[140.962,40.427],[140.972,40.431],[140.985,40.427],[140.994,40.434],[141.001,40.445],[141.001,40.455],[141.006,40.458],[141.031,40.475],[141.055,40.477],[141.058,40.48],[141.086,40.491],[141.104,40.493],[141.112,40.499],[141.119,40.496],[141.128,40.496],[141.139,40.495],[141.157,40.495],[141.173,40.493],[141.185,40.496],[141.195,40.5],[141.202,40.509],[141.208,40.511],[141.219,40.519],[141.22,40.528],[141.226,40.531],[141.241,40.534],[141.245,40.536],[141.263,40.54],[141.275,40.538],[141.281,40.544],[141.291,40.558],[141.299,40.558],[141.304,40.568],[141.302,40.575],[141.296,40.578],[141.285,40.588],[141.287,40.599],[141.279,40.601],[141.275,40.607],[141.274,40.616],[141.258,40.616],[141.259,40.63],[141.278,40.64],[141.279,40.647],[141.269,40.646],[141.263,40.651],[141.265,40.659],[141.27,40.664],[141.267,40.671],[141.267,40.679],[141.264,40.685],[141.266,40.692],[141.265,40.698],[141.26,40.701],[141.251,40.702],[141.244,40.697],[141.24,40.698],[141.231,40.695],[141.231,40.692],[141.203,40.688],[141.195,40.689],[141.189,40.686],[141.173,40.683],[141.17,40.679],[141.171,40.672],[141.161,40.672],[141.157,40.663],[141.146,40.657],[141.149,40.646],[141.144,40.639],[141.127,40.643],[141.108,40.636],[141.085,40.635],[141.077,40.636],[141.073,40.64],[141.063,40.643],[141.055,40.65],[141.051,40.661],[141.046,40.665],[141.036,40.666],[141.027,40.664],[141.004,40.671],[140.999,40.681],[140.992,40.689],[140.991,40.693],[140.979,40.698],[140.971,40.693],[140.968,40.682],[140.968,40.674],[140.96,40.665],[140.961,40.659],[140.956,40.656],[140.955,40.647],[140.939,40.643],[140.921,40.645],[140.911,40.653],[140.905,40.654],[140.887,40.653],[140.88,40.657],[140.876,40.647],[140.884,40.641],[140.884,40.636],[140.876,40.624],[140.877,40.614],[140.863,40.61]]]]}},{"type":"Feature","properties":{"name":"三沢市","code":"02207"},"geometry":{"type":"MultiPolygon","coordinates":[[[[141.439,40.671],[141.428,40.695],[141.417,40.743],[141.407,40.796],[141.401,40.83],[141.399,40.845],[141.398,40.848],[141.393,40.887],[141.38,40.883],[141.374,40.864],[141.378,40.852],[141.379,40.845],[141.368,40.839],[141.366,40.827],[141.359,40.816],[141.35,40.81],[141.348,40.804],[141.349,40.778],[141.355,40.775],[141.358,40.768],[141.36,40.746],[141.358,40.736],[141.351,40.723],[141.346,40.721],[141.338,40.724],[141.322,40.725],[141.31,40.717],[141.311,40.71],[141.318,40.713],[141.331,40.713],[141.336,40.721],[141.343,40.72],[141.342,40.715],[141.334,40.708],[141.328,40.706],[141.325,40.701],[141.322,40.696],[141.341,40.688],[141.336,40.685],[141.333,40.675],[141.334,40.67],[141.345,40.661],[141.352,40.665],[141.356,40.664],[141.368,40.667],[141.388,40.665],[141.418,40.669],[141.429,40.668],[141.439,40.671]]]]}},{"type":"Feature","properties":{"name":"むつ市","code":"02208"},"geometry":{"type":"MultiPolygon","coordinates":[[[[141.247,41.361],[141.231,41.367],[141.21,41.376],[141.193,41.387],[141.18,41.398],[141.177,41.404],[141.165,41.414],[141.16,41.415],[141.151,41.423],[141.146,41.431],[141.137,41.434],[141.127,41.442],[141.116,41.456],[141.105,41.451],[141.083,41.451],[141.072,41.447],[141.063,41.447],[141.051,41.446],[141.051,41.434],[141.039,41.426],[141.031,41.425],[141.028,41.421],[141.013,41.422],[141.008,41.424],[141.003,41.435],[140.995,41.44],[140.987,41.437],[140.975,41.439],[140.968,41.435],[140.957,41.424],[140.945,41.427],[140.94,41.421],[140.937,41.408],[140.929,41.4],[140.933,41.393],[140.925,41.382],[140.915,41.381],[140.912,41.375],[140.918,41.369],[140.915,41.366],[140.902,41.365],[140.884,41.348],[140.874,41.335],[140.869,41.321],[140.861,41.321],[140.859,41.315],[140.849,41.315],[140.846,41.307],[140.84,41.307],[140.835,41.299],[140.852,41.287],[140.85,41.282],[140.853,41.271],[140.86,41.267],[140.863,41.26],[140.852,41.262],[140.847,41.266],[140.832,41.271],[140.826,41.269],[140.816,41.256],[140.824,41.248],[140.823,41.239],[140.818,41.233],[140.81,41.231],[140.798,41.223],[140.793,41.223],[140.793,41.217],[140.789,41.214],[140.778,41.21],[140.769,41.201],[140.764,41.195],[140.767,41.184],[140.769,41.165],[140.768,41.159],[140.764,41.148],[140.77,41.141],[140.783,41.131],[140.794,41.133],[140.799,41.129],[140.806,41.13],[140.811,41.128],[140.827,41.145],[140.833,41.15],[140.846,41.155],[140.849,41.159],[140.877,41.167],[140.89,41.163],[140.903,41.168],[140.909,41.174],[140.917,41.176],[140.93,41.173],[140.935,41.176],[140.945,41.174],[140.956,41.182],[140.964,41.191],[140.978,41.199],[140.983,41.199],[140.997,41.195],[141.009,41.198],[141.014,41.196],[141.035,41.185],[141.049,41.183],[141.058,41.183],[141.061,41.188],[141.074,41.201],[141.102,41.214],[141.113,41.213],[141.124,41.22],[141.136,41.23],[141.144,41.234],[141.155,41.245],[141.147,41.245],[141.145,41.241],[141.134,41.24],[141.138,41.247],[141.156,41.269],[141.16,41.278],[141.171,41.28],[141.181,41.276],[141.188,41.277],[141.198,41.272],[141.219,41.255],[141.234,41.241],[141.248,41.224],[141.26,41.206],[141.274,41.175],[141.279,41.158],[141.276,41.151],[141.286,41.157],[141.311,41.152],[141.323,41.154],[141.318,41.162],[141.319,41.167],[141.33,41.182],[141.33,41.191],[141.337,41.2],[141.335,41.206],[141.339,41.215],[141.325,41.239],[141.327,41.244],[141.315,41.247],[141.31,41.243],[141.303,41.249],[141.29,41.247],[141.283,41.25],[141.266,41.243],[141.255,41.245],[141.247,41.249],[141.248,41.259],[141.251,41.267],[141.248,41.282],[141.254,41.292],[141.253,41.302],[141.246,41.311],[141.235,41.309],[141.226,41.312],[141.229,41.32],[141.234,41.326],[141.245,41.331],[141.237,41.334],[141.245,41.344],[141.25,41.352],[141.247,41.361]]]]}},{"type":"Feature","properties":{"name":"つがる市","code":"02209"},"geometry":{"type":"MultiPolygon","coordinates":[[[[140.34,40.759],[140.353,40.765],[140.361,40.769],[140.371,40.771],[140.375,40.777],[140.371,40.786],[140.378,40.79],[140.387,40.785],[140.394,40.778],[140.407,40.772],[140.414,40.763],[140.421,40.766],[140.42,40.772],[140.415,40.776],[140.424,40.787],[140.437,40.79],[140.436,40.798],[140.437,40.81],[140.423,40.807],[140.419,40.815],[140.425,40.821],[140.411,40.836],[140.407,40.846],[140.4,40.85],[140.4,40.866],[140.407,40.871],[140.404,40.881],[140.414,40.883],[140.421,40.887],[140.419,40.892],[140.425,40.894],[140.423,40.899],[140.428,40.907],[140.428,40.911],[140.417,40.913],[140.419,40.922],[140.417,40.929],[140.411,40.936],[140.406,40.937],[140.4,40.941],[140.394,40.942],[140.386,40.938],[140.38,40.942],[140.38,40.948],[140.376,40.951],[140.38,40.964],[140.391,40.976],[140.392,40.981],[140.39,40.988],[140.383,40.995],[140.382,41.002],[140.373,41.011],[140.367,41.012],[140.36,41.005],[140.366,40.999],[140.359,40.994],[140.347,40.999],[140.338,41.008],[140.33,41.008],[140.322,41.0],[140.319,41.0],[140.313,40.965],[140.305,40.928],[140.299,40.906],[140.285,40.864],[140.269,40.83],[140.258,40.811],[140.25,40.8],[140.27,40.8],[140.273,40.794],[140.284,40.786],[140.292,40.773],[140.311,40.77],[140.329,40.757],[140.333,40.761],[140.34,40.759]]]]}},{"type":"Feature","properties":{"name":"平川市","code":"02210"},"geometry":{"type":"MultiPolygon","coordinates":[[[[140.844,40.606],[140.825,40.598],[140.821,40.588],[140.812,40.573],[140.803,40.569],[140.789,40.566],[140.776,40.567],[140.768,40.57],[140.76,40.566],[140.753,40.56],[140.756,40.554],[140.754,40.547],[140.75,40.546],[140.747,40.537],[140.733,40.535],[140.71,40.537],[140.693,40.549],[140.693,40.557],[140.686,40.56],[140.686,40.567],[140.682,40.57],[140.673,40.566],[140.67,40.561],[140.656,40.558],[140.651,40.566],[140.657,40.571],[140.659,40.578],[140.656,40.587],[140.65,40.594],[140.638,40.602],[140.626,40.603],[140.618,40.611],[140.607,40.612],[140.599,40.622],[140.592,40.622],[140.589,40.63],[140.582,40.631],[140.571,40.63],[140.566,40.626],[140.557,40.623],[140.544,40.625],[140.536,40.63],[140.518,40.624],[140.514,40.615],[140.524,40.614],[140.526,40.609],[140.526,40.598],[140.528,40.588],[140.526,40.578],[140.535,40.563],[140.54,40.558],[140.548,40.555],[140.553,40.561],[140.56,40.564],[140.57,40.563],[140.579,40.564],[140.584,40.559],[140.592,40.555],[140.593,40.551],[140.599,40.548],[140.598,40.543],[140.602,40.539],[140.616,40.536],[140.628,40.541],[140.633,40.535],[140.64,40.537],[140.648,40.532],[140.663,40.53],[140.677,40.521],[140.679,40.511],[140.666,40.503],[140.648,40.494],[140.63,40.494],[140.621,40.498],[140.617,40.491],[140.614,40.481],[140.607,40.48],[140.606,40.489],[140.594,40.494],[140.589,40.488],[140.583,40.485],[140.599,40.476],[140.597,40.469],[140.601,40.453],[140.599,40.443],[140.59,40.436],[140.604,40.43],[140.612,40.424],[140.624,40.425],[140.633,40.418],[140.636,40.409],[140.645,40.403],[140.654,40.404],[140.664,40.407],[140.666,40.412],[140.673,40.411],[140.679,40.415],[140.687,40.418],[140.688,40.427],[140.699,40.429],[140.703,40.427],[140.716,40.428],[140.717,40.421],[140.723,40.417],[140.734,40.416],[140.736,40.428],[140.732,40.43],[140.734,40.44],[140.741,40.438],[140.753,40.439],[140.763,40.451],[140.772,40.451],[140.787,40.457],[140.794,40.449],[140.803,40.449],[140.808,40.458],[140.809,40.47],[140.811,40.479],[140.811,40.487],[140.815,40.488],[140.82,40.495],[140.826,40.496],[140.837,40.504],[140.845,40.507],[140.852,40.505],[140.88,40.51],[140.871,40.522],[140.868,40.53],[140.861,40.54],[140.851,40.545],[140.862,40.554],[140.867,40.574],[140.866,40.585],[140.859,40.588],[140.863,40.598],[140.858,40.604],[140.863,40.61],[140.853,40.609],[140.844,40.606]]]]}},{"type":"Feature","properties":{"name":"東津軽郡平内町","code":"02301"},"geometry":{"type":"MultiPolygon","coordinates":[[[[140.981,40.806],[140.996,40.815],[141.007,40.817],[141.017,40.82],[141.02,40.826],[141.018,40.837],[141.022,40.837],[141.039,40.84],[141.039,40.847],[141.046,40.852],[141.042,40.865],[141.044,40.874],[141.047,40.877],[141.077,40.886],[141.084,40.886],[141.079,40.896],[141.07,40.904],[141.064,40.913],[141.055,40.917],[141.043,40.915],[141.035,40.918],[141.023,40.925],[141.021,40.93],[141.007,40.932],[140.998,40.937],[140.991,40.934],[140.979,40.933],[140.971,40.936],[140.973,40.941],[140.98,40.944],[140.978,40.95],[140.982,40.955],[140.982,40.961],[140.961,40.973],[140.95,40.986],[140.949,40.992],[140.939,40.995],[140.934,40.993],[140.924,40.993],[140.915,40.998],[140.903,41.008],[140.89,41.011],[140.88,41.008],[140.881,41.004],[140.876,40.992],[140.87,40.984],[140.869,40.977],[140.86,40.972],[140.859,40.956],[140.839,40.952],[140.857,40.944],[140.862,40.947],[140.872,40.944],[140.867,40.941],[140.866,40.932],[140.869,40.926],[140.865,40.92],[140.87,40.915],[140.865,40.904],[140.859,40.904],[140.872,40.901],[140.881,40.902],[140.883,40.897],[140.889,40.896],[140.888,40.889],[140.897,40.879],[140.91,40.871],[140.913,40.865],[140.919,40.863],[140.924,40.859],[140.931,40.856],[140.933,40.851],[140.93,40.845],[140.938,40.843],[140.942,40.839],[140.95,40.837],[140.956,40.83],[140.955,40.821],[140.96,40.815],[140.968,40.815],[140.981,40.806]]]]}},{"type":"Feature","properties":{"name":"東津軽郡今別町","code":"02303"},"geometry":{"type":"MultiPolygon","coordinates":[[[[140.465,41.112],[140.48,41.106],[140.484,41.109],[140.491,41.108],[140.498,41.103],[140.513,41.105],[140.525,41.109],[140.532,41.108],[140.537,41.103],[140.544,41.104],[140.554,41.112],[140.551,41.119],[140.556,41.122],[140.566,41.133],[140.573,41.151],[140.579,41.156],[140.58,41.165],[140.579,41.17],[140.582,41.175],[140.592,41.183],[140.598,41.182],[140.599,41.189],[140.603,41.191],[140.594,41.208],[140.594,41.216],[140.588,41.217],[140.579,41.222],[140.555,41.224],[140.55,41.228],[140.539,41.218],[140.535,41.222],[140.527,41.221],[140.521,41.216],[140.519,41.205],[140.508,41.196],[140.491,41.186],[140.482,41.183],[140.468,41.182],[140.462,41.183],[140.459,41.188],[140.449,41.189],[140.449,41.182],[140.438,41.169],[140.442,41.152],[140.434,41.142],[140.435,41.137],[140.429,41.131],[140.42,41.131],[140.41,41.126],[140.407,41.121],[140.419,41.119],[140.427,41.121],[140.443,41.116],[140.461,41.117],[140.465,41.112]]]]}},{"type":"Feature","properties":{"name":"東津軽郡蓬田村","code":"02304"},"geometry":{"type":"MultiPolygon","coordinates":[[[[140.661,40.948],[140.659,40.956],[140.656,40.987],[140.652,41.0],[140.647,41.029],[140.634,41.031],[140.628,41.037],[140.612,41.032],[140.598,41.033],[140.578,41.028],[140.57,41.031],[140.549,41.026],[140.546,41.022],[140.533,41.024],[140.519,41.023],[140.516,41.015],[140.516,41.009],[140.522,41.007],[140.522,40.996],[140.538,40.984],[140.546,40.983],[140.551,40.978],[140.548,40.971],[140.554,40.969],[140.563,40.97],[140.582,40.963],[140.587,40.965],[140.601,40.962],[140.605,40.96],[140.609,40.95],[140.616,40.952],[140.652,40.95],[140.661,40.948]]]]}},{"type":"Feature","properties":{"name":"東津軽郡外ヶ浜町","code":"02307"},"geometry":{"type":"MultiPolygon","coordinates":[[[[140.457,41.104],[140.455,41.099],[140.463,41.088],[140.473,41.084],[140.485,41.077],[140.49,41.071],[140.495,41.069],[140.498,41.062],[140.494,41.053],[140.502,41.043],[140.511,41.037],[140.514,41.03],[140.519,41.029],[140.519,41.023],[140.533,41.024],[140.546,41.022],[140.549,41.026],[140.57,41.031],[140.578,41.028],[140.598,41.033],[140.612,41.032],[140.628,41.037],[140.634,41.031],[140.647,41.029],[140.646,41.049],[140.639,41.062],[140.637,41.073],[140.635,41.078],[140.632,41.101],[140.632,41.117],[140.634,41.125],[140.634,41.133],[140.639,41.148],[140.638,41.153],[140.644,41.172],[140.642,41.179],[140.632,41.192],[140.618,41.197],[140.613,41.203],[140.607,41.212],[140.594,41.216],[140.594,41.208],[140.603,41.191],[140.599,41.189],[140.598,41.182],[140.592,41.183],[140.582,41.175],[140.579,41.17],[140.58,41.165],[140.579,41.156],[140.573,41.151],[140.566,41.133],[140.556,41.122],[140.551,41.119],[140.554,41.112],[140.544,41.104],[140.537,41.103],[140.532,41.108],[140.525,41.109],[140.513,41.105],[140.498,41.103],[140.491,41.108],[140.484,41.109],[140.48,41.106],[140.465,41.112],[140.457,41.104]]],[[[140.407,41.121],[140.41,41.126],[140.42,41.131],[140.429,41.131],[140.435,41.137],[140.434,41.142],[140.442,41.152],[140.438,41.169],[140.449,41.182],[140.449,41.189],[140.433,41.196],[140.426,41.208],[140.407,41.219],[140.402,41.223],[140.397,41.235],[140.386,41.239],[140.375,41.247],[140.362,41.25],[140.36,41.253],[140.346,41.259],[140.339,41.255],[140.342,41.249],[140.349,41.249],[140.354,41.241],[140.362,41.235],[140.363,41.23],[140.362,41.22],[140.372,41.21],[140.371,41.203],[140.376,41.196],[140.371,41.193],[140.369,41.18],[140.371,41.173],[140.368,41.162],[140.363,41.153],[140.37,41.15],[140.378,41.14],[140.386,41.135],[140.391,41.127],[140.399,41.122],[140.407,41.121]]]]}},{"type":"Feature","properties":{"name":"西津軽郡鰺ヶ沢町","code":"02321"},"geometry":{"type":"MultiPolygon","coordinates":[[[[140.329,40.757],[140.311,40.77],[140.292,40.773],[140.284,40.786],[140.273,40.794],[140.27,40.8],[140.25,40.8],[140.239,40.789],[140.228,40.782],[140.214,40.779],[140.203,40.785],[140.192,40.783],[140.183,40.775],[140.169,40.77],[140.158,40.76],[140.144,40.752],[140.161,40.748],[140.16,40.739],[140.165,40.735],[140.166,40.729],[140.15,40.712],[140.15,40.707],[140.137,40.703],[140.129,40.694],[140.126,40.68],[140.106,40.668],[140.101,40.648],[140.103,40.639],[140.096,40.636],[140.094,40.63],[140.098,40.628],[140.096,40.622],[140.098,40.614],[140.095,40.609],[140.1,40.604],[140.102,40.594],[140.1,40.591],[140.101,40.576],[140.099,40.571],[140.104,40.558],[140.102,40.551],[140.092,40.541],[140.095,40.536],[140.091,40.528],[140.086,40.522],[140.087,40.516],[140.084,40.506],[140.075,40.497],[140.073,40.492],[140.076,40.482],[140.068,40.469],[140.074,40.465],[140.078,40.467],[140.094,40.459],[140.1,40.453],[140.099,40.444],[140.105,40.441],[140.108,40.436],[140.133,40.438],[140.137,40.44],[140.147,40.438],[140.151,40.442],[140.15,40.452],[140.153,40.462],[140.15,40.474],[140.144,40.476],[140.134,40.486],[140.126,40.502],[140.121,40.504],[140.12,40.512],[140.129,40.514],[140.136,40.519],[140.135,40.529],[140.138,40.54],[140.146,40.544],[140.16,40.544],[140.164,40.55],[140.163,40.557],[140.162,40.565],[140.155,40.571],[140.157,40.588],[140.165,40.587],[140.175,40.594],[140.184,40.596],[140.191,40.594],[140.193,40.601],[140.189,40.606],[140.205,40.609],[140.208,40.62],[140.219,40.624],[140.217,40.631],[140.22,40.641],[140.233,40.645],[140.24,40.645],[140.246,40.649],[140.256,40.649],[140.269,40.653],[140.28,40.655],[140.278,40.662],[140.29,40.667],[140.303,40.678],[140.315,40.681],[140.322,40.688],[140.332,40.693],[140.337,40.699],[140.315,40.702],[140.309,40.704],[140.295,40.694],[140.288,40.709],[140.287,40.72],[140.288,40.727],[140.296,40.733],[140.301,40.733],[140.307,40.742],[140.316,40.747],[140.322,40.754],[140.329,40.757]]]]}},{"type":"Feature","properties":{"name":"西津軽郡深浦町","code":"02323"},"geometry":{"type":"MultiPolygon","coordinates":[[[[140.144,40.752],[140.13,40.745],[140.116,40.741],[140.096,40.747],[140.085,40.758],[140.076,40.76],[140.065,40.767],[140.053,40.769],[140.05,40.766],[140.039,40.764],[140.034,40.76],[140.027,40.751],[140.019,40.75],[140.007,40.744],[139.997,40.743],[140.0,40.737],[139.994,40.732],[139.986,40.719],[139.979,40.703],[139.968,40.699],[139.966,40.687],[139.951,40.67],[139.939,40.668],[139.936,40.655],[139.929,40.653],[139.923,40.644],[139.912,40.642],[139.902,40.645],[139.892,40.634],[139.885,40.629],[139.861,40.616],[139.861,40.607],[139.864,40.598],[139.862,40.595],[139.869,40.584],[139.877,40.582],[139.885,40.584],[139.899,40.582],[139.907,40.586],[139.918,40.586],[139.927,40.577],[139.933,40.565],[139.93,40.559],[139.94,40.553],[139.945,40.538],[139.948,40.524],[139.947,40.512],[139.95,40.494],[139.947,40.484],[139.945,40.464],[139.942,40.458],[139.942,40.449],[139.939,40.446],[139.942,40.43],[139.951,40.431],[139.96,40.435],[139.964,40.43],[139.974,40.427],[139.985,40.428],[139.994,40.433],[140.001,40.433],[140.006,40.427],[140.011,40.426],[140.022,40.429],[140.025,40.44],[140.02,40.447],[140.025,40.453],[140.038,40.461],[140.047,40.461],[140.059,40.467],[140.068,40.469],[140.076,40.482],[140.073,40.492],[140.075,40.497],[140.084,40.506],[140.087,40.516],[140.086,40.522],[140.091,40.528],[140.095,40.536],[140.092,40.541],[140.102,40.551],[140.104,40.558],[140.099,40.571],[140.101,40.576],[140.1,40.591],[140.102,40.594],[140.1,40.604],[140.095,40.609],[140.098,40.614],[140.096,40.622],[140.098,40.628],[140.094,40.63],[140.096,40.636],[140.103,40.639],[140.101,40.648],[140.106,40.668],[140.126,40.68],[140.129,40.694],[140.137,40.703],[140.15,40.707],[140.15,40.712],[140.166,40.729],[140.165,40.735],[140.16,40.739],[140.161,40.748],[140.144,40.752]]]]}},{"type":"Feature","properties":{"name":"中津軽郡西目屋村","code":"02343"},"geometry":{"type":"MultiPolygon","coordinates":[[[[140.163,40.557],[140.164,40.55],[140.16,40.544],[140.146,40.544],[140.138,40.54],[140.135,40.529],[140.136,40.519],[140.129,40.514],[140.12,40.512],[140.121,40.504],[140.126,40.502],[140.134,40.486],[140.144,40.476],[140.15,40.474],[140.153,40.462],[140.15,40.452],[140.151,40.442],[140.147,40.438],[140.151,40.435],[140.162,40.439],[140.18,40.441],[140.187,40.44],[140.197,40.435],[140.21,40.438],[140.22,40.431],[140.243,40.437],[140.251,40.442],[140.267,40.441],[140.279,40.446],[140.288,40.445],[140.299,40.446],[140.308,40.442],[140.31,40.437],[140.321,40.439],[140.335,40.439],[140.339,40.441],[140.344,40.452],[140.343,40.462],[140.348,40.468],[140.345,40.472],[140.338,40.475],[140.336,40.479],[140.328,40.483],[140.33,40.491],[140.32,40.5],[140.32,40.506],[140.323,40.509],[140.32,40.515],[140.314,40.515],[140.311,40.52],[140.306,40.521],[140.302,40.528],[140.303,40.547],[140.31,40.552],[140.31,40.568],[140.304,40.574],[140.309,40.579],[140.306,40.585],[140.31,40.588],[140.308,40.594],[140.301,40.594],[140.296,40.6],[140.298,40.606],[140.288,40.607],[140.286,40.611],[140.269,40.616],[140.259,40.614],[140.249,40.607],[140.248,40.603],[140.237,40.604],[140.235,40.597],[140.231,40.59],[140.222,40.589],[140.22,40.586],[140.211,40.582],[140.211,40.572],[140.207,40.567],[140.202,40.566],[140.198,40.557],[140.19,40.556],[140.183,40.56],[140.178,40.567],[140.166,40.561],[140.163,40.557]]]]}},{"type":"Feature","properties":{"name":"南津軽郡藤崎町","code":"02361"},"geometry":{"type":"MultiPolygon","coordinates":[[[[140.521,40.722],[140.528,40.702],[140.527,40.698],[140.52,40.694],[140.506,40.705],[140.493,40.699],[140.491,40.696],[140.493,40.686],[140.477,40.68],[140.479,40.671],[140.472,40.666],[140.465,40.671],[140.462,40.667],[140.461,40.661],[140.466,40.661],[140.467,40.655],[140.48,40.646],[140.483,40.652],[140.494,40.651],[140.497,40.643],[140.509,40.643],[140.52,40.651],[140.523,40.657],[140.531,40.659],[140.548,40.659],[140.55,40.662],[140.558,40.663],[140.567,40.674],[140.571,40.673],[140.577,40.68],[140.578,40.687],[140.572,40.689],[140.559,40.688],[140.556,40.685],[140.556,40.679],[140.549,40.674],[140.544,40.677],[140.541,40.688],[140.549,40.695],[140.547,40.7],[140.537,40.706],[140.525,40.72],[140.521,40.722]]]]}},{"type":"Feature","properties":{"name":"南津軽郡大鰐町","code":"02362"},"geometry":{"type":"MultiPolygon","coordinates":[[[[140.437,40.478],[140.433,40.468],[140.437,40.465],[140.438,40.455],[140.444,40.451],[140.459,40.456],[140.466,40.454],[140.478,40.453],[140.484,40.446],[140.485,40.441],[140.498,40.436],[140.508,40.429],[140.528,40.431],[140.531,40.427],[140.53,40.42],[140.524,40.419],[140.524,40.41],[140.532,40.411],[140.541,40.403],[140.547,40.404],[140.559,40.397],[140.567,40.399],[140.566,40.406],[140.559,40.411],[140.553,40.42],[140.558,40.426],[140.574,40.426],[140.589,40.43],[140.59,40.436],[140.599,40.443],[140.601,40.453],[140.597,40.469],[140.599,40.476],[140.583,40.485],[140.589,40.488],[140.594,40.494],[140.606,40.489],[140.607,40.48],[140.614,40.481],[140.617,40.491],[140.621,40.498],[140.63,40.494],[140.648,40.494],[140.666,40.503],[140.679,40.511],[140.677,40.521],[140.663,40.53],[140.648,40.532],[140.64,40.537],[140.633,40.535],[140.628,40.541],[140.616,40.536],[140.602,40.539],[140.598,40.543],[140.576,40.538],[140.569,40.544],[140.564,40.543],[140.559,40.549],[140.554,40.549],[140.554,40.539],[140.541,40.545],[140.535,40.53],[140.52,40.523],[140.51,40.524],[140.494,40.522],[140.484,40.519],[140.482,40.515],[140.484,40.508],[140.477,40.504],[140.463,40.503],[140.459,40.493],[140.465,40.487],[140.459,40.48],[140.454,40.481],[140.449,40.478],[140.444,40.48],[140.437,40.478]]]]}},{"type":"Feature","properties":{"name":"南津軽郡田舎館村","code":"02367"},"geometry":{"type":"MultiPolygon","coordinates":[[[[140.514,40.615],[140.518,40.624],[140.536,40.63],[140.544,40.625],[140.557,40.623],[140.566,40.626],[140.571,40.63],[140.582,40.631],[140.582,40.635],[140.574,40.638],[140.575,40.649],[140.567,40.654],[140.573,40.658],[140.574,40.663],[140.568,40.669],[140.571,40.673],[140.567,40.674],[140.558,40.663],[140.55,40.662],[140.548,40.659],[140.531,40.659],[140.523,40.657],[140.52,40.651],[140.509,40.643],[140.497,40.643],[140.498,40.635],[140.504,40.624],[140.511,40.621],[140.514,40.615]]]]}},{"type":"Feature","properties":{"name":"北津軽郡板柳町","code":"02381"},"geometry":{"type":"MultiPolygon","coordinates":[[[[140.52,40.73],[140.512,40.737],[140.514,40.757],[140.501,40.76],[140.499,40.757],[140.501,40.749],[140.499,40.744],[140.489,40.749],[140.473,40.752],[140.472,40.744],[140.467,40.739],[140.467,40.728],[140.46,40.731],[140.447,40.728],[140.437,40.729],[140.434,40.724],[140.427,40.722],[140.428,40.717],[140.436,40.708],[140.442,40.706],[140.446,40.698],[140.454,40.695],[140.456,40.688],[140.461,40.685],[140.465,40.671],[140.472,40.666],[140.479,40.671],[140.477,40.68],[140.493,40.686],[140.491,40.696],[140.493,40.699],[140.506,40.705],[140.52,40.694],[140.527,40.698],[140.528,40.702],[140.521,40.722],[140.52,40.73]]]]}},{"type":"Feature","properties":{"name":"北津軽郡鶴田町","code":"02384"},"geometry":{"type":"MultiPolygon","coordinates":[[[[140.427,40.722],[140.434,40.724],[140.437,40.729],[140.447,40.728],[140.46,40.731],[140.467,40.728],[140.467,40.739],[140.472,40.744],[140.473,40.752],[140.489,40.749],[140.499,40.744],[140.501,40.749],[140.499,40.757],[140.494,40.756],[140.486,40.765],[140.478,40.763],[140.476,40.757],[140.462,40.761],[140.459,40.769],[140.455,40.772],[140.445,40.771],[140.444,40.78],[140.439,40.781],[140.437,40.79],[140.424,40.787],[140.415,40.776],[140.42,40.772],[140.421,40.766],[140.414,40.763],[140.407,40.772],[140.394,40.778],[140.387,40.785],[140.378,40.79],[140.371,40.786],[140.375,40.777],[140.371,40.771],[140.361,40.769],[140.353,40.765],[140.342,40.762],[140.356,40.755],[140.357,40.749],[140.382,40.748],[140.389,40.743],[140.399,40.747],[140.402,40.738],[140.42,40.737],[140.42,40.724],[140.427,40.722]]]]}},{"type":"Feature","properties":{"name":"北津軽郡中泊町","code":"02387"},"geometry":{"type":"MultiPolygon","coordinates":[[[[140.522,40.996],[140.522,41.007],[140.516,41.009],[140.516,41.015],[140.519,41.023],[140.519,41.029],[140.514,41.03],[140.511,41.037],[140.502,41.043],[140.494,41.053],[140.498,41.062],[140.495,41.069],[140.49,41.071],[140.485,41.077],[140.473,41.084],[140.463,41.088],[140.455,41.099],[140.457,41.104],[140.451,41.104],[140.449,41.097],[140.449,41.09],[140.453,41.083],[140.452,41.079],[140.445,41.077],[140.438,41.073],[140.433,41.065],[140.421,41.057],[140.415,41.045],[140.407,41.043],[140.399,41.045],[140.389,41.044],[140.386,41.04],[140.403,41.039],[140.408,41.032],[140.415,41.027],[140.413,41.02],[140.408,41.018],[140.405,41.023],[140.392,41.023],[140.378,41.019],[140.367,41.012],[140.373,41.011],[140.382,41.002],[140.383,40.995],[140.39,40.988],[140.392,40.981],[140.391,40.976],[140.38,40.964],[140.376,40.951],[140.38,40.948],[140.38,40.942],[140.386,40.938],[140.394,40.942],[140.4,40.941],[140.406,40.937],[140.411,40.936],[140.417,40.929],[140.419,40.922],[140.431,40.92],[140.435,40.923],[140.432,40.93],[140.447,40.936],[140.463,40.935],[140.479,40.943],[140.487,40.942],[140.49,40.946],[140.502,40.948],[140.507,40.952],[140.514,40.965],[140.515,40.971],[140.512,40.976],[140.518,40.983],[140.517,40.992],[140.522,40.996]]],[[[140.391,41.127],[140.386,41.135],[140.378,41.14],[140.37,41.15],[140.363,41.153],[140.368,41.162],[140.371,41.173],[140.369,41.18],[140.371,41.193],[140.376,41.196],[140.371,41.203],[140.372,41.21],[140.362,41.22],[140.363,41.23],[140.362,41.235],[140.354,41.241],[140.349,41.249],[140.342,41.249],[140.34,41.239],[140.332,41.236],[140.329,41.219],[140.332,41.215],[140.335,41.205],[140.331,41.197],[140.336,41.193],[140.332,41.184],[140.334,41.18],[140.329,41.168],[140.328,41.16],[140.322,41.148],[140.312,41.146],[140.312,41.138],[140.303,41.131],[140.296,41.131],[140.289,41.136],[140.278,41.139],[140.265,41.136],[140.257,41.141],[140.25,41.131],[140.25,41.124],[140.257,41.121],[140.28,41.121],[140.288,41.119],[140.296,41.115],[140.306,41.107],[140.314,41.106],[140.325,41.109],[140.33,41.106],[140.336,41.107],[140.343,41.11],[140.351,41.11],[140.359,41.121],[140.374,41.128],[140.391,41.127]]]]}},{"type":"Feature","properties":{"name":"上北郡野辺地町","code":"02401"},"geometry":{"type":"MultiPolygon","coordinates":[[[[141.039,40.84],[141.043,40.835],[141.059,40.835],[141.077,40.83],[141.084,40.831],[141.115,40.841],[141.128,40.841],[141.135,40.839],[141.132,40.849],[141.138,40.85],[141.147,40.847],[141.153,40.85],[141.174,40.864],[141.195,40.87],[141.203,40.886],[141.218,40.896],[141.225,40.903],[141.227,40.915],[141.234,40.925],[141.232,40.932],[141.233,40.941],[141.245,40.953],[141.246,40.96],[141.258,40.967],[141.24,40.972],[141.221,40.971],[141.211,40.952],[141.203,40.937],[141.19,40.918],[141.177,40.903],[141.161,40.888],[141.149,40.879],[141.132,40.873],[141.126,40.873],[141.116,40.871],[141.103,40.872],[141.091,40.88],[141.084,40.886],[141.077,40.886],[141.047,40.877],[141.044,40.874],[141.042,40.865],[141.046,40.852],[141.039,40.847],[141.039,40.84]]]]}},{"type":"Feature","properties":{"name":"上北郡七戸町","code":"02402"},"geometry":{"type":"MultiPolygon","coordinates":[[[[140.979,40.698],[140.991,40.693],[140.992,40.689],[140.999,40.681],[141.004,40.671],[141.027,40.664],[141.036,40.666],[141.046,40.665],[141.051,40.661],[141.055,40.65],[141.063,40.643],[141.073,40.64],[141.077,40.636],[141.085,40.635],[141.108,40.636],[141.127,40.643],[141.144,40.639],[141.149,40.646],[141.146,40.657],[141.157,40.663],[141.161,40.672],[141.171,40.672],[141.17,40.679],[141.173,40.683],[141.176,40.69],[141.173,40.698],[141.18,40.704],[141.179,40.707],[141.186,40.711],[141.205,40.718],[141.214,40.726],[141.224,40.726],[141.238,40.732],[141.244,40.737],[141.249,40.746],[141.246,40.751],[141.252,40.754],[141.258,40.751],[141.271,40.75],[141.272,40.753],[141.254,40.755],[141.255,40.773],[141.248,40.776],[141.237,40.775],[141.238,40.769],[141.231,40.767],[141.227,40.761],[141.219,40.757],[141.209,40.763],[141.192,40.765],[141.185,40.768],[141.189,40.778],[141.188,40.783],[141.18,40.786],[141.169,40.785],[141.163,40.787],[141.162,40.794],[141.148,40.797],[141.135,40.804],[141.119,40.802],[141.1,40.806],[141.088,40.801],[141.079,40.803],[141.07,40.803],[141.053,40.799],[141.045,40.8],[141.041,40.804],[141.03,40.799],[141.016,40.803],[141.007,40.817],[140.996,40.815],[140.981,40.806],[140.977,40.801],[140.976,40.792],[140.97,40.787],[140.958,40.78],[140.961,40.773],[140.953,40.766],[140.945,40.763],[140.94,40.759],[140.92,40.762],[140.916,40.757],[140.911,40.757],[140.902,40.743],[140.901,40.738],[140.91,40.729],[140.916,40.73],[140.92,40.726],[140.926,40.727],[140.929,40.722],[140.939,40.722],[140.953,40.719],[140.97,40.706],[140.979,40.698]]]]}},{"type":"Feature","properties":{"name":"上北郡六戸町","code":"02405"},"geometry":{"type":"MultiPolygon","coordinates":[[[[141.304,40.568],[141.323,40.563],[141.337,40.568],[141.334,40.579],[141.341,40.582],[141.346,40.581],[141.352,40.586],[141.359,40.578],[141.365,40.566],[141.376,40.572],[141.381,40.58],[141.38,40.586],[141.366,40.589],[141.355,40.589],[141.363,40.6],[141.353,40.602],[141.347,40.601],[141.344,40.611],[141.346,40.625],[141.354,40.638],[141.363,40.643],[141.36,40.647],[141.359,40.658],[141.356,40.664],[141.352,40.665],[141.345,40.661],[141.334,40.67],[141.333,40.675],[141.336,40.685],[141.341,40.688],[141.322,40.696],[141.325,40.701],[141.318,40.699],[141.316,40.691],[141.308,40.689],[141.301,40.683],[141.29,40.681],[141.287,40.676],[141.278,40.671],[141.27,40.664],[141.265,40.659],[141.263,40.651],[141.269,40.646],[141.279,40.647],[141.278,40.64],[141.259,40.63],[141.257,40.619],[141.274,40.616],[141.275,40.607],[141.279,40.601],[141.287,40.599],[141.285,40.588],[141.296,40.578],[141.302,40.575],[141.304,40.568]]]]}},{"type":"Feature","properties":{"name":"上北郡横浜町","code":"02406"},"geometry":{"type":"MultiPolygon","coordinates":[[[[141.276,41.151],[141.272,41.135],[141.263,41.126],[141.255,41.121],[141.254,41.116],[141.248,41.11],[141.246,41.105],[141.247,41.089],[141.242,41.083],[141.243,41.062],[141.241,41.042],[141.237,41.022],[141.229,40.992],[141.221,40.971],[141.24,40.972],[141.255,40.969],[141.265,40.974],[141.264,40.982],[141.27,40.988],[141.273,40.994],[141.284,40.995],[141.288,41.004],[141.298,41.005],[141.301,41.016],[141.312,41.021],[141.321,41.029],[141.318,41.042],[141.324,41.045],[141.329,41.059],[141.338,41.057],[141.343,41.06],[141.344,41.065],[141.339,41.072],[141.346,41.075],[141.343,41.083],[141.346,41.093],[141.351,41.094],[141.352,41.102],[141.348,41.106],[141.335,41.109],[141.325,41.117],[141.328,41.122],[141.334,41.123],[141.331,41.133],[141.327,41.136],[141.325,41.148],[141.323,41.154],[141.311,41.152],[141.286,41.157],[141.276,41.151]]]]}},{"type":"Feature","properties":{"name":"上北郡東北町","code":"02408"},"geometry":{"type":"MultiPolygon","coordinates":[[[[141.27,40.664],[141.278,40.671],[141.287,40.676],[141.29,40.681],[141.301,40.683],[141.308,40.689],[141.316,40.691],[141.318,40.699],[141.325,40.701],[141.328,40.706],[141.334,40.708],[141.342,40.715],[141.343,40.72],[141.336,40.721],[141.331,40.713],[141.318,40.713],[141.311,40.71],[141.31,40.717],[141.322,40.725],[141.338,40.724],[141.346,40.721],[141.351,40.723],[141.358,40.736],[141.36,40.746],[141.358,40.768],[141.355,40.775],[141.349,40.778],[141.348,40.804],[141.35,40.81],[141.359,40.816],[141.366,40.827],[141.368,40.839],[141.359,40.845],[141.351,40.843],[141.338,40.843],[141.327,40.847],[141.324,40.85],[141.315,40.847],[141.308,40.832],[141.297,40.836],[141.282,40.84],[141.27,40.846],[141.268,40.864],[141.267,40.87],[141.269,40.885],[141.263,40.891],[141.261,40.9],[141.256,40.908],[141.262,40.92],[141.261,40.926],[141.25,40.924],[141.232,40.932],[141.234,40.925],[141.227,40.915],[141.225,40.903],[141.218,40.896],[141.203,40.886],[141.195,40.87],[141.174,40.864],[141.153,40.85],[141.147,40.847],[141.138,40.85],[141.132,40.849],[141.135,40.839],[141.128,40.841],[141.115,40.841],[141.084,40.831],[141.077,40.83],[141.059,40.835],[141.043,40.835],[141.039,40.84],[141.022,40.837],[141.018,40.837],[141.02,40.826],[141.017,40.82],[141.007,40.817],[141.016,40.803],[141.03,40.799],[141.041,40.804],[141.045,40.8],[141.053,40.799],[141.07,40.803],[141.079,40.803],[141.088,40.801],[141.1,40.806],[141.119,40.802],[141.135,40.804],[141.148,40.797],[141.162,40.794],[141.163,40.787],[141.169,40.785],[141.18,40.786],[141.188,40.783],[141.189,40.778],[141.185,40.768],[141.192,40.765],[141.209,40.763],[141.219,40.757],[141.227,40.761],[141.231,40.767],[141.238,40.769],[141.237,40.775],[141.248,40.776],[141.255,40.773],[141.254,40.755],[141.272,40.753],[141.271,40.75],[141.258,40.751],[141.252,40.754],[141.246,40.751],[141.249,40.746],[141.244,40.737],[141.238,40.732],[141.224,40.726],[141.214,40.726],[141.205,40.718],[141.186,40.711],[141.179,40.707],[141.18,40.704],[141.173,40.698],[141.176,40.69],[141.173,40.683],[141.189,40.686],[141.195,40.689],[141.203,40.688],[141.231,40.692],[141.231,40.695],[141.24,40.698],[141.244,40.697],[141.251,40.702],[141.26,40.701],[141.265,40.698],[141.266,40.692],[141.264,40.685],[141.267,40.679],[141.267,40.671],[141.27,40.664]]]]}},{"type":"Feature","properties":{"name":"上北郡六ヶ所村","code":"02411"},"geometry":{"type":"MultiPolygon","coordinates":[[[[141.393,40.887],[141.391,40.905],[141.391,40.919],[141.387,40.924],[141.386,40.935],[141.388,40.94],[141.386,40.951],[141.386,40.975],[141.384,40.981],[141.386,41.016],[141.391,41.07],[141.393,41.081],[141.397,41.091],[141.398,41.1],[141.395,41.101],[141.393,41.114],[141.396,41.126],[141.396,41.132],[141.386,41.13],[141.378,41.125],[141.368,41.112],[141.362,41.108],[141.354,41.109],[141.348,41.106],[141.352,41.102],[141.351,41.094],[141.346,41.093],[141.343,41.083],[141.346,41.075],[141.339,41.072],[141.344,41.065],[141.343,41.06],[141.338,41.057],[141.329,41.059],[141.324,41.045],[141.318,41.042],[141.321,41.029],[141.312,41.021],[141.301,41.016],[141.298,41.005],[141.288,41.004],[141.284,40.995],[141.273,40.994],[141.27,40.988],[141.264,40.982],[141.265,40.974],[141.255,40.969],[141.246,40.96],[141.245,40.953],[141.233,40.941],[141.232,40.932],[141.25,40.924],[141.261,40.926],[141.262,40.92],[141.256,40.908],[141.261,40.9],[141.263,40.891],[141.269,40.885],[141.267,40.87],[141.268,40.864],[141.27,40.846],[141.282,40.84],[141.297,40.836],[141.308,40.832],[141.315,40.847],[141.324,40.85],[141.327,40.847],[141.338,40.843],[141.351,40.843],[141.359,40.845],[141.368,40.839],[141.379,40.845],[141.378,40.852],[141.374,40.864],[141.38,40.883],[141.393,40.887]]]]}},{"type":"Feature","properties":{"name":"上北郡おいらせ町","code":"02412"},"geometry":{"type":"MultiPolygon","coordinates":[[[[141.463,40.603],[141.462,40.608],[141.454,40.623],[141.448,40.639],[141.439,40.671],[141.429,40.668],[141.418,40.669],[141.388,40.665],[141.368,40.667],[141.356,40.664],[141.359,40.658],[141.36,40.647],[141.363,40.643],[141.354,40.638],[141.346,40.625],[141.344,40.611],[141.347,40.601],[141.353,40.602],[141.363,40.6],[141.355,40.589],[141.366,40.589],[141.38,40.586],[141.39,40.587],[141.396,40.585],[141.406,40.585],[141.411,40.581],[141.436,40.595],[141.447,40.597],[141.452,40.6],[141.461,40.6],[141.463,40.603]]]]}},{"type":"Feature","properties":{"name":"下北郡大間町","code":"02423"},"geometry":{"type":"MultiPolygon","coordinates":[[[[140.968,41.435],[140.963,41.436],[140.952,41.445],[140.951,41.449],[140.957,41.453],[140.955,41.457],[140.959,41.462],[140.958,41.467],[140.961,41.473],[140.958,41.48],[140.952,41.488],[140.959,41.495],[140.957,41.501],[140.947,41.507],[140.934,41.521],[140.937,41.529],[140.924,41.535],[140.917,41.545],[140.914,41.547],[140.908,41.539],[140.908,41.53],[140.897,41.526],[140.904,41.518],[140.91,41.504],[140.898,41.477],[140.889,41.47],[140.882,41.468],[140.888,41.469],[140.898,41.457],[140.896,41.452],[140.902,41.44],[140.908,41.433],[140.917,41.432],[140.919,41.426],[140.923,41.424],[140.928,41.427],[140.94,41.421],[140.945,41.427],[140.957,41.424],[140.968,41.435]]]]}},{"type":"Feature","properties":{"name":"下北郡東通村","code":"02424"},"geometry":{"type":"MultiPolygon","coordinates":[[[[141.323,41.154],[141.325,41.148],[141.327,41.136],[141.331,41.133],[141.334,41.123],[141.328,41.122],[141.325,41.117],[141.335,41.109],[141.348,41.106],[141.354,41.109],[141.362,41.108],[141.368,41.112],[141.378,41.125],[141.386,41.13],[141.396,41.132],[141.392,41.133],[141.388,41.154],[141.391,41.178],[141.395,41.195],[141.399,41.206],[141.399,41.209],[141.404,41.223],[141.405,41.239],[141.413,41.261],[141.415,41.271],[141.423,41.292],[141.434,41.331],[141.442,41.357],[141.45,41.373],[141.459,41.379],[141.461,41.389],[141.453,41.394],[141.455,41.401],[141.463,41.403],[141.46,41.412],[141.462,41.416],[141.469,41.419],[141.464,41.424],[141.457,41.425],[141.439,41.413],[141.434,41.407],[141.411,41.391],[141.404,41.384],[141.388,41.376],[141.357,41.364],[141.334,41.356],[141.311,41.351],[141.297,41.35],[141.275,41.354],[141.247,41.361],[141.25,41.352],[141.245,41.344],[141.237,41.334],[141.245,41.331],[141.234,41.326],[141.229,41.32],[141.226,41.312],[141.235,41.309],[141.246,41.311],[141.253,41.302],[141.254,41.292],[141.248,41.282],[141.251,41.267],[141.248,41.259],[141.247,41.249],[141.255,41.245],[141.266,41.243],[141.283,41.25],[141.29,41.247],[141.303,41.249],[141.31,41.243],[141.315,41.247],[141.327,41.244],[141.325,41.239],[141.339,41.215],[141.335,41.206],[141.337,41.2],[141.33,41.191],[141.33,41.182],[141.319,41.167],[141.318,41.162],[141.323,41.154]]]]}},{"type":"Feature","properties":{"name":"下北郡風間浦村","code":"02425"},"geometry":{"type":"MultiPolygon","coordinates":[[[[141.116,41.456],[141.113,41.463],[141.095,41.467],[141.085,41.473],[141.07,41.479],[141.067,41.482],[141.058,41.483],[141.029,41.483],[141.011,41.486],[141.003,41.486],[140.994,41.491],[140.973,41.499],[140.964,41.513],[140.957,41.516],[140.953,41.522],[140.946,41.523],[140.937,41.529],[140.934,41.521],[140.947,41.507],[140.957,41.501],[140.959,41.495],[140.952,41.488],[140.958,41.48],[140.961,41.473],[140.958,41.467],[140.959,41.462],[140.955,41.457],[140.957,41.453],[140.951,41.449],[140.952,41.445],[140.963,41.436],[140.968,41.435],[140.975,41.439],[140.987,41.437],[140.995,41.44],[141.003,41.435],[141.008,41.424],[141.013,41.422],[141.028,41.421],[141.031,41.425],[141.039,41.426],[141.051,41.434],[141.051,41.446],[141.06,41.444],[141.072,41.447],[141.083,41.451],[141.105,41.451],[141.116,41.456]]]]}},{"type":"Feature","properties":{"name":"下北郡佐井村","code":"02426"},"geometry":{"type":"MultiPolygon","coordinates":[[[[140.94,41.421],[140.928,41.427],[140.923,41.424],[140.919,41.426],[140.917,41.432],[140.908,41.433],[140.902,41.44],[140.896,41.452],[140.898,41.457],[140.888,41.469],[140.882,41.468],[140.878,41.457],[140.878,41.452],[140.866,41.446],[140.867,41.436],[140.854,41.432],[140.849,41.422],[140.835,41.416],[140.839,41.413],[140.834,41.405],[140.833,41.4],[140.828,41.39],[140.828,41.371],[140.825,41.364],[140.82,41.346],[140.816,41.338],[140.806,41.333],[140.807,41.327],[140.799,41.321],[140.806,41.314],[140.799,41.301],[140.798,41.287],[140.796,41.279],[140.79,41.274],[140.786,41.262],[140.785,41.256],[140.78,41.253],[140.782,41.242],[140.785,41.23],[140.78,41.217],[140.778,41.21],[140.789,41.214],[140.793,41.217],[140.793,41.223],[140.798,41.223],[140.81,41.231],[140.818,41.233],[140.823,41.239],[140.824,41.248],[140.816,41.256],[140.826,41.269],[140.832,41.271],[140.847,41.266],[140.852,41.262],[140.863,41.26],[140.86,41.267],[140.853,41.271],[140.85,41.282],[140.852,41.287],[140.835,41.299],[140.84,41.307],[140.846,41.307],[140.849,41.315],[140.859,41.315],[140.861,41.321],[140.869,41.321],[140.876,41.333],[140.884,41.348],[140.902,41.365],[140.915,41.366],[140.918,41.369],[140.912,41.375],[140.915,41.381],[140.925,41.382],[140.933,41.393],[140.929,41.4],[140.937,41.408],[140.94,41.421]]]]}},{"type":"Feature","properties":{"name":"三戸郡三戸町","code":"02441"},"geometry":{"type":"MultiPolygon","coordinates":[[[[141.211,40.414],[141.19,40.417],[141.176,40.416],[141.173,40.42],[141.155,40.422],[141.143,40.42],[141.132,40.415],[141.121,40.417],[141.113,40.415],[141.101,40.407],[141.093,40.406],[141.085,40.412],[141.074,40.412],[141.061,40.409],[141.05,40.407],[141.046,40.403],[141.038,40.402],[141.034,40.406],[141.024,40.408],[141.015,40.406],[141.006,40.41],[140.996,40.407],[140.991,40.403],[140.983,40.412],[140.981,40.406],[140.986,40.403],[140.987,40.395],[140.997,40.396],[141.003,40.387],[141.009,40.387],[141.012,40.383],[141.034,40.387],[141.042,40.385],[141.043,40.381],[141.053,40.376],[141.06,40.377],[141.068,40.375],[141.08,40.376],[141.092,40.374],[141.101,40.377],[141.11,40.376],[141.118,40.372],[141.139,40.369],[141.143,40.365],[141.154,40.367],[141.166,40.367],[141.165,40.361],[141.179,40.356],[141.183,40.352],[141.177,40.346],[141.182,40.333],[141.173,40.328],[141.17,40.324],[141.172,40.319],[141.163,40.315],[141.159,40.31],[141.159,40.305],[141.169,40.307],[141.172,40.31],[141.186,40.308],[141.198,40.308],[141.219,40.318],[141.226,40.328],[141.232,40.328],[141.238,40.334],[141.248,40.341],[141.26,40.342],[141.262,40.349],[141.267,40.349],[141.275,40.345],[141.292,40.352],[141.292,40.358],[141.299,40.366],[141.31,40.367],[141.317,40.373],[141.313,40.377],[141.315,40.383],[141.311,40.387],[141.302,40.386],[141.298,40.387],[141.287,40.397],[141.279,40.394],[141.27,40.393],[141.264,40.402],[141.259,40.401],[141.248,40.404],[141.225,40.4],[141.211,40.414]]]]}},{"type":"Feature","properties":{"name":"三戸郡五戸町","code":"02442"},"geometry":{"type":"MultiPolygon","coordinates":[[[[141.411,40.581],[141.406,40.585],[141.396,40.585],[141.39,40.587],[141.38,40.586],[141.381,40.58],[141.376,40.572],[141.365,40.566],[141.359,40.578],[141.352,40.586],[141.346,40.581],[141.341,40.582],[141.334,40.579],[141.337,40.568],[141.323,40.563],[141.304,40.568],[141.299,40.558],[141.291,40.558],[141.281,40.544],[141.275,40.538],[141.263,40.54],[141.245,40.536],[141.241,40.534],[141.226,40.531],[141.22,40.528],[141.219,40.519],[141.208,40.511],[141.202,40.509],[141.195,40.5],[141.185,40.496],[141.175,40.489],[141.184,40.483],[141.184,40.478],[141.19,40.477],[141.194,40.47],[141.196,40.455],[141.216,40.46],[141.222,40.459],[141.231,40.454],[141.233,40.445],[141.238,40.444],[141.23,40.434],[141.222,40.43],[141.226,40.424],[141.234,40.419],[141.242,40.42],[141.252,40.427],[141.264,40.428],[141.273,40.436],[141.282,40.43],[141.293,40.426],[141.296,40.43],[141.294,40.435],[141.286,40.443],[141.295,40.448],[141.303,40.458],[141.311,40.461],[141.319,40.468],[141.32,40.476],[141.343,40.484],[141.364,40.495],[141.357,40.506],[141.358,40.511],[141.355,40.517],[141.369,40.52],[141.377,40.524],[141.385,40.524],[141.393,40.533],[141.403,40.537],[141.419,40.539],[141.41,40.547],[141.42,40.554],[141.424,40.562],[141.42,40.573],[141.408,40.575],[141.411,40.581]]]]}},{"type":"Feature","properties":{"name":"三戸郡田子町","code":"02443"},"geometry":{"type":"MultiPolygon","coordinates":[[[[140.987,40.395],[140.984,40.388],[140.995,40.37],[140.991,40.367],[140.995,40.355],[140.981,40.343],[140.974,40.344],[140.965,40.35],[140.963,40.347],[140.969,40.337],[140.959,40.322],[140.958,40.307],[140.953,40.301],[140.944,40.296],[140.945,40.288],[140.952,40.287],[140.958,40.282],[140.954,40.28],[140.953,40.271],[140.947,40.264],[140.946,40.258],[140.954,40.251],[140.955,40.245],[140.965,40.24],[140.969,40.228],[140.976,40.226],[140.98,40.22],[140.991,40.223],[140.996,40.219],[141.006,40.218],[141.022,40.22],[141.027,40.227],[141.047,40.237],[141.06,40.238],[141.069,40.249],[141.076,40.253],[141.09,40.252],[141.095,40.255],[141.104,40.256],[141.11,40.261],[141.1,40.28],[141.116,40.286],[141.12,40.29],[141.134,40.295],[141.138,40.3],[141.145,40.3],[141.154,40.301],[141.159,40.305],[141.159,40.31],[141.163,40.315],[141.172,40.319],[141.17,40.324],[141.173,40.328],[141.182,40.333],[141.177,40.346],[141.183,40.352],[141.179,40.356],[141.165,40.361],[141.166,40.367],[141.154,40.367],[141.143,40.365],[141.139,40.369],[141.118,40.372],[141.11,40.376],[141.101,40.377],[141.092,40.374],[141.08,40.376],[141.068,40.375],[141.06,40.377],[141.053,40.376],[141.043,40.381],[141.042,40.385],[141.034,40.387],[141.012,40.383],[141.009,40.387],[141.003,40.387],[140.997,40.396],[140.987,40.395]]]]}},{"type":"Feature","properties":{"name":"三戸郡南部町","code":"02445"},"geometry":{"type":"MultiPolygon","coordinates":[[[[141.364,40.495],[141.343,40.484],[141.32,40.476],[141.319,40.468],[141.311,40.461],[141.303,40.458],[141.295,40.448],[141.286,40.443],[141.294,40.435],[141.296,40.43],[141.293,40.426],[141.284,40.427],[141.273,40.436],[141.264,40.428],[141.252,40.427],[141.242,40.42],[141.234,40.419],[141.23,40.417],[141.211,40.414],[141.225,40.4],[141.248,40.404],[141.259,40.401],[141.264,40.402],[141.27,40.393],[141.279,40.394],[141.287,40.397],[141.298,40.387],[141.302,40.386],[141.311,40.387],[141.315,40.383],[141.313,40.377],[141.317,40.373],[141.324,40.37],[141.33,40.362],[141.336,40.36],[141.337,40.355],[141.334,40.346],[141.348,40.339],[141.353,40.331],[141.37,40.338],[141.373,40.343],[141.382,40.345],[141.39,40.353],[141.389,40.359],[141.393,40.361],[141.383,40.369],[141.384,40.38],[141.387,40.387],[141.384,40.391],[141.385,40.4],[141.387,40.406],[141.394,40.408],[141.401,40.415],[141.401,40.423],[141.408,40.425],[141.416,40.425],[141.44,40.429],[141.444,40.439],[141.453,40.448],[141.441,40.453],[141.435,40.457],[141.428,40.459],[141.423,40.472],[141.415,40.471],[141.401,40.473],[141.393,40.48],[141.392,40.488],[141.385,40.489],[141.381,40.493],[141.381,40.503],[141.364,40.495]]]]}},{"type":"Feature","properties":{"name":"三戸郡階上町","code":"02446"},"geometry":{"type":"MultiPolygon","coordinates":[[[[141.554,40.359],[141.564,40.362],[141.572,40.366],[141.573,40.37],[141.581,40.374],[141.587,40.381],[141.583,40.385],[141.581,40.398],[141.595,40.412],[141.613,40.415],[141.619,40.421],[141.631,40.42],[141.639,40.423],[141.647,40.428],[141.652,40.428],[141.661,40.434],[141.67,40.437],[141.676,40.449],[141.676,40.454],[141.666,40.459],[141.66,40.466],[141.649,40.47],[141.647,40.475],[141.632,40.475],[141.623,40.467],[141.606,40.463],[141.593,40.468],[141.595,40.477],[141.585,40.476],[141.57,40.48],[141.557,40.474],[141.559,40.466],[141.553,40.464],[141.552,40.456],[141.538,40.453],[141.533,40.46],[141.526,40.46],[141.519,40.457],[141.522,40.426],[141.519,40.416],[141.52,40.404],[141.524,40.397],[141.529,40.393],[141.542,40.379],[141.554,40.359]]]]}},{"type":"Feature","properties":{"name":"三戸郡新郷村","code":"02450"},"geometry":{"type":"MultiPolygon","coordinates":[[[[140.985,40.427],[140.986,40.422],[140.98,40.418],[140.983,40.412],[140.991,40.403],[140.996,40.407],[141.006,40.41],[141.015,40.406],[141.024,40.408],[141.034,40.406],[141.038,40.402],[141.046,40.403],[141.05,40.407],[141.061,40.409],[141.074,40.412],[141.085,40.412],[141.093,40.406],[141.101,40.407],[141.113,40.415],[141.121,40.417],[141.132,40.415],[141.143,40.42],[141.155,40.422],[141.173,40.42],[141.176,40.416],[141.19,40.417],[141.211,40.414],[141.23,40.417],[141.234,40.419],[141.226,40.424],[141.222,40.43],[141.23,40.434],[141.238,40.444],[141.233,40.445],[141.231,40.454],[141.222,40.459],[141.216,40.46],[141.196,40.455],[141.194,40.47],[141.19,40.477],[141.184,40.478],[141.184,40.483],[141.175,40.489],[141.185,40.496],[141.173,40.493],[141.157,40.495],[141.139,40.495],[141.128,40.496],[141.119,40.496],[141.112,40.499],[141.104,40.493],[141.088,40.494],[141.058,40.48],[141.055,40.477],[141.031,40.475],[141.006,40.458],[141.001,40.455],[141.001,40.445],[140.994,40.434],[140.985,40.427]]]]}}]}