{"type":"FeatureCollection","features":[{"type":"Feature","properties":{"name":"秋田市","code":"05201"},"geometry":{"type":"MultiPolygon","coordinates":[[[[140.216,39.863],[140.208,39.865],[140.2,39.864],[140.198,39.86],[140.199,39.856],[140.186,39.848],[140.175,39.845],[140.167,39.845],[140.155,39.85],[140.147,39.845],[140.141,39.847],[140.133,39.845],[140.118,39.851],[140.108,39.842],[140.099,39.841],[140.094,39.835],[140.086,39.845],[140.081,39.845],[140.076,39.85],[140.078,39.854],[140.072,39.858],[140.066,39.856],[140.066,39.85],[140.059,39.847],[140.056,39.852],[140.049,39.849],[140.049,39.845],[140.055,39.829],[140.056,39.807],[140.034,39.804],[140.038,39.789],[140.042,39.783],[140.033,39.781],[140.037,39.771],[140.049,39.774],[140.048,39.768],[140.051,39.761],[140.047,39.757],[140.046,39.75],[140.049,39.741],[140.054,39.739],[140.058,39.73],[140.059,39.721],[140.06,39.698],[140.062,39.676],[140.063,39.654],[140.063,39.635],[140.06,39.598],[140.068,39.598],[140.076,39.595],[140.078,39.588],[140.087,39.58],[140.099,39.586],[140.108,39.582],[140.113,39.577],[140.122,39.576],[140.123,39.57],[140.138,39.569],[140.149,39.57],[140.159,39.559],[140.161,39.552],[140.167,39.548],[140.165,39.543],[140.156,39.538],[140.168,39.533],[140.186,39.538],[140.189,39.534],[140.185,39.528],[140.184,39.521],[140.178,39.512],[140.181,39.504],[140.187,39.503],[140.198,39.497],[140.211,39.496],[140.216,39.498],[140.22,39.494],[140.229,39.491],[140.222,39.487],[140.221,39.482],[140.223,39.468],[140.232,39.47],[140.239,39.467],[140.234,39.46],[140.241,39.455],[140.25,39.454],[140.259,39.449],[140.262,39.452],[140.269,39.45],[140.279,39.451],[140.282,39.455],[140.281,39.468],[140.276,39.475],[140.271,39.479],[140.266,39.486],[140.275,39.492],[140.268,39.499],[140.27,39.504],[140.263,39.512],[140.252,39.513],[140.249,39.519],[140.247,39.538],[140.241,39.544],[140.228,39.543],[140.227,39.548],[140.233,39.551],[140.233,39.56],[140.239,39.563],[140.243,39.573],[140.254,39.575],[140.254,39.587],[140.258,39.593],[140.262,39.594],[140.268,39.602],[140.268,39.61],[140.277,39.616],[140.277,39.622],[140.284,39.625],[140.286,39.637],[140.284,39.641],[140.272,39.64],[140.267,39.644],[140.271,39.654],[140.286,39.654],[140.292,39.655],[140.295,39.649],[140.309,39.648],[140.31,39.656],[140.307,39.667],[140.311,39.673],[140.322,39.676],[140.326,39.681],[140.338,39.676],[140.343,39.677],[140.342,39.684],[140.348,39.691],[140.353,39.691],[140.364,39.695],[140.372,39.693],[140.392,39.7],[140.395,39.704],[140.407,39.707],[140.414,39.715],[140.419,39.715],[140.431,39.71],[140.447,39.705],[140.475,39.717],[140.483,39.718],[140.492,39.724],[140.496,39.724],[140.503,39.726],[140.509,39.732],[140.509,39.74],[140.516,39.748],[140.51,39.755],[140.506,39.768],[140.49,39.781],[140.484,39.794],[140.48,39.797],[140.475,39.796],[140.467,39.81],[140.461,39.815],[140.46,39.822],[140.452,39.824],[140.445,39.822],[140.431,39.82],[140.431,39.824],[140.417,39.829],[140.404,39.829],[140.401,39.835],[140.379,39.834],[140.372,39.836],[140.364,39.828],[140.356,39.826],[140.347,39.816],[140.349,39.811],[140.34,39.805],[140.325,39.8],[140.321,39.796],[140.311,39.797],[140.314,39.808],[140.314,39.813],[140.309,39.817],[140.311,39.82],[140.307,39.83],[140.296,39.833],[140.288,39.831],[140.282,39.835],[140.274,39.827],[140.259,39.83],[140.251,39.828],[140.243,39.832],[140.239,39.839],[140.234,39.842],[140.227,39.854],[140.223,39.855],[140.223,39.861],[140.216,39.863]]]]}},{"type":"Feature","properties":{"name":"能代市","code":"05202"},"geometry":{"type":"MultiPolygon","coordinates":[[[[140.156,40.374],[140.151,40.374],[140.152,40.368],[140.15,40.358],[140.145,40.349],[140.138,40.343],[140.135,40.338],[140.136,40.33],[140.141,40.324],[140.135,40.316],[140.137,40.301],[140.142,40.294],[140.134,40.288],[140.139,40.282],[140.134,40.271],[140.135,40.266],[140.131,40.262],[140.123,40.261],[140.103,40.256],[140.099,40.252],[140.093,40.252],[140.092,40.257],[140.083,40.26],[140.079,40.254],[140.076,40.264],[140.067,40.264],[140.067,40.269],[140.047,40.27],[140.041,40.275],[140.033,40.271],[140.03,40.263],[140.016,40.264],[140.011,40.245],[140.007,40.236],[140.005,40.224],[140.001,40.22],[140.005,40.211],[139.998,40.21],[139.995,40.199],[139.988,40.2],[139.984,40.184],[139.992,40.182],[139.992,40.176],[139.981,40.145],[139.973,40.125],[139.981,40.124],[140.007,40.122],[140.019,40.126],[140.026,40.125],[140.026,40.133],[140.032,40.137],[140.041,40.153],[140.048,40.15],[140.068,40.157],[140.086,40.148],[140.093,40.15],[140.098,40.146],[140.109,40.143],[140.113,40.136],[140.121,40.129],[140.134,40.132],[140.146,40.128],[140.155,40.128],[140.162,40.132],[140.178,40.132],[140.188,40.129],[140.185,40.123],[140.185,40.118],[140.177,40.112],[140.175,40.098],[140.182,40.094],[140.184,40.083],[140.193,40.081],[140.19,40.068],[140.2,40.068],[140.207,40.071],[140.215,40.069],[140.216,40.061],[140.23,40.049],[140.237,40.048],[140.242,40.052],[140.239,40.055],[140.24,40.06],[140.25,40.063],[140.25,40.069],[140.254,40.071],[140.251,40.073],[140.254,40.08],[140.255,40.086],[140.247,40.089],[140.25,40.099],[140.243,40.112],[140.248,40.117],[140.247,40.126],[140.25,40.132],[140.248,40.135],[140.257,40.152],[140.253,40.169],[140.255,40.183],[140.266,40.183],[140.271,40.189],[140.274,40.196],[140.283,40.195],[140.295,40.198],[140.299,40.205],[140.292,40.206],[140.279,40.215],[140.283,40.225],[140.274,40.236],[140.276,40.242],[140.272,40.245],[140.259,40.243],[140.252,40.24],[140.245,40.246],[140.236,40.249],[140.232,40.248],[140.226,40.254],[140.219,40.259],[140.223,40.267],[140.213,40.269],[140.211,40.274],[140.216,40.276],[140.218,40.285],[140.214,40.287],[140.213,40.298],[140.204,40.297],[140.202,40.302],[140.202,40.313],[140.195,40.32],[140.195,40.339],[140.198,40.342],[140.194,40.35],[140.183,40.356],[140.175,40.362],[140.172,40.361],[140.168,40.37],[140.156,40.374]]]]}},{"type":"Feature","properties":{"name":"横手市","code":"05203"},"geometry":{"type":"MultiPolygon","coordinates":[[[[140.489,39.383],[140.481,39.375],[140.474,39.373],[140.468,39.365],[140.461,39.366],[140.462,39.377],[140.463,39.392],[140.467,39.402],[140.461,39.404],[140.461,39.409],[140.45,39.406],[140.44,39.409],[140.43,39.406],[140.424,39.4],[140.414,39.4],[140.401,39.396],[140.39,39.399],[140.383,39.395],[140.39,39.386],[140.379,39.386],[140.37,39.385],[140.365,39.391],[140.364,39.396],[140.357,39.396],[140.346,39.39],[140.343,39.381],[140.34,39.378],[140.332,39.376],[140.325,39.378],[140.32,39.383],[140.312,39.379],[140.307,39.38],[140.291,39.377],[140.276,39.375],[140.27,39.377],[140.264,39.374],[140.267,39.37],[140.27,39.361],[140.269,39.356],[140.281,39.358],[140.284,39.355],[140.298,39.355],[140.3,39.349],[140.311,39.348],[140.316,39.35],[140.321,39.344],[140.328,39.341],[140.33,39.336],[140.327,39.332],[140.334,39.325],[140.341,39.327],[140.342,39.317],[140.341,39.312],[140.352,39.306],[140.354,39.296],[140.342,39.295],[140.339,39.291],[140.34,39.281],[140.333,39.274],[140.33,39.261],[140.34,39.259],[140.342,39.254],[140.347,39.25],[140.362,39.26],[140.374,39.262],[140.379,39.259],[140.402,39.26],[140.402,39.256],[140.41,39.252],[140.412,39.248],[140.425,39.243],[140.421,39.24],[140.422,39.23],[140.426,39.23],[140.43,39.225],[140.442,39.226],[140.442,39.22],[140.446,39.216],[140.457,39.218],[140.468,39.218],[140.492,39.21],[140.509,39.211],[140.526,39.202],[140.529,39.197],[140.522,39.195],[140.521,39.189],[140.526,39.178],[140.536,39.173],[140.545,39.18],[140.543,39.189],[140.56,39.19],[140.568,39.194],[140.575,39.192],[140.588,39.187],[140.594,39.184],[140.6,39.184],[140.607,39.172],[140.609,39.163],[140.614,39.16],[140.616,39.153],[140.61,39.15],[140.612,39.14],[140.617,39.138],[140.613,39.133],[140.612,39.126],[140.616,39.122],[140.622,39.121],[140.625,39.112],[140.631,39.105],[140.636,39.107],[140.645,39.107],[140.651,39.099],[140.663,39.098],[140.676,39.093],[140.682,39.092],[140.687,39.1],[140.69,39.108],[140.682,39.129],[140.686,39.132],[140.688,39.139],[140.679,39.149],[140.669,39.149],[140.665,39.154],[140.656,39.147],[140.65,39.145],[140.64,39.152],[140.643,39.156],[140.636,39.174],[140.621,39.186],[140.627,39.196],[140.637,39.194],[140.64,39.201],[140.639,39.205],[140.647,39.207],[140.661,39.206],[140.665,39.209],[140.676,39.202],[140.678,39.199],[140.692,39.188],[140.699,39.187],[140.709,39.188],[140.718,39.191],[140.722,39.197],[140.728,39.199],[140.737,39.196],[140.753,39.198],[140.76,39.202],[140.761,39.206],[140.767,39.209],[140.763,39.213],[140.77,39.223],[140.774,39.223],[140.788,39.227],[140.786,39.235],[140.789,39.238],[140.777,39.242],[140.769,39.252],[140.757,39.255],[140.751,39.263],[140.746,39.261],[140.733,39.266],[140.723,39.272],[140.718,39.273],[140.717,39.297],[140.708,39.297],[140.702,39.3],[140.694,39.3],[140.693,39.303],[140.697,39.31],[140.693,39.313],[140.694,39.32],[140.698,39.322],[140.699,39.328],[140.709,39.33],[140.703,39.344],[140.688,39.348],[140.688,39.351],[140.693,39.358],[140.688,39.359],[140.676,39.368],[140.678,39.373],[140.679,39.383],[140.675,39.386],[140.665,39.384],[140.656,39.389],[140.653,39.386],[140.643,39.382],[140.632,39.379],[140.627,39.371],[140.618,39.374],[140.616,39.38],[140.611,39.381],[140.6,39.376],[140.595,39.378],[140.572,39.38],[140.57,39.377],[140.555,39.376],[140.551,39.371],[140.55,39.361],[140.548,39.357],[140.54,39.364],[140.531,39.363],[140.533,39.356],[140.526,39.358],[140.513,39.363],[140.508,39.37],[140.501,39.373],[140.498,39.378],[140.492,39.379],[140.489,39.383]]]]}},{"type":"Feature","properties":{"name":"大館市","code":"05204"},"geometry":{"type":"MultiPolygon","coordinates":[[[[140.676,40.413],[140.666,40.412],[140.664,40.407],[140.654,40.404],[140.645,40.403],[140.636,40.409],[140.633,40.418],[140.624,40.425],[140.612,40.424],[140.606,40.426],[140.604,40.43],[140.59,40.436],[140.589,40.43],[140.576,40.429],[140.558,40.426],[140.553,40.42],[140.559,40.411],[140.566,40.406],[140.567,40.399],[140.559,40.397],[140.547,40.404],[140.541,40.403],[140.532,40.411],[140.524,40.41],[140.524,40.419],[140.53,40.42],[140.531,40.427],[140.528,40.431],[140.508,40.429],[140.498,40.436],[140.485,40.441],[140.484,40.446],[140.478,40.453],[140.466,40.454],[140.459,40.456],[140.444,40.451],[140.438,40.455],[140.437,40.465],[140.433,40.468],[140.437,40.478],[140.427,40.483],[140.417,40.48],[140.406,40.475],[140.397,40.478],[140.396,40.482],[140.387,40.487],[140.378,40.477],[140.361,40.478],[140.348,40.468],[140.343,40.462],[140.344,40.452],[140.339,40.441],[140.335,40.439],[140.333,40.427],[140.336,40.424],[140.333,40.42],[140.337,40.412],[140.337,40.406],[140.333,40.403],[140.334,40.386],[140.338,40.378],[140.35,40.373],[140.356,40.367],[140.353,40.361],[140.353,40.355],[140.368,40.349],[140.375,40.344],[140.375,40.336],[140.377,40.321],[140.384,40.314],[140.383,40.309],[140.393,40.3],[140.394,40.295],[140.402,40.288],[140.405,40.281],[140.409,40.279],[140.416,40.272],[140.411,40.267],[140.414,40.258],[140.42,40.254],[140.444,40.257],[140.448,40.248],[140.459,40.242],[140.472,40.241],[140.472,40.233],[140.468,40.223],[140.474,40.218],[140.485,40.214],[140.487,40.202],[140.48,40.196],[140.479,40.192],[140.485,40.188],[140.488,40.178],[140.495,40.174],[140.49,40.168],[140.502,40.164],[140.502,40.16],[140.496,40.154],[140.508,40.155],[140.517,40.151],[140.519,40.147],[140.531,40.152],[140.539,40.159],[140.545,40.154],[140.543,40.143],[140.549,40.142],[140.553,40.135],[140.561,40.135],[140.59,40.13],[140.597,40.123],[140.601,40.122],[140.601,40.112],[140.599,40.1],[140.602,40.096],[140.6,40.087],[140.606,40.087],[140.617,40.08],[140.628,40.088],[140.637,40.091],[140.64,40.085],[140.65,40.088],[140.662,40.083],[140.666,40.075],[140.68,40.075],[140.69,40.07],[140.69,40.059],[140.697,40.048],[140.698,40.053],[140.706,40.06],[140.711,40.068],[140.712,40.074],[140.717,40.078],[140.715,40.087],[140.716,40.112],[140.724,40.119],[140.723,40.13],[140.736,40.133],[140.737,40.138],[140.744,40.147],[140.744,40.151],[140.738,40.154],[140.728,40.153],[140.723,40.157],[140.713,40.155],[140.71,40.161],[140.704,40.161],[140.703,40.171],[140.699,40.179],[140.701,40.194],[140.717,40.193],[140.726,40.189],[140.729,40.194],[140.726,40.202],[140.711,40.225],[140.724,40.226],[140.725,40.239],[140.726,40.248],[140.721,40.252],[140.727,40.255],[140.722,40.259],[140.726,40.271],[140.719,40.28],[140.723,40.288],[140.718,40.303],[140.714,40.308],[140.711,40.321],[140.72,40.325],[140.721,40.331],[140.718,40.336],[140.712,40.341],[140.709,40.349],[140.704,40.354],[140.703,40.36],[140.698,40.363],[140.693,40.37],[140.684,40.373],[140.683,40.383],[140.677,40.387],[140.678,40.391],[140.675,40.401],[140.676,40.413]]]]}},{"type":"Feature","properties":{"name":"男鹿市","code":"05206"},"geometry":{"type":"MultiPolygon","coordinates":[[[[139.864,39.89],[139.859,39.896],[139.866,39.898],[139.883,39.9],[139.892,39.899],[139.898,39.902],[139.913,39.902],[139.925,39.9],[139.95,39.89],[139.968,39.88],[139.968,39.885],[139.954,39.898],[139.963,39.909],[139.963,39.921],[139.976,39.928],[139.926,39.953],[139.922,39.959],[139.933,39.99],[139.943,40.002],[139.942,40.008],[139.937,40.01],[139.93,40.023],[139.936,40.031],[139.951,40.036],[139.954,40.043],[139.959,40.05],[139.962,40.058],[139.953,40.062],[139.958,40.066],[139.957,40.07],[139.945,40.073],[139.924,40.041],[139.902,40.016],[139.885,39.999],[139.873,39.989],[139.845,39.971],[139.831,39.965],[139.809,39.958],[139.798,39.957],[139.786,39.961],[139.783,39.967],[139.771,39.97],[139.766,39.975],[139.741,39.979],[139.734,39.984],[139.723,39.982],[139.716,39.987],[139.713,39.995],[139.702,40.007],[139.693,39.996],[139.697,39.987],[139.694,39.981],[139.701,39.977],[139.701,39.968],[139.709,39.956],[139.714,39.96],[139.721,39.954],[139.719,39.946],[139.705,39.945],[139.705,39.934],[139.711,39.927],[139.713,39.919],[139.725,39.908],[139.728,39.91],[139.735,39.905],[139.734,39.897],[139.737,39.881],[139.741,39.877],[139.741,39.871],[139.747,39.866],[139.761,39.862],[139.773,39.865],[139.779,39.865],[139.795,39.868],[139.801,39.865],[139.809,39.859],[139.821,39.859],[139.822,39.864],[139.831,39.869],[139.838,39.867],[139.838,39.863],[139.85,39.863],[139.861,39.866],[139.859,39.872],[139.852,39.871],[139.847,39.877],[139.859,39.885],[139.853,39.887],[139.86,39.895],[139.864,39.89]]]]}},{"type":"Feature","properties":{"name":"湯沢市","code":"05207"},"geometry":{"type":"MultiPolygon","coordinates":[[[[140.446,39.216],[140.443,39.211],[140.444,39.205],[140.45,39.191],[140.459,39.18],[140.46,39.176],[140.446,39.164],[140.438,39.169],[140.431,39.164],[140.427,39.146],[140.418,39.137],[140.411,39.137],[140.407,39.133],[140.407,39.123],[140.404,39.121],[140.393,39.105],[140.378,39.1],[140.366,39.098],[140.365,39.094],[140.358,39.093],[140.354,39.085],[140.345,39.082],[140.342,39.084],[140.343,39.074],[140.334,39.064],[140.335,39.055],[140.341,39.051],[140.343,39.046],[140.332,39.04],[140.329,39.035],[140.332,39.031],[140.344,39.026],[140.354,39.024],[140.361,39.024],[140.364,39.009],[140.371,39.004],[140.375,38.996],[140.387,38.994],[140.394,38.991],[140.405,38.992],[140.411,38.994],[140.414,38.99],[140.421,38.992],[140.432,38.992],[140.438,38.982],[140.446,38.98],[140.446,38.973],[140.451,38.972],[140.45,38.963],[140.454,38.959],[140.454,38.952],[140.45,38.946],[140.452,38.938],[140.458,38.934],[140.462,38.925],[140.462,38.92],[140.467,38.916],[140.48,38.915],[140.492,38.906],[140.494,38.899],[140.5,38.895],[140.505,38.895],[140.516,38.9],[140.526,38.897],[140.535,38.901],[140.547,38.891],[140.553,38.883],[140.554,38.876],[140.562,38.873],[140.57,38.875],[140.573,38.878],[140.593,38.887],[140.599,38.885],[140.607,38.887],[140.61,38.892],[140.616,38.894],[140.62,38.89],[140.63,38.889],[140.64,38.884],[140.645,38.889],[140.671,38.897],[140.673,38.904],[140.679,38.908],[140.68,38.913],[140.686,38.918],[140.694,38.92],[140.7,38.924],[140.707,38.92],[140.723,38.934],[140.723,38.938],[140.732,38.949],[140.743,38.954],[140.756,38.958],[140.75,38.966],[140.733,38.98],[140.723,38.986],[140.716,38.996],[140.719,39.006],[140.709,39.012],[140.703,39.013],[140.701,39.018],[140.707,39.026],[140.703,39.027],[140.708,39.034],[140.706,39.05],[140.694,39.057],[140.69,39.063],[140.684,39.065],[140.687,39.085],[140.682,39.092],[140.676,39.093],[140.663,39.098],[140.651,39.099],[140.645,39.107],[140.636,39.107],[140.631,39.105],[140.625,39.112],[140.622,39.121],[140.616,39.122],[140.612,39.126],[140.613,39.133],[140.617,39.138],[140.612,39.14],[140.61,39.15],[140.616,39.153],[140.614,39.16],[140.609,39.163],[140.607,39.172],[140.6,39.184],[140.594,39.184],[140.588,39.187],[140.575,39.192],[140.568,39.194],[140.56,39.19],[140.543,39.189],[140.545,39.18],[140.536,39.173],[140.526,39.178],[140.521,39.189],[140.522,39.195],[140.529,39.197],[140.526,39.202],[140.509,39.211],[140.492,39.21],[140.468,39.218],[140.457,39.218],[140.446,39.216]]]]}},{"type":"Feature","properties":{"name":"鹿角市","code":"05209"},"geometry":{"type":"MultiPolygon","coordinates":[[[[140.697,40.048],[140.7,40.033],[140.707,40.025],[140.713,40.022],[140.715,40.018],[140.721,40.017],[140.724,40.012],[140.733,40.009],[140.732,40.0],[140.739,39.997],[140.745,39.988],[140.749,39.988],[140.755,39.981],[140.751,39.978],[140.751,39.972],[140.757,39.97],[140.757,39.964],[140.764,39.962],[140.77,39.965],[140.781,39.964],[140.793,39.971],[140.801,39.97],[140.803,39.973],[140.812,39.976],[140.827,39.97],[140.832,39.966],[140.838,39.965],[140.848,39.959],[140.847,39.976],[140.848,39.988],[140.851,39.994],[140.849,40.008],[140.855,40.014],[140.853,40.018],[140.856,40.022],[140.852,40.026],[140.85,40.032],[140.855,40.036],[140.855,40.047],[140.851,40.053],[140.851,40.061],[140.847,40.065],[140.844,40.075],[140.851,40.078],[140.852,40.081],[140.858,40.086],[140.863,40.085],[140.872,40.091],[140.877,40.098],[140.879,40.106],[140.879,40.115],[140.872,40.116],[140.874,40.122],[140.867,40.131],[140.875,40.143],[140.883,40.154],[140.882,40.159],[140.875,40.161],[140.869,40.159],[140.861,40.166],[140.859,40.172],[140.868,40.178],[140.873,40.178],[140.892,40.192],[140.89,40.201],[140.898,40.209],[140.896,40.214],[140.904,40.218],[140.905,40.222],[140.918,40.223],[140.924,40.226],[140.934,40.226],[140.942,40.229],[140.94,40.24],[140.947,40.247],[140.955,40.248],[140.946,40.258],[140.947,40.264],[140.953,40.271],[140.954,40.28],[140.958,40.282],[140.952,40.287],[140.945,40.288],[140.944,40.296],[140.953,40.301],[140.958,40.307],[140.959,40.322],[140.969,40.337],[140.963,40.347],[140.965,40.35],[140.974,40.344],[140.981,40.343],[140.995,40.355],[140.991,40.367],[140.995,40.37],[140.984,40.388],[140.987,40.398],[140.981,40.406],[140.983,40.414],[140.98,40.418],[140.986,40.422],[140.985,40.427],[140.972,40.431],[140.962,40.427],[140.951,40.426],[140.942,40.43],[140.933,40.421],[140.927,40.421],[140.921,40.416],[140.904,40.413],[140.9,40.415],[140.889,40.408],[140.864,40.406],[140.852,40.41],[140.846,40.422],[140.842,40.426],[140.828,40.421],[140.827,40.411],[140.818,40.401],[140.821,40.397],[140.824,40.385],[140.818,40.38],[140.811,40.366],[140.804,40.36],[140.787,40.355],[140.793,40.351],[140.788,40.341],[140.789,40.337],[140.786,40.333],[140.793,40.324],[140.787,40.319],[140.779,40.316],[140.78,40.323],[140.775,40.323],[140.772,40.319],[140.776,40.313],[140.769,40.303],[140.773,40.297],[140.769,40.29],[140.767,40.284],[140.759,40.284],[140.754,40.292],[140.746,40.282],[140.725,40.289],[140.719,40.28],[140.726,40.271],[140.722,40.259],[140.727,40.255],[140.721,40.252],[140.726,40.248],[140.725,40.239],[140.724,40.226],[140.711,40.225],[140.726,40.202],[140.729,40.194],[140.726,40.189],[140.717,40.193],[140.701,40.194],[140.699,40.179],[140.703,40.171],[140.704,40.161],[140.71,40.161],[140.713,40.155],[140.723,40.157],[140.728,40.153],[140.738,40.154],[140.744,40.151],[140.744,40.147],[140.737,40.138],[140.736,40.133],[140.723,40.13],[140.724,40.119],[140.716,40.112],[140.715,40.087],[140.717,40.078],[140.712,40.074],[140.711,40.068],[140.706,40.06],[140.698,40.053],[140.697,40.048]]]]}},{"type":"Feature","properties":{"name":"由利本荘市","code":"05210"},"geometry":{"type":"MultiPolygon","coordinates":[[[[140.06,39.598],[140.056,39.566],[140.054,39.559],[140.054,39.554],[140.05,39.542],[140.051,39.532],[140.045,39.499],[140.034,39.451],[140.022,39.406],[140.018,39.401],[140.013,39.381],[140.005,39.36],[139.997,39.342],[139.993,39.337],[139.986,39.322],[139.98,39.313],[139.99,39.307],[139.99,39.304],[139.996,39.296],[139.996,39.289],[140.002,39.277],[140.014,39.267],[140.022,39.269],[140.038,39.26],[140.033,39.25],[140.042,39.239],[140.052,39.234],[140.058,39.227],[140.054,39.212],[140.053,39.198],[140.054,39.194],[140.046,39.185],[140.043,39.175],[140.064,39.162],[140.063,39.15],[140.066,39.144],[140.062,39.133],[140.061,39.113],[140.063,39.107],[140.067,39.1],[140.062,39.093],[140.074,39.087],[140.103,39.083],[140.115,39.078],[140.117,39.068],[140.13,39.063],[140.137,39.065],[140.144,39.061],[140.151,39.049],[140.158,39.049],[140.163,39.054],[140.171,39.051],[140.175,39.057],[140.188,39.059],[140.201,39.06],[140.205,39.053],[140.201,39.036],[140.222,39.031],[140.228,39.027],[140.237,39.028],[140.246,39.031],[140.253,39.028],[140.257,39.033],[140.262,39.035],[140.285,39.028],[140.292,39.024],[140.294,39.018],[140.302,39.017],[140.311,39.014],[140.319,39.025],[140.319,39.031],[140.329,39.035],[140.332,39.04],[140.343,39.046],[140.341,39.051],[140.335,39.055],[140.334,39.064],[140.343,39.074],[140.342,39.084],[140.341,39.089],[140.33,39.101],[140.317,39.101],[140.316,39.11],[140.313,39.116],[140.305,39.123],[140.303,39.134],[140.296,39.139],[140.292,39.146],[140.282,39.151],[140.28,39.163],[140.274,39.171],[140.266,39.173],[140.257,39.183],[140.258,39.188],[140.249,39.197],[140.239,39.194],[140.23,39.204],[140.23,39.211],[140.222,39.218],[140.223,39.227],[140.23,39.229],[140.248,39.225],[140.261,39.235],[140.27,39.238],[140.282,39.24],[140.284,39.243],[140.302,39.245],[140.31,39.248],[140.326,39.248],[140.331,39.246],[140.337,39.249],[140.341,39.244],[140.347,39.25],[140.342,39.254],[140.34,39.259],[140.33,39.261],[140.333,39.274],[140.34,39.281],[140.339,39.291],[140.342,39.295],[140.354,39.296],[140.352,39.306],[140.341,39.312],[140.342,39.317],[140.341,39.327],[140.334,39.325],[140.327,39.332],[140.33,39.336],[140.328,39.341],[140.321,39.344],[140.316,39.35],[140.311,39.348],[140.3,39.349],[140.298,39.355],[140.284,39.355],[140.281,39.358],[140.269,39.356],[140.27,39.361],[140.267,39.37],[140.264,39.374],[140.27,39.377],[140.276,39.375],[140.291,39.377],[140.307,39.38],[140.312,39.379],[140.32,39.383],[140.316,39.39],[140.298,39.394],[140.289,39.394],[140.288,39.4],[140.297,39.4],[140.305,39.407],[140.306,39.417],[140.299,39.421],[140.294,39.42],[140.279,39.424],[140.27,39.434],[140.272,39.438],[140.269,39.45],[140.262,39.452],[140.259,39.449],[140.25,39.454],[140.241,39.455],[140.234,39.46],[140.239,39.467],[140.232,39.47],[140.223,39.468],[140.221,39.482],[140.222,39.487],[140.229,39.491],[140.22,39.494],[140.216,39.498],[140.211,39.496],[140.198,39.497],[140.187,39.503],[140.181,39.504],[140.178,39.512],[140.184,39.521],[140.185,39.528],[140.189,39.534],[140.186,39.538],[140.171,39.535],[140.156,39.538],[140.165,39.543],[140.167,39.548],[140.161,39.552],[140.159,39.559],[140.149,39.57],[140.138,39.569],[140.123,39.57],[140.122,39.576],[140.113,39.577],[140.108,39.582],[140.099,39.586],[140.087,39.58],[140.078,39.588],[140.076,39.595],[140.068,39.598],[140.06,39.598]]]]}},{"type":"Feature","properties":{"name":"潟上市","code":"05211"},"geometry":{"type":"MultiPolygon","coordinates":[[[[140.198,39.86],[140.186,39.854],[140.17,39.855],[140.163,39.858],[140.154,39.867],[140.148,39.865],[140.143,39.869],[140.134,39.866],[140.13,39.871],[140.116,39.876],[140.111,39.885],[140.106,39.886],[140.1,39.895],[140.087,39.905],[140.07,39.904],[140.034,39.906],[140.016,39.92],[139.976,39.928],[139.963,39.921],[139.963,39.909],[139.954,39.898],[139.968,39.885],[139.968,39.88],[139.993,39.86],[140.004,39.849],[140.019,39.831],[140.029,39.816],[140.034,39.804],[140.056,39.807],[140.055,39.829],[140.049,39.845],[140.049,39.849],[140.056,39.852],[140.059,39.847],[140.066,39.85],[140.066,39.856],[140.072,39.858],[140.078,39.854],[140.076,39.85],[140.081,39.845],[140.086,39.845],[140.094,39.835],[140.099,39.841],[140.108,39.842],[140.118,39.851],[140.133,39.845],[140.141,39.847],[140.147,39.845],[140.155,39.85],[140.167,39.845],[140.175,39.845],[140.186,39.848],[140.199,39.856],[140.198,39.86]]]]}},{"type":"Feature","properties":{"name":"大仙市","code":"05212"},"geometry":{"type":"MultiPolygon","coordinates":[[[[140.269,39.45],[140.272,39.438],[140.27,39.434],[140.279,39.424],[140.294,39.42],[140.299,39.421],[140.306,39.417],[140.305,39.407],[140.297,39.4],[140.288,39.4],[140.289,39.394],[140.298,39.394],[140.316,39.39],[140.32,39.383],[140.325,39.378],[140.332,39.376],[140.34,39.378],[140.343,39.381],[140.346,39.39],[140.357,39.396],[140.364,39.396],[140.365,39.391],[140.37,39.385],[140.379,39.386],[140.387,39.384],[140.383,39.395],[140.39,39.399],[140.401,39.396],[140.411,39.398],[140.424,39.4],[140.43,39.406],[140.44,39.409],[140.448,39.409],[140.461,39.409],[140.461,39.404],[140.467,39.402],[140.463,39.392],[140.462,39.377],[140.461,39.366],[140.468,39.365],[140.474,39.373],[140.481,39.375],[140.489,39.383],[140.487,39.388],[140.488,39.395],[140.498,39.402],[140.503,39.398],[140.511,39.398],[140.51,39.405],[140.505,39.415],[140.514,39.413],[140.518,39.421],[140.511,39.432],[140.513,39.437],[140.522,39.437],[140.524,39.441],[140.532,39.444],[140.534,39.448],[140.558,39.454],[140.554,39.458],[140.555,39.468],[140.56,39.483],[140.576,39.483],[140.576,39.48],[140.589,39.482],[140.592,39.487],[140.596,39.489],[140.616,39.492],[140.624,39.495],[140.639,39.498],[140.648,39.498],[140.651,39.494],[140.661,39.494],[140.67,39.49],[140.678,39.481],[140.69,39.479],[140.698,39.468],[140.716,39.479],[140.724,39.481],[140.719,39.485],[140.713,39.494],[140.714,39.499],[140.723,39.504],[140.725,39.518],[140.732,39.522],[140.737,39.521],[140.739,39.533],[140.74,39.547],[140.729,39.553],[140.727,39.559],[140.73,39.566],[140.728,39.575],[140.72,39.578],[140.715,39.583],[140.708,39.581],[140.702,39.584],[140.695,39.589],[140.687,39.578],[140.673,39.578],[140.664,39.583],[140.655,39.579],[140.651,39.58],[140.636,39.569],[140.628,39.576],[140.609,39.584],[140.601,39.586],[140.595,39.573],[140.583,39.576],[140.576,39.575],[140.56,39.584],[140.553,39.585],[140.553,39.576],[140.551,39.57],[140.54,39.564],[140.541,39.558],[140.535,39.553],[140.529,39.551],[140.527,39.558],[140.518,39.556],[140.507,39.559],[140.5,39.569],[140.503,39.573],[140.499,39.578],[140.5,39.586],[140.495,39.589],[140.493,39.595],[140.483,39.594],[140.469,39.602],[140.471,39.607],[140.466,39.611],[140.464,39.617],[140.468,39.619],[140.469,39.632],[140.472,39.638],[140.473,39.648],[140.48,39.657],[140.488,39.661],[140.491,39.665],[140.495,39.687],[140.505,39.693],[140.5,39.698],[140.497,39.712],[140.494,39.718],[140.496,39.724],[140.492,39.724],[140.483,39.718],[140.475,39.717],[140.447,39.705],[140.432,39.707],[140.419,39.715],[140.414,39.715],[140.407,39.707],[140.395,39.704],[140.392,39.7],[140.372,39.693],[140.364,39.695],[140.353,39.691],[140.348,39.691],[140.342,39.684],[140.343,39.677],[140.338,39.676],[140.326,39.681],[140.322,39.676],[140.311,39.673],[140.307,39.667],[140.31,39.656],[140.309,39.648],[140.295,39.649],[140.292,39.655],[140.286,39.654],[140.271,39.654],[140.267,39.644],[140.272,39.64],[140.284,39.641],[140.286,39.637],[140.284,39.625],[140.277,39.622],[140.277,39.616],[140.268,39.61],[140.268,39.602],[140.262,39.594],[140.258,39.593],[140.254,39.587],[140.256,39.578],[140.243,39.573],[140.239,39.563],[140.233,39.56],[140.233,39.551],[140.227,39.548],[140.228,39.543],[140.241,39.544],[140.247,39.538],[140.249,39.519],[140.252,39.513],[140.263,39.512],[140.27,39.504],[140.268,39.499],[140.275,39.492],[140.266,39.486],[140.271,39.479],[140.276,39.475],[140.281,39.468],[140.282,39.455],[140.279,39.451],[140.269,39.45]]]]}},{"type":"Feature","properties":{"name":"北秋田市","code":"05213"},"geometry":{"type":"MultiPolygon","coordinates":[[[[140.48,39.797],[140.488,39.805],[140.492,39.804],[140.508,39.81],[140.513,39.81],[140.517,39.817],[140.514,39.83],[140.51,39.84],[140.514,39.847],[140.524,39.848],[140.528,39.85],[140.529,39.856],[140.537,39.861],[140.536,39.872],[140.538,39.881],[140.546,39.881],[140.557,39.884],[140.561,39.889],[140.57,39.894],[140.583,39.895],[140.594,39.885],[140.599,39.886],[140.613,39.884],[140.619,39.889],[140.625,39.89],[140.633,39.899],[140.636,39.906],[140.635,39.914],[140.63,39.928],[140.634,39.932],[140.647,39.933],[140.659,39.941],[140.66,39.945],[140.665,39.952],[140.673,39.955],[140.677,39.959],[140.673,39.963],[140.692,39.967],[140.695,39.971],[140.697,39.982],[140.714,39.989],[140.715,39.997],[140.723,39.996],[140.732,40.0],[140.733,40.009],[140.724,40.012],[140.721,40.017],[140.715,40.018],[140.713,40.022],[140.707,40.025],[140.7,40.033],[140.697,40.048],[140.69,40.059],[140.69,40.07],[140.68,40.075],[140.666,40.075],[140.662,40.083],[140.65,40.088],[140.64,40.085],[140.637,40.091],[140.628,40.088],[140.617,40.08],[140.606,40.087],[140.6,40.087],[140.602,40.096],[140.599,40.1],[140.601,40.112],[140.601,40.122],[140.597,40.123],[140.59,40.13],[140.561,40.135],[140.553,40.135],[140.549,40.142],[140.543,40.143],[140.545,40.154],[140.539,40.159],[140.531,40.152],[140.519,40.147],[140.517,40.151],[140.508,40.155],[140.496,40.154],[140.502,40.16],[140.502,40.164],[140.49,40.168],[140.495,40.174],[140.488,40.178],[140.485,40.188],[140.479,40.192],[140.48,40.196],[140.487,40.202],[140.485,40.214],[140.474,40.218],[140.468,40.223],[140.472,40.233],[140.472,40.241],[140.459,40.242],[140.448,40.248],[140.447,40.256],[140.42,40.254],[140.414,40.258],[140.411,40.267],[140.416,40.272],[140.409,40.279],[140.405,40.281],[140.402,40.288],[140.394,40.295],[140.393,40.3],[140.383,40.309],[140.384,40.314],[140.377,40.321],[140.375,40.336],[140.375,40.344],[140.368,40.349],[140.353,40.355],[140.351,40.35],[140.335,40.332],[140.336,40.325],[140.333,40.323],[140.333,40.316],[140.325,40.312],[140.323,40.302],[140.327,40.289],[140.322,40.278],[140.311,40.264],[140.31,40.255],[140.29,40.252],[140.276,40.242],[140.274,40.236],[140.283,40.225],[140.279,40.215],[140.292,40.206],[140.299,40.205],[140.295,40.198],[140.283,40.195],[140.274,40.196],[140.271,40.189],[140.266,40.183],[140.255,40.183],[140.253,40.169],[140.257,40.152],[140.248,40.135],[140.25,40.132],[140.247,40.126],[140.248,40.117],[140.243,40.112],[140.25,40.099],[140.247,40.089],[140.255,40.086],[140.254,40.08],[140.251,40.073],[140.254,40.071],[140.258,40.072],[140.267,40.069],[140.289,40.07],[140.301,40.083],[140.307,40.082],[140.316,40.085],[140.319,40.091],[140.326,40.082],[140.34,40.086],[140.348,40.091],[140.374,40.09],[140.372,40.086],[140.372,40.078],[140.378,40.066],[140.374,40.057],[140.379,40.05],[140.369,40.039],[140.364,40.031],[140.352,40.022],[140.358,40.018],[140.357,40.012],[140.373,39.999],[140.376,39.989],[140.37,39.986],[140.367,39.981],[140.358,39.978],[140.353,39.971],[140.358,39.962],[140.356,39.957],[140.359,39.95],[140.356,39.946],[140.358,39.94],[140.362,39.939],[140.36,39.928],[140.366,39.927],[140.372,39.921],[140.377,39.908],[140.372,39.893],[140.377,39.889],[140.379,39.882],[140.386,39.875],[140.386,39.869],[140.391,39.855],[140.389,39.851],[140.391,39.845],[140.401,39.839],[140.401,39.835],[140.404,39.829],[140.417,39.829],[140.431,39.824],[140.431,39.82],[140.445,39.822],[140.452,39.824],[140.46,39.822],[140.461,39.815],[140.467,39.81],[140.475,39.796],[140.48,39.797]]]]}},{"type":"Feature","properties":{"name":"にかほ市","code":"05214"},"geometry":{"type":"MultiPolygon","coordinates":[[[[139.98,39.313],[139.972,39.301],[139.966,39.295],[139.95,39.29],[139.931,39.289],[139.919,39.279],[139.91,39.259],[139.915,39.249],[139.906,39.234],[139.903,39.224],[139.896,39.216],[139.893,39.204],[139.904,39.2],[139.906,39.192],[139.905,39.182],[139.898,39.163],[139.894,39.155],[139.886,39.149],[139.883,39.14],[139.885,39.134],[139.87,39.118],[139.906,39.119],[139.946,39.113],[139.948,39.117],[139.994,39.106],[139.998,39.116],[140.008,39.123],[140.062,39.133],[140.066,39.144],[140.063,39.15],[140.064,39.162],[140.043,39.175],[140.046,39.185],[140.054,39.194],[140.053,39.198],[140.054,39.212],[140.058,39.227],[140.052,39.234],[140.042,39.239],[140.033,39.25],[140.038,39.26],[140.022,39.269],[140.014,39.267],[140.002,39.277],[139.996,39.289],[139.996,39.296],[139.99,39.304],[139.99,39.307],[139.98,39.313]]]]}},{"type":"Feature","properties":{"name":"仙北市","code":"05215"},"geometry":{"type":"MultiPolygon","coordinates":[[[[140.496,39.724],[140.494,39.718],[140.497,39.712],[140.5,39.698],[140.505,39.693],[140.495,39.687],[140.491,39.665],[140.488,39.661],[140.48,39.657],[140.473,39.648],[140.472,39.638],[140.469,39.632],[140.468,39.619],[140.464,39.617],[140.466,39.611],[140.471,39.607],[140.469,39.602],[140.483,39.594],[140.493,39.595],[140.495,39.589],[140.5,39.586],[140.499,39.578],[140.503,39.573],[140.5,39.569],[140.507,39.559],[140.518,39.556],[140.527,39.558],[140.529,39.551],[140.535,39.553],[140.541,39.558],[140.54,39.564],[140.551,39.57],[140.553,39.576],[140.553,39.585],[140.56,39.584],[140.576,39.575],[140.583,39.576],[140.595,39.573],[140.601,39.586],[140.609,39.584],[140.628,39.576],[140.636,39.569],[140.651,39.58],[140.655,39.579],[140.664,39.583],[140.673,39.578],[140.687,39.578],[140.695,39.589],[140.702,39.584],[140.708,39.581],[140.715,39.583],[140.72,39.578],[140.728,39.575],[140.73,39.566],[140.74,39.565],[140.754,39.571],[140.764,39.588],[140.775,39.591],[140.782,39.604],[140.796,39.603],[140.805,39.613],[140.803,39.619],[140.808,39.624],[140.807,39.631],[140.812,39.637],[140.815,39.646],[140.82,39.653],[140.823,39.665],[140.822,39.673],[140.818,39.68],[140.823,39.688],[140.816,39.691],[140.81,39.698],[140.81,39.708],[140.805,39.711],[140.794,39.71],[140.792,39.716],[140.783,39.725],[140.782,39.731],[140.775,39.735],[140.781,39.738],[140.788,39.738],[140.798,39.741],[140.806,39.748],[140.805,39.757],[140.816,39.763],[140.82,39.772],[140.826,39.774],[140.835,39.781],[140.84,39.789],[140.848,39.793],[140.847,39.798],[140.842,39.805],[140.825,39.81],[140.823,39.815],[140.813,39.818],[140.803,39.815],[140.794,39.821],[140.787,39.823],[140.783,39.831],[140.786,39.835],[140.789,39.852],[140.784,39.856],[140.782,39.868],[140.788,39.874],[140.791,39.874],[140.8,39.882],[140.814,39.879],[140.829,39.885],[140.843,39.871],[140.853,39.866],[140.857,39.87],[140.87,39.871],[140.878,39.874],[140.88,39.883],[140.875,39.894],[140.868,39.9],[140.868,39.912],[140.865,39.917],[140.855,39.923],[140.857,39.931],[140.852,39.936],[140.857,39.944],[140.857,39.953],[140.848,39.959],[140.838,39.965],[140.832,39.966],[140.827,39.97],[140.812,39.976],[140.803,39.973],[140.801,39.97],[140.793,39.971],[140.781,39.964],[140.77,39.965],[140.764,39.962],[140.757,39.964],[140.757,39.97],[140.751,39.972],[140.751,39.978],[140.755,39.981],[140.749,39.988],[140.745,39.988],[140.739,39.997],[140.732,40.0],[140.723,39.996],[140.715,39.997],[140.714,39.989],[140.7,39.984],[140.695,39.971],[140.692,39.967],[140.673,39.963],[140.677,39.959],[140.673,39.955],[140.665,39.952],[140.66,39.945],[140.659,39.941],[140.647,39.933],[140.634,39.932],[140.63,39.928],[140.635,39.914],[140.636,39.906],[140.633,39.899],[140.625,39.89],[140.619,39.889],[140.613,39.884],[140.599,39.886],[140.594,39.885],[140.583,39.895],[140.57,39.894],[140.561,39.889],[140.557,39.884],[140.546,39.881],[140.538,39.881],[140.536,39.872],[140.537,39.861],[140.529,39.856],[140.528,39.85],[140.524,39.848],[140.514,39.847],[140.51,39.84],[140.514,39.83],[140.517,39.817],[140.513,39.81],[140.508,39.81],[140.492,39.804],[140.488,39.805],[140.48,39.797],[140.484,39.794],[140.49,39.781],[140.506,39.768],[140.51,39.755],[140.516,39.748],[140.509,39.74],[140.509,39.732],[140.503,39.726],[140.496,39.724]]]]}},{"type":"Feature","properties":{"name":"鹿角郡小坂町","code":"05303"},"geometry":{"type":"MultiPolygon","coordinates":[[[[140.725,40.289],[140.746,40.282],[140.754,40.292],[140.759,40.284],[140.767,40.284],[140.769,40.29],[140.773,40.297],[140.769,40.303],[140.776,40.313],[140.772,40.319],[140.775,40.323],[140.78,40.323],[140.779,40.316],[140.787,40.319],[140.793,40.324],[140.786,40.333],[140.789,40.337],[140.788,40.341],[140.793,40.351],[140.787,40.355],[140.804,40.36],[140.811,40.366],[140.818,40.38],[140.824,40.385],[140.821,40.397],[140.818,40.401],[140.827,40.411],[140.828,40.421],[140.842,40.426],[140.846,40.422],[140.852,40.41],[140.864,40.406],[140.889,40.408],[140.9,40.415],[140.904,40.413],[140.921,40.416],[140.927,40.421],[140.919,40.427],[140.911,40.423],[140.907,40.425],[140.897,40.425],[140.892,40.423],[140.861,40.441],[140.878,40.498],[140.88,40.51],[140.852,40.505],[140.845,40.507],[140.837,40.504],[140.826,40.496],[140.82,40.495],[140.815,40.488],[140.811,40.487],[140.811,40.479],[140.809,40.47],[140.808,40.458],[140.803,40.449],[140.794,40.449],[140.787,40.457],[140.772,40.451],[140.769,40.454],[140.763,40.451],[140.753,40.439],[140.741,40.438],[140.734,40.44],[140.732,40.43],[140.736,40.428],[140.734,40.416],[140.723,40.417],[140.717,40.421],[140.716,40.428],[140.703,40.427],[140.699,40.429],[140.688,40.427],[140.687,40.418],[140.676,40.413],[140.675,40.401],[140.678,40.391],[140.677,40.387],[140.683,40.383],[140.684,40.373],[140.693,40.37],[140.698,40.363],[140.703,40.36],[140.704,40.354],[140.709,40.349],[140.712,40.341],[140.718,40.336],[140.721,40.331],[140.72,40.325],[140.711,40.321],[140.714,40.308],[140.718,40.303],[140.725,40.289]]]]}},{"type":"Feature","properties":{"name":"北秋田郡上小阿仁村","code":"05327"},"geometry":{"type":"MultiPolygon","coordinates":[[[[140.401,39.835],[140.401,39.839],[140.391,39.845],[140.389,39.851],[140.391,39.855],[140.386,39.869],[140.386,39.875],[140.379,39.882],[140.377,39.889],[140.372,39.893],[140.377,39.908],[140.372,39.921],[140.366,39.927],[140.36,39.928],[140.362,39.939],[140.358,39.94],[140.356,39.946],[140.359,39.95],[140.356,39.957],[140.358,39.962],[140.353,39.971],[140.358,39.978],[140.367,39.981],[140.37,39.986],[140.376,39.989],[140.373,39.999],[140.357,40.012],[140.358,40.018],[140.352,40.022],[140.364,40.031],[140.369,40.039],[140.379,40.05],[140.374,40.057],[140.378,40.066],[140.372,40.078],[140.372,40.086],[140.374,40.09],[140.351,40.09],[140.34,40.086],[140.326,40.082],[140.319,40.091],[140.316,40.085],[140.307,40.082],[140.301,40.083],[140.289,40.07],[140.267,40.069],[140.258,40.072],[140.254,40.071],[140.25,40.069],[140.25,40.063],[140.24,40.06],[140.239,40.055],[140.242,40.052],[140.237,40.048],[140.242,40.038],[140.24,40.032],[140.245,40.029],[140.241,40.021],[140.244,40.017],[140.239,40.014],[140.235,40.008],[140.237,40.001],[140.234,39.992],[140.243,39.985],[140.25,39.984],[140.253,39.97],[140.248,39.96],[140.252,39.955],[140.261,39.95],[140.267,39.942],[140.266,39.938],[140.274,39.932],[140.275,39.928],[140.283,39.929],[140.292,39.927],[140.296,39.92],[140.293,39.912],[140.298,39.899],[140.297,39.888],[140.302,39.878],[140.298,39.866],[140.305,39.861],[140.305,39.852],[140.306,39.847],[140.302,39.838],[140.296,39.833],[140.307,39.83],[140.311,39.82],[140.309,39.817],[140.314,39.813],[140.314,39.808],[140.311,39.797],[140.321,39.796],[140.325,39.8],[140.34,39.805],[140.349,39.811],[140.347,39.816],[140.356,39.826],[140.364,39.828],[140.372,39.836],[140.379,39.834],[140.401,39.835]]]]}},{"type":"Feature","properties":{"name":"山本郡藤里町","code":"05346"},"geometry":{"type":"MultiPolygon","coordinates":[[[[140.276,40.242],[140.288,40.254],[140.31,40.255],[140.311,40.264],[140.324,40.275],[140.327,40.289],[140.323,40.302],[140.325,40.312],[140.333,40.316],[140.333,40.323],[140.336,40.325],[140.335,40.332],[140.351,40.35],[140.353,40.355],[140.353,40.361],[140.356,40.367],[140.35,40.373],[140.338,40.378],[140.334,40.386],[140.333,40.403],[140.337,40.406],[140.337,40.412],[140.333,40.42],[140.336,40.424],[140.333,40.427],[140.335,40.439],[140.321,40.439],[140.31,40.437],[140.308,40.442],[140.299,40.446],[140.288,40.445],[140.279,40.446],[140.267,40.441],[140.251,40.442],[140.243,40.437],[140.22,40.431],[140.21,40.438],[140.197,40.435],[140.187,40.44],[140.18,40.441],[140.162,40.439],[140.151,40.435],[140.147,40.438],[140.137,40.44],[140.133,40.438],[140.108,40.436],[140.103,40.434],[140.103,40.424],[140.1,40.417],[140.108,40.416],[140.108,40.407],[140.115,40.402],[140.12,40.405],[140.128,40.406],[140.14,40.401],[140.151,40.403],[140.156,40.401],[140.154,40.393],[140.157,40.388],[140.164,40.385],[140.159,40.381],[140.156,40.374],[140.168,40.37],[140.172,40.361],[140.175,40.362],[140.183,40.356],[140.194,40.35],[140.198,40.342],[140.195,40.339],[140.195,40.32],[140.202,40.313],[140.202,40.302],[140.204,40.297],[140.213,40.298],[140.214,40.287],[140.218,40.285],[140.216,40.276],[140.211,40.274],[140.213,40.269],[140.223,40.267],[140.219,40.259],[140.226,40.254],[140.232,40.248],[140.236,40.249],[140.245,40.246],[140.252,40.24],[140.259,40.243],[140.272,40.245],[140.276,40.242]]]]}},{"type":"Feature","properties":{"name":"山本郡三種町","code":"05348"},"geometry":{"type":"MultiPolygon","coordinates":[[[[139.973,40.125],[139.965,40.109],[139.949,40.079],[139.945,40.073],[139.957,40.07],[139.958,40.066],[139.953,40.062],[139.962,40.058],[139.967,40.062],[139.979,40.067],[139.981,40.071],[139.976,40.076],[139.981,40.078],[139.985,40.093],[140.0,40.093],[140.002,40.088],[140.017,40.082],[140.02,40.078],[140.052,40.066],[140.059,40.062],[140.066,40.051],[140.071,40.04],[140.07,40.01],[140.069,39.987],[140.079,39.986],[140.078,39.983],[140.089,39.975],[140.117,39.979],[140.121,39.978],[140.116,39.986],[140.127,39.989],[140.132,39.998],[140.139,39.997],[140.153,40.004],[140.158,40.011],[140.171,40.011],[140.177,40.004],[140.187,40.011],[140.198,40.013],[140.212,40.012],[140.22,40.006],[140.231,40.004],[140.235,40.008],[140.239,40.014],[140.244,40.017],[140.241,40.021],[140.245,40.029],[140.24,40.032],[140.242,40.038],[140.237,40.048],[140.23,40.049],[140.216,40.061],[140.215,40.069],[140.207,40.071],[140.2,40.068],[140.19,40.068],[140.193,40.081],[140.184,40.083],[140.182,40.094],[140.175,40.098],[140.177,40.112],[140.185,40.118],[140.185,40.123],[140.188,40.129],[140.178,40.132],[140.162,40.132],[140.155,40.128],[140.146,40.128],[140.134,40.132],[140.121,40.129],[140.113,40.136],[140.109,40.143],[140.098,40.146],[140.093,40.15],[140.086,40.148],[140.068,40.157],[140.048,40.15],[140.041,40.153],[140.032,40.137],[140.026,40.133],[140.026,40.125],[140.019,40.126],[140.007,40.122],[139.981,40.124],[139.973,40.125]]]]}},{"type":"Feature","properties":{"name":"山本郡八峰町","code":"05349"},"geometry":{"type":"MultiPolygon","coordinates":[[[[140.156,40.374],[140.159,40.381],[140.164,40.385],[140.157,40.388],[140.154,40.393],[140.156,40.401],[140.151,40.403],[140.14,40.401],[140.128,40.406],[140.12,40.405],[140.115,40.402],[140.108,40.407],[140.108,40.416],[140.1,40.417],[140.103,40.424],[140.103,40.434],[140.108,40.436],[140.105,40.441],[140.099,40.444],[140.1,40.453],[140.094,40.459],[140.078,40.467],[140.074,40.465],[140.069,40.469],[140.059,40.467],[140.047,40.461],[140.038,40.461],[140.025,40.453],[140.02,40.447],[140.025,40.44],[140.022,40.429],[140.011,40.426],[140.006,40.427],[140.001,40.433],[139.994,40.433],[139.985,40.428],[139.974,40.427],[139.964,40.43],[139.96,40.435],[139.951,40.431],[139.942,40.43],[139.939,40.427],[139.944,40.423],[139.948,40.413],[139.968,40.404],[139.969,40.4],[139.978,40.398],[139.98,40.388],[139.987,40.383],[139.999,40.38],[140.003,40.376],[140.009,40.375],[140.013,40.372],[140.015,40.364],[140.023,40.358],[140.026,40.35],[140.026,40.339],[140.024,40.314],[140.021,40.296],[140.016,40.264],[140.03,40.263],[140.033,40.271],[140.041,40.275],[140.047,40.27],[140.067,40.269],[140.067,40.264],[140.076,40.264],[140.079,40.254],[140.083,40.26],[140.092,40.257],[140.093,40.252],[140.099,40.252],[140.103,40.256],[140.123,40.261],[140.131,40.262],[140.135,40.266],[140.134,40.271],[140.139,40.282],[140.134,40.288],[140.142,40.294],[140.137,40.301],[140.135,40.316],[140.141,40.324],[140.136,40.33],[140.135,40.338],[140.138,40.343],[140.145,40.349],[140.15,40.358],[140.152,40.368],[140.151,40.374],[140.156,40.374]]]]}},{"type":"Feature","properties":{"name":"南秋田郡五城目町","code":"05361"},"geometry":{"type":"MultiPolygon","coordinates":[[[[140.053,39.936],[140.044,39.94],[140.016,39.92],[140.048,39.927],[140.059,39.933],[140.053,39.936]]],[[[140.296,39.833],[140.302,39.838],[140.306,39.847],[140.305,39.852],[140.305,39.861],[140.298,39.866],[140.302,39.878],[140.297,39.888],[140.298,39.899],[140.293,39.912],[140.296,39.92],[140.292,39.927],[140.283,39.929],[140.275,39.928],[140.274,39.932],[140.266,39.938],[140.267,39.942],[140.261,39.95],[140.252,39.955],[140.248,39.96],[140.253,39.97],[140.25,39.984],[140.243,39.985],[140.234,39.992],[140.237,40.001],[140.235,40.008],[140.231,40.004],[140.22,40.006],[140.212,40.012],[140.198,40.013],[140.187,40.011],[140.177,40.004],[140.171,40.011],[140.158,40.011],[140.153,40.004],[140.139,39.997],[140.132,39.998],[140.127,39.989],[140.116,39.986],[140.121,39.978],[140.119,39.975],[140.119,39.967],[140.11,39.96],[140.095,39.968],[140.09,39.959],[140.098,39.954],[140.092,39.951],[140.093,39.945],[140.081,39.939],[140.076,39.94],[140.059,39.933],[140.077,39.931],[140.08,39.928],[140.095,39.927],[140.102,39.925],[140.107,39.928],[140.119,39.924],[140.119,39.92],[140.133,39.917],[140.133,39.912],[140.139,39.905],[140.148,39.903],[140.15,39.898],[140.149,39.893],[140.157,39.89],[140.168,39.891],[140.176,39.894],[140.184,39.888],[140.186,39.883],[140.206,39.88],[140.217,39.877],[140.216,39.863],[140.223,39.861],[140.223,39.855],[140.227,39.854],[140.234,39.842],[140.239,39.839],[140.243,39.832],[140.251,39.828],[140.259,39.83],[140.274,39.827],[140.282,39.835],[140.288,39.831],[140.296,39.833]]]]}},{"type":"Feature","properties":{"name":"南秋田郡八郎潟町","code":"05363"},"geometry":{"type":"MultiPolygon","coordinates":[[[[140.069,39.987],[140.068,39.982],[140.061,39.963],[140.051,39.946],[140.044,39.94],[140.053,39.936],[140.059,39.933],[140.076,39.94],[140.081,39.939],[140.093,39.945],[140.092,39.951],[140.098,39.954],[140.09,39.959],[140.095,39.968],[140.11,39.96],[140.119,39.967],[140.119,39.975],[140.121,39.978],[140.117,39.979],[140.089,39.975],[140.078,39.983],[140.079,39.986],[140.069,39.987]]]]}},{"type":"Feature","properties":{"name":"南秋田郡井川町","code":"05366"},"geometry":{"type":"MultiPolygon","coordinates":[[[[140.216,39.863],[140.217,39.877],[140.206,39.88],[140.186,39.883],[140.184,39.888],[140.176,39.894],[140.168,39.891],[140.157,39.89],[140.149,39.893],[140.15,39.898],[140.148,39.903],[140.139,39.905],[140.133,39.912],[140.133,39.917],[140.119,39.92],[140.119,39.924],[140.107,39.928],[140.102,39.925],[140.095,39.927],[140.08,39.928],[140.077,39.931],[140.059,39.933],[140.048,39.927],[140.016,39.92],[140.034,39.906],[140.07,39.904],[140.087,39.905],[140.1,39.895],[140.106,39.886],[140.111,39.885],[140.116,39.876],[140.13,39.871],[140.134,39.866],[140.143,39.869],[140.148,39.865],[140.154,39.867],[140.163,39.858],[140.17,39.855],[140.186,39.854],[140.198,39.86],[140.2,39.864],[140.208,39.865],[140.216,39.863]]]]}},{"type":"Feature","properties":{"name":"南秋田郡大潟村","code":"05368"},"geometry":{"type":"MultiPolygon","coordinates":[[[[139.976,39.928],[140.016,39.92],[140.044,39.94],[140.051,39.946],[140.061,39.963],[140.068,39.982],[140.069,39.987],[140.07,40.01],[140.071,40.04],[140.066,40.051],[140.059,40.062],[140.052,40.066],[140.02,40.078],[140.017,40.082],[140.002,40.088],[140.0,40.093],[139.985,40.093],[139.981,40.078],[139.976,40.076],[139.981,40.071],[139.979,40.067],[139.967,40.062],[139.962,40.058],[139.959,40.05],[139.954,40.043],[139.951,40.036],[139.936,40.031],[139.93,40.023],[139.937,40.01],[139.942,40.008],[139.943,40.002],[139.933,39.99],[139.922,39.959],[139.926,39.953],[139.976,39.928]]]]}},{"type":"Feature","properties":{"name":"仙北郡美郷町","code":"05434"},"geometry":{"type":"MultiPolygon","coordinates":[[[[140.656,39.389],[140.659,39.401],[140.664,39.404],[140.659,39.409],[140.658,39.414],[140.671,39.418],[140.681,39.418],[140.685,39.425],[140.686,39.437],[140.678,39.445],[140.677,39.448],[140.69,39.465],[140.698,39.468],[140.69,39.479],[140.678,39.481],[140.67,39.49],[140.661,39.494],[140.651,39.494],[140.648,39.498],[140.639,39.498],[140.624,39.495],[140.616,39.492],[140.596,39.489],[140.592,39.487],[140.589,39.482],[140.576,39.48],[140.576,39.483],[140.56,39.483],[140.555,39.468],[140.554,39.458],[140.558,39.454],[140.534,39.448],[140.532,39.444],[140.524,39.441],[140.522,39.437],[140.513,39.437],[140.511,39.432],[140.518,39.421],[140.514,39.413],[140.505,39.415],[140.51,39.405],[140.511,39.398],[140.503,39.398],[140.498,39.402],[140.488,39.395],[140.487,39.388],[140.489,39.383],[140.492,39.379],[140.498,39.378],[140.501,39.373],[140.508,39.37],[140.513,39.363],[140.526,39.358],[140.533,39.356],[140.531,39.363],[140.54,39.364],[140.548,39.357],[140.55,39.361],[140.551,39.371],[140.555,39.376],[140.57,39.377],[140.572,39.38],[140.595,39.378],[140.6,39.376],[140.611,39.381],[140.616,39.38],[140.618,39.374],[140.627,39.371],[140.632,39.379],[140.643,39.382],[140.653,39.386],[140.656,39.389]]]]}},{"type":"Feature","properties":{"name":"雄勝郡羽後町","code":"05463"},"geometry":{"type":"MultiPolygon","coordinates":[[[[140.347,39.25],[140.341,39.244],[140.337,39.249],[140.331,39.246],[140.326,39.248],[140.313,39.247],[140.302,39.245],[140.284,39.243],[140.282,39.24],[140.27,39.24],[140.261,39.235],[140.248,39.225],[140.23,39.229],[140.223,39.227],[140.222,39.218],[140.23,39.211],[140.23,39.204],[140.239,39.194],[140.249,39.197],[140.258,39.188],[140.257,39.183],[140.266,39.173],[140.274,39.171],[140.28,39.163],[140.282,39.151],[140.292,39.146],[140.296,39.139],[140.303,39.134],[140.305,39.123],[140.313,39.116],[140.316,39.11],[140.317,39.101],[140.33,39.101],[140.341,39.089],[140.342,39.084],[140.345,39.082],[140.354,39.085],[140.358,39.093],[140.365,39.094],[140.366,39.098],[140.378,39.1],[140.393,39.105],[140.404,39.121],[140.407,39.123],[140.407,39.133],[140.411,39.137],[140.418,39.137],[140.427,39.146],[140.431,39.164],[140.438,39.169],[140.446,39.164],[140.46,39.176],[140.459,39.18],[140.45,39.191],[140.444,39.205],[140.443,39.211],[140.446,39.216],[140.442,39.22],[140.442,39.226],[140.43,39.225],[140.426,39.23],[140.422,39.23],[140.421,39.24],[140.425,39.243],[140.412,39.248],[140.41,39.252],[140.402,39.256],[140.402,39.26],[140.379,39.259],[140.374,39.262],[140.362,39.26],[140.347,39.25]]]]}},{"type":"Feature","properties":{"name":"雄勝郡東成瀬村","code":"05464"},"geometry":{"type":"MultiPolygon","coordinates":[[[[140.682,39.092],[140.687,39.085],[140.684,39.065],[140.69,39.063],[140.694,39.057],[140.706,39.05],[140.708,39.034],[140.703,39.027],[140.707,39.026],[140.701,39.018],[140.703,39.013],[140.709,39.012],[140.719,39.006],[140.716,38.996],[140.723,38.986],[140.733,38.98],[140.75,38.966],[140.756,38.958],[140.763,38.957],[140.772,38.958],[140.775,38.969],[140.77,38.976],[140.769,38.981],[140.764,38.989],[140.768,38.995],[140.764,39.0],[140.779,39.008],[140.78,39.014],[140.786,39.022],[140.791,39.024],[140.796,39.036],[140.794,39.042],[140.799,39.045],[140.805,39.052],[140.805,39.058],[140.799,39.063],[140.804,39.071],[140.8,39.077],[140.785,39.079],[140.779,39.082],[140.772,39.079],[140.763,39.081],[140.759,39.085],[140.753,39.086],[140.756,39.097],[140.763,39.109],[140.756,39.112],[140.756,39.118],[140.767,39.12],[140.77,39.124],[140.758,39.133],[140.751,39.133],[140.75,39.14],[140.756,39.144],[140.766,39.152],[140.771,39.159],[140.774,39.168],[140.786,39.167],[140.788,39.173],[140.796,39.177],[140.808,39.178],[140.806,39.183],[140.797,39.19],[140.789,39.189],[140.779,39.195],[140.771,39.194],[140.765,39.198],[140.768,39.205],[140.767,39.209],[140.761,39.206],[140.76,39.202],[140.753,39.198],[140.737,39.196],[140.728,39.199],[140.722,39.197],[140.718,39.191],[140.709,39.188],[140.699,39.187],[140.692,39.188],[140.678,39.199],[140.676,39.202],[140.665,39.209],[140.661,39.206],[140.647,39.207],[140.639,39.205],[140.64,39.201],[140.637,39.194],[140.627,39.196],[140.621,39.186],[140.636,39.174],[140.643,39.156],[140.64,39.152],[140.65,39.145],[140.656,39.147],[140.665,39.154],[140.669,39.149],[140.679,39.149],[140.688,39.139],[140.686,39.132],[140.682,39.129],[140.69,39.108],[140.687,39.1],[140.682,39.092]]]]}}]}