{"type":"FeatureCollection","features":[{"type":"Feature","properties":{"name":"山形市","code":"06201"},"geometry":{"type":"MultiPolygon","coordinates":[[[[140.522,38.35],[140.515,38.352],[140.505,38.347],[140.483,38.343],[140.47,38.337],[140.447,38.339],[140.44,38.326],[140.418,38.312],[140.394,38.313],[140.361,38.319],[140.35,38.323],[140.332,38.325],[140.325,38.338],[140.312,38.342],[140.306,38.338],[140.305,38.324],[140.297,38.316],[140.284,38.312],[140.288,38.306],[140.285,38.297],[140.276,38.289],[140.277,38.278],[140.252,38.269],[140.236,38.272],[140.209,38.274],[140.213,38.264],[140.207,38.252],[140.215,38.248],[140.209,38.234],[140.198,38.237],[140.18,38.223],[140.186,38.223],[140.197,38.224],[140.211,38.211],[140.24,38.211],[140.249,38.194],[140.246,38.189],[140.25,38.179],[140.261,38.174],[140.282,38.187],[140.286,38.179],[140.305,38.189],[140.314,38.184],[140.312,38.174],[140.323,38.17],[140.347,38.167],[140.367,38.158],[140.386,38.164],[140.397,38.153],[140.42,38.148],[140.436,38.15],[140.446,38.144],[140.452,38.151],[140.468,38.157],[140.47,38.171],[140.48,38.182],[140.477,38.201],[140.471,38.215],[140.474,38.224],[140.469,38.228],[140.469,38.243],[140.473,38.252],[140.473,38.272],[140.488,38.275],[140.497,38.283],[140.493,38.303],[140.501,38.304],[140.504,38.314],[140.52,38.31],[140.531,38.325],[140.525,38.333],[140.522,38.35]]]]}},{"type":"Feature","properties":{"name":"米沢市","code":"06202"},"geometry":{"type":"MultiPolygon","coordinates":[[[[140.267,37.918],[140.262,37.923],[140.247,37.917],[140.231,37.917],[140.222,37.901],[140.212,37.896],[140.195,37.901],[140.196,37.908],[140.187,37.921],[140.187,37.933],[140.164,37.939],[140.166,37.943],[140.16,37.963],[140.152,37.965],[140.138,37.974],[140.112,37.975],[140.105,37.97],[140.092,37.977],[140.067,37.968],[140.052,37.955],[140.058,37.947],[140.047,37.939],[140.034,37.94],[140.032,37.931],[140.034,37.92],[140.023,37.915],[140.012,37.901],[140.006,37.898],[139.98,37.896],[139.982,37.889],[139.974,37.884],[139.96,37.882],[139.95,37.875],[139.939,37.867],[139.935,37.845],[139.937,37.828],[139.941,37.822],[139.958,37.815],[139.962,37.806],[139.96,37.796],[139.967,37.784],[139.979,37.774],[139.978,37.766],[139.986,37.76],[140.002,37.759],[140.01,37.764],[140.037,37.768],[140.048,37.779],[140.065,37.768],[140.069,37.758],[140.087,37.758],[140.102,37.738],[140.127,37.734],[140.14,37.739],[140.146,37.753],[140.162,37.757],[140.178,37.757],[140.2,37.753],[140.204,37.748],[140.236,37.746],[140.244,37.758],[140.255,37.765],[140.266,37.779],[140.276,37.782],[140.282,37.798],[140.299,37.808],[140.291,37.815],[140.269,37.824],[140.262,37.834],[140.267,37.848],[140.266,37.863],[140.27,37.874],[140.265,37.886],[140.267,37.897],[140.265,37.912],[140.267,37.918]]]]}},{"type":"Feature","properties":{"name":"鶴岡市","code":"06203"},"geometry":{"type":"MultiPolygon","coordinates":[[[[140.026,38.547],[140.03,38.559],[140.022,38.572],[140.019,38.589],[140.0,38.597],[139.992,38.605],[139.989,38.617],[139.996,38.638],[139.984,38.663],[139.989,38.685],[139.986,38.708],[140.0,38.725],[139.996,38.731],[139.994,38.747],[139.975,38.754],[139.959,38.75],[139.945,38.754],[139.949,38.765],[139.927,38.787],[139.92,38.788],[139.917,38.798],[139.899,38.809],[139.896,38.817],[139.875,38.821],[139.87,38.827],[139.861,38.817],[139.867,38.814],[139.877,38.795],[139.889,38.786],[139.88,38.77],[139.87,38.76],[139.867,38.749],[139.856,38.749],[139.849,38.754],[139.854,38.764],[139.843,38.783],[139.811,38.785],[139.819,38.793],[139.825,38.809],[139.824,38.817],[139.823,38.811],[139.793,38.814],[139.787,38.804],[139.769,38.804],[139.762,38.8],[139.746,38.775],[139.733,38.768],[139.708,38.75],[139.697,38.734],[139.681,38.718],[139.671,38.719],[139.661,38.704],[139.635,38.685],[139.627,38.687],[139.61,38.669],[139.589,38.628],[139.57,38.6],[139.564,38.595],[139.558,38.575],[139.544,38.556],[139.557,38.545],[139.595,38.527],[139.599,38.522],[139.614,38.526],[139.631,38.522],[139.641,38.511],[139.653,38.507],[139.662,38.508],[139.683,38.505],[139.693,38.507],[139.702,38.502],[139.721,38.496],[139.726,38.487],[139.712,38.472],[139.72,38.451],[139.717,38.432],[139.717,38.421],[139.706,38.408],[139.705,38.394],[139.712,38.387],[139.722,38.394],[139.731,38.381],[139.733,38.371],[139.752,38.359],[139.762,38.361],[139.771,38.353],[139.784,38.353],[139.79,38.349],[139.804,38.355],[139.816,38.356],[139.827,38.345],[139.848,38.343],[139.848,38.337],[139.865,38.326],[139.875,38.317],[139.883,38.326],[139.895,38.331],[139.903,38.34],[139.902,38.348],[139.917,38.367],[139.91,38.379],[139.921,38.393],[139.914,38.411],[139.918,38.419],[139.927,38.42],[139.934,38.433],[139.933,38.448],[139.925,38.45],[139.931,38.469],[139.926,38.48],[139.942,38.49],[139.935,38.494],[139.934,38.504],[139.947,38.506],[139.954,38.515],[139.98,38.527],[139.989,38.535],[140.003,38.541],[140.026,38.547]]]]}},{"type":"Feature","properties":{"name":"酒田市","code":"06204"},"geometry":{"type":"MultiPolygon","coordinates":[[[[139.824,38.817],[139.815,38.821],[139.815,38.838],[139.847,38.825],[139.864,38.829],[139.857,38.846],[139.858,38.853],[139.866,38.858],[139.874,38.85],[139.883,38.849],[139.884,38.866],[139.9,38.87],[139.905,38.876],[139.903,38.885],[139.937,38.873],[139.945,38.865],[139.941,38.856],[139.951,38.834],[139.969,38.829],[139.967,38.816],[139.979,38.816],[139.993,38.807],[139.996,38.793],[140.019,38.794],[140.028,38.788],[140.032,38.777],[140.038,38.776],[140.055,38.789],[140.066,38.789],[140.073,38.798],[140.083,38.799],[140.077,38.814],[140.09,38.819],[140.112,38.817],[140.117,38.821],[140.113,38.835],[140.088,38.842],[140.093,38.863],[140.114,38.869],[140.121,38.873],[140.119,38.897],[140.139,38.911],[140.122,38.925],[140.121,38.941],[140.138,38.944],[140.144,38.951],[140.138,38.961],[140.147,38.97],[140.144,38.976],[140.131,38.983],[140.125,38.981],[140.112,38.985],[140.122,39.01],[140.115,39.025],[140.131,39.034],[140.135,39.043],[140.151,39.049],[140.144,39.061],[140.13,39.063],[140.117,39.068],[140.115,39.078],[140.103,39.083],[140.074,39.087],[140.062,39.093],[140.06,39.083],[140.04,39.069],[140.039,39.046],[140.031,39.045],[140.012,39.008],[139.987,39.007],[139.963,38.996],[139.948,38.993],[139.939,38.987],[139.923,38.986],[139.9,38.991],[139.896,38.998],[139.876,39.001],[139.868,38.991],[139.867,38.98],[139.857,38.976],[139.84,38.985],[139.833,38.974],[139.826,38.975],[139.819,38.961],[139.829,38.958],[139.81,38.929],[139.804,38.902],[139.793,38.871],[139.777,38.832],[139.762,38.8],[139.769,38.804],[139.787,38.804],[139.793,38.814],[139.823,38.811],[139.824,38.817]]],[[[139.55,39.209],[139.542,39.195],[139.554,39.193],[139.565,39.199],[139.55,39.209]]]]}},{"type":"Feature","properties":{"name":"新庄市","code":"06205"},"geometry":{"type":"MultiPolygon","coordinates":[[[[140.492,38.902],[140.487,38.903],[140.443,38.878],[140.427,38.864],[140.42,38.867],[140.404,38.864],[140.403,38.858],[140.387,38.846],[140.354,38.844],[140.345,38.847],[140.321,38.849],[140.314,38.845],[140.294,38.849],[140.292,38.841],[140.313,38.834],[140.314,38.825],[140.302,38.824],[140.293,38.819],[140.281,38.805],[140.273,38.803],[140.262,38.791],[140.272,38.786],[140.269,38.777],[140.253,38.772],[140.22,38.768],[140.216,38.765],[140.199,38.757],[140.208,38.742],[140.203,38.737],[140.198,38.715],[140.23,38.723],[140.257,38.717],[140.263,38.707],[140.261,38.698],[140.281,38.699],[140.289,38.705],[140.302,38.701],[140.314,38.715],[140.327,38.723],[140.35,38.729],[140.36,38.743],[140.37,38.747],[140.385,38.746],[140.389,38.752],[140.413,38.777],[140.419,38.779],[140.425,38.795],[140.419,38.803],[140.429,38.82],[140.436,38.821],[140.451,38.842],[140.46,38.845],[140.476,38.859],[140.486,38.863],[140.485,38.879],[140.494,38.899],[140.492,38.902]]]]}},{"type":"Feature","properties":{"name":"寒河江市","code":"06206"},"geometry":{"type":"MultiPolygon","coordinates":[[[[140.208,38.533],[140.179,38.535],[140.16,38.526],[140.151,38.514],[140.175,38.495],[140.189,38.476],[140.18,38.461],[140.185,38.452],[140.185,38.441],[140.2,38.434],[140.193,38.411],[140.199,38.407],[140.181,38.4],[140.191,38.391],[140.208,38.393],[140.219,38.387],[140.21,38.376],[140.226,38.357],[140.223,38.342],[140.231,38.346],[140.262,38.354],[140.272,38.356],[140.271,38.345],[140.283,38.342],[140.292,38.345],[140.293,38.354],[140.306,38.351],[140.307,38.345],[140.309,38.359],[140.318,38.365],[140.322,38.375],[140.32,38.381],[140.307,38.383],[140.29,38.395],[140.283,38.412],[140.27,38.418],[140.261,38.425],[140.254,38.451],[140.263,38.465],[140.254,38.472],[140.248,38.476],[140.246,38.493],[140.24,38.503],[140.237,38.517],[140.221,38.522],[140.208,38.533]]]]}},{"type":"Feature","properties":{"name":"上山市","code":"06207"},"geometry":{"type":"MultiPolygon","coordinates":[[[[140.186,38.223],[140.193,38.21],[140.193,38.196],[140.202,38.183],[140.199,38.168],[140.206,38.164],[140.202,38.151],[140.21,38.143],[140.206,38.137],[140.183,38.133],[140.185,38.125],[140.2,38.114],[140.21,38.111],[140.213,38.099],[140.238,38.094],[140.234,38.083],[140.248,38.082],[140.261,38.072],[140.269,38.059],[140.277,38.056],[140.289,38.059],[140.304,38.054],[140.315,38.058],[140.345,38.053],[140.356,38.058],[140.375,38.057],[140.382,38.064],[140.397,38.069],[140.418,38.08],[140.421,38.085],[140.417,38.103],[140.431,38.127],[140.441,38.13],[140.446,38.144],[140.436,38.15],[140.42,38.148],[140.397,38.153],[140.386,38.164],[140.367,38.158],[140.347,38.167],[140.323,38.17],[140.312,38.174],[140.314,38.184],[140.305,38.189],[140.286,38.179],[140.282,38.187],[140.261,38.174],[140.25,38.179],[140.246,38.189],[140.249,38.194],[140.24,38.211],[140.211,38.211],[140.197,38.224],[140.186,38.223]]]]}},{"type":"Feature","properties":{"name":"村山市","code":"06208"},"geometry":{"type":"MultiPolygon","coordinates":[[[[140.254,38.472],[140.265,38.474],[140.289,38.469],[140.297,38.464],[140.318,38.457],[140.346,38.455],[140.359,38.463],[140.353,38.471],[140.382,38.472],[140.411,38.468],[140.432,38.47],[140.443,38.483],[140.461,38.487],[140.461,38.503],[140.451,38.51],[140.436,38.515],[140.43,38.524],[140.436,38.535],[140.437,38.551],[140.429,38.559],[140.404,38.569],[140.384,38.562],[140.378,38.545],[140.368,38.551],[140.328,38.563],[140.314,38.579],[140.292,38.578],[140.279,38.567],[140.259,38.572],[140.246,38.57],[140.241,38.568],[140.235,38.551],[140.217,38.545],[140.208,38.533],[140.221,38.522],[140.237,38.517],[140.24,38.503],[140.246,38.493],[140.248,38.476],[140.254,38.472]]]]}},{"type":"Feature","properties":{"name":"長井市","code":"06209"},"geometry":{"type":"MultiPolygon","coordinates":[[[[139.917,38.246],[139.902,38.235],[139.899,38.217],[139.891,38.213],[139.877,38.2],[139.881,38.187],[139.879,38.169],[139.885,38.155],[139.895,38.147],[139.887,38.137],[139.898,38.107],[139.907,38.1],[139.93,38.101],[139.954,38.086],[139.985,38.091],[140.015,38.079],[140.014,38.071],[140.024,38.07],[140.021,38.054],[140.03,38.043],[140.043,38.05],[140.056,38.05],[140.065,38.066],[140.071,38.065],[140.089,38.079],[140.097,38.091],[140.097,38.098],[140.109,38.113],[140.105,38.123],[140.11,38.129],[140.097,38.138],[140.091,38.129],[140.068,38.137],[140.051,38.145],[140.052,38.155],[140.041,38.159],[140.014,38.175],[139.992,38.18],[139.978,38.18],[139.958,38.199],[139.961,38.204],[139.941,38.209],[139.945,38.221],[139.944,38.23],[139.932,38.234],[139.917,38.246]]]]}},{"type":"Feature","properties":{"name":"天童市","code":"06210"},"geometry":{"type":"MultiPolygon","coordinates":[[[[140.515,38.352],[140.501,38.353],[140.425,38.405],[140.405,38.399],[140.402,38.395],[140.373,38.397],[140.366,38.402],[140.349,38.396],[140.333,38.4],[140.322,38.375],[140.318,38.365],[140.309,38.359],[140.307,38.345],[140.312,38.342],[140.325,38.338],[140.332,38.325],[140.35,38.323],[140.361,38.319],[140.394,38.313],[140.418,38.312],[140.44,38.326],[140.447,38.339],[140.47,38.337],[140.483,38.343],[140.505,38.347],[140.515,38.352]]]]}},{"type":"Feature","properties":{"name":"東根市","code":"06211"},"geometry":{"type":"MultiPolygon","coordinates":[[[[140.522,38.35],[140.534,38.362],[140.545,38.364],[140.553,38.377],[140.564,38.377],[140.575,38.397],[140.572,38.415],[140.578,38.42],[140.586,38.441],[140.578,38.453],[140.567,38.45],[140.554,38.459],[140.54,38.461],[140.53,38.457],[140.516,38.483],[140.492,38.486],[140.474,38.481],[140.461,38.487],[140.443,38.483],[140.432,38.47],[140.411,38.468],[140.383,38.469],[140.353,38.471],[140.359,38.463],[140.346,38.455],[140.338,38.448],[140.339,38.435],[140.346,38.43],[140.337,38.419],[140.341,38.406],[140.333,38.4],[140.349,38.396],[140.366,38.402],[140.373,38.397],[140.402,38.395],[140.405,38.399],[140.425,38.405],[140.501,38.353],[140.515,38.352],[140.522,38.35]]]]}},{"type":"Feature","properties":{"name":"尾花沢市","code":"06212"},"geometry":{"type":"MultiPolygon","coordinates":[[[[140.461,38.487],[140.474,38.481],[140.492,38.486],[140.516,38.483],[140.53,38.457],[140.54,38.461],[140.554,38.459],[140.567,38.45],[140.578,38.453],[140.586,38.441],[140.598,38.437],[140.613,38.453],[140.606,38.463],[140.608,38.469],[140.598,38.487],[140.574,38.495],[140.563,38.511],[140.572,38.526],[140.563,38.527],[140.554,38.541],[140.565,38.546],[140.567,38.56],[140.579,38.568],[140.571,38.58],[140.57,38.594],[140.558,38.598],[140.562,38.605],[140.552,38.613],[140.538,38.634],[140.547,38.65],[140.549,38.661],[140.539,38.685],[140.525,38.694],[140.512,38.691],[140.505,38.697],[140.491,38.692],[140.471,38.697],[140.472,38.703],[140.461,38.713],[140.46,38.721],[140.425,38.704],[140.401,38.703],[140.383,38.694],[140.374,38.685],[140.357,38.689],[140.325,38.679],[140.313,38.678],[140.32,38.664],[140.316,38.648],[140.327,38.65],[140.358,38.639],[140.367,38.639],[140.381,38.606],[140.379,38.598],[140.384,38.589],[140.401,38.588],[140.404,38.569],[140.429,38.559],[140.437,38.551],[140.436,38.535],[140.43,38.524],[140.436,38.515],[140.451,38.51],[140.461,38.503],[140.461,38.487]]]]}},{"type":"Feature","properties":{"name":"南陽市","code":"06213"},"geometry":{"type":"MultiPolygon","coordinates":[[[[140.18,38.223],[140.173,38.223],[140.161,38.199],[140.153,38.191],[140.147,38.173],[140.134,38.159],[140.126,38.146],[140.129,38.137],[140.117,38.135],[140.11,38.129],[140.105,38.123],[140.109,38.113],[140.097,38.098],[140.097,38.091],[140.089,38.079],[140.071,38.065],[140.07,38.056],[140.081,38.046],[140.1,38.045],[140.1,38.036],[140.108,38.026],[140.126,38.023],[140.13,38.023],[140.135,38.025],[140.157,38.019],[140.181,38.041],[140.195,38.038],[140.212,38.043],[140.202,38.049],[140.199,38.055],[140.217,38.075],[140.234,38.083],[140.238,38.094],[140.213,38.099],[140.21,38.111],[140.2,38.114],[140.185,38.125],[140.183,38.133],[140.206,38.137],[140.21,38.143],[140.202,38.151],[140.206,38.164],[140.199,38.168],[140.202,38.183],[140.193,38.196],[140.193,38.21],[140.186,38.223],[140.18,38.223]]]]}},{"type":"Feature","properties":{"name":"東村山郡山辺町","code":"06301"},"geometry":{"type":"MultiPolygon","coordinates":[[[[140.284,38.312],[140.28,38.319],[140.266,38.317],[140.237,38.307],[140.226,38.307],[140.204,38.329],[140.199,38.328],[140.189,38.316],[140.195,38.292],[140.171,38.284],[140.154,38.256],[140.153,38.243],[140.17,38.24],[140.173,38.223],[140.18,38.223],[140.198,38.237],[140.209,38.234],[140.215,38.248],[140.207,38.252],[140.213,38.264],[140.209,38.274],[140.236,38.272],[140.252,38.269],[140.277,38.278],[140.276,38.289],[140.285,38.297],[140.288,38.306],[140.284,38.312]]]]}},{"type":"Feature","properties":{"name":"東村山郡中山町","code":"06302"},"geometry":{"type":"MultiPolygon","coordinates":[[[[140.312,38.342],[140.307,38.345],[140.306,38.351],[140.293,38.354],[140.292,38.345],[140.283,38.342],[140.271,38.345],[140.272,38.356],[140.262,38.354],[140.231,38.346],[140.223,38.342],[140.219,38.329],[140.204,38.329],[140.226,38.307],[140.237,38.307],[140.266,38.317],[140.28,38.319],[140.284,38.312],[140.297,38.316],[140.305,38.324],[140.306,38.338],[140.312,38.342]]]]}},{"type":"Feature","properties":{"name":"西村山郡河北町","code":"06321"},"geometry":{"type":"MultiPolygon","coordinates":[[[[140.322,38.375],[140.333,38.4],[140.341,38.406],[140.337,38.419],[140.346,38.43],[140.339,38.435],[140.338,38.448],[140.346,38.455],[140.318,38.457],[140.297,38.464],[140.289,38.469],[140.265,38.474],[140.254,38.472],[140.263,38.465],[140.254,38.451],[140.261,38.425],[140.27,38.418],[140.283,38.412],[140.29,38.395],[140.307,38.383],[140.32,38.381],[140.322,38.375]]]]}},{"type":"Feature","properties":{"name":"西村山郡西川町","code":"06322"},"geometry":{"type":"MultiPolygon","coordinates":[[[[139.875,38.317],[139.879,38.303],[139.899,38.293],[139.9,38.276],[139.911,38.273],[139.921,38.263],[139.945,38.273],[139.946,38.284],[139.952,38.293],[139.955,38.308],[139.987,38.321],[139.988,38.329],[140.006,38.333],[140.01,38.337],[140.007,38.351],[140.012,38.374],[140.005,38.38],[140.013,38.4],[140.02,38.404],[140.039,38.397],[140.049,38.386],[140.062,38.381],[140.07,38.395],[140.089,38.406],[140.105,38.407],[140.116,38.402],[140.14,38.408],[140.15,38.402],[140.163,38.403],[140.181,38.4],[140.199,38.407],[140.193,38.411],[140.2,38.434],[140.185,38.441],[140.185,38.452],[140.18,38.461],[140.189,38.476],[140.175,38.495],[140.151,38.514],[140.125,38.504],[140.123,38.494],[140.115,38.494],[140.097,38.509],[140.08,38.511],[140.075,38.505],[140.05,38.496],[140.035,38.506],[140.036,38.533],[140.026,38.547],[140.003,38.541],[139.989,38.535],[139.98,38.527],[139.954,38.515],[139.947,38.506],[139.934,38.504],[139.935,38.494],[139.942,38.49],[139.926,38.48],[139.931,38.469],[139.925,38.45],[139.933,38.448],[139.934,38.433],[139.927,38.42],[139.918,38.419],[139.914,38.411],[139.921,38.393],[139.91,38.379],[139.917,38.367],[139.902,38.348],[139.903,38.34],[139.895,38.331],[139.883,38.326],[139.875,38.317]]]]}},{"type":"Feature","properties":{"name":"西村山郡朝日町","code":"06323"},"geometry":{"type":"MultiPolygon","coordinates":[[[[139.978,38.18],[139.993,38.188],[139.989,38.198],[140.0,38.225],[140.007,38.228],[140.013,38.243],[140.031,38.248],[140.042,38.245],[140.049,38.256],[140.063,38.266],[140.071,38.267],[140.086,38.25],[140.095,38.246],[140.106,38.251],[140.113,38.248],[140.125,38.257],[140.145,38.253],[140.153,38.243],[140.154,38.256],[140.171,38.284],[140.195,38.292],[140.189,38.316],[140.199,38.328],[140.182,38.325],[140.188,38.34],[140.197,38.349],[140.172,38.358],[140.151,38.361],[140.142,38.353],[140.134,38.354],[140.105,38.346],[140.103,38.34],[140.08,38.315],[140.068,38.323],[140.054,38.32],[140.04,38.304],[140.029,38.299],[140.022,38.311],[140.015,38.314],[139.998,38.294],[139.98,38.288],[139.971,38.272],[139.957,38.269],[139.945,38.273],[139.921,38.263],[139.917,38.246],[139.932,38.234],[139.944,38.23],[139.945,38.221],[139.941,38.209],[139.961,38.204],[139.958,38.199],[139.978,38.18]]]]}},{"type":"Feature","properties":{"name":"西村山郡大江町","code":"06324"},"geometry":{"type":"MultiPolygon","coordinates":[[[[140.181,38.4],[140.163,38.403],[140.15,38.402],[140.14,38.408],[140.116,38.402],[140.105,38.407],[140.089,38.406],[140.07,38.395],[140.062,38.381],[140.049,38.386],[140.039,38.397],[140.02,38.404],[140.013,38.4],[140.005,38.38],[140.012,38.374],[140.007,38.351],[140.01,38.337],[140.006,38.333],[139.988,38.329],[139.987,38.321],[139.955,38.308],[139.952,38.293],[139.946,38.284],[139.945,38.273],[139.957,38.269],[139.971,38.272],[139.98,38.288],[139.998,38.294],[140.015,38.314],[140.022,38.311],[140.029,38.299],[140.04,38.304],[140.054,38.32],[140.068,38.323],[140.08,38.315],[140.103,38.34],[140.105,38.346],[140.134,38.354],[140.142,38.353],[140.151,38.361],[140.172,38.358],[140.197,38.349],[140.188,38.34],[140.182,38.325],[140.199,38.328],[140.204,38.329],[140.219,38.329],[140.223,38.342],[140.226,38.357],[140.21,38.376],[140.219,38.387],[140.208,38.393],[140.191,38.391],[140.181,38.4]]]]}},{"type":"Feature","properties":{"name":"北村山郡大石田町","code":"06341"},"geometry":{"type":"MultiPolygon","coordinates":[[[[140.404,38.569],[140.401,38.588],[140.384,38.589],[140.379,38.598],[140.381,38.606],[140.367,38.639],[140.358,38.639],[140.327,38.65],[140.316,38.648],[140.3,38.641],[140.303,38.615],[140.288,38.606],[140.276,38.603],[140.265,38.585],[140.246,38.57],[140.259,38.572],[140.279,38.567],[140.292,38.578],[140.314,38.579],[140.328,38.563],[140.368,38.551],[140.378,38.545],[140.384,38.562],[140.404,38.569]]]]}},{"type":"Feature","properties":{"name":"最上郡金山町","code":"06361"},"geometry":{"type":"MultiPolygon","coordinates":[[[[140.492,38.902],[140.48,38.915],[140.462,38.92],[140.458,38.934],[140.45,38.946],[140.428,38.933],[140.417,38.948],[140.404,38.95],[140.393,38.958],[140.357,38.964],[140.344,38.956],[140.32,38.956],[140.309,38.949],[140.291,38.933],[140.288,38.92],[140.295,38.911],[140.281,38.875],[140.294,38.849],[140.314,38.845],[140.321,38.849],[140.345,38.847],[140.354,38.844],[140.387,38.846],[140.403,38.858],[140.404,38.864],[140.42,38.867],[140.427,38.864],[140.443,38.878],[140.487,38.903],[140.492,38.902]]]]}},{"type":"Feature","properties":{"name":"最上郡最上町","code":"06362"},"geometry":{"type":"MultiPolygon","coordinates":[[[[140.389,38.752],[140.405,38.741],[140.421,38.742],[140.447,38.74],[140.46,38.721],[140.461,38.713],[140.472,38.703],[140.471,38.697],[140.491,38.692],[140.505,38.697],[140.512,38.691],[140.525,38.694],[140.539,38.685],[140.549,38.661],[140.547,38.65],[140.563,38.648],[140.569,38.638],[140.59,38.634],[140.602,38.641],[140.606,38.655],[140.619,38.673],[140.624,38.688],[140.616,38.7],[140.607,38.703],[140.607,38.721],[140.621,38.732],[140.623,38.742],[140.631,38.747],[140.636,38.762],[140.646,38.77],[140.637,38.777],[140.627,38.774],[140.604,38.784],[140.596,38.802],[140.599,38.826],[140.591,38.836],[140.569,38.847],[140.559,38.847],[140.553,38.859],[140.541,38.861],[140.539,38.871],[140.548,38.881],[140.548,38.89],[140.535,38.901],[140.526,38.897],[140.516,38.9],[140.505,38.895],[140.494,38.899],[140.485,38.879],[140.486,38.863],[140.476,38.859],[140.46,38.845],[140.451,38.842],[140.436,38.821],[140.429,38.82],[140.419,38.803],[140.425,38.795],[140.419,38.779],[140.413,38.777],[140.389,38.752]]]]}},{"type":"Feature","properties":{"name":"最上郡舟形町","code":"06363"},"geometry":{"type":"MultiPolygon","coordinates":[[[[140.261,38.698],[140.263,38.686],[140.251,38.678],[140.248,38.664],[140.258,38.652],[140.233,38.633],[140.241,38.623],[140.25,38.62],[140.254,38.61],[140.251,38.599],[140.239,38.594],[140.243,38.579],[140.241,38.568],[140.246,38.57],[140.265,38.585],[140.276,38.603],[140.288,38.606],[140.303,38.615],[140.3,38.641],[140.316,38.648],[140.32,38.664],[140.313,38.678],[140.325,38.679],[140.357,38.689],[140.374,38.685],[140.383,38.694],[140.401,38.703],[140.425,38.704],[140.46,38.721],[140.447,38.74],[140.421,38.742],[140.405,38.741],[140.389,38.752],[140.385,38.746],[140.37,38.747],[140.36,38.743],[140.35,38.729],[140.327,38.723],[140.314,38.715],[140.302,38.701],[140.289,38.705],[140.281,38.699],[140.261,38.698]]]]}},{"type":"Feature","properties":{"name":"最上郡真室川町","code":"06364"},"geometry":{"type":"MultiPolygon","coordinates":[[[[140.121,38.873],[140.14,38.874],[140.158,38.868],[140.187,38.872],[140.212,38.866],[140.231,38.845],[140.24,38.84],[140.261,38.842],[140.263,38.834],[140.277,38.834],[140.292,38.841],[140.294,38.849],[140.281,38.875],[140.295,38.911],[140.288,38.92],[140.291,38.933],[140.309,38.949],[140.32,38.956],[140.344,38.956],[140.357,38.964],[140.393,38.958],[140.404,38.95],[140.417,38.948],[140.428,38.933],[140.45,38.946],[140.454,38.959],[140.451,38.972],[140.446,38.98],[140.438,38.982],[140.432,38.992],[140.414,38.99],[140.394,38.991],[140.375,38.996],[140.364,39.009],[140.361,39.024],[140.344,39.026],[140.328,39.035],[140.311,39.014],[140.294,39.018],[140.285,39.028],[140.262,39.035],[140.253,39.028],[140.246,39.031],[140.228,39.027],[140.222,39.031],[140.201,39.036],[140.205,39.053],[140.201,39.06],[140.175,39.057],[140.151,39.049],[140.135,39.043],[140.131,39.034],[140.115,39.025],[140.122,39.01],[140.112,38.985],[140.125,38.981],[140.131,38.983],[140.144,38.976],[140.147,38.97],[140.138,38.961],[140.144,38.951],[140.138,38.944],[140.121,38.941],[140.122,38.925],[140.139,38.911],[140.119,38.897],[140.121,38.873]]]]}},{"type":"Feature","properties":{"name":"最上郡大蔵村","code":"06365"},"geometry":{"type":"MultiPolygon","coordinates":[[[[140.198,38.715],[140.192,38.702],[140.19,38.677],[140.199,38.67],[140.194,38.652],[140.177,38.63],[140.166,38.632],[140.14,38.619],[140.136,38.614],[140.121,38.617],[140.111,38.616],[140.106,38.608],[140.112,38.583],[140.108,38.573],[140.098,38.567],[140.097,38.557],[140.083,38.556],[140.078,38.546],[140.067,38.536],[140.043,38.528],[140.036,38.533],[140.035,38.506],[140.05,38.496],[140.075,38.505],[140.08,38.511],[140.097,38.509],[140.115,38.494],[140.123,38.494],[140.125,38.504],[140.151,38.514],[140.16,38.526],[140.179,38.535],[140.208,38.533],[140.217,38.545],[140.235,38.551],[140.241,38.568],[140.243,38.579],[140.239,38.594],[140.251,38.599],[140.254,38.61],[140.25,38.62],[140.241,38.623],[140.233,38.633],[140.258,38.652],[140.248,38.664],[140.251,38.678],[140.263,38.686],[140.261,38.698],[140.263,38.707],[140.257,38.717],[140.23,38.723],[140.198,38.715]]]]}},{"type":"Feature","properties":{"name":"最上郡鮭川村","code":"06366"},"geometry":{"type":"MultiPolygon","coordinates":[[[[140.117,38.821],[140.13,38.809],[140.145,38.802],[140.151,38.808],[140.168,38.811],[140.173,38.8],[140.182,38.793],[140.196,38.795],[140.205,38.789],[140.205,38.777],[140.216,38.765],[140.22,38.768],[140.253,38.772],[140.269,38.777],[140.272,38.786],[140.262,38.791],[140.273,38.803],[140.281,38.805],[140.293,38.819],[140.302,38.824],[140.314,38.825],[140.313,38.834],[140.292,38.841],[140.277,38.834],[140.263,38.834],[140.261,38.842],[140.24,38.84],[140.231,38.845],[140.212,38.866],[140.187,38.872],[140.158,38.868],[140.14,38.874],[140.121,38.873],[140.114,38.869],[140.093,38.863],[140.088,38.842],[140.113,38.835],[140.117,38.821]]]]}},{"type":"Feature","properties":{"name":"最上郡戸沢村","code":"06367"},"geometry":{"type":"MultiPolygon","coordinates":[[[[140.032,38.777],[140.029,38.77],[140.035,38.761],[140.046,38.731],[140.056,38.726],[140.05,38.707],[140.043,38.696],[140.041,38.682],[140.032,38.679],[140.046,38.658],[140.059,38.654],[140.064,38.64],[140.081,38.63],[140.092,38.628],[140.098,38.622],[140.111,38.616],[140.121,38.617],[140.136,38.614],[140.14,38.619],[140.166,38.632],[140.177,38.63],[140.194,38.652],[140.199,38.67],[140.19,38.677],[140.192,38.702],[140.198,38.715],[140.203,38.737],[140.208,38.742],[140.199,38.757],[140.216,38.765],[140.205,38.777],[140.205,38.789],[140.196,38.795],[140.182,38.793],[140.173,38.8],[140.168,38.811],[140.151,38.808],[140.145,38.802],[140.13,38.809],[140.117,38.821],[140.112,38.817],[140.09,38.819],[140.077,38.814],[140.083,38.799],[140.073,38.798],[140.066,38.789],[140.055,38.789],[140.038,38.776],[140.032,38.777]]]]}},{"type":"Feature","properties":{"name":"東置賜郡高畠町","code":"06381"},"geometry":{"type":"MultiPolygon","coordinates":[[[[140.267,37.918],[140.272,37.92],[140.279,37.934],[140.271,37.967],[140.28,37.978],[140.275,37.984],[140.277,37.994],[140.29,38.007],[140.277,38.029],[140.282,38.044],[140.277,38.056],[140.269,38.059],[140.261,38.072],[140.248,38.082],[140.234,38.083],[140.217,38.075],[140.199,38.055],[140.202,38.049],[140.212,38.043],[140.195,38.038],[140.181,38.041],[140.157,38.019],[140.135,38.025],[140.13,38.023],[140.126,38.023],[140.134,38.008],[140.122,37.997],[140.111,37.979],[140.112,37.975],[140.138,37.974],[140.152,37.965],[140.16,37.963],[140.166,37.943],[140.164,37.939],[140.187,37.933],[140.187,37.921],[140.196,37.908],[140.195,37.901],[140.212,37.896],[140.222,37.901],[140.231,37.917],[140.247,37.917],[140.262,37.923],[140.267,37.918]]]]}},{"type":"Feature","properties":{"name":"東置賜郡川西町","code":"06382"},"geometry":{"type":"MultiPolygon","coordinates":[[[[140.112,37.975],[140.111,37.979],[140.122,37.997],[140.134,38.008],[140.126,38.023],[140.108,38.026],[140.1,38.036],[140.1,38.045],[140.081,38.046],[140.07,38.056],[140.071,38.065],[140.065,38.066],[140.056,38.05],[140.043,38.05],[140.03,38.043],[140.036,38.025],[140.013,38.009],[140.001,38.011],[139.99,38.007],[139.976,38.007],[139.962,37.987],[139.964,37.97],[139.952,37.959],[139.952,37.948],[139.939,37.947],[139.924,37.942],[139.924,37.931],[139.943,37.924],[139.946,37.906],[139.936,37.903],[139.939,37.885],[139.95,37.875],[139.96,37.882],[139.974,37.884],[139.982,37.889],[139.98,37.896],[140.006,37.898],[140.012,37.901],[140.023,37.915],[140.034,37.92],[140.032,37.931],[140.034,37.94],[140.047,37.939],[140.058,37.947],[140.052,37.955],[140.067,37.968],[140.092,37.977],[140.105,37.97],[140.112,37.975]]]]}},{"type":"Feature","properties":{"name":"西置賜郡小国町","code":"06401"},"geometry":{"type":"MultiPolygon","coordinates":[[[[139.917,38.246],[139.921,38.263],[139.911,38.273],[139.9,38.276],[139.877,38.262],[139.876,38.252],[139.869,38.248],[139.86,38.231],[139.839,38.224],[139.819,38.213],[139.811,38.212],[139.8,38.202],[139.781,38.194],[139.764,38.199],[139.758,38.193],[139.739,38.202],[139.731,38.201],[139.713,38.207],[139.698,38.195],[139.696,38.187],[139.682,38.17],[139.691,38.155],[139.688,38.135],[139.692,38.113],[139.683,38.108],[139.675,38.092],[139.672,38.077],[139.686,38.077],[139.687,38.066],[139.693,38.057],[139.675,38.041],[139.658,38.037],[139.652,38.021],[139.654,37.997],[139.639,37.984],[139.644,37.98],[139.639,37.969],[139.645,37.963],[139.64,37.952],[139.643,37.947],[139.639,37.935],[139.632,37.93],[139.625,37.918],[139.632,37.899],[139.629,37.894],[139.638,37.88],[139.657,37.872],[139.657,37.864],[139.679,37.852],[139.696,37.849],[139.706,37.856],[139.732,37.831],[139.744,37.845],[139.752,37.86],[139.759,37.858],[139.776,37.869],[139.778,37.879],[139.786,37.88],[139.798,37.887],[139.81,37.889],[139.806,37.903],[139.812,37.912],[139.826,37.92],[139.828,37.925],[139.846,37.926],[139.854,37.938],[139.854,37.951],[139.858,37.955],[139.851,37.965],[139.857,37.977],[139.866,37.98],[139.882,37.978],[139.898,37.983],[139.902,37.998],[139.923,38.012],[139.922,38.03],[139.917,38.05],[139.908,38.052],[139.91,38.066],[139.887,38.087],[139.889,38.099],[139.898,38.107],[139.887,38.137],[139.895,38.147],[139.885,38.155],[139.879,38.169],[139.881,38.187],[139.877,38.2],[139.891,38.213],[139.899,38.217],[139.902,38.235],[139.917,38.246]]]]}},{"type":"Feature","properties":{"name":"西置賜郡白鷹町","code":"06402"},"geometry":{"type":"MultiPolygon","coordinates":[[[[140.11,38.129],[140.117,38.135],[140.129,38.137],[140.126,38.146],[140.134,38.159],[140.147,38.173],[140.153,38.191],[140.161,38.199],[140.173,38.223],[140.17,38.24],[140.153,38.243],[140.145,38.253],[140.125,38.257],[140.113,38.248],[140.106,38.251],[140.095,38.246],[140.086,38.25],[140.071,38.267],[140.063,38.266],[140.049,38.256],[140.042,38.245],[140.031,38.248],[140.013,38.243],[140.007,38.228],[140.0,38.225],[139.989,38.198],[139.993,38.188],[139.978,38.18],[139.992,38.18],[140.014,38.175],[140.041,38.159],[140.052,38.155],[140.051,38.145],[140.068,38.137],[140.091,38.129],[140.097,38.138],[140.11,38.129]]]]}},{"type":"Feature","properties":{"name":"西置賜郡飯豊町","code":"06403"},"geometry":{"type":"MultiPolygon","coordinates":[[[[139.95,37.875],[139.939,37.885],[139.936,37.903],[139.946,37.906],[139.943,37.924],[139.924,37.931],[139.924,37.942],[139.939,37.947],[139.952,37.948],[139.952,37.959],[139.964,37.97],[139.962,37.987],[139.976,38.007],[139.99,38.007],[140.001,38.011],[140.013,38.009],[140.036,38.025],[140.03,38.043],[140.021,38.054],[140.024,38.07],[140.014,38.071],[140.015,38.079],[139.985,38.091],[139.954,38.086],[139.93,38.101],[139.907,38.1],[139.898,38.107],[139.889,38.099],[139.887,38.087],[139.91,38.066],[139.908,38.052],[139.917,38.05],[139.922,38.03],[139.923,38.012],[139.902,37.998],[139.898,37.983],[139.882,37.978],[139.866,37.98],[139.857,37.977],[139.851,37.965],[139.858,37.955],[139.854,37.951],[139.854,37.938],[139.846,37.926],[139.828,37.925],[139.826,37.92],[139.812,37.912],[139.806,37.903],[139.81,37.889],[139.798,37.887],[139.786,37.88],[139.778,37.879],[139.776,37.869],[139.759,37.858],[139.752,37.86],[139.744,37.845],[139.732,37.831],[139.741,37.82],[139.782,37.832],[139.804,37.806],[139.813,37.804],[139.822,37.812],[139.838,37.815],[139.856,37.826],[139.864,37.825],[139.88,37.81],[139.898,37.81],[139.903,37.814],[139.925,37.814],[139.933,37.829],[139.937,37.828],[139.935,37.845],[139.939,37.867],[139.95,37.875]]]]}},{"type":"Feature","properties":{"name":"東田川郡三川町","code":"06426"},"geometry":{"type":"MultiPolygon","coordinates":[[[[139.87,38.827],[139.864,38.829],[139.847,38.825],[139.815,38.838],[139.815,38.821],[139.824,38.817],[139.825,38.809],[139.819,38.793],[139.811,38.785],[139.843,38.783],[139.854,38.764],[139.849,38.754],[139.856,38.749],[139.867,38.749],[139.87,38.76],[139.88,38.77],[139.889,38.786],[139.877,38.795],[139.867,38.814],[139.861,38.817],[139.87,38.827]]]]}},{"type":"Feature","properties":{"name":"東田川郡庄内町","code":"06428"},"geometry":{"type":"MultiPolygon","coordinates":[[[[140.026,38.547],[140.036,38.533],[140.043,38.528],[140.067,38.536],[140.078,38.546],[140.083,38.556],[140.097,38.557],[140.098,38.567],[140.108,38.573],[140.112,38.583],[140.106,38.608],[140.111,38.616],[140.098,38.622],[140.092,38.628],[140.081,38.63],[140.064,38.64],[140.059,38.654],[140.046,38.658],[140.032,38.679],[140.041,38.682],[140.043,38.696],[140.05,38.707],[140.056,38.726],[140.046,38.731],[140.035,38.761],[140.029,38.77],[140.032,38.777],[140.028,38.788],[140.019,38.794],[139.996,38.793],[139.993,38.807],[139.979,38.816],[139.967,38.816],[139.969,38.829],[139.951,38.834],[139.941,38.856],[139.945,38.865],[139.937,38.873],[139.903,38.885],[139.905,38.876],[139.9,38.87],[139.884,38.866],[139.883,38.849],[139.874,38.85],[139.866,38.858],[139.858,38.853],[139.857,38.846],[139.864,38.829],[139.87,38.827],[139.875,38.821],[139.896,38.817],[139.899,38.809],[139.917,38.798],[139.92,38.788],[139.927,38.787],[139.949,38.765],[139.945,38.754],[139.959,38.75],[139.975,38.754],[139.994,38.747],[139.996,38.731],[140.0,38.725],[139.986,38.708],[139.989,38.685],[139.984,38.663],[139.996,38.638],[139.989,38.617],[139.992,38.605],[140.0,38.597],[140.019,38.589],[140.022,38.572],[140.03,38.559],[140.026,38.547]]]]}},{"type":"Feature","properties":{"name":"飽海郡遊佐町","code":"06461"},"geometry":{"type":"MultiPolygon","coordinates":[[[[140.062,39.093],[140.067,39.1],[140.061,39.113],[140.062,39.133],[140.008,39.123],[139.998,39.116],[139.994,39.106],[139.948,39.117],[139.946,39.113],[139.906,39.119],[139.87,39.118],[139.879,39.097],[139.873,39.088],[139.867,39.052],[139.84,38.985],[139.857,38.976],[139.867,38.98],[139.868,38.991],[139.876,39.001],[139.896,38.998],[139.9,38.991],[139.923,38.986],[139.939,38.987],[139.948,38.993],[139.963,38.996],[139.987,39.007],[140.012,39.008],[140.031,39.045],[140.039,39.046],[140.04,39.069],[140.06,39.083],[140.062,39.093]]]]}}]}