{"type":"FeatureCollection","features":[{"type":"Feature","properties":{"name":"福島市","code":"07201"},"geometry":{"type":"MultiPolygon","coordinates":[[[[140.484,37.902],[140.477,37.907],[140.47,37.918],[140.467,37.938],[140.475,37.947],[140.461,37.953],[140.448,37.951],[140.445,37.957],[140.434,37.954],[140.424,37.957],[140.415,37.963],[140.409,37.964],[140.408,37.974],[140.399,37.974],[140.388,37.969],[140.386,37.965],[140.386,37.954],[140.355,37.958],[140.356,37.952],[140.349,37.95],[140.329,37.958],[140.317,37.958],[140.302,37.969],[140.292,37.97],[140.277,37.976],[140.271,37.967],[140.273,37.957],[140.278,37.953],[140.275,37.947],[140.279,37.943],[140.279,37.934],[140.272,37.92],[140.267,37.917],[140.265,37.906],[140.271,37.891],[140.265,37.886],[140.265,37.88],[140.27,37.874],[140.27,37.867],[140.266,37.863],[140.267,37.848],[140.262,37.84],[140.262,37.834],[140.269,37.824],[140.291,37.815],[140.299,37.808],[140.29,37.801],[140.282,37.798],[140.282,37.792],[140.276,37.782],[140.266,37.779],[140.255,37.765],[140.244,37.758],[140.237,37.746],[140.243,37.734],[140.232,37.73],[140.229,37.717],[140.231,37.708],[140.237,37.704],[140.237,37.695],[140.232,37.69],[140.231,37.679],[140.245,37.676],[140.26,37.667],[140.278,37.662],[140.283,37.654],[140.281,37.642],[140.288,37.64],[140.297,37.645],[140.33,37.648],[140.334,37.65],[140.347,37.647],[140.361,37.648],[140.378,37.651],[140.392,37.647],[140.403,37.648],[140.415,37.643],[140.425,37.645],[140.437,37.645],[140.443,37.649],[140.456,37.647],[140.474,37.648],[140.485,37.651],[140.483,37.642],[140.491,37.639],[140.502,37.638],[140.503,37.633],[140.499,37.626],[140.507,37.626],[140.513,37.634],[140.515,37.642],[140.528,37.644],[140.525,37.636],[140.55,37.643],[140.549,37.651],[140.555,37.651],[140.569,37.658],[140.561,37.664],[140.562,37.671],[140.548,37.675],[140.547,37.69],[140.54,37.694],[140.547,37.701],[140.546,37.709],[140.543,37.712],[140.545,37.728],[140.55,37.739],[140.558,37.743],[140.57,37.761],[140.554,37.766],[140.533,37.761],[140.527,37.763],[140.528,37.771],[140.522,37.779],[140.524,37.79],[140.528,37.794],[140.517,37.798],[140.52,37.806],[140.51,37.809],[140.503,37.814],[140.496,37.811],[140.489,37.813],[140.492,37.827],[140.482,37.827],[140.472,37.841],[140.475,37.855],[140.467,37.858],[140.459,37.865],[140.459,37.874],[140.471,37.886],[140.468,37.894],[140.484,37.902]]]]}},{"type":"Feature","properties":{"name":"会津若松市","code":"07202"},"geometry":{"type":"MultiPolygon","coordinates":[[[[139.928,37.579],[139.907,37.583],[139.896,37.577],[139.896,37.562],[139.906,37.559],[139.903,37.546],[139.874,37.547],[139.872,37.543],[139.873,37.533],[139.867,37.53],[139.846,37.531],[139.85,37.525],[139.845,37.511],[139.839,37.506],[139.84,37.498],[139.851,37.488],[139.858,37.475],[139.862,37.473],[139.861,37.464],[139.864,37.458],[139.873,37.453],[139.877,37.462],[139.891,37.463],[139.898,37.459],[139.905,37.461],[139.908,37.45],[139.906,37.444],[139.911,37.431],[139.913,37.416],[139.921,37.409],[139.926,37.399],[139.923,37.392],[139.888,37.376],[139.885,37.368],[139.875,37.361],[139.884,37.354],[139.886,37.343],[139.904,37.352],[139.918,37.355],[139.92,37.349],[139.911,37.349],[139.91,37.34],[139.915,37.331],[139.92,37.325],[139.932,37.324],[139.948,37.328],[139.951,37.336],[139.958,37.337],[139.966,37.333],[139.99,37.327],[139.999,37.331],[140.009,37.327],[140.012,37.323],[140.019,37.335],[140.025,37.342],[140.036,37.337],[140.037,37.342],[140.051,37.356],[140.054,37.366],[140.047,37.389],[140.051,37.414],[140.058,37.418],[140.063,37.429],[140.079,37.433],[140.104,37.453],[140.113,37.47],[140.092,37.477],[140.04,37.501],[140.031,37.503],[140.026,37.508],[140.02,37.523],[140.014,37.531],[140.017,37.535],[140.016,37.543],[139.996,37.549],[139.988,37.552],[139.957,37.558],[139.952,37.569],[139.939,37.571],[139.93,37.578]]]]}},{"type":"Feature","properties":{"name":"郡山市","code":"07203"},"geometry":{"type":"MultiPolygon","coordinates":[[[[140.036,37.337],[140.041,37.333],[140.068,37.324],[140.076,37.317],[140.082,37.321],[140.103,37.321],[140.106,37.319],[140.115,37.32],[140.116,37.329],[140.121,37.328],[140.13,37.334],[140.135,37.33],[140.149,37.335],[140.152,37.332],[140.167,37.338],[140.168,37.346],[140.174,37.345],[140.174,37.355],[140.181,37.36],[140.184,37.369],[140.189,37.37],[140.198,37.358],[140.204,37.36],[140.22,37.356],[140.219,37.35],[140.228,37.341],[140.238,37.335],[140.252,37.334],[140.272,37.336],[140.276,37.334],[140.301,37.339],[140.31,37.342],[140.327,37.341],[140.348,37.344],[140.354,37.339],[140.376,37.343],[140.375,37.329],[140.39,37.322],[140.419,37.312],[140.432,37.309],[140.441,37.305],[140.455,37.307],[140.464,37.298],[140.471,37.297],[140.475,37.292],[140.492,37.288],[140.497,37.285],[140.508,37.284],[140.521,37.275],[140.523,37.27],[140.535,37.266],[140.546,37.273],[140.558,37.273],[140.555,37.291],[140.559,37.296],[140.558,37.311],[140.561,37.314],[140.55,37.326],[140.543,37.327],[140.538,37.333],[140.545,37.347],[140.555,37.361],[140.56,37.365],[140.542,37.374],[140.536,37.385],[140.529,37.39],[140.519,37.39],[140.494,37.388],[140.488,37.371],[140.477,37.372],[140.48,37.381],[140.478,37.39],[140.468,37.386],[140.459,37.39],[140.454,37.386],[140.444,37.392],[140.452,37.4],[140.451,37.408],[140.442,37.408],[140.441,37.416],[140.429,37.42],[140.425,37.428],[140.429,37.43],[140.444,37.426],[140.449,37.429],[140.446,37.435],[140.458,37.438],[140.463,37.433],[140.47,37.432],[140.474,37.444],[140.468,37.454],[140.473,37.469],[140.485,37.475],[140.478,37.481],[140.466,37.483],[140.46,37.48],[140.441,37.482],[140.424,37.486],[140.422,37.481],[140.413,37.482],[140.406,37.49],[140.391,37.477],[140.384,37.479],[140.373,37.471],[140.352,37.471],[140.344,37.479],[140.338,37.479],[140.336,37.47],[140.326,37.471],[140.318,37.478],[140.322,37.485],[140.32,37.49],[140.318,37.507],[140.318,37.515],[140.304,37.522],[140.307,37.526],[140.299,37.531],[140.297,37.546],[140.292,37.548],[140.286,37.555],[140.288,37.563],[140.278,37.582],[140.28,37.591],[140.287,37.599],[140.285,37.605],[140.29,37.612],[140.289,37.621],[140.285,37.626],[140.275,37.619],[140.261,37.602],[140.249,37.599],[140.238,37.59],[140.24,37.585],[140.239,37.572],[140.232,37.565],[140.228,37.555],[140.219,37.554],[140.21,37.562],[140.2,37.556],[140.192,37.554],[140.191,37.545],[140.183,37.541],[140.179,37.535],[140.165,37.527],[140.168,37.522],[140.177,37.517],[140.178,37.513],[140.19,37.51],[140.19,37.503],[140.187,37.496],[140.193,37.494],[140.199,37.485],[140.193,37.474],[140.199,37.47],[140.202,37.461],[140.199,37.449],[140.182,37.451],[140.176,37.458],[140.167,37.458],[140.16,37.461],[140.149,37.463],[140.133,37.464],[140.113,37.47],[140.104,37.453],[140.079,37.433],[140.063,37.429],[140.058,37.418],[140.051,37.414],[140.047,37.389],[140.054,37.366],[140.051,37.356],[140.037,37.342],[140.036,37.337]]]]}},{"type":"Feature","properties":{"name":"いわき市","code":"07204"},"geometry":{"type":"MultiPolygon","coordinates":[[[[140.877,37.277],[140.859,37.274],[140.853,37.259],[140.846,37.258],[140.838,37.262],[140.832,37.26],[140.827,37.254],[140.815,37.253],[140.807,37.254],[140.795,37.261],[140.788,37.267],[140.787,37.275],[140.793,37.285],[140.78,37.288],[140.779,37.296],[140.766,37.295],[140.766,37.299],[140.743,37.297],[140.729,37.308],[140.723,37.32],[140.714,37.319],[140.707,37.315],[140.696,37.315],[140.69,37.3],[140.695,37.299],[140.693,37.289],[140.689,37.287],[140.694,37.278],[140.686,37.268],[140.686,37.26],[140.683,37.253],[140.685,37.245],[140.683,37.234],[140.668,37.226],[140.662,37.228],[140.65,37.222],[140.647,37.218],[140.627,37.212],[140.618,37.204],[140.614,37.206],[140.607,37.204],[140.605,37.194],[140.608,37.188],[140.601,37.179],[140.61,37.17],[140.613,37.158],[140.612,37.154],[140.627,37.148],[140.633,37.155],[140.637,37.141],[140.643,37.133],[140.641,37.127],[140.646,37.119],[140.651,37.12],[140.657,37.111],[140.657,37.105],[140.662,37.101],[140.664,37.091],[140.653,37.085],[140.658,37.077],[140.654,37.072],[140.64,37.069],[140.643,37.057],[140.634,37.056],[140.624,37.047],[140.624,37.036],[140.621,37.034],[140.621,37.02],[140.614,37.013],[140.607,37.015],[140.599,37.005],[140.591,37.002],[140.577,36.993],[140.566,36.986],[140.57,36.975],[140.582,36.966],[140.583,36.953],[140.586,36.945],[140.594,36.934],[140.593,36.926],[140.598,36.925],[140.607,36.913],[140.612,36.911],[140.615,36.905],[140.623,36.903],[140.637,36.898],[140.647,36.901],[140.656,36.897],[140.665,36.896],[140.684,36.891],[140.702,36.884],[140.705,36.878],[140.714,36.873],[140.729,36.874],[140.734,36.872],[140.741,36.876],[140.746,36.871],[140.756,36.87],[140.767,36.862],[140.777,36.867],[140.786,36.862],[140.795,36.885],[140.801,36.894],[140.817,36.908],[140.827,36.913],[140.841,36.91],[140.854,36.92],[140.859,36.921],[140.872,36.928],[140.88,36.928],[140.892,36.937],[140.908,36.945],[140.915,36.942],[140.915,36.936],[140.925,36.935],[140.926,36.941],[140.938,36.953],[140.949,36.956],[140.96,36.968],[140.967,36.97],[140.968,36.984],[140.973,36.992],[140.983,36.995],[140.976,37.011],[140.973,37.023],[140.974,37.055],[140.983,37.089],[140.992,37.103],[140.999,37.111],[141.001,37.118],[140.998,37.123],[140.999,37.138],[141.003,37.152],[140.999,37.172],[141.0,37.184],[140.981,37.186],[140.968,37.189],[140.957,37.186],[140.936,37.196],[140.904,37.214],[140.901,37.22],[140.875,37.221],[140.867,37.228],[140.878,37.241],[140.875,37.253],[140.867,37.26],[140.872,37.264],[140.872,37.271],[140.877,37.277]]]]}},{"type":"Feature","properties":{"name":"白河市","code":"07205"},"geometry":{"type":"MultiPolygon","coordinates":[[[[140.279,37.221],[140.254,37.22],[140.247,37.223],[140.241,37.221],[140.23,37.226],[140.224,37.224],[140.211,37.228],[140.204,37.237],[140.2,37.237],[140.179,37.245],[140.17,37.242],[140.148,37.245],[140.14,37.254],[140.132,37.255],[140.125,37.26],[140.114,37.262],[140.112,37.258],[140.099,37.252],[140.099,37.243],[140.132,37.216],[140.138,37.205],[140.146,37.212],[140.158,37.201],[140.166,37.199],[140.171,37.192],[140.188,37.184],[140.185,37.175],[140.202,37.168],[140.21,37.167],[140.211,37.16],[140.201,37.141],[140.19,37.131],[140.191,37.123],[140.183,37.109],[140.174,37.105],[140.168,37.106],[140.168,37.098],[140.16,37.094],[140.151,37.094],[140.158,37.081],[140.164,37.079],[140.173,37.07],[140.185,37.069],[140.193,37.066],[140.191,37.057],[140.2,37.048],[140.199,37.028],[140.203,37.024],[140.22,37.019],[140.225,37.024],[140.242,37.024],[140.249,37.026],[140.251,37.009],[140.267,37.003],[140.269,37.009],[140.276,37.014],[140.284,37.015],[140.295,37.02],[140.3,37.017],[140.31,37.017],[140.316,37.02],[140.313,37.031],[140.32,37.037],[140.316,37.042],[140.326,37.049],[140.34,37.052],[140.354,37.049],[140.351,37.062],[140.356,37.065],[140.354,37.073],[140.37,37.076],[140.373,37.08],[140.383,37.09],[140.39,37.09],[140.398,37.099],[140.412,37.108],[140.409,37.117],[140.404,37.121],[140.392,37.122],[140.387,37.126],[140.37,37.122],[140.354,37.118],[140.338,37.123],[140.33,37.121],[140.316,37.124],[140.315,37.121],[140.295,37.129],[140.292,37.14],[140.277,37.143],[140.266,37.147],[140.273,37.158],[140.274,37.165],[140.261,37.168],[140.235,37.181],[140.24,37.186],[140.253,37.189],[140.289,37.192],[140.293,37.189],[140.302,37.199],[140.295,37.203],[140.297,37.211],[140.29,37.218],[140.279,37.221]]]]}},{"type":"Feature","properties":{"name":"須賀川市","code":"07207"},"geometry":{"type":"MultiPolygon","coordinates":[[[[140.106,37.319],[140.111,37.311],[140.124,37.3],[140.138,37.3],[140.155,37.285],[140.179,37.276],[140.188,37.276],[140.199,37.27],[140.208,37.273],[140.216,37.269],[140.238,37.262],[140.245,37.261],[140.257,37.256],[140.262,37.257],[140.277,37.252],[140.284,37.255],[140.298,37.246],[140.317,37.246],[140.329,37.252],[140.329,37.259],[140.337,37.27],[140.342,37.281],[140.347,37.28],[140.364,37.272],[140.381,37.267],[140.371,37.254],[140.363,37.25],[140.384,37.244],[140.389,37.245],[140.399,37.247],[140.41,37.242],[140.423,37.241],[140.423,37.232],[140.426,37.228],[140.437,37.227],[140.448,37.229],[140.458,37.224],[140.471,37.226],[140.485,37.225],[140.487,37.241],[140.491,37.247],[140.501,37.25],[140.511,37.249],[140.519,37.257],[140.523,37.264],[140.535,37.266],[140.523,37.27],[140.521,37.275],[140.508,37.284],[140.497,37.285],[140.492,37.288],[140.475,37.292],[140.471,37.297],[140.464,37.298],[140.455,37.307],[140.441,37.305],[140.432,37.309],[140.419,37.312],[140.39,37.322],[140.375,37.329],[140.376,37.343],[140.354,37.339],[140.348,37.344],[140.327,37.341],[140.31,37.342],[140.301,37.339],[140.276,37.334],[140.272,37.336],[140.252,37.334],[140.238,37.335],[140.228,37.341],[140.219,37.35],[140.22,37.356],[140.204,37.36],[140.198,37.358],[140.189,37.37],[140.184,37.369],[140.181,37.36],[140.174,37.355],[140.174,37.345],[140.168,37.346],[140.167,37.338],[140.152,37.332],[140.149,37.335],[140.135,37.33],[140.13,37.334],[140.121,37.328],[140.116,37.329],[140.115,37.32],[140.106,37.319]]]]}},{"type":"Feature","properties":{"name":"喜多方市","code":"07208"},"geometry":{"type":"MultiPolygon","coordinates":[[[[139.928,37.579],[139.955,37.591],[139.961,37.599],[139.969,37.599],[139.973,37.607],[139.986,37.609],[139.998,37.605],[139.995,37.622],[140.0,37.63],[139.989,37.632],[139.984,37.635],[139.966,37.643],[139.958,37.651],[139.947,37.653],[139.934,37.652],[139.918,37.646],[139.913,37.648],[139.912,37.655],[139.916,37.657],[139.925,37.669],[139.926,37.674],[139.935,37.68],[139.947,37.682],[139.949,37.688],[139.96,37.697],[139.966,37.696],[139.97,37.705],[139.976,37.711],[139.976,37.716],[139.991,37.718],[139.999,37.725],[139.992,37.732],[139.995,37.741],[139.993,37.759],[139.978,37.766],[139.979,37.774],[139.973,37.776],[139.967,37.784],[139.969,37.787],[139.96,37.796],[139.962,37.806],[139.958,37.815],[139.95,37.816],[139.941,37.822],[139.933,37.829],[139.925,37.814],[139.903,37.814],[139.898,37.81],[139.88,37.81],[139.864,37.825],[139.856,37.826],[139.838,37.815],[139.831,37.815],[139.822,37.812],[139.813,37.804],[139.804,37.806],[139.803,37.814],[139.795,37.818],[139.782,37.832],[139.758,37.825],[139.741,37.82],[139.739,37.816],[139.728,37.812],[139.737,37.806],[139.737,37.801],[139.745,37.791],[139.737,37.789],[139.73,37.779],[139.737,37.761],[139.734,37.75],[139.726,37.744],[139.723,37.735],[139.717,37.725],[139.715,37.707],[139.706,37.693],[139.706,37.684],[139.711,37.675],[139.706,37.673],[139.712,37.664],[139.71,37.653],[139.703,37.649],[139.698,37.64],[139.7,37.635],[139.684,37.634],[139.674,37.63],[139.671,37.622],[139.676,37.62],[139.67,37.609],[139.683,37.606],[139.688,37.607],[139.692,37.615],[139.701,37.614],[139.711,37.599],[139.709,37.592],[139.718,37.592],[139.727,37.588],[139.744,37.597],[139.757,37.598],[139.761,37.594],[139.779,37.591],[139.782,37.597],[139.781,37.609],[139.777,37.615],[139.781,37.621],[139.782,37.628],[139.787,37.634],[139.803,37.637],[139.81,37.631],[139.81,37.624],[139.798,37.624],[139.801,37.613],[139.793,37.606],[139.804,37.605],[139.803,37.612],[139.818,37.609],[139.827,37.603],[139.831,37.605],[139.845,37.592],[139.849,37.594],[139.862,37.588],[139.861,37.582],[139.874,37.584],[139.884,37.593],[139.888,37.59],[139.904,37.59],[139.907,37.583],[139.928,37.579]]]]}},{"type":"Feature","properties":{"name":"相馬市","code":"07209"},"geometry":{"type":"MultiPolygon","coordinates":[[[[141.011,37.722],[141.012,37.733],[141.008,37.75],[141.0,37.761],[140.991,37.768],[140.988,37.778],[140.986,37.807],[140.986,37.824],[140.96,37.833],[140.959,37.841],[140.946,37.838],[140.926,37.838],[140.921,37.836],[140.909,37.841],[140.884,37.844],[140.87,37.842],[140.854,37.842],[140.856,37.829],[140.854,37.821],[140.858,37.814],[140.854,37.807],[140.858,37.803],[140.852,37.795],[140.83,37.795],[140.824,37.799],[140.811,37.796],[140.801,37.798],[140.775,37.806],[140.773,37.797],[140.779,37.791],[140.787,37.789],[140.794,37.782],[140.803,37.78],[140.796,37.774],[140.787,37.775],[140.775,37.782],[140.757,37.785],[140.738,37.787],[140.727,37.781],[140.723,37.793],[140.712,37.801],[140.694,37.803],[140.69,37.797],[140.678,37.787],[140.684,37.77],[140.7,37.764],[140.702,37.76],[140.724,37.762],[140.736,37.768],[140.736,37.757],[140.728,37.752],[140.739,37.75],[140.748,37.753],[140.756,37.752],[140.762,37.76],[140.769,37.761],[140.794,37.756],[140.799,37.756],[140.83,37.746],[140.84,37.734],[140.848,37.734],[140.853,37.739],[140.866,37.741],[140.871,37.746],[140.882,37.746],[140.889,37.741],[140.901,37.739],[140.913,37.744],[140.924,37.737],[140.934,37.745],[140.949,37.742],[140.954,37.744],[140.973,37.739],[140.98,37.735],[140.989,37.733],[140.999,37.727],[141.001,37.723],[141.011,37.722]]]]}},{"type":"Feature","properties":{"name":"二本松市","code":"07210"},"geometry":{"type":"MultiPolygon","coordinates":[[[[140.281,37.642],[140.285,37.626],[140.289,37.621],[140.293,37.618],[140.31,37.616],[140.315,37.613],[140.331,37.614],[140.345,37.61],[140.346,37.604],[140.343,37.596],[140.334,37.588],[140.339,37.582],[140.348,37.577],[140.354,37.567],[140.353,37.561],[140.359,37.556],[140.369,37.558],[140.377,37.562],[140.388,37.563],[140.401,37.559],[140.404,37.55],[140.41,37.542],[140.418,37.538],[140.434,37.553],[140.441,37.549],[140.447,37.541],[140.457,37.541],[140.465,37.537],[140.468,37.529],[140.477,37.53],[140.484,37.527],[140.491,37.527],[140.506,37.523],[140.503,37.515],[140.513,37.51],[140.518,37.504],[140.528,37.499],[140.535,37.508],[140.545,37.511],[140.55,37.506],[140.558,37.501],[140.567,37.503],[140.573,37.509],[140.584,37.51],[140.603,37.518],[140.608,37.521],[140.617,37.522],[140.622,37.52],[140.628,37.525],[140.639,37.526],[140.646,37.535],[140.657,37.538],[140.67,37.534],[140.682,37.538],[140.684,37.543],[140.686,37.547],[140.681,37.556],[140.675,37.56],[140.678,37.568],[140.683,37.572],[140.685,37.579],[140.676,37.587],[140.661,37.585],[140.643,37.573],[140.635,37.573],[140.631,37.58],[140.64,37.584],[140.631,37.606],[140.621,37.61],[140.605,37.609],[140.597,37.614],[140.586,37.614],[140.577,37.626],[140.567,37.633],[140.569,37.639],[140.565,37.644],[140.555,37.651],[140.549,37.651],[140.55,37.643],[140.525,37.636],[140.528,37.644],[140.515,37.642],[140.513,37.634],[140.507,37.626],[140.499,37.626],[140.503,37.633],[140.502,37.638],[140.491,37.639],[140.483,37.642],[140.485,37.651],[140.474,37.648],[140.456,37.647],[140.443,37.649],[140.437,37.645],[140.425,37.645],[140.415,37.643],[140.403,37.648],[140.392,37.647],[140.378,37.651],[140.361,37.648],[140.347,37.647],[140.334,37.65],[140.33,37.648],[140.297,37.645],[140.288,37.64],[140.281,37.642]]]]}},{"type":"Feature","properties":{"name":"田村市","code":"07211"},"geometry":{"type":"MultiPolygon","coordinates":[[[[140.56,37.365],[140.571,37.366],[140.583,37.354],[140.59,37.353],[140.597,37.347],[140.607,37.349],[140.615,37.345],[140.641,37.34],[140.649,37.323],[140.636,37.304],[140.64,37.299],[140.637,37.287],[140.647,37.276],[140.655,37.275],[140.663,37.278],[140.667,37.287],[140.689,37.287],[140.693,37.289],[140.695,37.299],[140.69,37.3],[140.696,37.315],[140.707,37.315],[140.714,37.319],[140.723,37.32],[140.72,37.324],[140.719,37.334],[140.707,37.346],[140.701,37.357],[140.705,37.367],[140.7,37.375],[140.707,37.379],[140.716,37.389],[140.715,37.397],[140.726,37.4],[140.728,37.405],[140.741,37.401],[140.743,37.394],[140.755,37.393],[140.764,37.384],[140.77,37.387],[140.795,37.381],[140.815,37.382],[140.826,37.38],[140.835,37.375],[140.851,37.373],[140.852,37.384],[140.86,37.387],[140.859,37.407],[140.862,37.41],[140.854,37.421],[140.85,37.438],[140.845,37.441],[140.843,37.45],[140.846,37.455],[140.836,37.462],[140.834,37.468],[140.82,37.464],[140.814,37.471],[140.799,37.473],[140.792,37.469],[140.788,37.473],[140.78,37.476],[140.772,37.472],[140.764,37.479],[140.754,37.486],[140.748,37.485],[140.74,37.491],[140.731,37.49],[140.703,37.502],[140.692,37.503],[140.705,37.523],[140.696,37.526],[140.682,37.538],[140.67,37.534],[140.657,37.538],[140.646,37.535],[140.639,37.526],[140.628,37.525],[140.622,37.52],[140.617,37.522],[140.608,37.521],[140.603,37.518],[140.584,37.51],[140.573,37.509],[140.567,37.503],[140.558,37.501],[140.564,37.493],[140.563,37.485],[140.552,37.471],[140.546,37.465],[140.54,37.475],[140.524,37.478],[140.523,37.465],[140.514,37.466],[140.505,37.456],[140.526,37.449],[140.527,37.444],[140.521,37.439],[140.521,37.431],[140.516,37.43],[140.519,37.419],[140.506,37.417],[140.512,37.409],[140.519,37.403],[140.515,37.393],[140.519,37.39],[140.529,37.39],[140.536,37.385],[140.542,37.374],[140.56,37.365]]]]}},{"type":"Feature","properties":{"name":"南相馬市","code":"07212"},"geometry":{"type":"MultiPolygon","coordinates":[[[[140.84,37.734],[140.843,37.722],[140.813,37.707],[140.813,37.702],[140.823,37.701],[140.819,37.694],[140.82,37.682],[140.814,37.675],[140.825,37.67],[140.821,37.656],[140.828,37.637],[140.833,37.63],[140.824,37.615],[140.815,37.615],[140.824,37.61],[140.829,37.599],[140.834,37.593],[140.84,37.592],[140.843,37.583],[140.838,37.577],[140.844,37.57],[140.844,37.559],[140.858,37.552],[140.864,37.552],[140.874,37.546],[140.879,37.529],[140.896,37.522],[140.906,37.522],[140.914,37.519],[140.918,37.528],[140.932,37.531],[140.94,37.526],[140.959,37.519],[140.968,37.519],[140.982,37.515],[140.989,37.509],[141.0,37.508],[141.011,37.51],[141.034,37.514],[141.03,37.529],[141.029,37.554],[141.027,37.561],[141.025,37.583],[141.027,37.603],[141.023,37.615],[141.022,37.627],[141.024,37.643],[141.019,37.657],[141.022,37.664],[141.014,37.677],[141.011,37.688],[141.011,37.722],[141.001,37.723],[140.999,37.727],[140.989,37.733],[140.98,37.735],[140.973,37.739],[140.954,37.744],[140.949,37.742],[140.934,37.745],[140.924,37.737],[140.913,37.744],[140.901,37.739],[140.889,37.741],[140.882,37.746],[140.871,37.746],[140.866,37.741],[140.853,37.739],[140.848,37.734],[140.84,37.734]]]]}},{"type":"Feature","properties":{"name":"伊達市","code":"07213"},"geometry":{"type":"MultiPolygon","coordinates":[[[[140.546,37.709],[140.555,37.714],[140.566,37.714],[140.571,37.703],[140.58,37.698],[140.579,37.695],[140.588,37.689],[140.594,37.7],[140.611,37.714],[140.632,37.71],[140.645,37.712],[140.662,37.702],[140.662,37.709],[140.668,37.711],[140.67,37.723],[140.677,37.728],[140.677,37.736],[140.683,37.742],[140.701,37.745],[140.705,37.75],[140.728,37.752],[140.736,37.757],[140.736,37.768],[140.724,37.762],[140.702,37.76],[140.7,37.764],[140.684,37.77],[140.678,37.787],[140.69,37.797],[140.694,37.803],[140.686,37.82],[140.684,37.831],[140.68,37.837],[140.687,37.842],[140.692,37.85],[140.693,37.857],[140.683,37.874],[140.683,37.88],[140.691,37.884],[140.689,37.889],[140.667,37.895],[140.66,37.901],[140.647,37.899],[140.645,37.895],[140.627,37.899],[140.622,37.903],[140.616,37.915],[140.598,37.908],[140.593,37.897],[140.595,37.89],[140.587,37.881],[140.593,37.873],[140.594,37.865],[140.583,37.866],[140.576,37.857],[140.563,37.857],[140.564,37.845],[140.552,37.839],[140.546,37.84],[140.541,37.835],[140.514,37.831],[140.507,37.828],[140.492,37.827],[140.489,37.813],[140.496,37.811],[140.503,37.814],[140.51,37.809],[140.52,37.806],[140.517,37.798],[140.528,37.794],[140.524,37.79],[140.522,37.779],[140.528,37.771],[140.527,37.763],[140.533,37.761],[140.554,37.766],[140.57,37.761],[140.558,37.743],[140.55,37.739],[140.545,37.728],[140.543,37.712],[140.546,37.709]]]]}},{"type":"Feature","properties":{"name":"本宮市","code":"07214"},"geometry":{"type":"MultiPolygon","coordinates":[[[[140.478,37.481],[140.482,37.485],[140.501,37.483],[140.507,37.485],[140.518,37.504],[140.513,37.51],[140.503,37.515],[140.506,37.523],[140.491,37.527],[140.484,37.527],[140.477,37.53],[140.468,37.529],[140.465,37.537],[140.457,37.541],[140.447,37.541],[140.441,37.549],[140.434,37.553],[140.418,37.538],[140.414,37.532],[140.397,37.53],[140.387,37.535],[140.384,37.525],[140.385,37.52],[140.36,37.513],[140.348,37.516],[140.335,37.508],[140.318,37.507],[140.32,37.49],[140.322,37.485],[140.318,37.478],[140.326,37.471],[140.336,37.47],[140.338,37.479],[140.344,37.479],[140.352,37.471],[140.373,37.471],[140.384,37.479],[140.391,37.477],[140.406,37.49],[140.413,37.482],[140.422,37.481],[140.424,37.486],[140.441,37.482],[140.46,37.48],[140.466,37.483],[140.478,37.481]]]]}},{"type":"Feature","properties":{"name":"伊達郡桑折町","code":"07301"},"geometry":{"type":"MultiPolygon","coordinates":[[[[140.492,37.827],[140.507,37.828],[140.514,37.831],[140.541,37.835],[140.546,37.84],[140.552,37.839],[140.564,37.845],[140.563,37.857],[140.551,37.862],[140.546,37.861],[140.54,37.872],[140.502,37.883],[140.487,37.893],[140.488,37.9],[140.484,37.902],[140.468,37.894],[140.471,37.886],[140.459,37.874],[140.459,37.865],[140.467,37.858],[140.475,37.855],[140.472,37.841],[140.482,37.827],[140.492,37.827]]]]}},{"type":"Feature","properties":{"name":"伊達郡国見町","code":"07303"},"geometry":{"type":"MultiPolygon","coordinates":[[[[140.598,37.908],[140.592,37.906],[140.575,37.914],[140.566,37.923],[140.563,37.918],[140.563,37.911],[140.537,37.908],[140.531,37.905],[140.522,37.909],[140.516,37.903],[140.502,37.905],[140.498,37.9],[140.488,37.9],[140.487,37.893],[140.502,37.883],[140.54,37.872],[140.546,37.861],[140.551,37.862],[140.563,37.857],[140.576,37.857],[140.583,37.866],[140.594,37.865],[140.593,37.873],[140.587,37.881],[140.595,37.89],[140.593,37.897],[140.598,37.908]]]]}},{"type":"Feature","properties":{"name":"伊達郡川俣町","code":"07308"},"geometry":{"type":"MultiPolygon","coordinates":[[[[140.555,37.651],[140.565,37.644],[140.569,37.639],[140.567,37.633],[140.577,37.626],[140.586,37.614],[140.597,37.614],[140.605,37.609],[140.621,37.61],[140.631,37.606],[140.64,37.584],[140.631,37.58],[140.635,37.573],[140.643,37.573],[140.661,37.585],[140.676,37.587],[140.685,37.579],[140.683,37.572],[140.678,37.568],[140.675,37.56],[140.681,37.556],[140.686,37.547],[140.695,37.56],[140.701,37.575],[140.713,37.573],[140.724,37.587],[140.726,37.593],[140.718,37.601],[140.706,37.606],[140.699,37.605],[140.677,37.621],[140.669,37.63],[140.667,37.642],[140.669,37.653],[140.665,37.656],[140.667,37.676],[140.66,37.68],[140.656,37.688],[140.646,37.684],[140.645,37.692],[140.65,37.698],[140.662,37.702],[140.645,37.712],[140.632,37.71],[140.611,37.714],[140.594,37.7],[140.588,37.689],[140.579,37.695],[140.58,37.698],[140.571,37.703],[140.566,37.714],[140.555,37.714],[140.546,37.709],[140.547,37.701],[140.54,37.694],[140.547,37.69],[140.548,37.675],[140.562,37.671],[140.561,37.664],[140.569,37.658],[140.555,37.651]]]]}},{"type":"Feature","properties":{"name":"安達郡大玉村","code":"07322"},"geometry":{"type":"MultiPolygon","coordinates":[[[[140.318,37.507],[140.335,37.508],[140.348,37.516],[140.36,37.513],[140.385,37.52],[140.384,37.525],[140.387,37.535],[140.397,37.53],[140.414,37.532],[140.418,37.538],[140.41,37.542],[140.404,37.55],[140.401,37.559],[140.388,37.563],[140.377,37.562],[140.369,37.558],[140.359,37.556],[140.353,37.561],[140.354,37.567],[140.348,37.577],[140.339,37.582],[140.334,37.588],[140.343,37.596],[140.346,37.604],[140.345,37.61],[140.331,37.614],[140.315,37.613],[140.31,37.616],[140.293,37.618],[140.289,37.621],[140.29,37.612],[140.285,37.605],[140.287,37.599],[140.28,37.591],[140.278,37.582],[140.288,37.563],[140.286,37.555],[140.292,37.548],[140.297,37.546],[140.299,37.531],[140.307,37.526],[140.304,37.522],[140.318,37.515],[140.318,37.507]]]]}},{"type":"Feature","properties":{"name":"岩瀬郡鏡石町","code":"07342"},"geometry":{"type":"MultiPolygon","coordinates":[[[[140.317,37.246],[140.31,37.235],[140.317,37.228],[140.321,37.217],[140.331,37.218],[140.333,37.223],[140.345,37.219],[140.356,37.227],[140.367,37.221],[140.389,37.224],[140.393,37.223],[140.389,37.245],[140.384,37.244],[140.363,37.25],[140.371,37.254],[140.381,37.264],[140.364,37.272],[140.347,37.28],[140.342,37.281],[140.337,37.27],[140.329,37.259],[140.329,37.252],[140.317,37.246]]]]}},{"type":"Feature","properties":{"name":"岩瀬郡天栄村","code":"07344"},"geometry":{"type":"MultiPolygon","coordinates":[[[[140.012,37.323],[140.001,37.319],[139.999,37.31],[139.993,37.308],[139.992,37.297],[139.976,37.283],[139.978,37.273],[139.963,37.273],[139.965,37.265],[139.969,37.259],[139.965,37.25],[139.966,37.247],[139.952,37.236],[139.948,37.228],[139.948,37.221],[139.958,37.217],[139.966,37.207],[139.982,37.202],[139.994,37.196],[140.0,37.2],[140.018,37.197],[140.031,37.2],[140.039,37.206],[140.048,37.203],[140.052,37.208],[140.071,37.21],[140.074,37.217],[140.072,37.224],[140.083,37.226],[140.089,37.233],[140.09,37.24],[140.099,37.243],[140.099,37.252],[140.112,37.258],[140.114,37.262],[140.125,37.26],[140.132,37.255],[140.14,37.254],[140.148,37.245],[140.17,37.242],[140.179,37.245],[140.2,37.237],[140.204,37.237],[140.211,37.228],[140.224,37.224],[140.23,37.226],[140.241,37.221],[140.247,37.223],[140.254,37.22],[140.279,37.221],[140.283,37.225],[140.293,37.226],[140.3,37.224],[140.302,37.234],[140.31,37.235],[140.317,37.246],[140.298,37.246],[140.284,37.255],[140.277,37.252],[140.262,37.257],[140.257,37.256],[140.245,37.261],[140.238,37.262],[140.216,37.269],[140.208,37.273],[140.199,37.27],[140.188,37.276],[140.179,37.276],[140.155,37.285],[140.138,37.3],[140.124,37.3],[140.111,37.311],[140.106,37.319],[140.103,37.321],[140.082,37.321],[140.076,37.317],[140.068,37.324],[140.041,37.333],[140.036,37.337],[140.025,37.342],[140.019,37.335],[140.012,37.323]]]]}},{"type":"Feature","properties":{"name":"南会津郡下郷町","code":"07362"},"geometry":{"type":"MultiPolygon","coordinates":[[[[139.875,37.361],[139.869,37.361],[139.853,37.356],[139.849,37.346],[139.84,37.347],[139.833,37.344],[139.832,37.337],[139.836,37.332],[139.829,37.326],[139.829,37.321],[139.811,37.308],[139.804,37.309],[139.792,37.303],[139.792,37.288],[139.778,37.281],[139.769,37.285],[139.762,37.284],[139.744,37.292],[139.735,37.288],[139.731,37.279],[139.718,37.273],[139.713,37.273],[139.71,37.262],[139.706,37.254],[139.754,37.249],[139.752,37.236],[139.761,37.237],[139.774,37.232],[139.782,37.232],[139.787,37.237],[139.796,37.238],[139.799,37.241],[139.806,37.24],[139.81,37.232],[139.823,37.226],[139.834,37.226],[139.842,37.214],[139.844,37.208],[139.853,37.2],[139.852,37.19],[139.836,37.182],[139.833,37.177],[139.843,37.167],[139.852,37.169],[139.856,37.165],[139.855,37.158],[139.866,37.147],[139.878,37.146],[139.895,37.153],[139.902,37.154],[139.907,37.15],[139.916,37.148],[139.924,37.152],[139.934,37.154],[139.944,37.153],[139.955,37.155],[139.961,37.153],[139.964,37.161],[139.96,37.18],[139.968,37.187],[139.982,37.202],[139.966,37.207],[139.958,37.217],[139.948,37.221],[139.948,37.228],[139.952,37.236],[139.966,37.247],[139.965,37.25],[139.969,37.259],[139.965,37.265],[139.963,37.273],[139.978,37.273],[139.976,37.283],[139.992,37.297],[139.993,37.308],[139.999,37.31],[140.001,37.319],[140.012,37.323],[140.009,37.327],[139.999,37.331],[139.99,37.327],[139.966,37.333],[139.958,37.337],[139.951,37.336],[139.948,37.328],[139.932,37.324],[139.92,37.325],[139.915,37.331],[139.91,37.34],[139.911,37.349],[139.92,37.349],[139.918,37.355],[139.904,37.352],[139.886,37.343],[139.884,37.354],[139.875,37.361]]]]}},{"type":"Feature","properties":{"name":"南会津郡檜枝岐村","code":"07364"},"geometry":{"type":"MultiPolygon","coordinates":[[[[139.374,37.118],[139.358,37.115],[139.343,37.121],[139.34,37.135],[139.334,37.148],[139.334,37.155],[139.341,37.158],[139.344,37.165],[139.341,37.171],[139.335,37.173],[139.326,37.169],[139.299,37.166],[139.286,37.162],[139.275,37.168],[139.271,37.175],[139.261,37.182],[139.261,37.193],[139.257,37.202],[139.242,37.195],[139.238,37.188],[139.245,37.181],[139.243,37.17],[139.251,37.166],[139.253,37.161],[139.246,37.145],[139.243,37.127],[139.235,37.114],[139.236,37.102],[139.241,37.094],[139.239,37.091],[139.249,37.081],[139.247,37.071],[139.257,37.056],[139.26,37.043],[139.255,37.04],[139.249,37.031],[139.249,37.024],[139.243,37.015],[139.251,37.005],[139.254,36.99],[139.252,36.977],[139.248,36.971],[139.251,36.962],[139.242,36.949],[139.243,36.945],[139.23,36.94],[139.241,36.929],[139.255,36.932],[139.261,36.938],[139.268,36.939],[139.282,36.931],[139.295,36.934],[139.305,36.926],[139.309,36.927],[139.328,36.925],[139.342,36.928],[139.353,36.916],[139.373,36.918],[139.383,36.911],[139.393,36.911],[139.399,36.92],[139.412,36.928],[139.427,36.924],[139.435,36.936],[139.434,36.942],[139.457,36.954],[139.46,36.97],[139.456,36.97],[139.443,36.981],[139.447,36.992],[139.444,36.999],[139.448,37.002],[139.449,37.011],[139.445,37.016],[139.437,37.021],[139.438,37.025],[139.417,37.038],[139.421,37.04],[139.421,37.049],[139.415,37.07],[139.401,37.071],[139.382,37.082],[139.386,37.09],[139.387,37.107],[139.383,37.108],[139.374,37.118]]]]}},{"type":"Feature","properties":{"name":"南会津郡只見町","code":"07367"},"geometry":{"type":"MultiPolygon","coordinates":[[[[139.374,37.118],[139.395,37.123],[139.408,37.135],[139.421,37.132],[139.432,37.138],[139.435,37.146],[139.449,37.155],[139.457,37.158],[139.459,37.164],[139.458,37.176],[139.469,37.181],[139.474,37.196],[139.481,37.21],[139.491,37.216],[139.484,37.222],[139.48,37.231],[139.483,37.249],[139.49,37.255],[139.482,37.267],[139.48,37.278],[139.473,37.286],[139.475,37.292],[139.484,37.288],[139.492,37.289],[139.502,37.286],[139.504,37.295],[139.517,37.3],[139.518,37.305],[139.527,37.311],[139.54,37.306],[139.553,37.305],[139.557,37.299],[139.566,37.305],[139.574,37.308],[139.574,37.322],[139.565,37.328],[139.548,37.336],[139.552,37.345],[139.548,37.352],[139.552,37.357],[139.544,37.363],[139.527,37.365],[139.52,37.37],[139.516,37.379],[139.504,37.369],[139.498,37.369],[139.489,37.359],[139.475,37.347],[139.462,37.347],[139.448,37.334],[139.429,37.333],[139.426,37.34],[139.417,37.34],[139.416,37.345],[139.407,37.347],[139.399,37.363],[139.382,37.355],[139.379,37.363],[139.365,37.382],[139.375,37.386],[139.381,37.402],[139.378,37.413],[139.392,37.424],[139.39,37.43],[139.393,37.436],[139.403,37.445],[139.398,37.46],[139.386,37.464],[139.369,37.465],[139.363,37.47],[139.351,37.466],[139.346,37.46],[139.335,37.458],[139.326,37.462],[139.307,37.459],[139.287,37.452],[139.277,37.453],[139.259,37.447],[139.251,37.452],[139.237,37.445],[139.223,37.449],[139.213,37.439],[139.208,37.429],[139.208,37.417],[139.199,37.413],[139.208,37.401],[139.208,37.396],[139.215,37.391],[139.222,37.393],[139.232,37.387],[139.231,37.38],[139.238,37.373],[139.234,37.357],[139.234,37.344],[139.228,37.343],[139.218,37.334],[139.222,37.315],[139.216,37.309],[139.212,37.286],[139.205,37.284],[139.192,37.269],[139.175,37.256],[139.165,37.239],[139.166,37.232],[139.173,37.225],[139.183,37.217],[139.187,37.21],[139.195,37.204],[139.197,37.194],[139.205,37.194],[139.213,37.2],[139.218,37.209],[139.226,37.204],[139.228,37.197],[139.238,37.188],[139.242,37.195],[139.257,37.202],[139.261,37.193],[139.261,37.182],[139.271,37.175],[139.275,37.168],[139.286,37.162],[139.299,37.166],[139.326,37.169],[139.335,37.173],[139.341,37.171],[139.344,37.165],[139.341,37.158],[139.334,37.155],[139.334,37.148],[139.34,37.135],[139.343,37.121],[139.358,37.115],[139.374,37.118]]]]}},{"type":"Feature","properties":{"name":"南会津郡南会津町","code":"07368"},"geometry":{"type":"MultiPolygon","coordinates":[[[[139.706,37.254],[139.696,37.247],[139.691,37.25],[139.672,37.246],[139.67,37.241],[139.657,37.239],[139.655,37.23],[139.635,37.228],[139.622,37.228],[139.618,37.215],[139.612,37.207],[139.601,37.208],[139.59,37.223],[139.592,37.243],[139.587,37.252],[139.594,37.258],[139.593,37.266],[139.597,37.272],[139.595,37.278],[139.58,37.286],[139.574,37.308],[139.566,37.305],[139.557,37.299],[139.553,37.305],[139.54,37.306],[139.527,37.311],[139.518,37.305],[139.517,37.3],[139.504,37.295],[139.502,37.286],[139.492,37.289],[139.484,37.288],[139.475,37.292],[139.473,37.286],[139.48,37.278],[139.482,37.267],[139.49,37.255],[139.483,37.249],[139.48,37.231],[139.484,37.222],[139.491,37.216],[139.481,37.21],[139.474,37.196],[139.469,37.181],[139.458,37.176],[139.459,37.164],[139.457,37.158],[139.449,37.155],[139.435,37.146],[139.432,37.138],[139.421,37.132],[139.408,37.135],[139.395,37.123],[139.376,37.12],[139.383,37.108],[139.387,37.107],[139.386,37.09],[139.382,37.082],[139.401,37.071],[139.415,37.07],[139.421,37.049],[139.421,37.04],[139.417,37.038],[139.438,37.025],[139.437,37.021],[139.445,37.016],[139.449,37.011],[139.448,37.002],[139.444,36.999],[139.447,36.992],[139.443,36.981],[139.456,36.97],[139.46,36.97],[139.473,36.971],[139.484,36.975],[139.494,36.968],[139.504,36.97],[139.515,36.978],[139.533,36.982],[139.545,36.991],[139.554,36.992],[139.557,36.997],[139.565,36.997],[139.58,37.005],[139.582,37.015],[139.588,37.015],[139.599,37.012],[139.603,37.016],[139.612,37.014],[139.626,37.026],[139.625,37.033],[139.636,37.032],[139.652,37.037],[139.656,37.042],[139.665,37.041],[139.677,37.057],[139.692,37.063],[139.701,37.059],[139.711,37.068],[139.724,37.07],[139.733,37.069],[139.737,37.072],[139.753,37.071],[139.763,37.076],[139.778,37.089],[139.788,37.091],[139.81,37.085],[139.819,37.085],[139.818,37.097],[139.821,37.109],[139.815,37.116],[139.819,37.122],[139.828,37.126],[139.832,37.134],[139.848,37.139],[139.852,37.137],[139.861,37.141],[139.866,37.147],[139.855,37.158],[139.856,37.165],[139.852,37.169],[139.843,37.167],[139.833,37.177],[139.836,37.182],[139.852,37.19],[139.853,37.2],[139.844,37.208],[139.842,37.214],[139.834,37.226],[139.823,37.226],[139.81,37.232],[139.806,37.24],[139.799,37.241],[139.796,37.238],[139.787,37.237],[139.782,37.232],[139.774,37.232],[139.761,37.237],[139.752,37.236],[139.754,37.249],[139.706,37.254]]]]}},{"type":"Feature","properties":{"name":"耶麻郡北塩原村","code":"07402"},"geometry":{"type":"MultiPolygon","coordinates":[[[[139.998,37.605],[140.004,37.603],[140.023,37.61],[140.037,37.613],[140.051,37.615],[140.067,37.611],[140.071,37.607],[140.071,37.613],[140.086,37.635],[140.096,37.645],[140.105,37.646],[140.108,37.653],[140.126,37.658],[140.133,37.665],[140.142,37.667],[140.148,37.675],[140.142,37.679],[140.147,37.698],[140.16,37.709],[140.161,37.727],[140.167,37.731],[140.172,37.74],[140.17,37.747],[140.172,37.756],[140.162,37.757],[140.146,37.753],[140.14,37.739],[140.127,37.734],[140.115,37.734],[140.102,37.738],[140.087,37.758],[140.08,37.756],[140.069,37.758],[140.065,37.768],[140.048,37.779],[140.037,37.768],[140.022,37.765],[140.019,37.762],[140.01,37.764],[140.002,37.759],[139.993,37.759],[139.995,37.741],[139.992,37.732],[139.999,37.725],[139.991,37.718],[139.976,37.716],[139.976,37.711],[139.97,37.705],[139.966,37.696],[139.96,37.697],[139.949,37.688],[139.947,37.682],[139.935,37.68],[139.926,37.674],[139.925,37.669],[139.916,37.657],[139.912,37.655],[139.913,37.648],[139.918,37.646],[139.934,37.652],[139.947,37.653],[139.958,37.651],[139.966,37.643],[139.984,37.635],[139.989,37.632],[140.0,37.63],[139.995,37.622],[139.998,37.605]]]]}},{"type":"Feature","properties":{"name":"耶麻郡西会津町","code":"07405"},"geometry":{"type":"MultiPolygon","coordinates":[[[[139.728,37.812],[139.722,37.809],[139.714,37.799],[139.705,37.796],[139.697,37.785],[139.68,37.775],[139.678,37.77],[139.669,37.763],[139.667,37.757],[139.658,37.755],[139.657,37.741],[139.652,37.738],[139.65,37.729],[139.643,37.728],[139.624,37.708],[139.622,37.7],[139.628,37.692],[139.609,37.684],[139.601,37.669],[139.594,37.665],[139.589,37.667],[139.568,37.653],[139.563,37.654],[139.549,37.649],[139.552,37.637],[139.546,37.629],[139.552,37.619],[139.549,37.61],[139.554,37.602],[139.562,37.6],[139.564,37.589],[139.57,37.58],[139.572,37.568],[139.568,37.563],[139.57,37.551],[139.57,37.539],[139.579,37.53],[139.591,37.528],[139.585,37.513],[139.595,37.51],[139.605,37.509],[139.629,37.51],[139.634,37.511],[139.647,37.506],[139.668,37.508],[139.671,37.52],[139.682,37.516],[139.687,37.521],[139.685,37.533],[139.694,37.554],[139.699,37.556],[139.695,37.562],[139.703,37.576],[139.719,37.57],[139.723,37.571],[139.727,37.582],[139.718,37.592],[139.709,37.592],[139.711,37.599],[139.701,37.614],[139.692,37.615],[139.688,37.607],[139.683,37.606],[139.67,37.609],[139.676,37.62],[139.671,37.622],[139.674,37.63],[139.684,37.634],[139.7,37.635],[139.698,37.64],[139.703,37.649],[139.71,37.653],[139.712,37.664],[139.706,37.673],[139.711,37.675],[139.706,37.684],[139.706,37.693],[139.715,37.707],[139.717,37.725],[139.723,37.735],[139.726,37.744],[139.734,37.75],[139.737,37.761],[139.732,37.777],[139.737,37.789],[139.745,37.791],[139.737,37.801],[139.737,37.806],[139.728,37.812]]]]}},{"type":"Feature","properties":{"name":"耶麻郡磐梯町","code":"07407"},"geometry":{"type":"MultiPolygon","coordinates":[[[[140.017,37.535],[140.034,37.536],[140.038,37.54],[140.051,37.54],[140.05,37.547],[140.036,37.554],[140.039,37.563],[140.048,37.563],[140.046,37.569],[140.049,37.576],[140.043,37.577],[140.046,37.587],[140.051,37.594],[140.065,37.597],[140.072,37.601],[140.071,37.607],[140.067,37.611],[140.051,37.615],[140.037,37.613],[140.023,37.61],[140.004,37.603],[139.998,37.605],[139.986,37.609],[139.973,37.607],[139.969,37.599],[139.961,37.599],[139.955,37.591],[139.928,37.579],[139.939,37.571],[139.952,37.569],[139.957,37.558],[139.988,37.552],[139.996,37.549],[140.016,37.543],[140.017,37.535]]]]}},{"type":"Feature","properties":{"name":"耶麻郡猪苗代町","code":"07408"},"geometry":{"type":"MultiPolygon","coordinates":[[[[140.237,37.746],[140.219,37.746],[140.204,37.748],[140.2,37.753],[140.178,37.757],[140.172,37.756],[140.17,37.747],[140.172,37.74],[140.167,37.731],[140.161,37.727],[140.16,37.709],[140.147,37.698],[140.142,37.679],[140.148,37.675],[140.142,37.667],[140.133,37.665],[140.126,37.658],[140.108,37.653],[140.105,37.646],[140.096,37.645],[140.086,37.635],[140.071,37.613],[140.071,37.607],[140.072,37.601],[140.065,37.597],[140.051,37.594],[140.046,37.587],[140.043,37.577],[140.049,37.576],[140.046,37.569],[140.048,37.563],[140.039,37.563],[140.036,37.554],[140.05,37.547],[140.051,37.54],[140.038,37.54],[140.034,37.536],[140.017,37.535],[140.014,37.531],[140.02,37.523],[140.026,37.508],[140.031,37.503],[140.04,37.501],[140.092,37.477],[140.113,37.47],[140.133,37.464],[140.149,37.463],[140.16,37.461],[140.167,37.458],[140.176,37.458],[140.182,37.451],[140.199,37.449],[140.202,37.461],[140.199,37.47],[140.193,37.474],[140.199,37.485],[140.193,37.494],[140.187,37.496],[140.19,37.503],[140.19,37.51],[140.178,37.513],[140.177,37.517],[140.168,37.522],[140.165,37.527],[140.179,37.535],[140.183,37.541],[140.191,37.545],[140.192,37.554],[140.2,37.556],[140.21,37.562],[140.219,37.554],[140.228,37.555],[140.232,37.565],[140.239,37.572],[140.24,37.585],[140.238,37.59],[140.249,37.599],[140.261,37.602],[140.275,37.619],[140.285,37.626],[140.281,37.642],[140.283,37.654],[140.278,37.662],[140.26,37.667],[140.245,37.676],[140.231,37.679],[140.232,37.69],[140.237,37.695],[140.237,37.704],[140.231,37.708],[140.229,37.717],[140.232,37.73],[140.243,37.734],[140.237,37.746]]]]}},{"type":"Feature","properties":{"name":"河沼郡会津坂下町","code":"07421"},"geometry":{"type":"MultiPolygon","coordinates":[[[[139.872,37.543],[139.86,37.553],[139.863,37.565],[139.861,37.582],[139.862,37.588],[139.849,37.594],[139.845,37.592],[139.831,37.605],[139.827,37.603],[139.818,37.609],[139.803,37.612],[139.804,37.605],[139.793,37.606],[139.801,37.613],[139.798,37.624],[139.81,37.624],[139.81,37.631],[139.803,37.637],[139.787,37.634],[139.782,37.628],[139.781,37.621],[139.777,37.615],[139.781,37.609],[139.782,37.597],[139.779,37.591],[139.761,37.594],[139.757,37.598],[139.744,37.597],[139.727,37.588],[139.718,37.592],[139.727,37.582],[139.723,37.571],[139.732,37.567],[139.751,37.564],[139.755,37.559],[139.747,37.544],[139.765,37.535],[139.767,37.53],[139.764,37.522],[139.766,37.516],[139.773,37.514],[139.791,37.528],[139.799,37.531],[139.812,37.529],[139.831,37.532],[139.846,37.531],[139.867,37.53],[139.873,37.533],[139.872,37.543]]]]}},{"type":"Feature","properties":{"name":"河沼郡湯川村","code":"07422"},"geometry":{"type":"MultiPolygon","coordinates":[[[[139.907,37.583],[139.904,37.59],[139.888,37.59],[139.884,37.593],[139.874,37.584],[139.861,37.582],[139.863,37.565],[139.86,37.553],[139.872,37.543],[139.874,37.547],[139.903,37.546],[139.906,37.559],[139.896,37.562],[139.896,37.577],[139.907,37.583]]]]}},{"type":"Feature","properties":{"name":"河沼郡柳津町","code":"07423"},"geometry":{"type":"MultiPolygon","coordinates":[[[[139.595,37.51],[139.594,37.5],[139.601,37.494],[139.617,37.497],[139.631,37.497],[139.648,37.502],[139.668,37.498],[139.69,37.496],[139.697,37.493],[139.699,37.488],[139.708,37.484],[139.715,37.477],[139.692,37.472],[139.68,37.474],[139.681,37.465],[139.686,37.46],[139.672,37.447],[139.667,37.446],[139.667,37.439],[139.66,37.436],[139.658,37.43],[139.661,37.416],[139.655,37.404],[139.664,37.395],[139.667,37.39],[139.661,37.387],[139.652,37.373],[139.641,37.369],[139.648,37.361],[139.659,37.356],[139.663,37.349],[139.684,37.348],[139.69,37.353],[139.698,37.354],[139.715,37.363],[139.73,37.36],[139.748,37.371],[139.751,37.38],[139.748,37.388],[139.759,37.397],[139.761,37.404],[139.754,37.421],[139.76,37.429],[139.746,37.438],[139.742,37.443],[139.744,37.455],[139.74,37.458],[139.74,37.465],[139.748,37.463],[139.75,37.468],[139.759,37.473],[139.765,37.482],[139.764,37.488],[139.77,37.497],[139.764,37.507],[139.766,37.516],[139.764,37.522],[139.767,37.53],[139.765,37.535],[139.747,37.544],[139.755,37.559],[139.751,37.564],[139.732,37.567],[139.723,37.571],[139.719,37.57],[139.703,37.576],[139.695,37.562],[139.699,37.556],[139.694,37.554],[139.685,37.533],[139.687,37.521],[139.682,37.516],[139.671,37.52],[139.668,37.508],[139.647,37.506],[139.634,37.511],[139.629,37.51],[139.605,37.509],[139.595,37.51]]]]}},{"type":"Feature","properties":{"name":"大沼郡三島町","code":"07444"},"geometry":{"type":"MultiPolygon","coordinates":[[[[139.601,37.494],[139.604,37.487],[139.595,37.482],[139.59,37.472],[139.59,37.466],[139.609,37.454],[139.616,37.457],[139.615,37.446],[139.612,37.438],[139.603,37.434],[139.596,37.425],[139.588,37.424],[139.6,37.388],[139.609,37.381],[139.604,37.376],[139.612,37.37],[139.622,37.368],[139.641,37.369],[139.652,37.373],[139.661,37.387],[139.667,37.39],[139.664,37.395],[139.655,37.404],[139.661,37.416],[139.658,37.43],[139.66,37.436],[139.667,37.439],[139.667,37.446],[139.672,37.447],[139.686,37.46],[139.681,37.465],[139.68,37.474],[139.692,37.472],[139.712,37.474],[139.708,37.484],[139.699,37.488],[139.697,37.493],[139.69,37.496],[139.668,37.498],[139.648,37.502],[139.631,37.497],[139.617,37.497],[139.601,37.494]]]]}},{"type":"Feature","properties":{"name":"大沼郡金山町","code":"07445"},"geometry":{"type":"MultiPolygon","coordinates":[[[[139.516,37.379],[139.528,37.39],[139.554,37.393],[139.558,37.388],[139.569,37.386],[139.6,37.388],[139.588,37.424],[139.596,37.425],[139.603,37.434],[139.612,37.438],[139.615,37.446],[139.616,37.457],[139.609,37.454],[139.59,37.466],[139.59,37.472],[139.595,37.482],[139.604,37.487],[139.601,37.494],[139.594,37.5],[139.595,37.51],[139.585,37.513],[139.567,37.502],[139.543,37.512],[139.52,37.514],[139.514,37.509],[139.497,37.513],[139.486,37.51],[139.476,37.503],[139.466,37.508],[139.457,37.518],[139.439,37.513],[139.428,37.514],[139.414,37.508],[139.411,37.502],[139.414,37.497],[139.408,37.492],[139.41,37.484],[139.406,37.478],[139.406,37.466],[139.398,37.46],[139.403,37.445],[139.393,37.436],[139.39,37.43],[139.392,37.424],[139.378,37.413],[139.381,37.402],[139.375,37.386],[139.365,37.382],[139.379,37.363],[139.382,37.355],[139.399,37.363],[139.407,37.347],[139.416,37.345],[139.417,37.34],[139.426,37.34],[139.429,37.333],[139.448,37.334],[139.462,37.347],[139.475,37.347],[139.489,37.359],[139.498,37.369],[139.504,37.369],[139.516,37.379]]]]}},{"type":"Feature","properties":{"name":"大沼郡昭和村","code":"07446"},"geometry":{"type":"MultiPolygon","coordinates":[[[[139.744,37.292],[139.744,37.304],[139.736,37.319],[139.735,37.329],[139.724,37.338],[139.717,37.346],[139.715,37.363],[139.698,37.354],[139.69,37.353],[139.684,37.348],[139.663,37.349],[139.659,37.356],[139.648,37.361],[139.641,37.369],[139.622,37.368],[139.612,37.37],[139.604,37.376],[139.609,37.381],[139.6,37.388],[139.569,37.386],[139.558,37.388],[139.554,37.393],[139.528,37.39],[139.516,37.379],[139.52,37.37],[139.527,37.365],[139.544,37.363],[139.552,37.357],[139.548,37.352],[139.552,37.345],[139.548,37.336],[139.565,37.328],[139.574,37.322],[139.574,37.308],[139.58,37.286],[139.595,37.278],[139.597,37.272],[139.593,37.266],[139.594,37.258],[139.587,37.252],[139.592,37.243],[139.59,37.223],[139.601,37.208],[139.612,37.207],[139.618,37.215],[139.622,37.228],[139.635,37.228],[139.655,37.23],[139.657,37.239],[139.67,37.241],[139.672,37.246],[139.691,37.25],[139.696,37.247],[139.706,37.254],[139.71,37.262],[139.713,37.273],[139.718,37.273],[139.731,37.279],[139.735,37.288],[139.744,37.292]]]]}},{"type":"Feature","properties":{"name":"大沼郡会津美里町","code":"07447"},"geometry":{"type":"MultiPolygon","coordinates":[[[[139.846,37.531],[139.831,37.532],[139.812,37.529],[139.799,37.531],[139.791,37.528],[139.773,37.514],[139.766,37.516],[139.764,37.507],[139.77,37.497],[139.764,37.488],[139.765,37.482],[139.759,37.473],[139.75,37.468],[139.748,37.463],[139.74,37.465],[139.74,37.458],[139.744,37.455],[139.742,37.443],[139.746,37.438],[139.76,37.429],[139.754,37.421],[139.761,37.404],[139.759,37.397],[139.748,37.388],[139.751,37.38],[139.748,37.371],[139.73,37.36],[139.715,37.363],[139.717,37.346],[139.724,37.338],[139.735,37.329],[139.736,37.319],[139.744,37.304],[139.744,37.292],[139.762,37.284],[139.769,37.285],[139.778,37.281],[139.792,37.288],[139.792,37.303],[139.804,37.309],[139.811,37.308],[139.829,37.321],[139.829,37.326],[139.836,37.332],[139.832,37.337],[139.833,37.344],[139.84,37.347],[139.849,37.346],[139.853,37.356],[139.869,37.361],[139.875,37.361],[139.885,37.368],[139.888,37.376],[139.923,37.392],[139.926,37.399],[139.921,37.409],[139.913,37.416],[139.911,37.431],[139.906,37.444],[139.908,37.45],[139.905,37.461],[139.898,37.459],[139.891,37.463],[139.877,37.462],[139.873,37.453],[139.864,37.458],[139.861,37.464],[139.862,37.473],[139.858,37.475],[139.851,37.488],[139.84,37.498],[139.839,37.506],[139.845,37.511],[139.85,37.525],[139.846,37.531]]]]}},{"type":"Feature","properties":{"name":"西白河郡西郷村","code":"07461"},"geometry":{"type":"MultiPolygon","coordinates":[[[[140.099,37.243],[140.09,37.24],[140.089,37.233],[140.083,37.226],[140.072,37.224],[140.074,37.217],[140.071,37.21],[140.052,37.208],[140.048,37.203],[140.039,37.206],[140.031,37.2],[140.018,37.197],[140.0,37.2],[139.994,37.196],[139.982,37.202],[139.968,37.187],[139.96,37.18],[139.964,37.161],[139.961,37.153],[139.963,37.148],[139.979,37.147],[139.99,37.143],[139.996,37.144],[140.015,37.14],[140.024,37.143],[140.047,37.135],[140.058,37.126],[140.066,37.127],[140.089,37.122],[140.094,37.124],[140.103,37.121],[140.128,37.104],[140.137,37.106],[140.151,37.094],[140.16,37.094],[140.168,37.098],[140.168,37.106],[140.174,37.105],[140.183,37.109],[140.191,37.123],[140.19,37.131],[140.201,37.141],[140.211,37.16],[140.21,37.167],[140.202,37.168],[140.185,37.175],[140.188,37.184],[140.171,37.192],[140.166,37.199],[140.158,37.201],[140.146,37.212],[140.138,37.205],[140.132,37.216],[140.099,37.243]]]]}},{"type":"Feature","properties":{"name":"西白河郡泉崎村","code":"07464"},"geometry":{"type":"MultiPolygon","coordinates":[[[[140.338,37.123],[140.337,37.144],[140.318,37.152],[140.323,37.164],[140.322,37.173],[140.302,37.181],[140.293,37.189],[140.289,37.192],[140.253,37.189],[140.24,37.186],[140.235,37.181],[140.261,37.168],[140.274,37.165],[140.273,37.158],[140.266,37.147],[140.277,37.143],[140.292,37.14],[140.295,37.129],[140.315,37.121],[140.316,37.124],[140.33,37.121],[140.338,37.123]]]]}},{"type":"Feature","properties":{"name":"西白河郡中島村","code":"07465"},"geometry":{"type":"MultiPolygon","coordinates":[[[[140.37,37.122],[140.368,37.126],[140.37,37.14],[140.381,37.147],[140.385,37.155],[140.392,37.16],[140.404,37.161],[140.404,37.168],[140.398,37.168],[140.39,37.177],[140.378,37.177],[140.372,37.169],[140.358,37.158],[140.347,37.16],[140.339,37.145],[140.338,37.123],[140.354,37.118],[140.37,37.122]]]]}},{"type":"Feature","properties":{"name":"西白河郡矢吹町","code":"07466"},"geometry":{"type":"MultiPolygon","coordinates":[[[[140.293,37.189],[140.302,37.181],[140.322,37.173],[140.323,37.164],[140.318,37.152],[140.337,37.144],[140.347,37.16],[140.358,37.158],[140.372,37.169],[140.378,37.177],[140.39,37.177],[140.398,37.168],[140.404,37.168],[140.409,37.171],[140.407,37.183],[140.399,37.192],[140.401,37.197],[140.395,37.203],[140.401,37.213],[140.397,37.222],[140.393,37.223],[140.389,37.224],[140.367,37.221],[140.356,37.227],[140.345,37.219],[140.333,37.223],[140.331,37.218],[140.321,37.217],[140.317,37.228],[140.31,37.235],[140.302,37.234],[140.3,37.224],[140.293,37.226],[140.283,37.225],[140.279,37.221],[140.29,37.218],[140.297,37.211],[140.295,37.203],[140.302,37.199],[140.293,37.189]]]]}},{"type":"Feature","properties":{"name":"東白川郡棚倉町","code":"07481"},"geometry":{"type":"MultiPolygon","coordinates":[[[[140.251,37.009],[140.24,37.0],[140.244,36.991],[140.251,36.983],[140.244,36.979],[140.244,36.973],[140.252,36.967],[140.253,36.963],[140.244,36.957],[140.241,36.95],[140.244,36.943],[140.254,36.941],[140.273,36.93],[140.284,36.935],[140.29,36.941],[140.292,36.95],[140.302,36.949],[140.31,36.953],[140.316,36.951],[140.321,36.944],[140.331,36.944],[140.341,36.947],[140.348,36.953],[140.354,36.954],[140.365,36.961],[140.375,36.978],[140.401,36.963],[140.407,36.971],[140.413,36.973],[140.406,36.982],[140.405,36.995],[140.414,36.998],[140.408,37.009],[140.419,37.014],[140.422,37.003],[140.453,37.015],[140.461,37.017],[140.456,37.026],[140.455,37.032],[140.449,37.036],[140.432,37.032],[140.424,37.031],[140.425,37.038],[140.432,37.043],[140.415,37.054],[140.408,37.052],[140.404,37.059],[140.402,37.073],[140.406,37.085],[140.395,37.084],[140.392,37.076],[140.383,37.073],[140.373,37.08],[140.37,37.076],[140.354,37.073],[140.356,37.065],[140.351,37.062],[140.354,37.049],[140.34,37.052],[140.326,37.049],[140.316,37.042],[140.32,37.037],[140.313,37.031],[140.316,37.02],[140.31,37.017],[140.3,37.017],[140.295,37.02],[140.284,37.015],[140.276,37.014],[140.269,37.009],[140.267,37.003],[140.251,37.009]]]]}},{"type":"Feature","properties":{"name":"東白川郡矢祭町","code":"07482"},"geometry":{"type":"MultiPolygon","coordinates":[[[[140.284,36.935],[140.293,36.933],[140.303,36.927],[140.308,36.919],[140.322,36.908],[140.324,36.893],[140.347,36.885],[140.365,36.884],[140.372,36.87],[140.369,36.867],[140.371,36.855],[140.375,36.851],[140.377,36.838],[140.387,36.834],[140.403,36.831],[140.413,36.832],[140.416,36.829],[140.431,36.817],[140.439,36.82],[140.453,36.803],[140.467,36.792],[140.48,36.8],[140.481,36.804],[140.489,36.809],[140.489,36.819],[140.503,36.819],[140.517,36.827],[140.519,36.836],[140.528,36.84],[140.528,36.844],[140.523,36.842],[140.515,36.847],[140.51,36.855],[140.503,36.856],[140.505,36.864],[140.5,36.87],[140.493,36.867],[140.482,36.87],[140.481,36.879],[140.473,36.881],[140.463,36.89],[140.455,36.889],[140.45,36.901],[140.446,36.903],[140.44,36.918],[140.431,36.927],[140.42,36.931],[140.412,36.932],[140.414,36.921],[140.411,36.898],[140.415,36.895],[140.401,36.889],[140.395,36.884],[140.376,36.892],[140.371,36.9],[140.365,36.901],[140.353,36.897],[140.34,36.904],[140.338,36.913],[140.332,36.922],[140.304,36.936],[140.29,36.941],[140.284,36.935]]]]}},{"type":"Feature","properties":{"name":"東白川郡塙町","code":"07483"},"geometry":{"type":"MultiPolygon","coordinates":[[[[140.29,36.941],[140.304,36.936],[140.332,36.922],[140.338,36.913],[140.34,36.904],[140.353,36.897],[140.365,36.901],[140.371,36.9],[140.376,36.892],[140.395,36.884],[140.401,36.889],[140.415,36.895],[140.411,36.898],[140.414,36.921],[140.412,36.932],[140.42,36.931],[140.431,36.927],[140.44,36.918],[140.446,36.903],[140.45,36.901],[140.455,36.889],[140.463,36.89],[140.473,36.881],[140.481,36.879],[140.482,36.87],[140.493,36.867],[140.5,36.87],[140.505,36.864],[140.503,36.856],[140.51,36.855],[140.515,36.847],[140.523,36.842],[140.528,36.844],[140.538,36.859],[140.545,36.858],[140.56,36.863],[140.565,36.862],[140.575,36.869],[140.58,36.867],[140.586,36.873],[140.592,36.873],[140.593,36.88],[140.579,36.896],[140.581,36.904],[140.566,36.916],[140.571,36.931],[140.568,36.937],[140.562,36.944],[140.545,36.949],[140.539,36.946],[140.522,36.948],[140.509,36.952],[140.499,36.958],[140.472,36.963],[140.462,36.971],[140.451,36.975],[140.46,36.985],[140.475,36.998],[140.473,37.008],[140.463,37.011],[140.461,37.017],[140.453,37.015],[140.422,37.003],[140.419,37.014],[140.408,37.009],[140.414,36.998],[140.405,36.995],[140.406,36.982],[140.413,36.973],[140.407,36.971],[140.401,36.963],[140.375,36.978],[140.365,36.961],[140.354,36.954],[140.348,36.953],[140.341,36.947],[140.331,36.944],[140.321,36.944],[140.316,36.951],[140.31,36.953],[140.302,36.949],[140.292,36.95],[140.29,36.941]]]]}},{"type":"Feature","properties":{"name":"東白川郡鮫川村","code":"07484"},"geometry":{"type":"MultiPolygon","coordinates":[[[[140.577,36.993],[140.561,37.002],[140.562,37.021],[140.558,37.024],[140.555,37.035],[140.559,37.04],[140.557,37.054],[140.551,37.055],[140.541,37.063],[140.529,37.061],[140.519,37.067],[140.507,37.081],[140.498,37.086],[140.491,37.079],[140.468,37.078],[140.451,37.079],[140.439,37.074],[140.434,37.066],[140.438,37.051],[140.449,37.036],[140.455,37.032],[140.456,37.026],[140.461,37.017],[140.463,37.011],[140.473,37.008],[140.475,36.998],[140.46,36.985],[140.451,36.975],[140.462,36.971],[140.472,36.963],[140.499,36.958],[140.509,36.952],[140.522,36.948],[140.539,36.946],[140.545,36.949],[140.562,36.944],[140.568,36.937],[140.575,36.942],[140.586,36.945],[140.583,36.953],[140.582,36.966],[140.57,36.975],[140.566,36.986],[140.577,36.993]]]]}},{"type":"Feature","properties":{"name":"石川郡石川町","code":"07501"},"geometry":{"type":"MultiPolygon","coordinates":[[[[140.409,37.117],[140.417,37.121],[140.427,37.119],[140.431,37.114],[140.446,37.108],[140.463,37.109],[140.462,37.101],[140.466,37.092],[140.465,37.085],[140.468,37.078],[140.491,37.079],[140.498,37.086],[140.505,37.093],[140.5,37.103],[140.493,37.11],[140.506,37.111],[140.518,37.119],[140.524,37.121],[140.532,37.131],[140.526,37.135],[140.527,37.142],[140.539,37.149],[140.539,37.159],[140.532,37.161],[140.529,37.171],[140.525,37.176],[140.514,37.175],[140.504,37.187],[140.496,37.193],[140.49,37.195],[140.476,37.203],[140.459,37.199],[140.459,37.193],[140.45,37.194],[140.432,37.194],[140.419,37.189],[140.415,37.18],[140.407,37.183],[140.409,37.171],[140.404,37.168],[140.404,37.161],[140.392,37.16],[140.385,37.155],[140.381,37.147],[140.37,37.14],[140.368,37.126],[140.37,37.122],[140.387,37.126],[140.392,37.122],[140.404,37.121],[140.409,37.117]]]]}},{"type":"Feature","properties":{"name":"石川郡玉川村","code":"07502"},"geometry":{"type":"MultiPolygon","coordinates":[[[[140.389,37.245],[140.393,37.223],[140.397,37.222],[140.401,37.213],[140.395,37.203],[140.401,37.197],[140.399,37.192],[140.407,37.183],[140.415,37.18],[140.419,37.189],[140.432,37.194],[140.45,37.194],[140.459,37.193],[140.459,37.199],[140.476,37.203],[140.49,37.195],[140.496,37.193],[140.499,37.2],[140.51,37.214],[140.514,37.222],[140.509,37.229],[140.512,37.239],[140.519,37.251],[140.519,37.257],[140.511,37.249],[140.501,37.25],[140.491,37.247],[140.487,37.241],[140.485,37.225],[140.471,37.226],[140.458,37.224],[140.448,37.229],[140.437,37.227],[140.426,37.228],[140.423,37.232],[140.423,37.241],[140.41,37.242],[140.399,37.247],[140.389,37.245]]]]}},{"type":"Feature","properties":{"name":"石川郡平田村","code":"07503"},"geometry":{"type":"MultiPolygon","coordinates":[[[[140.535,37.266],[140.523,37.264],[140.519,37.257],[140.519,37.251],[140.512,37.239],[140.509,37.229],[140.514,37.222],[140.51,37.214],[140.499,37.2],[140.496,37.193],[140.504,37.187],[140.514,37.175],[140.525,37.176],[140.529,37.171],[140.532,37.161],[140.539,37.159],[140.557,37.158],[140.565,37.168],[140.581,37.164],[140.588,37.156],[140.613,37.158],[140.61,37.17],[140.601,37.179],[140.608,37.188],[140.605,37.194],[140.607,37.204],[140.614,37.206],[140.61,37.215],[140.602,37.218],[140.597,37.229],[140.602,37.238],[140.603,37.247],[140.6,37.253],[140.592,37.256],[140.586,37.251],[140.578,37.252],[140.573,37.263],[140.557,37.269],[140.558,37.273],[140.546,37.273],[140.535,37.266]]]]}},{"type":"Feature","properties":{"name":"石川郡浅川町","code":"07504"},"geometry":{"type":"MultiPolygon","coordinates":[[[[140.373,37.08],[140.383,37.073],[140.392,37.076],[140.395,37.084],[140.406,37.085],[140.402,37.073],[140.404,37.059],[140.408,37.052],[140.415,37.054],[140.432,37.043],[140.425,37.038],[140.424,37.031],[140.432,37.032],[140.449,37.036],[140.438,37.051],[140.434,37.066],[140.439,37.074],[140.451,37.079],[140.468,37.078],[140.465,37.085],[140.466,37.092],[140.462,37.101],[140.463,37.109],[140.446,37.108],[140.431,37.114],[140.427,37.119],[140.417,37.121],[140.409,37.117],[140.412,37.108],[140.398,37.099],[140.39,37.09],[140.383,37.09],[140.373,37.08]]]]}},{"type":"Feature","properties":{"name":"石川郡古殿町","code":"07505"},"geometry":{"type":"MultiPolygon","coordinates":[[[[140.613,37.158],[140.588,37.156],[140.581,37.164],[140.565,37.168],[140.557,37.158],[140.539,37.159],[140.539,37.149],[140.527,37.142],[140.526,37.135],[140.532,37.131],[140.524,37.121],[140.518,37.119],[140.506,37.111],[140.493,37.11],[140.5,37.103],[140.505,37.093],[140.498,37.086],[140.507,37.081],[140.519,37.067],[140.529,37.061],[140.541,37.063],[140.551,37.055],[140.557,37.054],[140.559,37.04],[140.555,37.035],[140.558,37.024],[140.562,37.021],[140.561,37.002],[140.577,36.993],[140.591,37.002],[140.599,37.005],[140.607,37.015],[140.614,37.013],[140.621,37.02],[140.621,37.034],[140.624,37.036],[140.624,37.047],[140.634,37.056],[140.643,37.057],[140.64,37.069],[140.654,37.072],[140.658,37.077],[140.653,37.085],[140.664,37.091],[140.662,37.101],[140.657,37.105],[140.657,37.111],[140.651,37.12],[140.646,37.119],[140.641,37.127],[140.643,37.133],[140.637,37.141],[140.633,37.155],[140.627,37.148],[140.612,37.154],[140.613,37.158]]]]}},{"type":"Feature","properties":{"name":"田村郡三春町","code":"07521"},"geometry":{"type":"MultiPolygon","coordinates":[[[[140.519,37.39],[140.515,37.393],[140.519,37.403],[140.512,37.409],[140.506,37.417],[140.519,37.419],[140.516,37.43],[140.521,37.431],[140.521,37.439],[140.527,37.444],[140.526,37.449],[140.505,37.456],[140.514,37.466],[140.523,37.465],[140.524,37.478],[140.54,37.475],[140.546,37.465],[140.552,37.471],[140.563,37.485],[140.564,37.493],[140.558,37.501],[140.55,37.506],[140.545,37.511],[140.535,37.508],[140.528,37.499],[140.518,37.504],[140.507,37.485],[140.501,37.483],[140.482,37.485],[140.478,37.481],[140.485,37.475],[140.473,37.469],[140.468,37.454],[140.474,37.444],[140.47,37.432],[140.463,37.433],[140.458,37.438],[140.446,37.435],[140.449,37.429],[140.444,37.426],[140.429,37.43],[140.425,37.428],[140.429,37.42],[140.441,37.416],[140.442,37.408],[140.451,37.408],[140.452,37.4],[140.444,37.392],[140.454,37.386],[140.459,37.39],[140.468,37.386],[140.478,37.39],[140.48,37.381],[140.477,37.372],[140.488,37.371],[140.494,37.388],[140.517,37.388]]]]}},{"type":"Feature","properties":{"name":"田村郡小野町","code":"07522"},"geometry":{"type":"MultiPolygon","coordinates":[[[[140.558,37.273],[140.557,37.269],[140.573,37.263],[140.578,37.252],[140.586,37.251],[140.592,37.256],[140.6,37.253],[140.603,37.247],[140.602,37.238],[140.597,37.229],[140.602,37.218],[140.61,37.215],[140.614,37.206],[140.618,37.204],[140.627,37.212],[140.647,37.218],[140.65,37.222],[140.662,37.228],[140.668,37.226],[140.683,37.234],[140.685,37.245],[140.683,37.253],[140.686,37.26],[140.686,37.268],[140.694,37.278],[140.689,37.287],[140.667,37.287],[140.663,37.278],[140.655,37.275],[140.647,37.276],[140.637,37.287],[140.64,37.299],[140.636,37.304],[140.649,37.323],[140.641,37.34],[140.615,37.345],[140.607,37.349],[140.597,37.347],[140.59,37.353],[140.583,37.354],[140.571,37.366],[140.56,37.365],[140.555,37.361],[140.545,37.347],[140.538,37.333],[140.543,37.327],[140.55,37.326],[140.561,37.314],[140.558,37.311],[140.559,37.296],[140.555,37.291],[140.558,37.273]]]]}},{"type":"Feature","properties":{"name":"双葉郡広野町","code":"07541"},"geometry":{"type":"MultiPolygon","coordinates":[[[[141.0,37.184],[141.003,37.2],[141.007,37.216],[141.012,37.223],[141.012,37.228],[141.02,37.24],[141.013,37.241],[140.996,37.241],[140.988,37.243],[140.966,37.243],[140.94,37.246],[140.919,37.244],[140.906,37.249],[140.888,37.239],[140.878,37.241],[140.867,37.228],[140.875,37.221],[140.901,37.22],[140.904,37.214],[140.936,37.196],[140.957,37.186],[140.968,37.189],[140.981,37.186],[141.0,37.184]]]]}},{"type":"Feature","properties":{"name":"双葉郡楢葉町","code":"07542"},"geometry":{"type":"MultiPolygon","coordinates":[[[[140.878,37.241],[140.888,37.239],[140.906,37.249],[140.919,37.244],[140.94,37.246],[140.963,37.24],[140.988,37.243],[140.996,37.241],[141.013,37.241],[141.014,37.261],[141.018,37.278],[141.024,37.296],[141.025,37.313],[141.016,37.317],[141.004,37.314],[141.005,37.305],[140.995,37.306],[140.987,37.312],[140.965,37.32],[140.946,37.322],[140.941,37.326],[140.938,37.335],[140.923,37.335],[140.917,37.338],[140.905,37.331],[140.901,37.322],[140.902,37.311],[140.906,37.3],[140.887,37.293],[140.889,37.286],[140.883,37.277],[140.877,37.277],[140.872,37.271],[140.872,37.264],[140.867,37.26],[140.875,37.253],[140.878,37.241]]]]}},{"type":"Feature","properties":{"name":"双葉郡富岡町","code":"07543"},"geometry":{"type":"MultiPolygon","coordinates":[[[[141.028,37.316],[141.025,37.325],[141.028,37.341],[141.037,37.364],[141.036,37.373],[141.018,37.377],[141.001,37.374],[140.99,37.375],[140.978,37.381],[140.951,37.38],[140.949,37.384],[140.936,37.379],[140.926,37.379],[140.923,37.375],[140.91,37.374],[140.907,37.363],[140.901,37.36],[140.909,37.353],[140.911,37.344],[140.917,37.338],[140.923,37.335],[140.938,37.335],[140.941,37.326],[140.946,37.322],[140.965,37.32],[140.987,37.312],[140.995,37.306],[141.005,37.305],[141.004,37.314],[141.016,37.317],[141.028,37.316]]]]}},{"type":"Feature","properties":{"name":"双葉郡川内村","code":"07544"},"geometry":{"type":"MultiPolygon","coordinates":[[[[140.877,37.277],[140.883,37.277],[140.889,37.286],[140.887,37.293],[140.906,37.3],[140.902,37.311],[140.901,37.322],[140.905,37.331],[140.917,37.338],[140.911,37.344],[140.909,37.353],[140.901,37.36],[140.907,37.363],[140.91,37.374],[140.906,37.376],[140.888,37.377],[140.877,37.384],[140.861,37.384],[140.852,37.384],[140.851,37.373],[140.835,37.375],[140.826,37.38],[140.815,37.382],[140.795,37.381],[140.77,37.387],[140.764,37.384],[140.755,37.393],[140.743,37.394],[140.741,37.401],[140.728,37.405],[140.726,37.4],[140.715,37.397],[140.716,37.389],[140.707,37.379],[140.7,37.375],[140.705,37.367],[140.701,37.357],[140.707,37.346],[140.719,37.334],[140.72,37.324],[140.723,37.32],[140.729,37.308],[140.743,37.297],[140.766,37.299],[140.766,37.295],[140.779,37.296],[140.78,37.288],[140.793,37.285],[140.787,37.275],[140.788,37.267],[140.795,37.261],[140.807,37.254],[140.815,37.253],[140.827,37.254],[140.832,37.26],[140.838,37.262],[140.846,37.258],[140.853,37.259],[140.859,37.274],[140.877,37.277]]]]}},{"type":"Feature","properties":{"name":"双葉郡大熊町","code":"07545"},"geometry":{"type":"MultiPolygon","coordinates":[[[[140.86,37.387],[140.877,37.384],[140.888,37.377],[140.906,37.376],[140.91,37.374],[140.923,37.375],[140.926,37.379],[140.936,37.379],[140.949,37.384],[140.951,37.38],[140.978,37.381],[140.99,37.375],[141.001,37.374],[141.018,37.377],[141.036,37.373],[141.034,37.385],[141.035,37.396],[141.033,37.406],[141.035,37.427],[141.019,37.427],[141.006,37.434],[140.993,37.42],[140.966,37.418],[140.947,37.419],[140.942,37.422],[140.922,37.424],[140.907,37.424],[140.897,37.426],[140.894,37.433],[140.886,37.429],[140.881,37.43],[140.871,37.421],[140.854,37.421],[140.862,37.41],[140.859,37.407],[140.86,37.387]]]]}},{"type":"Feature","properties":{"name":"双葉郡双葉町","code":"07546"},"geometry":{"type":"MultiPolygon","coordinates":[[[[141.035,37.427],[141.034,37.431],[141.038,37.454],[141.037,37.466],[141.019,37.47],[141.014,37.475],[140.994,37.477],[140.978,37.468],[140.968,37.469],[140.958,37.462],[140.956,37.454],[140.949,37.447],[140.938,37.444],[140.926,37.443],[140.914,37.449],[140.903,37.449],[140.894,37.444],[140.894,37.433],[140.897,37.426],[140.907,37.424],[140.922,37.424],[140.942,37.422],[140.947,37.419],[140.963,37.417],[140.993,37.42],[141.006,37.434],[141.019,37.427],[141.035,37.427]]]]}},{"type":"Feature","properties":{"name":"双葉郡浪江町","code":"07547"},"geometry":{"type":"MultiPolygon","coordinates":[[[[140.684,37.543],[140.701,37.543],[140.712,37.54],[140.722,37.54],[140.741,37.533],[140.751,37.534],[140.749,37.542],[140.756,37.544],[140.764,37.539],[140.782,37.538],[140.79,37.532],[140.795,37.535],[140.801,37.533],[140.806,37.537],[140.819,37.536],[140.828,37.541],[140.833,37.537],[140.845,37.541],[140.845,37.527],[140.851,37.515],[140.852,37.508],[140.85,37.499],[140.834,37.498],[140.839,37.479],[140.841,37.469],[140.836,37.462],[140.846,37.455],[140.843,37.45],[140.845,37.441],[140.85,37.438],[140.854,37.421],[140.871,37.421],[140.881,37.43],[140.886,37.429],[140.894,37.433],[140.894,37.444],[140.903,37.449],[140.914,37.449],[140.926,37.443],[140.938,37.444],[140.949,37.447],[140.956,37.454],[140.958,37.462],[140.968,37.469],[140.978,37.468],[140.994,37.477],[141.014,37.475],[141.019,37.47],[141.037,37.466],[141.042,37.483],[141.039,37.488],[141.039,37.498],[141.034,37.514],[141.011,37.51],[141.0,37.508],[140.989,37.509],[140.982,37.515],[140.968,37.519],[140.959,37.519],[140.94,37.526],[140.932,37.531],[140.918,37.528],[140.914,37.519],[140.906,37.522],[140.896,37.522],[140.879,37.529],[140.874,37.546],[140.864,37.552],[140.858,37.552],[140.844,37.559],[140.844,37.57],[140.838,37.577],[140.843,37.583],[140.84,37.592],[140.834,37.593],[140.829,37.599],[140.824,37.61],[140.815,37.615],[140.814,37.604],[140.808,37.603],[140.793,37.593],[140.782,37.599],[140.77,37.597],[140.757,37.598],[140.753,37.602],[140.735,37.603],[140.73,37.601],[140.718,37.601],[140.726,37.593],[140.724,37.587],[140.713,37.573],[140.701,37.575],[140.695,37.56],[140.686,37.547],[140.684,37.543]]]]}},{"type":"Feature","properties":{"name":"双葉郡葛尾村","code":"07548"},"geometry":{"type":"MultiPolygon","coordinates":[[[[140.682,37.538],[140.696,37.526],[140.705,37.523],[140.692,37.503],[140.703,37.502],[140.731,37.49],[140.74,37.491],[140.748,37.485],[140.754,37.486],[140.764,37.479],[140.772,37.472],[140.78,37.476],[140.788,37.473],[140.792,37.469],[140.799,37.473],[140.814,37.471],[140.82,37.464],[140.834,37.468],[140.836,37.462],[140.841,37.469],[140.839,37.479],[140.834,37.498],[140.85,37.499],[140.852,37.508],[140.851,37.515],[140.845,37.527],[140.845,37.541],[140.833,37.537],[140.828,37.541],[140.819,37.536],[140.806,37.537],[140.801,37.533],[140.795,37.535],[140.79,37.532],[140.782,37.538],[140.764,37.539],[140.756,37.544],[140.749,37.542],[140.751,37.534],[140.741,37.533],[140.722,37.54],[140.712,37.54],[140.701,37.543],[140.684,37.543],[140.682,37.538]]]]}},{"type":"Feature","properties":{"name":"相馬郡新地町","code":"07561"},"geometry":{"type":"MultiPolygon","coordinates":[[[[140.959,37.841],[140.954,37.852],[140.956,37.859],[140.945,37.857],[140.941,37.862],[140.933,37.881],[140.931,37.896],[140.924,37.895],[140.915,37.898],[140.901,37.898],[140.898,37.903],[140.891,37.902],[140.881,37.898],[140.87,37.896],[140.856,37.891],[140.856,37.883],[140.861,37.879],[140.855,37.875],[140.861,37.867],[140.859,37.856],[140.851,37.849],[140.854,37.842],[140.87,37.842],[140.884,37.844],[140.909,37.841],[140.921,37.836],[140.926,37.838],[140.946,37.838],[140.959,37.841]]]]}},{"type":"Feature","properties":{"name":"相馬郡飯舘村","code":"07564"},"geometry":{"type":"MultiPolygon","coordinates":[[[[140.728,37.752],[140.705,37.75],[140.701,37.745],[140.683,37.742],[140.677,37.736],[140.677,37.728],[140.67,37.723],[140.668,37.711],[140.662,37.709],[140.662,37.702],[140.65,37.698],[140.645,37.692],[140.646,37.684],[140.656,37.688],[140.66,37.68],[140.667,37.676],[140.665,37.656],[140.669,37.653],[140.667,37.642],[140.669,37.63],[140.677,37.621],[140.699,37.605],[140.706,37.606],[140.718,37.601],[140.73,37.601],[140.735,37.603],[140.753,37.602],[140.757,37.598],[140.77,37.597],[140.782,37.599],[140.793,37.593],[140.808,37.603],[140.814,37.604],[140.815,37.615],[140.824,37.615],[140.833,37.63],[140.828,37.637],[140.821,37.656],[140.825,37.67],[140.814,37.675],[140.82,37.682],[140.819,37.694],[140.823,37.701],[140.813,37.702],[140.813,37.707],[140.843,37.722],[140.84,37.734],[140.83,37.746],[140.799,37.756],[140.794,37.756],[140.769,37.761],[140.762,37.76],[140.756,37.752],[140.748,37.753],[140.739,37.75],[140.728,37.752]]]]}}]}