{"type":"FeatureCollection","features":[{"type":"Feature","properties":{"name":"水戸市","code":"08201"},"geometry":{"type":"MultiPolygon","coordinates":[[[[140.414,36.461],[140.397,36.457],[140.395,36.462],[140.381,36.464],[140.386,36.451],[140.395,36.447],[140.394,36.438],[140.37,36.432],[140.344,36.432],[140.337,36.429],[140.348,36.421],[140.355,36.4],[140.345,36.394],[140.324,36.394],[140.322,36.384],[140.336,36.375],[140.342,36.364],[140.333,36.344],[140.344,36.324],[140.369,36.313],[140.391,36.312],[140.386,36.326],[140.395,36.333],[140.41,36.339],[140.419,36.331],[140.425,36.315],[140.442,36.321],[140.471,36.315],[140.484,36.322],[140.493,36.32],[140.497,36.306],[140.507,36.301],[140.521,36.306],[140.531,36.305],[140.544,36.319],[140.559,36.313],[140.561,36.32],[140.575,36.327],[140.587,36.337],[140.577,36.344],[140.564,36.35],[140.555,36.358],[140.544,36.363],[140.526,36.366],[140.515,36.372],[140.501,36.383],[140.493,36.375],[140.485,36.39],[140.489,36.398],[140.484,36.408],[140.475,36.399],[140.462,36.411],[140.454,36.423],[140.459,36.435],[140.449,36.451],[140.426,36.448],[140.414,36.461]]]]}},{"type":"Feature","properties":{"name":"日立市","code":"08202"},"geometry":{"type":"MultiPolygon","coordinates":[[[[140.717,36.693],[140.698,36.699],[140.69,36.697],[140.67,36.699],[140.663,36.706],[140.652,36.706],[140.635,36.701],[140.621,36.71],[140.599,36.703],[140.577,36.704],[140.555,36.714],[140.541,36.709],[140.537,36.697],[140.544,36.681],[140.55,36.679],[140.55,36.668],[140.541,36.666],[140.541,36.655],[140.517,36.65],[140.538,36.62],[140.566,36.622],[140.576,36.624],[140.583,36.621],[140.588,36.607],[140.578,36.586],[140.583,36.574],[140.582,36.565],[140.592,36.554],[140.59,36.543],[140.597,36.536],[140.6,36.521],[140.575,36.507],[140.565,36.508],[140.56,36.495],[140.566,36.494],[140.591,36.494],[140.591,36.489],[140.604,36.482],[140.614,36.482],[140.621,36.486],[140.633,36.509],[140.633,36.521],[140.639,36.538],[140.646,36.544],[140.644,36.552],[140.654,36.575],[140.66,36.579],[140.664,36.591],[140.671,36.598],[140.68,36.615],[140.689,36.621],[140.694,36.645],[140.704,36.656],[140.716,36.663],[140.714,36.674],[140.717,36.693]]]]}},{"type":"Feature","properties":{"name":"土浦市","code":"08203"},"geometry":{"type":"MultiPolygon","coordinates":[[[[140.177,36.172],[140.168,36.171],[140.157,36.175],[140.143,36.172],[140.137,36.175],[140.13,36.168],[140.138,36.161],[140.143,36.149],[140.128,36.137],[140.127,36.123],[140.139,36.114],[140.15,36.113],[140.159,36.109],[140.157,36.098],[140.156,36.074],[140.172,36.068],[140.163,36.063],[140.144,36.045],[140.144,36.028],[140.159,36.015],[140.168,36.026],[140.173,36.04],[140.189,36.031],[140.191,36.041],[140.2,36.041],[140.209,36.047],[140.214,36.055],[140.242,36.055],[140.262,36.052],[140.266,36.086],[140.26,36.093],[140.27,36.098],[140.277,36.095],[140.28,36.109],[140.238,36.122],[140.194,36.129],[140.206,36.141],[140.203,36.154],[140.195,36.162],[140.181,36.165],[140.177,36.172]]]]}},{"type":"Feature","properties":{"name":"古河市","code":"08204"},"geometry":{"type":"MultiPolygon","coordinates":[[[[139.854,36.213],[139.84,36.22],[139.828,36.217],[139.831,36.205],[139.823,36.205],[139.816,36.216],[139.822,36.24],[139.76,36.219],[139.748,36.211],[139.728,36.206],[139.707,36.211],[139.706,36.202],[139.694,36.206],[139.688,36.2],[139.694,36.192],[139.691,36.175],[139.696,36.156],[139.71,36.136],[139.721,36.132],[139.746,36.132],[139.759,36.126],[139.766,36.135],[139.78,36.134],[139.781,36.145],[139.776,36.154],[139.802,36.156],[139.806,36.151],[139.806,36.139],[139.814,36.137],[139.829,36.141],[139.831,36.152],[139.856,36.147],[139.851,36.162],[139.856,36.179],[139.866,36.192],[139.854,36.206],[139.854,36.213]]]]}},{"type":"Feature","properties":{"name":"石岡市","code":"08205"},"geometry":{"type":"MultiPolygon","coordinates":[[[[140.177,36.172],[140.193,36.182],[140.207,36.186],[140.209,36.192],[140.224,36.195],[140.211,36.202],[140.21,36.209],[140.237,36.205],[140.246,36.19],[140.268,36.179],[140.279,36.166],[140.267,36.151],[140.259,36.146],[140.248,36.133],[140.265,36.134],[140.293,36.133],[140.331,36.127],[140.346,36.131],[140.33,36.147],[140.31,36.156],[140.307,36.165],[140.316,36.184],[140.334,36.188],[140.314,36.201],[140.312,36.21],[140.3,36.21],[140.285,36.22],[140.275,36.223],[140.272,36.231],[140.281,36.255],[140.293,36.256],[140.305,36.265],[140.304,36.273],[140.294,36.269],[140.259,36.272],[140.247,36.284],[140.237,36.284],[140.224,36.296],[140.222,36.304],[140.212,36.317],[140.202,36.322],[140.193,36.318],[140.181,36.321],[140.171,36.321],[140.155,36.316],[140.146,36.307],[140.144,36.299],[140.152,36.287],[140.141,36.27],[140.127,36.244],[140.11,36.231],[140.123,36.217],[140.129,36.203],[140.128,36.189],[140.137,36.175],[140.143,36.172],[140.157,36.175],[140.168,36.171],[140.177,36.172]]]]}},{"type":"Feature","properties":{"name":"結城市","code":"08207"},"geometry":{"type":"MultiPolygon","coordinates":[[[[139.854,36.213],[139.869,36.22],[139.885,36.212],[139.891,36.215],[139.906,36.235],[139.905,36.239],[139.888,36.253],[139.9,36.264],[139.908,36.28],[139.902,36.287],[139.903,36.299],[139.894,36.302],[139.897,36.31],[139.872,36.315],[139.857,36.31],[139.85,36.312],[139.835,36.292],[139.842,36.277],[139.832,36.265],[139.827,36.248],[139.822,36.24],[139.816,36.216],[139.823,36.205],[139.831,36.205],[139.828,36.217],[139.84,36.22],[139.854,36.213]]]]}},{"type":"Feature","properties":{"name":"龍ケ崎市","code":"08208"},"geometry":{"type":"MultiPolygon","coordinates":[[[[140.115,35.98],[140.11,35.965],[140.116,35.952],[140.102,35.955],[140.091,35.968],[140.089,35.983],[140.089,35.968],[140.096,35.957],[140.114,35.948],[140.132,35.936],[140.128,35.92],[140.152,35.903],[140.145,35.893],[140.127,35.882],[140.134,35.88],[140.161,35.879],[140.164,35.887],[140.186,35.885],[140.196,35.872],[140.202,35.875],[140.216,35.884],[140.236,35.902],[140.248,35.907],[140.256,35.938],[140.241,35.949],[140.227,35.948],[140.216,35.955],[140.195,35.963],[140.187,35.957],[140.184,35.946],[140.175,35.936],[140.169,35.947],[140.158,35.952],[140.153,35.944],[140.129,35.953],[140.116,35.965],[140.115,35.98]]]]}},{"type":"Feature","properties":{"name":"下妻市","code":"08210"},"geometry":{"type":"MultiPolygon","coordinates":[[[[140.036,36.2],[140.026,36.199],[140.003,36.208],[140.004,36.22],[139.998,36.23],[139.981,36.233],[139.97,36.229],[139.951,36.228],[139.943,36.231],[139.939,36.244],[139.928,36.243],[139.915,36.232],[139.905,36.23],[139.917,36.219],[139.915,36.208],[139.923,36.195],[139.935,36.195],[139.937,36.19],[139.934,36.175],[139.944,36.168],[139.941,36.154],[139.927,36.151],[139.928,36.16],[139.923,36.17],[139.914,36.161],[139.92,36.158],[139.918,36.146],[139.922,36.134],[139.937,36.134],[139.952,36.138],[139.952,36.144],[139.97,36.142],[139.99,36.136],[139.998,36.136],[140.003,36.143],[140.007,36.171],[140.025,36.179],[140.019,36.187],[140.024,36.194],[140.036,36.2]]]]}},{"type":"Feature","properties":{"name":"常総市","code":"08211"},"geometry":{"type":"MultiPolygon","coordinates":[[[[139.918,36.146],[139.917,36.133],[139.902,36.137],[139.894,36.132],[139.896,36.121],[139.931,36.09],[139.939,36.088],[139.935,36.069],[139.948,36.057],[139.958,36.053],[139.953,36.035],[139.943,36.028],[139.92,36.022],[139.916,36.01],[139.922,35.991],[139.924,35.97],[139.934,35.968],[139.942,35.979],[139.964,35.975],[139.971,35.978],[139.975,35.981],[139.973,35.999],[139.983,35.998],[139.993,36.001],[139.991,36.012],[140.029,36.034],[140.027,36.046],[140.016,36.059],[140.006,36.063],[140.009,36.071],[139.998,36.09],[140.007,36.095],[139.999,36.108],[140.002,36.123],[139.996,36.128],[139.998,36.136],[139.99,36.136],[139.97,36.142],[139.952,36.144],[139.952,36.138],[139.937,36.134],[139.922,36.134],[139.918,36.146]]]]}},{"type":"Feature","properties":{"name":"常陸太田市","code":"08212"},"geometry":{"type":"MultiPolygon","coordinates":[[[[140.555,36.714],[140.562,36.734],[140.555,36.745],[140.558,36.762],[140.546,36.763],[140.538,36.779],[140.544,36.785],[140.54,36.797],[140.541,36.805],[140.555,36.827],[140.56,36.83],[140.556,36.843],[140.57,36.86],[140.567,36.863],[140.545,36.858],[140.538,36.859],[140.528,36.849],[140.528,36.84],[140.519,36.836],[140.517,36.827],[140.503,36.819],[140.489,36.819],[140.489,36.809],[140.48,36.8],[140.464,36.792],[140.463,36.786],[140.47,36.759],[140.448,36.747],[140.45,36.732],[140.442,36.729],[140.427,36.735],[140.415,36.732],[140.424,36.724],[140.43,36.712],[140.443,36.704],[140.445,36.694],[140.452,36.692],[140.45,36.68],[140.443,36.676],[140.453,36.667],[140.446,36.654],[140.417,36.639],[140.415,36.632],[140.435,36.614],[140.427,36.592],[140.435,36.576],[140.432,36.567],[140.439,36.56],[140.444,36.534],[140.449,36.525],[140.458,36.52],[140.46,36.51],[140.489,36.494],[140.504,36.494],[140.516,36.503],[140.553,36.503],[140.56,36.495],[140.565,36.508],[140.575,36.507],[140.6,36.521],[140.597,36.536],[140.59,36.543],[140.592,36.554],[140.582,36.565],[140.583,36.574],[140.578,36.586],[140.588,36.607],[140.583,36.621],[140.576,36.624],[140.566,36.622],[140.538,36.62],[140.517,36.65],[140.541,36.655],[140.541,36.666],[140.55,36.668],[140.55,36.679],[140.544,36.681],[140.537,36.697],[140.541,36.709],[140.555,36.714]]]]}},{"type":"Feature","properties":{"name":"高萩市","code":"08214"},"geometry":{"type":"MultiPolygon","coordinates":[[[[140.717,36.693],[140.723,36.709],[140.729,36.717],[140.728,36.727],[140.733,36.749],[140.724,36.752],[140.711,36.75],[140.703,36.753],[140.692,36.75],[140.676,36.758],[140.672,36.765],[140.661,36.772],[140.651,36.772],[140.649,36.782],[140.663,36.785],[140.67,36.797],[140.68,36.801],[140.674,36.808],[140.657,36.811],[140.653,36.819],[140.624,36.845],[140.613,36.847],[140.605,36.856],[140.598,36.871],[140.592,36.873],[140.567,36.863],[140.57,36.86],[140.556,36.843],[140.56,36.83],[140.555,36.827],[140.541,36.805],[140.54,36.797],[140.544,36.785],[140.538,36.779],[140.546,36.763],[140.558,36.762],[140.555,36.745],[140.562,36.734],[140.555,36.714],[140.577,36.704],[140.599,36.703],[140.621,36.71],[140.635,36.701],[140.652,36.706],[140.663,36.706],[140.67,36.699],[140.69,36.697],[140.698,36.699],[140.717,36.693]]]]}},{"type":"Feature","properties":{"name":"北茨城市","code":"08215"},"geometry":{"type":"MultiPolygon","coordinates":[[[[140.733,36.749],[140.747,36.78],[140.768,36.818],[140.773,36.823],[140.791,36.83],[140.799,36.827],[140.802,36.839],[140.797,36.843],[140.798,36.853],[140.777,36.867],[140.767,36.862],[140.756,36.87],[140.741,36.876],[140.714,36.873],[140.702,36.884],[140.684,36.891],[140.647,36.901],[140.637,36.898],[140.615,36.905],[140.598,36.925],[140.587,36.945],[140.567,36.937],[140.571,36.931],[140.566,36.916],[140.581,36.904],[140.579,36.896],[140.593,36.88],[140.592,36.873],[140.598,36.871],[140.605,36.856],[140.613,36.847],[140.624,36.845],[140.653,36.819],[140.657,36.811],[140.674,36.808],[140.68,36.801],[140.67,36.797],[140.663,36.785],[140.649,36.782],[140.651,36.772],[140.661,36.772],[140.672,36.765],[140.676,36.758],[140.692,36.75],[140.703,36.753],[140.711,36.75],[140.724,36.752],[140.733,36.749]]]]}},{"type":"Feature","properties":{"name":"笠間市","code":"08216"},"geometry":{"type":"MultiPolygon","coordinates":[[[[140.337,36.429],[140.319,36.441],[140.308,36.445],[140.291,36.446],[140.287,36.437],[140.258,36.435],[140.254,36.431],[140.238,36.431],[140.233,36.439],[140.202,36.433],[140.203,36.421],[140.192,36.405],[140.185,36.398],[140.19,36.386],[140.18,36.376],[140.179,36.362],[140.169,36.361],[140.163,36.346],[140.164,36.337],[140.173,36.337],[140.183,36.325],[140.181,36.321],[140.193,36.318],[140.202,36.322],[140.212,36.317],[140.222,36.304],[140.224,36.296],[140.237,36.284],[140.247,36.284],[140.259,36.272],[140.294,36.269],[140.304,36.273],[140.316,36.276],[140.343,36.266],[140.359,36.301],[140.357,36.307],[140.369,36.313],[140.344,36.324],[140.333,36.344],[140.342,36.364],[140.336,36.375],[140.322,36.384],[140.324,36.394],[140.345,36.394],[140.355,36.4],[140.348,36.421],[140.337,36.429]]]]}},{"type":"Feature","properties":{"name":"取手市","code":"08217"},"geometry":{"type":"MultiPolygon","coordinates":[[[[140.114,35.948],[140.094,35.942],[140.082,35.945],[140.066,35.937],[140.056,35.938],[140.045,35.932],[140.029,35.942],[140.02,35.954],[140.016,35.932],[140.003,35.927],[139.995,35.91],[140.019,35.91],[140.031,35.901],[140.048,35.892],[140.061,35.888],[140.074,35.877],[140.088,35.884],[140.103,35.881],[140.127,35.871],[140.127,35.882],[140.145,35.893],[140.152,35.903],[140.128,35.92],[140.132,35.936],[140.114,35.948]]]]}},{"type":"Feature","properties":{"name":"牛久市","code":"08219"},"geometry":{"type":"MultiPolygon","coordinates":[[[[140.144,36.028],[140.145,36.006],[140.133,36.001],[140.141,35.988],[140.132,35.986],[140.127,35.977],[140.115,35.98],[140.116,35.965],[140.129,35.953],[140.153,35.944],[140.158,35.952],[140.169,35.947],[140.175,35.936],[140.184,35.946],[140.187,35.957],[140.195,35.963],[140.216,35.955],[140.227,35.948],[140.241,35.949],[140.256,35.938],[140.273,35.943],[140.262,35.978],[140.258,35.979],[140.25,35.986],[140.228,35.976],[140.217,35.983],[140.209,35.969],[140.189,35.979],[140.179,35.986],[140.176,36.001],[140.159,36.015],[140.144,36.028]]]]}},{"type":"Feature","properties":{"name":"つくば市","code":"08220"},"geometry":{"type":"MultiPolygon","coordinates":[[[[140.137,36.175],[140.128,36.189],[140.129,36.203],[140.123,36.217],[140.11,36.231],[140.092,36.227],[140.083,36.228],[140.06,36.226],[140.06,36.235],[140.053,36.228],[140.059,36.213],[140.049,36.212],[140.05,36.204],[140.036,36.2],[140.024,36.194],[140.019,36.187],[140.025,36.179],[140.007,36.171],[140.003,36.143],[139.998,36.136],[139.996,36.128],[140.002,36.123],[139.999,36.108],[140.007,36.095],[139.998,36.09],[140.009,36.071],[140.006,36.063],[140.016,36.059],[140.027,36.046],[140.05,36.032],[140.045,36.02],[140.051,36.009],[140.065,36.013],[140.082,35.998],[140.089,35.983],[140.091,35.968],[140.102,35.955],[140.116,35.952],[140.11,35.965],[140.115,35.98],[140.127,35.977],[140.132,35.986],[140.141,35.988],[140.133,36.001],[140.145,36.006],[140.144,36.028],[140.144,36.045],[140.163,36.063],[140.172,36.068],[140.156,36.074],[140.157,36.098],[140.159,36.109],[140.15,36.113],[140.139,36.114],[140.127,36.123],[140.128,36.137],[140.143,36.149],[140.138,36.161],[140.13,36.168],[140.137,36.175]]]]}},{"type":"Feature","properties":{"name":"ひたちなか市","code":"08221"},"geometry":{"type":"MultiPolygon","coordinates":[[[[140.587,36.337],[140.594,36.336],[140.607,36.346],[140.61,36.354],[140.621,36.36],[140.627,36.381],[140.615,36.389],[140.61,36.405],[140.61,36.427],[140.586,36.433],[140.572,36.434],[140.554,36.439],[140.545,36.447],[140.542,36.459],[140.53,36.463],[140.529,36.453],[140.518,36.45],[140.515,36.438],[140.519,36.428],[140.509,36.427],[140.495,36.413],[140.484,36.408],[140.489,36.398],[140.485,36.39],[140.493,36.375],[140.501,36.383],[140.515,36.372],[140.526,36.366],[140.544,36.363],[140.555,36.358],[140.564,36.35],[140.577,36.344],[140.587,36.337]]]]}},{"type":"Feature","properties":{"name":"鹿嶋市","code":"08222"},"geometry":{"type":"MultiPolygon","coordinates":[[[[140.698,35.935],[140.701,35.938],[140.685,35.964],[140.671,35.973],[140.658,35.992],[140.631,36.042],[140.611,36.082],[140.59,36.077],[140.562,36.062],[140.554,36.062],[140.554,36.055],[140.563,36.05],[140.568,36.02],[140.567,36.012],[140.583,35.999],[140.596,35.983],[140.589,35.974],[140.592,35.965],[140.6,35.965],[140.609,35.958],[140.614,35.948],[140.624,35.94],[140.62,35.936],[140.629,35.93],[140.654,35.928],[140.694,35.933],[140.698,35.935]]]]}},{"type":"Feature","properties":{"name":"潮来市","code":"08223"},"geometry":{"type":"MultiPolygon","coordinates":[[[[140.567,36.012],[140.548,36.009],[140.541,36.003],[140.538,35.99],[140.528,36.003],[140.511,36.003],[140.514,35.986],[140.507,35.976],[140.485,35.97],[140.498,35.958],[140.511,35.959],[140.537,35.939],[140.571,35.924],[140.581,35.916],[140.589,35.906],[140.599,35.903],[140.601,35.918],[140.617,35.925],[140.62,35.936],[140.624,35.94],[140.614,35.948],[140.609,35.958],[140.6,35.965],[140.592,35.965],[140.589,35.974],[140.596,35.983],[140.583,35.999],[140.567,36.012]]]]}},{"type":"Feature","properties":{"name":"守谷市","code":"08224"},"geometry":{"type":"MultiPolygon","coordinates":[[[[139.934,35.968],[139.938,35.962],[139.932,35.951],[139.939,35.941],[139.952,35.936],[139.965,35.927],[139.977,35.923],[139.995,35.91],[140.003,35.927],[140.016,35.932],[140.02,35.954],[140.003,35.959],[139.997,35.964],[139.979,35.969],[139.971,35.978],[139.964,35.975],[139.942,35.979],[139.934,35.968]]]]}},{"type":"Feature","properties":{"name":"常陸大宮市","code":"08225"},"geometry":{"type":"MultiPolygon","coordinates":[[[[140.443,36.704],[140.429,36.696],[140.428,36.686],[140.392,36.685],[140.375,36.689],[140.359,36.7],[140.333,36.708],[140.327,36.722],[140.317,36.723],[140.313,36.713],[140.303,36.71],[140.292,36.713],[140.271,36.707],[140.268,36.702],[140.233,36.7],[140.22,36.687],[140.231,36.67],[140.229,36.662],[140.241,36.651],[140.243,36.637],[140.234,36.635],[140.248,36.611],[140.249,36.599],[140.243,36.585],[140.247,36.568],[140.244,36.563],[140.252,36.555],[140.247,36.548],[140.248,36.534],[140.255,36.522],[140.267,36.53],[140.279,36.521],[140.297,36.525],[140.3,36.537],[140.315,36.536],[140.319,36.546],[140.325,36.55],[140.343,36.544],[140.368,36.528],[140.384,36.502],[140.395,36.491],[140.402,36.497],[140.413,36.5],[140.41,36.511],[140.436,36.516],[140.46,36.51],[140.458,36.52],[140.449,36.525],[140.444,36.534],[140.439,36.56],[140.432,36.567],[140.435,36.576],[140.427,36.592],[140.435,36.614],[140.415,36.632],[140.417,36.639],[140.446,36.654],[140.453,36.667],[140.443,36.676],[140.45,36.68],[140.452,36.692],[140.445,36.694],[140.443,36.704]]]]}},{"type":"Feature","properties":{"name":"那珂市","code":"08226"},"geometry":{"type":"MultiPolygon","coordinates":[[[[140.484,36.408],[140.495,36.413],[140.509,36.427],[140.519,36.428],[140.515,36.438],[140.518,36.45],[140.529,36.453],[140.53,36.463],[140.542,36.459],[140.539,36.465],[140.548,36.477],[140.55,36.485],[140.566,36.494],[140.56,36.495],[140.553,36.503],[140.516,36.503],[140.504,36.494],[140.489,36.494],[140.46,36.51],[140.436,36.516],[140.41,36.511],[140.413,36.5],[140.402,36.497],[140.395,36.491],[140.41,36.48],[140.408,36.465],[140.414,36.461],[140.426,36.448],[140.449,36.451],[140.459,36.435],[140.454,36.423],[140.462,36.411],[140.475,36.399],[140.484,36.408]]]]}},{"type":"Feature","properties":{"name":"筑西市","code":"08227"},"geometry":{"type":"MultiPolygon","coordinates":[[[[139.906,36.235],[139.905,36.23],[139.915,36.232],[139.928,36.243],[139.939,36.244],[139.943,36.231],[139.951,36.228],[139.97,36.229],[139.981,36.233],[139.998,36.23],[140.004,36.22],[140.003,36.208],[140.026,36.199],[140.036,36.2],[140.05,36.204],[140.049,36.212],[140.059,36.213],[140.053,36.228],[140.06,36.235],[140.063,36.259],[140.067,36.276],[140.049,36.283],[140.054,36.316],[140.051,36.337],[140.04,36.35],[140.05,36.36],[140.041,36.363],[140.041,36.375],[140.013,36.376],[140.002,36.368],[139.99,36.367],[139.975,36.375],[139.965,36.367],[139.965,36.351],[139.946,36.349],[139.935,36.343],[139.914,36.337],[139.91,36.31],[139.911,36.301],[139.903,36.299],[139.902,36.287],[139.908,36.28],[139.9,36.264],[139.888,36.253],[139.905,36.239],[139.906,36.235]]]]}},{"type":"Feature","properties":{"name":"坂東市","code":"08228"},"geometry":{"type":"MultiPolygon","coordinates":[[[[139.829,36.141],[139.844,36.127],[139.842,36.114],[139.843,36.098],[139.838,36.089],[139.84,36.077],[139.849,36.074],[139.843,36.063],[139.831,36.062],[139.82,36.057],[139.837,36.041],[139.857,36.029],[139.878,36.008],[139.884,35.989],[139.899,35.978],[139.917,35.97],[139.924,35.97],[139.922,35.991],[139.916,36.01],[139.92,36.022],[139.943,36.028],[139.953,36.035],[139.958,36.053],[139.948,36.057],[139.935,36.069],[139.939,36.088],[139.931,36.09],[139.896,36.121],[139.881,36.138],[139.87,36.146],[139.856,36.147],[139.831,36.152],[139.829,36.141]]]]}},{"type":"Feature","properties":{"name":"稲敷市","code":"08229"},"geometry":{"type":"MultiPolygon","coordinates":[[[[140.248,35.907],[140.258,35.899],[140.282,35.892],[140.298,35.892],[140.296,35.884],[140.322,35.889],[140.332,35.897],[140.372,35.916],[140.379,35.903],[140.396,35.909],[140.418,35.906],[140.448,35.915],[140.458,35.927],[140.485,35.91],[140.491,35.915],[140.487,35.929],[140.497,35.934],[140.5,35.944],[140.511,35.959],[140.498,35.958],[140.485,35.97],[140.466,35.975],[140.453,35.992],[140.41,36.023],[140.388,35.996],[140.364,35.99],[140.359,35.998],[140.33,36.005],[140.322,35.989],[140.307,35.976],[140.288,35.983],[140.264,35.982],[140.258,35.979],[140.262,35.978],[140.273,35.943],[140.256,35.938],[140.248,35.907]]]]}},{"type":"Feature","properties":{"name":"かすみがうら市","code":"08230"},"geometry":{"type":"MultiPolygon","coordinates":[[[[140.262,36.052],[140.27,36.051],[140.298,36.044],[140.311,36.049],[140.339,36.045],[140.359,36.045],[140.396,36.037],[140.396,36.055],[140.405,36.083],[140.391,36.098],[140.386,36.114],[140.367,36.131],[140.346,36.131],[140.331,36.127],[140.293,36.133],[140.265,36.134],[140.248,36.133],[140.259,36.146],[140.267,36.151],[140.279,36.166],[140.268,36.179],[140.246,36.19],[140.237,36.205],[140.21,36.209],[140.211,36.202],[140.224,36.195],[140.209,36.192],[140.207,36.186],[140.193,36.182],[140.177,36.172],[140.181,36.165],[140.195,36.162],[140.203,36.154],[140.206,36.141],[140.194,36.129],[140.238,36.122],[140.28,36.109],[140.277,36.095],[140.27,36.098],[140.26,36.093],[140.266,36.086],[140.262,36.052]]]]}},{"type":"Feature","properties":{"name":"桜川市","code":"08231"},"geometry":{"type":"MultiPolygon","coordinates":[[[[140.181,36.321],[140.183,36.325],[140.173,36.337],[140.164,36.337],[140.163,36.346],[140.169,36.361],[140.179,36.362],[140.18,36.376],[140.19,36.386],[140.185,36.398],[140.166,36.4],[140.156,36.398],[140.145,36.412],[140.132,36.415],[140.114,36.411],[140.111,36.398],[140.102,36.397],[140.092,36.402],[140.068,36.403],[140.069,36.389],[140.064,36.382],[140.041,36.375],[140.041,36.363],[140.05,36.36],[140.04,36.35],[140.051,36.337],[140.054,36.316],[140.049,36.283],[140.067,36.276],[140.063,36.259],[140.06,36.235],[140.06,36.226],[140.083,36.228],[140.092,36.227],[140.11,36.231],[140.127,36.244],[140.141,36.27],[140.152,36.287],[140.144,36.299],[140.146,36.307],[140.155,36.316],[140.171,36.321],[140.181,36.321]]]]}},{"type":"Feature","properties":{"name":"神栖市","code":"08232"},"geometry":{"type":"MultiPolygon","coordinates":[[[[140.656,35.929],[140.677,35.919],[140.694,35.929],[140.694,35.933],[140.656,35.929]]],[[[140.711,35.941],[140.71,35.927],[140.7,35.926],[140.678,35.912],[140.654,35.928],[140.629,35.93],[140.62,35.936],[140.617,35.925],[140.601,35.918],[140.599,35.903],[140.608,35.896],[140.629,35.865],[140.631,35.859],[140.666,35.853],[140.687,35.848],[140.707,35.836],[140.717,35.823],[140.726,35.801],[140.742,35.785],[140.788,35.758],[140.815,35.742],[140.822,35.739],[140.846,35.74],[140.843,35.746],[140.825,35.76],[140.811,35.777],[140.78,35.816],[140.742,35.867],[140.742,35.874],[140.708,35.921],[140.71,35.927],[140.712,35.941]]]]}},{"type":"Feature","properties":{"name":"行方市","code":"08233"},"geometry":{"type":"MultiPolygon","coordinates":[[[[140.554,36.062],[140.544,36.069],[140.541,36.086],[140.529,36.096],[140.531,36.116],[140.524,36.124],[140.513,36.125],[140.507,36.132],[140.492,36.127],[140.464,36.123],[140.45,36.131],[140.448,36.137],[140.456,36.152],[140.456,36.159],[140.444,36.161],[140.437,36.166],[140.434,36.155],[140.42,36.143],[140.407,36.138],[140.395,36.156],[140.373,36.154],[140.363,36.157],[140.363,36.141],[140.367,36.131],[140.386,36.114],[140.391,36.098],[140.405,36.083],[140.396,36.055],[140.396,36.037],[140.41,36.023],[140.453,35.992],[140.466,35.975],[140.485,35.97],[140.507,35.976],[140.514,35.986],[140.511,36.003],[140.528,36.003],[140.538,35.99],[140.541,36.003],[140.548,36.009],[140.567,36.012],[140.568,36.02],[140.563,36.05],[140.554,36.055],[140.554,36.062]]]]}},{"type":"Feature","properties":{"name":"鉾田市","code":"08234"},"geometry":{"type":"MultiPolygon","coordinates":[[[[140.611,36.082],[140.595,36.118],[140.584,36.146],[140.574,36.175],[140.563,36.221],[140.56,36.256],[140.557,36.26],[140.538,36.262],[140.527,36.267],[140.522,36.278],[140.496,36.276],[140.494,36.25],[140.477,36.239],[140.456,36.235],[140.447,36.229],[140.441,36.239],[140.432,36.228],[140.421,36.232],[140.415,36.22],[140.419,36.213],[140.442,36.203],[140.45,36.187],[140.444,36.185],[140.437,36.166],[140.444,36.161],[140.456,36.159],[140.456,36.152],[140.448,36.137],[140.45,36.131],[140.464,36.123],[140.492,36.127],[140.507,36.132],[140.513,36.125],[140.524,36.124],[140.531,36.116],[140.529,36.096],[140.541,36.086],[140.544,36.069],[140.554,36.062],[140.562,36.062],[140.59,36.077],[140.611,36.082]]]]}},{"type":"Feature","properties":{"name":"つくばみらい市","code":"08235"},"geometry":{"type":"MultiPolygon","coordinates":[[[[140.089,35.983],[140.082,35.998],[140.065,36.013],[140.051,36.009],[140.045,36.02],[140.05,36.032],[140.027,36.046],[140.029,36.034],[139.991,36.012],[139.993,36.001],[139.983,35.998],[139.973,35.999],[139.975,35.981],[139.971,35.978],[139.979,35.969],[139.997,35.964],[140.003,35.959],[140.02,35.954],[140.029,35.942],[140.045,35.932],[140.056,35.938],[140.066,35.937],[140.082,35.945],[140.094,35.942],[140.114,35.948],[140.096,35.957],[140.089,35.968],[140.089,35.983]]]]}},{"type":"Feature","properties":{"name":"小美玉市","code":"08236"},"geometry":{"type":"MultiPolygon","coordinates":[[[[140.346,36.131],[140.367,36.131],[140.363,36.141],[140.363,36.157],[140.373,36.154],[140.395,36.156],[140.407,36.138],[140.42,36.143],[140.434,36.155],[140.437,36.166],[140.444,36.185],[140.45,36.187],[140.442,36.203],[140.419,36.213],[140.415,36.22],[140.395,36.237],[140.384,36.24],[140.384,36.256],[140.357,36.268],[140.343,36.266],[140.316,36.276],[140.304,36.273],[140.305,36.265],[140.293,36.256],[140.281,36.255],[140.272,36.231],[140.275,36.223],[140.285,36.22],[140.3,36.21],[140.312,36.21],[140.314,36.201],[140.334,36.188],[140.316,36.184],[140.307,36.165],[140.31,36.156],[140.33,36.147],[140.346,36.131]]]]}},{"type":"Feature","properties":{"name":"東茨城郡茨城町","code":"08302"},"geometry":{"type":"MultiPolygon","coordinates":[[[[140.369,36.313],[140.357,36.307],[140.359,36.301],[140.343,36.266],[140.357,36.268],[140.384,36.256],[140.384,36.24],[140.395,36.237],[140.415,36.22],[140.421,36.232],[140.432,36.228],[140.441,36.239],[140.447,36.229],[140.456,36.235],[140.477,36.239],[140.494,36.25],[140.496,36.276],[140.522,36.278],[140.531,36.295],[140.531,36.305],[140.521,36.306],[140.507,36.301],[140.497,36.306],[140.493,36.32],[140.484,36.322],[140.471,36.315],[140.442,36.321],[140.425,36.315],[140.419,36.331],[140.41,36.339],[140.395,36.333],[140.386,36.326],[140.391,36.312],[140.369,36.313]]]]}},{"type":"Feature","properties":{"name":"東茨城郡大洗町","code":"08309"},"geometry":{"type":"MultiPolygon","coordinates":[[[[140.531,36.305],[140.531,36.295],[140.522,36.278],[140.527,36.267],[140.538,36.262],[140.557,36.26],[140.56,36.256],[140.558,36.285],[140.561,36.292],[140.573,36.303],[140.577,36.311],[140.587,36.311],[140.593,36.319],[140.594,36.336],[140.587,36.337],[140.575,36.327],[140.561,36.32],[140.559,36.313],[140.544,36.319],[140.531,36.305]]]]}},{"type":"Feature","properties":{"name":"東茨城郡城里町","code":"08310"},"geometry":{"type":"MultiPolygon","coordinates":[[[[140.414,36.461],[140.408,36.465],[140.41,36.48],[140.395,36.491],[140.384,36.502],[140.368,36.528],[140.343,36.544],[140.325,36.55],[140.319,36.546],[140.315,36.536],[140.3,36.537],[140.297,36.525],[140.279,36.521],[140.267,36.53],[140.255,36.522],[140.248,36.515],[140.249,36.508],[140.242,36.503],[140.231,36.503],[140.23,36.491],[140.217,36.479],[140.203,36.454],[140.206,36.446],[140.202,36.433],[140.233,36.439],[140.238,36.431],[140.254,36.431],[140.258,36.435],[140.287,36.437],[140.291,36.446],[140.308,36.445],[140.319,36.441],[140.337,36.429],[140.344,36.432],[140.37,36.432],[140.394,36.438],[140.395,36.447],[140.386,36.451],[140.381,36.464],[140.395,36.462],[140.397,36.457],[140.414,36.461]]]]}},{"type":"Feature","properties":{"name":"那珂郡東海村","code":"08341"},"geometry":{"type":"MultiPolygon","coordinates":[[[[140.566,36.494],[140.55,36.485],[140.548,36.477],[140.539,36.465],[140.542,36.459],[140.545,36.447],[140.554,36.439],[140.572,36.434],[140.586,36.433],[140.608,36.424],[140.627,36.431],[140.627,36.441],[140.61,36.444],[140.608,36.452],[140.611,36.475],[140.614,36.482],[140.604,36.482],[140.591,36.489],[140.591,36.494],[140.566,36.494]]]]}},{"type":"Feature","properties":{"name":"久慈郡大子町","code":"08364"},"geometry":{"type":"MultiPolygon","coordinates":[[[[140.464,36.792],[140.439,36.82],[140.431,36.817],[140.413,36.832],[140.403,36.831],[140.377,36.838],[140.371,36.855],[140.372,36.87],[140.365,36.884],[140.347,36.885],[140.324,36.893],[140.322,36.908],[140.308,36.919],[140.303,36.927],[140.286,36.935],[140.273,36.93],[140.266,36.933],[140.253,36.93],[140.248,36.921],[140.249,36.909],[140.254,36.891],[140.257,36.873],[140.252,36.852],[140.255,36.842],[140.266,36.829],[140.266,36.791],[140.254,36.784],[140.254,36.775],[140.261,36.768],[140.255,36.76],[140.262,36.748],[140.283,36.734],[140.287,36.718],[140.292,36.713],[140.303,36.71],[140.313,36.713],[140.317,36.723],[140.327,36.722],[140.333,36.708],[140.359,36.7],[140.375,36.689],[140.392,36.685],[140.428,36.686],[140.429,36.696],[140.443,36.704],[140.43,36.712],[140.424,36.724],[140.415,36.732],[140.427,36.735],[140.442,36.729],[140.45,36.732],[140.448,36.747],[140.47,36.759],[140.463,36.786],[140.464,36.792]]]]}},{"type":"Feature","properties":{"name":"稲敷郡美浦村","code":"08442"},"geometry":{"type":"MultiPolygon","coordinates":[[[[140.41,36.023],[140.396,36.037],[140.359,36.045],[140.339,36.045],[140.311,36.049],[140.298,36.044],[140.27,36.051],[140.272,36.022],[140.281,36.001],[140.277,35.996],[140.288,35.983],[140.307,35.976],[140.322,35.989],[140.33,36.005],[140.359,35.998],[140.364,35.99],[140.388,35.996],[140.41,36.023]]]]}},{"type":"Feature","properties":{"name":"稲敷郡阿見町","code":"08443"},"geometry":{"type":"MultiPolygon","coordinates":[[[[140.159,36.015],[140.176,36.001],[140.179,35.986],[140.189,35.979],[140.209,35.969],[140.217,35.983],[140.228,35.976],[140.25,35.986],[140.258,35.979],[140.264,35.982],[140.288,35.983],[140.277,35.996],[140.281,36.001],[140.272,36.022],[140.27,36.051],[140.262,36.052],[140.242,36.055],[140.214,36.055],[140.209,36.047],[140.2,36.041],[140.191,36.041],[140.189,36.031],[140.173,36.04],[140.168,36.026],[140.159,36.015]]]]}},{"type":"Feature","properties":{"name":"稲敷郡河内町","code":"08447"},"geometry":{"type":"MultiPolygon","coordinates":[[[[140.202,35.875],[140.217,35.874],[140.214,35.862],[140.233,35.854],[140.244,35.855],[140.266,35.869],[140.276,35.874],[140.286,35.873],[140.308,35.864],[140.323,35.866],[140.335,35.872],[140.348,35.883],[140.353,35.892],[140.364,35.899],[140.379,35.903],[140.372,35.916],[140.332,35.897],[140.322,35.889],[140.296,35.884],[140.298,35.892],[140.282,35.892],[140.258,35.899],[140.248,35.907],[140.236,35.902],[140.216,35.884],[140.202,35.875]]]]}},{"type":"Feature","properties":{"name":"結城郡八千代町","code":"08521"},"geometry":{"type":"MultiPolygon","coordinates":[[[[139.856,36.147],[139.87,36.146],[139.881,36.138],[139.896,36.121],[139.894,36.132],[139.902,36.137],[139.917,36.133],[139.918,36.146],[139.92,36.158],[139.914,36.161],[139.923,36.17],[139.928,36.16],[139.927,36.151],[139.941,36.154],[139.944,36.168],[139.934,36.175],[139.937,36.19],[139.935,36.195],[139.923,36.195],[139.915,36.208],[139.917,36.219],[139.905,36.23],[139.906,36.235],[139.891,36.215],[139.885,36.212],[139.869,36.22],[139.854,36.213],[139.854,36.206],[139.866,36.192],[139.856,36.179],[139.851,36.162],[139.856,36.147]]]]}},{"type":"Feature","properties":{"name":"猿島郡五霞町","code":"08542"},"geometry":{"type":"MultiPolygon","coordinates":[[[[139.71,36.136],[139.714,36.126],[139.726,36.113],[139.728,36.09],[139.732,36.087],[139.747,36.087],[139.766,36.08],[139.772,36.082],[139.778,36.099],[139.787,36.104],[139.774,36.111],[139.759,36.126],[139.746,36.132],[139.721,36.132],[139.71,36.136]]]]}},{"type":"Feature","properties":{"name":"猿島郡境町","code":"08546"},"geometry":{"type":"MultiPolygon","coordinates":[[[[139.759,36.126],[139.774,36.111],[139.787,36.104],[139.797,36.096],[139.804,36.087],[139.808,36.07],[139.82,36.057],[139.831,36.062],[139.843,36.063],[139.849,36.074],[139.84,36.077],[139.838,36.089],[139.843,36.098],[139.842,36.114],[139.844,36.127],[139.829,36.141],[139.814,36.137],[139.806,36.139],[139.806,36.151],[139.802,36.156],[139.776,36.154],[139.781,36.145],[139.78,36.134],[139.766,36.135],[139.759,36.126]]]]}},{"type":"Feature","properties":{"name":"北相馬郡利根町","code":"08564"},"geometry":{"type":"MultiPolygon","coordinates":[[[[140.127,35.882],[140.127,35.871],[140.134,35.859],[140.146,35.846],[140.157,35.843],[140.187,35.852],[140.199,35.859],[140.214,35.862],[140.217,35.874],[140.202,35.875],[140.196,35.872],[140.186,35.885],[140.164,35.887],[140.161,35.879],[140.134,35.88],[140.127,35.882]]]]}}]}