{"type":"FeatureCollection","features":[{"type":"Feature","properties":{"name":"宇都宮市","code":"09201"},"geometry":{"type":"MultiPolygon","coordinates":[[[[139.907,36.721],[139.888,36.725],[139.882,36.723],[139.86,36.73],[139.853,36.725],[139.842,36.72],[139.841,36.706],[139.823,36.706],[139.818,36.716],[139.808,36.713],[139.797,36.704],[139.786,36.703],[139.784,36.679],[139.791,36.67],[139.794,36.653],[139.792,36.641],[139.768,36.634],[139.743,36.616],[139.748,36.607],[139.763,36.595],[139.773,36.6],[139.792,36.591],[139.797,36.57],[139.812,36.556],[139.827,36.555],[139.821,36.541],[139.829,36.535],[139.832,36.526],[139.821,36.511],[139.831,36.51],[139.835,36.496],[139.842,36.487],[139.852,36.479],[139.867,36.475],[139.874,36.465],[139.885,36.465],[139.912,36.491],[139.93,36.483],[139.947,36.484],[139.948,36.478],[139.963,36.472],[139.968,36.498],[139.972,36.503],[139.997,36.503],[140.0,36.497],[140.007,36.504],[140.006,36.513],[140.01,36.534],[139.998,36.551],[140.003,36.565],[139.993,36.602],[139.991,36.609],[139.971,36.608],[139.955,36.64],[139.952,36.66],[139.955,36.669],[139.94,36.692],[139.918,36.713],[139.907,36.721]]]]}},{"type":"Feature","properties":{"name":"足利市","code":"09202"},"geometry":{"type":"MultiPolygon","coordinates":[[[[139.536,36.282],[139.518,36.294],[139.524,36.304],[139.543,36.315],[139.548,36.337],[139.514,36.335],[139.506,36.342],[139.506,36.356],[139.512,36.364],[139.503,36.391],[139.487,36.401],[139.479,36.413],[139.478,36.422],[139.451,36.445],[139.43,36.437],[139.422,36.445],[139.407,36.446],[139.403,36.437],[139.394,36.434],[139.392,36.424],[139.377,36.411],[139.361,36.384],[139.369,36.367],[139.388,36.355],[139.397,36.346],[139.423,36.332],[139.415,36.324],[139.416,36.316],[139.427,36.304],[139.444,36.294],[139.457,36.289],[139.467,36.28],[139.464,36.272],[139.483,36.272],[139.521,36.281],[139.536,36.282]]]]}},{"type":"Feature","properties":{"name":"栃木市","code":"09203"},"geometry":{"type":"MultiPolygon","coordinates":[[[[139.606,36.472],[139.587,36.493],[139.564,36.496],[139.582,36.471],[139.599,36.466],[139.613,36.45],[139.636,36.435],[139.637,36.421],[139.646,36.415],[139.63,36.389],[139.631,36.381],[139.617,36.378],[139.61,36.371],[139.613,36.345],[139.618,36.344],[139.617,36.327],[139.634,36.327],[139.627,36.313],[139.626,36.303],[139.614,36.288],[139.617,36.274],[139.634,36.27],[139.637,36.262],[139.631,36.255],[139.642,36.241],[139.659,36.231],[139.675,36.208],[139.677,36.201],[139.689,36.202],[139.684,36.216],[139.695,36.223],[139.69,36.238],[139.7,36.244],[139.697,36.252],[139.71,36.264],[139.723,36.262],[139.722,36.274],[139.733,36.293],[139.725,36.296],[139.724,36.309],[139.733,36.312],[139.73,36.323],[139.747,36.326],[139.743,36.335],[139.745,36.347],[139.755,36.354],[139.766,36.353],[139.768,36.367],[139.779,36.376],[139.796,36.377],[139.797,36.389],[139.803,36.398],[139.812,36.402],[139.794,36.406],[139.79,36.419],[139.784,36.422],[139.767,36.442],[139.767,36.448],[139.758,36.46],[139.757,36.467],[139.747,36.481],[139.727,36.488],[139.715,36.482],[139.667,36.495],[139.643,36.486],[139.631,36.489],[139.624,36.478],[139.625,36.466],[139.615,36.467],[139.608,36.456],[139.6,36.465],[139.606,36.472]]]]}},{"type":"Feature","properties":{"name":"佐野市","code":"09204"},"geometry":{"type":"MultiPolygon","coordinates":[[[[139.615,36.467],[139.606,36.472],[139.6,36.465],[139.608,36.456],[139.615,36.467]]],[[[139.536,36.282],[139.549,36.28],[139.561,36.267],[139.585,36.269],[139.609,36.268],[139.617,36.274],[139.614,36.288],[139.626,36.303],[139.627,36.313],[139.634,36.327],[139.617,36.327],[139.618,36.344],[139.613,36.345],[139.61,36.371],[139.617,36.378],[139.631,36.381],[139.63,36.389],[139.646,36.415],[139.637,36.421],[139.636,36.435],[139.613,36.45],[139.599,36.466],[139.582,36.471],[139.564,36.496],[139.549,36.504],[139.536,36.517],[139.53,36.538],[139.525,36.542],[139.514,36.563],[139.507,36.569],[139.483,36.578],[139.474,36.573],[139.461,36.553],[139.452,36.55],[139.439,36.551],[139.436,36.538],[139.44,36.525],[139.428,36.511],[139.422,36.509],[139.418,36.495],[139.43,36.482],[139.436,36.466],[139.428,36.459],[139.411,36.458],[139.407,36.446],[139.422,36.445],[139.43,36.437],[139.451,36.445],[139.478,36.422],[139.479,36.413],[139.487,36.401],[139.503,36.391],[139.512,36.364],[139.506,36.356],[139.506,36.342],[139.514,36.335],[139.548,36.337],[139.543,36.315],[139.524,36.304],[139.518,36.294],[139.536,36.282]]]]}},{"type":"Feature","properties":{"name":"鹿沼市","code":"09205"},"geometry":{"type":"MultiPolygon","coordinates":[[[[139.743,36.616],[139.726,36.616],[139.713,36.623],[139.713,36.633],[139.721,36.641],[139.709,36.647],[139.708,36.663],[139.695,36.663],[139.682,36.656],[139.675,36.663],[139.644,36.663],[139.656,36.65],[139.642,36.636],[139.604,36.65],[139.587,36.664],[139.579,36.668],[139.572,36.698],[139.575,36.705],[139.56,36.714],[139.548,36.715],[139.523,36.708],[139.524,36.683],[139.516,36.681],[139.508,36.668],[139.5,36.665],[139.497,36.646],[139.509,36.632],[139.488,36.624],[139.467,36.613],[139.465,36.606],[139.471,36.603],[139.474,36.59],[139.483,36.578],[139.507,36.569],[139.514,36.563],[139.525,36.542],[139.53,36.538],[139.536,36.517],[139.549,36.504],[139.564,36.496],[139.587,36.493],[139.606,36.472],[139.615,36.467],[139.625,36.466],[139.624,36.478],[139.631,36.489],[139.643,36.486],[139.667,36.495],[139.715,36.482],[139.727,36.488],[139.747,36.481],[139.757,36.467],[139.767,36.471],[139.769,36.487],[139.779,36.493],[139.789,36.487],[139.793,36.498],[139.806,36.502],[139.821,36.511],[139.832,36.526],[139.829,36.535],[139.821,36.541],[139.827,36.555],[139.812,36.556],[139.797,36.57],[139.792,36.591],[139.773,36.6],[139.763,36.595],[139.748,36.607],[139.743,36.616]]]]}},{"type":"Feature","properties":{"name":"日光市","code":"09206"},"geometry":{"type":"MultiPolygon","coordinates":[[[[139.853,36.725],[139.839,36.735],[139.812,36.739],[139.764,36.759],[139.752,36.768],[139.737,36.767],[139.73,36.796],[139.732,36.822],[139.728,36.833],[139.737,36.833],[139.771,36.855],[139.773,36.868],[139.771,36.887],[139.776,36.901],[139.769,36.907],[139.772,36.921],[139.748,36.937],[139.738,36.953],[139.747,36.963],[139.747,36.978],[139.741,36.989],[139.755,37.003],[139.755,37.027],[139.759,37.038],[139.792,37.042],[139.8,37.046],[139.814,37.064],[139.823,37.081],[139.822,37.085],[139.81,37.085],[139.788,37.091],[139.778,37.089],[139.763,37.076],[139.753,37.071],[139.711,37.068],[139.701,37.059],[139.692,37.063],[139.677,37.057],[139.665,37.041],[139.636,37.032],[139.612,37.014],[139.599,37.012],[139.582,37.015],[139.58,37.005],[139.554,36.992],[139.545,36.991],[139.533,36.982],[139.515,36.978],[139.504,36.97],[139.494,36.968],[139.484,36.975],[139.461,36.971],[139.457,36.954],[139.434,36.942],[139.427,36.924],[139.412,36.928],[139.399,36.92],[139.394,36.903],[139.379,36.898],[139.371,36.89],[139.368,36.877],[139.358,36.872],[139.353,36.849],[139.366,36.842],[139.387,36.836],[139.397,36.835],[139.407,36.827],[139.391,36.814],[139.389,36.805],[139.378,36.804],[139.374,36.784],[139.362,36.781],[139.351,36.763],[139.356,36.75],[139.37,36.745],[139.356,36.707],[139.337,36.692],[139.339,36.678],[139.335,36.666],[139.327,36.657],[139.331,36.642],[139.33,36.628],[139.346,36.623],[139.352,36.615],[139.387,36.612],[139.399,36.602],[139.412,36.608],[139.427,36.601],[139.445,36.607],[139.465,36.606],[139.467,36.613],[139.488,36.624],[139.509,36.632],[139.497,36.646],[139.5,36.665],[139.508,36.668],[139.516,36.681],[139.524,36.683],[139.523,36.708],[139.548,36.715],[139.56,36.714],[139.575,36.705],[139.572,36.698],[139.579,36.668],[139.587,36.664],[139.604,36.65],[139.642,36.636],[139.656,36.65],[139.644,36.663],[139.675,36.663],[139.682,36.656],[139.695,36.663],[139.708,36.663],[139.709,36.647],[139.721,36.641],[139.713,36.633],[139.713,36.623],[139.726,36.616],[139.743,36.616],[139.768,36.634],[139.792,36.641],[139.794,36.653],[139.791,36.67],[139.784,36.679],[139.786,36.703],[139.797,36.704],[139.808,36.713],[139.818,36.716],[139.823,36.706],[139.841,36.706],[139.842,36.72],[139.853,36.725]]]]}},{"type":"Feature","properties":{"name":"小山市","code":"09208"},"geometry":{"type":"MultiPolygon","coordinates":[[[[139.695,36.223],[139.697,36.23],[139.728,36.248],[139.726,36.258],[139.732,36.263],[139.744,36.261],[139.738,36.248],[139.745,36.245],[139.766,36.245],[139.786,36.255],[139.784,36.242],[139.786,36.228],[139.822,36.24],[139.832,36.265],[139.842,36.277],[139.835,36.292],[139.85,36.312],[139.872,36.315],[139.897,36.31],[139.894,36.302],[139.911,36.301],[139.913,36.335],[139.915,36.348],[139.907,36.357],[139.912,36.362],[139.89,36.365],[139.889,36.356],[139.873,36.35],[139.869,36.36],[139.855,36.358],[139.843,36.352],[139.841,36.368],[139.812,36.374],[139.797,36.389],[139.796,36.377],[139.779,36.376],[139.768,36.367],[139.766,36.353],[139.755,36.354],[139.745,36.347],[139.743,36.335],[139.747,36.326],[139.73,36.323],[139.733,36.312],[139.724,36.309],[139.725,36.296],[139.733,36.293],[139.722,36.274],[139.723,36.262],[139.71,36.264],[139.697,36.252],[139.7,36.244],[139.69,36.238],[139.695,36.223]]]]}},{"type":"Feature","properties":{"name":"真岡市","code":"09209"},"geometry":{"type":"MultiPolygon","coordinates":[[[[139.963,36.472],[139.962,36.462],[139.948,36.451],[139.934,36.427],[139.931,36.402],[139.922,36.395],[139.919,36.375],[139.912,36.362],[139.907,36.357],[139.915,36.348],[139.913,36.335],[139.923,36.342],[139.946,36.349],[139.965,36.351],[139.965,36.367],[139.975,36.375],[139.99,36.367],[140.002,36.368],[140.013,36.376],[140.036,36.378],[140.048,36.376],[140.064,36.382],[140.069,36.389],[140.067,36.404],[140.063,36.412],[140.07,36.422],[140.065,36.429],[140.072,36.493],[140.064,36.498],[140.052,36.496],[140.049,36.51],[140.036,36.489],[140.004,36.49],[140.0,36.497],[139.997,36.503],[139.972,36.503],[139.968,36.498],[139.963,36.472]]]]}},{"type":"Feature","properties":{"name":"大田原市","code":"09210"},"geometry":{"type":"MultiPolygon","coordinates":[[[[140.243,36.943],[140.224,36.942],[140.184,36.948],[140.159,36.944],[140.154,36.932],[140.144,36.938],[140.135,36.935],[140.135,36.924],[140.127,36.915],[140.112,36.927],[140.108,36.935],[140.093,36.923],[140.071,36.922],[140.062,36.932],[140.052,36.925],[140.044,36.933],[140.033,36.921],[140.034,36.911],[140.005,36.896],[140.02,36.881],[140.011,36.876],[140.009,36.867],[139.996,36.864],[139.993,36.854],[139.997,36.847],[139.983,36.837],[139.966,36.838],[139.966,36.846],[139.943,36.878],[139.922,36.871],[139.927,36.857],[139.94,36.84],[139.957,36.831],[139.97,36.821],[139.987,36.816],[139.993,36.802],[140.01,36.784],[140.038,36.768],[140.047,36.774],[140.045,36.784],[140.073,36.786],[140.081,36.796],[140.092,36.798],[140.112,36.789],[140.116,36.785],[140.137,36.785],[140.159,36.801],[140.174,36.828],[140.187,36.82],[140.198,36.825],[140.204,36.837],[140.217,36.843],[140.231,36.838],[140.228,36.817],[140.233,36.802],[140.254,36.784],[140.266,36.791],[140.266,36.829],[140.255,36.842],[140.252,36.852],[140.257,36.873],[140.254,36.891],[140.249,36.909],[140.248,36.921],[140.262,36.938],[140.243,36.943]]]]}},{"type":"Feature","properties":{"name":"矢板市","code":"09211"},"geometry":{"type":"MultiPolygon","coordinates":[[[[139.922,36.871],[139.91,36.883],[139.892,36.888],[139.858,36.904],[139.849,36.91],[139.846,36.922],[139.837,36.928],[139.81,36.918],[139.803,36.909],[139.788,36.906],[139.809,36.871],[139.827,36.855],[139.83,36.847],[139.851,36.841],[139.852,36.828],[139.857,36.826],[139.878,36.799],[139.868,36.788],[139.88,36.776],[139.902,36.767],[139.905,36.755],[139.916,36.745],[139.917,36.734],[139.939,36.727],[139.964,36.729],[139.967,36.743],[139.962,36.748],[139.969,36.758],[139.984,36.77],[139.975,36.782],[139.985,36.801],[139.993,36.802],[139.987,36.816],[139.97,36.821],[139.957,36.831],[139.94,36.84],[139.927,36.857],[139.922,36.871]]]]}},{"type":"Feature","properties":{"name":"那須塩原市","code":"09213"},"geometry":{"type":"MultiPolygon","coordinates":[[[[139.776,36.901],[139.788,36.906],[139.803,36.909],[139.81,36.918],[139.837,36.928],[139.846,36.922],[139.849,36.91],[139.858,36.904],[139.892,36.888],[139.91,36.883],[139.922,36.871],[139.943,36.878],[139.966,36.846],[139.966,36.838],[139.983,36.837],[139.997,36.847],[139.993,36.854],[139.996,36.864],[140.009,36.867],[140.011,36.876],[140.02,36.881],[140.005,36.896],[140.034,36.911],[140.033,36.921],[140.044,36.933],[140.052,36.925],[140.062,36.932],[140.071,36.922],[140.093,36.923],[140.108,36.935],[140.121,36.947],[140.117,36.959],[140.138,36.969],[140.132,36.987],[140.123,36.986],[140.118,36.977],[140.102,36.976],[140.085,36.99],[140.08,36.985],[140.087,36.974],[140.074,36.97],[140.068,36.976],[140.032,36.992],[140.034,37.0],[140.024,37.006],[140.013,37.022],[139.995,37.039],[139.986,37.038],[139.949,37.051],[139.947,37.069],[139.944,37.079],[139.953,37.091],[139.953,37.099],[139.945,37.106],[139.933,37.105],[139.931,37.125],[139.937,37.137],[139.951,37.14],[139.967,37.148],[139.955,37.155],[139.934,37.154],[139.916,37.148],[139.895,37.153],[139.878,37.146],[139.866,37.147],[139.861,37.141],[139.848,37.139],[139.832,37.134],[139.828,37.126],[139.815,37.116],[139.821,37.109],[139.818,37.097],[139.822,37.085],[139.823,37.081],[139.814,37.064],[139.8,37.046],[139.792,37.042],[139.759,37.038],[139.755,37.027],[139.755,37.003],[139.741,36.989],[139.747,36.978],[139.747,36.963],[139.738,36.953],[139.748,36.937],[139.772,36.921],[139.769,36.907],[139.776,36.901]]]]}},{"type":"Feature","properties":{"name":"さくら市","code":"09214"},"geometry":{"type":"MultiPolygon","coordinates":[[[[139.955,36.64],[139.968,36.647],[139.968,36.661],[139.975,36.668],[139.992,36.672],[140.006,36.663],[140.017,36.666],[140.03,36.678],[140.03,36.681],[140.058,36.708],[140.073,36.731],[140.068,36.737],[140.083,36.745],[140.078,36.756],[140.084,36.761],[140.067,36.773],[140.061,36.77],[140.047,36.774],[140.038,36.768],[140.01,36.784],[139.993,36.802],[139.985,36.801],[139.975,36.782],[139.984,36.77],[139.969,36.758],[139.962,36.748],[139.967,36.743],[139.964,36.729],[139.939,36.727],[139.937,36.72],[139.907,36.721],[139.918,36.713],[139.94,36.692],[139.955,36.669],[139.952,36.66],[139.955,36.64]]]]}},{"type":"Feature","properties":{"name":"那須烏山市","code":"09215"},"geometry":{"type":"MultiPolygon","coordinates":[[[[140.03,36.678],[140.054,36.659],[140.064,36.646],[140.058,36.636],[140.063,36.618],[140.079,36.621],[140.085,36.601],[140.1,36.612],[140.106,36.624],[140.142,36.619],[140.139,36.611],[140.151,36.609],[140.168,36.611],[140.175,36.596],[140.184,36.591],[140.203,36.6],[140.202,36.608],[140.228,36.613],[140.235,36.624],[140.234,36.635],[140.243,36.637],[140.241,36.651],[140.229,36.662],[140.231,36.67],[140.222,36.674],[140.207,36.683],[140.201,36.681],[140.178,36.681],[140.161,36.7],[140.16,36.712],[140.149,36.724],[140.138,36.724],[140.131,36.717],[140.121,36.717],[140.116,36.728],[140.093,36.731],[140.083,36.745],[140.068,36.737],[140.073,36.731],[140.058,36.708],[140.03,36.681],[140.03,36.678]]]]}},{"type":"Feature","properties":{"name":"下野市","code":"09216"},"geometry":{"type":"MultiPolygon","coordinates":[[[[139.842,36.487],[139.84,36.481],[139.848,36.47],[139.846,36.46],[139.834,36.457],[139.831,36.425],[139.825,36.413],[139.826,36.399],[139.812,36.402],[139.803,36.398],[139.797,36.389],[139.812,36.374],[139.841,36.368],[139.843,36.352],[139.855,36.358],[139.869,36.36],[139.873,36.35],[139.889,36.356],[139.89,36.365],[139.912,36.362],[139.919,36.375],[139.922,36.395],[139.91,36.404],[139.897,36.403],[139.883,36.413],[139.864,36.415],[139.869,36.438],[139.867,36.462],[139.874,36.465],[139.867,36.475],[139.852,36.479],[139.842,36.487]]]]}},{"type":"Feature","properties":{"name":"河内郡上三川町","code":"09301"},"geometry":{"type":"MultiPolygon","coordinates":[[[[139.874,36.465],[139.867,36.462],[139.869,36.438],[139.864,36.415],[139.883,36.413],[139.897,36.403],[139.91,36.404],[139.922,36.395],[139.931,36.402],[139.934,36.427],[139.948,36.451],[139.962,36.462],[139.963,36.472],[139.948,36.478],[139.947,36.484],[139.93,36.483],[139.912,36.491],[139.885,36.465],[139.874,36.465]]]]}},{"type":"Feature","properties":{"name":"芳賀郡益子町","code":"09342"},"geometry":{"type":"MultiPolygon","coordinates":[[[[140.067,36.404],[140.092,36.402],[140.111,36.398],[140.114,36.411],[140.132,36.415],[140.144,36.414],[140.149,36.436],[140.16,36.453],[140.16,36.463],[140.149,36.481],[140.15,36.503],[140.14,36.504],[140.14,36.525],[140.109,36.517],[140.098,36.518],[140.092,36.512],[140.079,36.513],[140.072,36.493],[140.065,36.429],[140.07,36.422],[140.063,36.412],[140.067,36.404]]]]}},{"type":"Feature","properties":{"name":"芳賀郡茂木町","code":"09343"},"geometry":{"type":"MultiPolygon","coordinates":[[[[140.139,36.611],[140.14,36.597],[140.148,36.594],[140.136,36.573],[140.129,36.548],[140.148,36.535],[140.14,36.525],[140.14,36.504],[140.15,36.503],[140.149,36.481],[140.16,36.463],[140.16,36.453],[140.149,36.436],[140.144,36.414],[140.156,36.398],[140.166,36.4],[140.185,36.398],[140.203,36.421],[140.201,36.438],[140.206,36.446],[140.203,36.454],[140.217,36.479],[140.23,36.491],[140.231,36.503],[140.249,36.508],[140.248,36.515],[140.26,36.518],[140.248,36.534],[140.247,36.548],[140.252,36.555],[140.243,36.585],[140.249,36.599],[140.248,36.611],[140.24,36.625],[140.235,36.624],[140.228,36.613],[140.202,36.608],[140.203,36.6],[140.184,36.591],[140.175,36.596],[140.168,36.611],[140.151,36.609],[140.139,36.611]]]]}},{"type":"Feature","properties":{"name":"芳賀郡市貝町","code":"09344"},"geometry":{"type":"MultiPolygon","coordinates":[[[[140.072,36.493],[140.079,36.513],[140.092,36.512],[140.098,36.518],[140.109,36.517],[140.14,36.525],[140.148,36.535],[140.129,36.548],[140.136,36.573],[140.148,36.594],[140.14,36.597],[140.139,36.611],[140.142,36.619],[140.106,36.624],[140.1,36.612],[140.085,36.601],[140.089,36.585],[140.08,36.576],[140.085,36.547],[140.075,36.535],[140.08,36.523],[140.067,36.525],[140.069,36.537],[140.059,36.536],[140.054,36.515],[140.049,36.51],[140.052,36.496],[140.064,36.498],[140.072,36.493]]]]}},{"type":"Feature","properties":{"name":"芳賀郡芳賀町","code":"09345"},"geometry":{"type":"MultiPolygon","coordinates":[[[[140.0,36.497],[140.004,36.49],[140.036,36.489],[140.049,36.51],[140.054,36.515],[140.059,36.536],[140.069,36.537],[140.067,36.525],[140.08,36.523],[140.075,36.535],[140.085,36.547],[140.08,36.576],[140.089,36.585],[140.085,36.6],[140.067,36.615],[140.06,36.606],[140.044,36.607],[140.048,36.596],[140.045,36.586],[140.03,36.585],[140.014,36.58],[139.993,36.602],[140.003,36.565],[139.998,36.551],[140.01,36.534],[140.006,36.513],[140.007,36.504],[140.0,36.497]]]]}},{"type":"Feature","properties":{"name":"下都賀郡壬生町","code":"09361"},"geometry":{"type":"MultiPolygon","coordinates":[[[[139.821,36.511],[139.806,36.502],[139.793,36.498],[139.789,36.487],[139.779,36.493],[139.769,36.487],[139.767,36.471],[139.757,36.467],[139.758,36.46],[139.767,36.448],[139.767,36.442],[139.784,36.422],[139.79,36.419],[139.794,36.406],[139.812,36.402],[139.826,36.399],[139.825,36.413],[139.831,36.425],[139.834,36.457],[139.846,36.46],[139.848,36.47],[139.84,36.481],[139.842,36.487],[139.835,36.496],[139.831,36.51],[139.821,36.511]]]]}},{"type":"Feature","properties":{"name":"下都賀郡野木町","code":"09364"},"geometry":{"type":"MultiPolygon","coordinates":[[[[139.689,36.202],[139.694,36.206],[139.706,36.202],[139.707,36.211],[139.728,36.206],[139.748,36.211],[139.76,36.219],[139.786,36.228],[139.784,36.242],[139.786,36.255],[139.766,36.245],[139.745,36.245],[139.738,36.248],[139.744,36.261],[139.732,36.263],[139.726,36.258],[139.728,36.248],[139.697,36.23],[139.695,36.223],[139.684,36.216],[139.689,36.202]]]]}},{"type":"Feature","properties":{"name":"塩谷郡塩谷町","code":"09384"},"geometry":{"type":"MultiPolygon","coordinates":[[[[139.907,36.721],[139.937,36.72],[139.939,36.727],[139.917,36.734],[139.916,36.745],[139.905,36.755],[139.902,36.767],[139.88,36.776],[139.868,36.788],[139.878,36.799],[139.857,36.826],[139.852,36.828],[139.851,36.841],[139.83,36.847],[139.827,36.855],[139.809,36.871],[139.788,36.906],[139.776,36.901],[139.771,36.887],[139.773,36.868],[139.771,36.855],[139.737,36.833],[139.728,36.833],[139.732,36.822],[139.73,36.796],[139.737,36.767],[139.752,36.768],[139.764,36.759],[139.812,36.739],[139.839,36.735],[139.853,36.725],[139.86,36.73],[139.882,36.723],[139.888,36.725],[139.907,36.721]]]]}},{"type":"Feature","properties":{"name":"塩谷郡高根沢町","code":"09386"},"geometry":{"type":"MultiPolygon","coordinates":[[[[139.993,36.602],[140.014,36.58],[140.03,36.585],[140.045,36.586],[140.048,36.596],[140.044,36.607],[140.06,36.606],[140.067,36.615],[140.085,36.6],[140.079,36.621],[140.063,36.618],[140.058,36.636],[140.064,36.646],[140.054,36.659],[140.03,36.678],[140.017,36.666],[140.006,36.663],[139.992,36.672],[139.975,36.668],[139.968,36.661],[139.968,36.647],[139.955,36.64],[139.971,36.608],[139.991,36.609],[139.993,36.602]]]]}},{"type":"Feature","properties":{"name":"那須郡那須町","code":"09407"},"geometry":{"type":"MultiPolygon","coordinates":[[[[140.243,36.943],[140.241,36.95],[140.253,36.963],[140.244,36.973],[140.251,36.983],[140.24,37.0],[140.251,37.009],[140.249,37.026],[140.225,37.024],[140.22,37.019],[140.199,37.028],[140.2,37.048],[140.191,37.057],[140.193,37.066],[140.173,37.07],[140.154,37.087],[140.156,37.091],[140.137,37.106],[140.128,37.104],[140.103,37.121],[140.089,37.122],[140.066,37.127],[140.058,37.126],[140.047,37.135],[140.024,37.143],[140.015,37.14],[139.967,37.148],[139.951,37.14],[139.937,37.137],[139.931,37.125],[139.933,37.105],[139.945,37.106],[139.953,37.099],[139.953,37.091],[139.944,37.079],[139.947,37.069],[139.949,37.051],[139.986,37.038],[139.995,37.039],[140.013,37.022],[140.024,37.006],[140.034,37.0],[140.032,36.992],[140.068,36.976],[140.074,36.97],[140.087,36.974],[140.08,36.985],[140.085,36.99],[140.102,36.976],[140.118,36.977],[140.123,36.986],[140.132,36.987],[140.138,36.969],[140.117,36.959],[140.121,36.947],[140.108,36.935],[140.112,36.927],[140.127,36.915],[140.135,36.924],[140.135,36.935],[140.144,36.938],[140.154,36.932],[140.159,36.944],[140.184,36.948],[140.224,36.942],[140.243,36.943]]]]}},{"type":"Feature","properties":{"name":"那須郡那珂川町","code":"09411"},"geometry":{"type":"MultiPolygon","coordinates":[[[[140.047,36.774],[140.061,36.77],[140.067,36.773],[140.084,36.761],[140.078,36.756],[140.083,36.745],[140.093,36.731],[140.116,36.728],[140.121,36.717],[140.131,36.717],[140.138,36.724],[140.149,36.724],[140.16,36.712],[140.161,36.7],[140.178,36.681],[140.201,36.681],[140.207,36.683],[140.222,36.674],[140.22,36.687],[140.233,36.7],[140.268,36.702],[140.282,36.708],[140.288,36.725],[140.283,36.734],[140.262,36.748],[140.255,36.76],[140.261,36.768],[140.254,36.775],[140.254,36.784],[140.233,36.802],[140.228,36.817],[140.231,36.838],[140.217,36.843],[140.204,36.837],[140.198,36.825],[140.187,36.82],[140.174,36.828],[140.159,36.801],[140.137,36.785],[140.116,36.785],[140.112,36.789],[140.092,36.798],[140.081,36.796],[140.073,36.786],[140.045,36.784],[140.047,36.774]]]]}}]}