{"type":"FeatureCollection","features":[{"type":"Feature","properties":{"name":"前橋市","code":"10201"},"geometry":{"type":"MultiPolygon","coordinates":[[[[139.193,36.559],[139.169,36.562],[139.163,36.555],[139.152,36.554],[139.135,36.534],[139.118,36.526],[139.098,36.513],[139.076,36.494],[139.064,36.476],[139.053,36.468],[139.049,36.456],[139.041,36.452],[139.037,36.435],[139.023,36.417],[139.013,36.433],[139.002,36.427],[139.002,36.419],[139.007,36.407],[139.02,36.412],[139.028,36.407],[139.031,36.394],[139.025,36.384],[139.031,36.375],[139.044,36.364],[139.045,36.352],[139.057,36.356],[139.069,36.352],[139.077,36.333],[139.093,36.324],[139.107,36.316],[139.109,36.327],[139.126,36.327],[139.136,36.334],[139.151,36.342],[139.162,36.338],[139.175,36.353],[139.187,36.36],[139.192,36.373],[139.203,36.375],[139.207,36.391],[139.217,36.402],[139.227,36.404],[139.225,36.426],[139.213,36.452],[139.211,36.477],[139.202,36.492],[139.196,36.514],[139.189,36.526],[139.193,36.559]]]]}},{"type":"Feature","properties":{"name":"高崎市","code":"10202"},"geometry":{"type":"MultiPolygon","coordinates":[[[[139.13,36.283],[139.111,36.282],[139.104,36.279],[139.108,36.261],[139.118,36.269],[139.13,36.283]]],[[[139.002,36.419],[138.994,36.424],[138.982,36.414],[138.963,36.412],[138.95,36.43],[138.938,36.435],[138.925,36.448],[138.907,36.457],[138.909,36.472],[138.895,36.482],[138.877,36.483],[138.866,36.481],[138.86,36.473],[138.848,36.475],[138.826,36.473],[138.763,36.479],[138.755,36.476],[138.731,36.478],[138.723,36.482],[138.707,36.478],[138.698,36.473],[138.687,36.473],[138.678,36.464],[138.67,36.463],[138.655,36.452],[138.643,36.437],[138.647,36.425],[138.644,36.411],[138.648,36.407],[138.683,36.416],[138.701,36.409],[138.717,36.415],[138.752,36.407],[138.777,36.392],[138.843,36.371],[138.857,36.374],[138.886,36.366],[138.915,36.35],[138.927,36.353],[138.939,36.344],[138.937,36.334],[138.944,36.327],[138.954,36.306],[138.95,36.301],[138.95,36.287],[138.938,36.27],[138.944,36.268],[138.954,36.259],[138.954,36.251],[138.958,36.229],[138.943,36.199],[138.954,36.199],[138.981,36.206],[138.982,36.214],[138.997,36.224],[139.018,36.222],[139.017,36.234],[139.027,36.247],[139.023,36.26],[139.033,36.26],[139.041,36.27],[139.056,36.272],[139.056,36.285],[139.085,36.291],[139.097,36.288],[139.101,36.299],[139.088,36.312],[139.093,36.324],[139.077,36.333],[139.069,36.352],[139.057,36.356],[139.045,36.352],[139.044,36.364],[139.031,36.375],[139.025,36.384],[139.031,36.394],[139.028,36.407],[139.02,36.412],[139.007,36.407],[139.002,36.419]]]]}},{"type":"Feature","properties":{"name":"桐生市","code":"10203"},"geometry":{"type":"MultiPolygon","coordinates":[[[[139.451,36.55],[139.443,36.556],[139.43,36.553],[139.415,36.534],[139.402,36.524],[139.388,36.524],[139.376,36.515],[139.36,36.512],[139.359,36.5],[139.334,36.491],[139.332,36.479],[139.32,36.471],[139.318,36.463],[139.305,36.459],[139.301,36.447],[139.295,36.445],[139.293,36.422],[139.283,36.414],[139.315,36.397],[139.314,36.378],[139.328,36.375],[139.341,36.361],[139.355,36.36],[139.37,36.366],[139.361,36.384],[139.377,36.411],[139.392,36.424],[139.394,36.434],[139.403,36.437],[139.412,36.451],[139.411,36.458],[139.428,36.459],[139.436,36.466],[139.43,36.482],[139.418,36.495],[139.422,36.509],[139.428,36.511],[139.44,36.525],[139.436,36.538],[139.439,36.551],[139.451,36.55]]],[[[139.227,36.404],[139.241,36.397],[139.246,36.406],[139.256,36.408],[139.271,36.417],[139.271,36.425],[139.26,36.438],[139.263,36.453],[139.254,36.461],[139.236,36.469],[139.235,36.481],[139.268,36.48],[139.283,36.493],[139.298,36.491],[139.297,36.507],[139.28,36.514],[139.29,36.519],[139.297,36.534],[139.315,36.544],[139.319,36.561],[139.309,36.57],[139.3,36.584],[139.298,36.595],[139.289,36.59],[139.258,36.592],[139.242,36.588],[139.237,36.582],[139.191,36.569],[139.193,36.559],[139.189,36.526],[139.196,36.514],[139.202,36.492],[139.211,36.477],[139.213,36.452],[139.225,36.426],[139.227,36.404]]]]}},{"type":"Feature","properties":{"name":"伊勢崎市","code":"10204"},"geometry":{"type":"MultiPolygon","coordinates":[[[[139.136,36.334],[139.143,36.31],[139.155,36.302],[139.171,36.274],[139.212,36.256],[139.224,36.258],[139.237,36.246],[139.267,36.243],[139.273,36.249],[139.274,36.283],[139.256,36.295],[139.267,36.303],[139.269,36.324],[139.262,36.33],[139.273,36.369],[139.266,36.378],[139.268,36.392],[139.25,36.395],[139.256,36.408],[139.246,36.406],[139.241,36.397],[139.227,36.404],[139.217,36.402],[139.207,36.391],[139.203,36.375],[139.192,36.373],[139.187,36.36],[139.175,36.353],[139.162,36.338],[139.151,36.342],[139.136,36.334]]]]}},{"type":"Feature","properties":{"name":"太田市","code":"10205"},"geometry":{"type":"MultiPolygon","coordinates":[[[[139.314,36.378],[139.299,36.372],[139.28,36.373],[139.273,36.369],[139.262,36.33],[139.269,36.324],[139.267,36.303],[139.256,36.295],[139.274,36.283],[139.273,36.249],[139.315,36.237],[139.358,36.253],[139.377,36.245],[139.383,36.238],[139.382,36.253],[139.389,36.267],[139.406,36.276],[139.414,36.271],[139.435,36.268],[139.43,36.279],[139.433,36.287],[139.444,36.288],[139.444,36.294],[139.427,36.304],[139.416,36.316],[139.415,36.324],[139.423,36.332],[139.397,36.346],[139.388,36.355],[139.37,36.366],[139.355,36.36],[139.341,36.361],[139.328,36.375],[139.314,36.378]]]]}},{"type":"Feature","properties":{"name":"沼田市","code":"10206"},"geometry":{"type":"MultiPolygon","coordinates":[[[[139.193,36.559],[139.191,36.569],[139.237,36.582],[139.242,36.588],[139.258,36.592],[139.289,36.59],[139.298,36.595],[139.306,36.616],[139.328,36.633],[139.331,36.642],[139.327,36.657],[139.335,36.666],[139.339,36.678],[139.337,36.692],[139.356,36.707],[139.37,36.745],[139.356,36.75],[139.351,36.763],[139.353,36.774],[139.348,36.776],[139.333,36.77],[139.3,36.76],[139.271,36.741],[139.253,36.746],[139.232,36.743],[139.22,36.727],[139.214,36.725],[139.207,36.71],[139.197,36.718],[139.176,36.706],[139.175,36.7],[139.163,36.698],[139.144,36.687],[139.129,36.69],[139.11,36.688],[139.109,36.675],[139.081,36.673],[139.084,36.686],[139.08,36.701],[139.084,36.704],[139.084,36.74],[139.093,36.759],[139.116,36.779],[139.121,36.794],[139.108,36.797],[139.081,36.79],[139.059,36.793],[139.038,36.782],[139.037,36.773],[139.025,36.77],[139.03,36.756],[139.025,36.747],[139.033,36.742],[139.019,36.722],[139.027,36.71],[139.024,36.705],[139.03,36.683],[139.024,36.679],[139.02,36.667],[138.999,36.651],[138.985,36.645],[138.991,36.637],[138.986,36.625],[138.99,36.614],[138.989,36.598],[138.995,36.592],[139.004,36.583],[139.036,36.589],[139.058,36.586],[139.051,36.592],[139.05,36.601],[139.043,36.61],[139.047,36.622],[139.062,36.63],[139.066,36.641],[139.073,36.648],[139.094,36.658],[139.117,36.659],[139.127,36.653],[139.125,36.646],[139.132,36.63],[139.143,36.622],[139.143,36.614],[139.15,36.597],[139.163,36.578],[139.162,36.57],[139.169,36.562],[139.193,36.559]]]]}},{"type":"Feature","properties":{"name":"館林市","code":"10207"},"geometry":{"type":"MultiPolygon","coordinates":[[[[139.59,36.269],[139.561,36.267],[139.549,36.28],[139.544,36.276],[139.526,36.285],[139.5,36.276],[139.489,36.253],[139.479,36.242],[139.492,36.239],[139.496,36.229],[139.488,36.225],[139.463,36.225],[139.46,36.215],[139.479,36.212],[139.501,36.21],[139.512,36.218],[139.563,36.217],[139.572,36.221],[139.581,36.218],[139.58,36.233],[139.574,36.239],[139.591,36.248],[139.626,36.253],[139.59,36.269]]]]}},{"type":"Feature","properties":{"name":"渋川市","code":"10208"},"geometry":{"type":"MultiPolygon","coordinates":[[[[139.169,36.562],[139.162,36.57],[139.158,36.575],[139.133,36.578],[139.123,36.576],[139.108,36.581],[139.095,36.579],[139.076,36.584],[139.07,36.58],[139.058,36.586],[139.036,36.589],[139.004,36.583],[138.995,36.592],[138.97,36.581],[138.947,36.586],[138.921,36.586],[138.905,36.587],[138.897,36.578],[138.904,36.573],[138.896,36.562],[138.911,36.551],[138.944,36.55],[138.941,36.53],[138.922,36.513],[138.904,36.509],[138.892,36.502],[138.877,36.483],[138.895,36.482],[138.909,36.472],[138.916,36.466],[138.929,36.47],[138.957,36.474],[138.994,36.461],[139.006,36.464],[139.015,36.461],[139.019,36.451],[139.041,36.452],[139.049,36.456],[139.053,36.468],[139.064,36.476],[139.076,36.494],[139.098,36.513],[139.118,36.526],[139.135,36.534],[139.152,36.554],[139.163,36.555],[139.169,36.562]]]]}},{"type":"Feature","properties":{"name":"藤岡市","code":"10209"},"geometry":{"type":"MultiPolygon","coordinates":[[[[139.111,36.282],[139.097,36.288],[139.085,36.291],[139.056,36.285],[139.056,36.272],[139.041,36.27],[139.033,36.26],[139.023,36.26],[139.027,36.247],[139.017,36.234],[139.018,36.222],[138.997,36.224],[138.982,36.214],[138.981,36.206],[138.954,36.199],[138.943,36.199],[138.913,36.193],[138.902,36.181],[138.884,36.168],[138.87,36.17],[138.827,36.158],[138.81,36.141],[138.821,36.145],[138.838,36.143],[138.859,36.147],[138.865,36.152],[138.875,36.14],[138.905,36.146],[138.916,36.152],[138.94,36.149],[138.959,36.145],[138.963,36.132],[138.96,36.124],[138.97,36.124],[138.986,36.116],[138.993,36.124],[139.002,36.125],[139.016,36.134],[139.031,36.128],[139.042,36.128],[139.043,36.148],[139.061,36.152],[139.056,36.181],[139.063,36.186],[139.063,36.196],[139.082,36.215],[139.089,36.228],[139.111,36.258],[139.108,36.261],[139.104,36.279],[139.111,36.282]]]]}},{"type":"Feature","properties":{"name":"富岡市","code":"10210"},"geometry":{"type":"MultiPolygon","coordinates":[[[[138.95,36.301],[138.939,36.305],[138.913,36.305],[138.901,36.296],[138.902,36.289],[138.878,36.288],[138.858,36.276],[138.836,36.279],[138.812,36.294],[138.782,36.303],[138.756,36.303],[138.74,36.29],[138.754,36.283],[138.753,36.268],[138.771,36.251],[138.783,36.227],[138.797,36.227],[138.816,36.233],[138.818,36.237],[138.84,36.239],[138.83,36.212],[138.833,36.193],[138.831,36.178],[138.849,36.188],[138.859,36.203],[138.876,36.203],[138.878,36.221],[138.887,36.226],[138.901,36.226],[138.905,36.238],[138.919,36.248],[138.922,36.26],[138.944,36.268],[138.938,36.27],[138.95,36.287],[138.95,36.301]]]]}},{"type":"Feature","properties":{"name":"安中市","code":"10211"},"geometry":{"type":"MultiPolygon","coordinates":[[[[138.648,36.407],[138.652,36.395],[138.65,36.379],[138.657,36.369],[138.65,36.352],[138.651,36.332],[138.653,36.324],[138.648,36.314],[138.653,36.303],[138.657,36.287],[138.671,36.288],[138.683,36.28],[138.692,36.286],[138.705,36.28],[138.74,36.29],[138.756,36.303],[138.782,36.303],[138.812,36.294],[138.836,36.279],[138.858,36.276],[138.878,36.288],[138.902,36.289],[138.901,36.296],[138.913,36.305],[138.939,36.305],[138.95,36.301],[138.954,36.306],[138.944,36.327],[138.937,36.334],[138.939,36.344],[138.927,36.353],[138.915,36.35],[138.886,36.366],[138.857,36.374],[138.843,36.371],[138.777,36.392],[138.752,36.407],[138.717,36.415],[138.701,36.409],[138.683,36.416],[138.648,36.407]]]]}},{"type":"Feature","properties":{"name":"みどり市","code":"10212"},"geometry":{"type":"MultiPolygon","coordinates":[[[[139.451,36.55],[139.461,36.553],[139.466,36.564],[139.483,36.583],[139.474,36.59],[139.47,36.604],[139.445,36.607],[139.427,36.601],[139.412,36.608],[139.399,36.602],[139.387,36.612],[139.352,36.615],[139.346,36.623],[139.33,36.628],[139.328,36.633],[139.306,36.616],[139.298,36.595],[139.3,36.584],[139.309,36.57],[139.319,36.561],[139.315,36.544],[139.297,36.534],[139.29,36.519],[139.28,36.514],[139.297,36.507],[139.298,36.491],[139.283,36.493],[139.268,36.48],[139.235,36.481],[139.236,36.469],[139.254,36.461],[139.263,36.453],[139.26,36.438],[139.271,36.425],[139.271,36.417],[139.256,36.408],[139.25,36.395],[139.268,36.392],[139.266,36.378],[139.273,36.369],[139.28,36.373],[139.299,36.372],[139.314,36.378],[139.315,36.397],[139.283,36.414],[139.293,36.422],[139.295,36.445],[139.301,36.447],[139.305,36.459],[139.318,36.463],[139.32,36.471],[139.332,36.479],[139.334,36.491],[139.359,36.5],[139.36,36.512],[139.376,36.515],[139.388,36.524],[139.402,36.524],[139.415,36.534],[139.43,36.553],[139.443,36.556],[139.451,36.55]]]]}},{"type":"Feature","properties":{"name":"北群馬郡榛東村","code":"10344"},"geometry":{"type":"MultiPolygon","coordinates":[[[[139.002,36.427],[138.991,36.434],[138.993,36.451],[138.975,36.458],[138.964,36.456],[138.936,36.464],[138.929,36.47],[138.916,36.466],[138.909,36.472],[138.907,36.457],[138.925,36.448],[138.938,36.435],[138.95,36.43],[138.963,36.412],[138.982,36.414],[138.994,36.424],[139.002,36.419],[139.002,36.427]]]]}},{"type":"Feature","properties":{"name":"北群馬郡吉岡町","code":"10345"},"geometry":{"type":"MultiPolygon","coordinates":[[[[139.041,36.452],[139.019,36.451],[139.015,36.461],[139.006,36.464],[138.994,36.461],[138.957,36.474],[138.929,36.47],[138.936,36.464],[138.964,36.456],[138.975,36.458],[138.993,36.451],[138.991,36.434],[139.002,36.427],[139.013,36.433],[139.023,36.417],[139.037,36.435],[139.041,36.452]]]]}},{"type":"Feature","properties":{"name":"多野郡上野村","code":"10366"},"geometry":{"type":"MultiPolygon","coordinates":[[[[138.829,36.041],[138.812,36.065],[138.818,36.079],[138.806,36.083],[138.8,36.098],[138.781,36.103],[138.78,36.123],[138.771,36.133],[138.757,36.129],[138.742,36.119],[138.729,36.126],[138.706,36.122],[138.687,36.128],[138.666,36.117],[138.645,36.12],[138.645,36.099],[138.631,36.091],[138.633,36.081],[138.643,36.069],[138.644,36.05],[138.631,36.028],[138.662,36.012],[138.68,36.012],[138.691,35.991],[138.713,35.985],[138.717,35.993],[138.732,35.998],[138.744,36.01],[138.754,36.035],[138.769,36.039],[138.781,36.037],[138.791,36.029],[138.802,36.033],[138.828,36.037],[138.829,36.041]]]]}},{"type":"Feature","properties":{"name":"多野郡神流町","code":"10367"},"geometry":{"type":"MultiPolygon","coordinates":[[[[138.81,36.141],[138.791,36.136],[138.775,36.139],[138.768,36.145],[138.765,36.16],[138.764,36.143],[138.771,36.133],[138.78,36.123],[138.781,36.103],[138.8,36.098],[138.806,36.083],[138.818,36.079],[138.812,36.065],[138.829,36.041],[138.843,36.056],[138.846,36.067],[138.862,36.071],[138.864,36.077],[138.887,36.084],[138.898,36.091],[138.916,36.094],[138.931,36.088],[138.945,36.094],[138.957,36.106],[138.96,36.124],[138.963,36.132],[138.959,36.145],[138.94,36.149],[138.916,36.152],[138.905,36.146],[138.875,36.14],[138.865,36.152],[138.859,36.147],[138.838,36.143],[138.821,36.145],[138.81,36.141]]]]}},{"type":"Feature","properties":{"name":"甘楽郡下仁田町","code":"10382"},"geometry":{"type":"MultiPolygon","coordinates":[[[[138.827,36.158],[138.831,36.178],[138.833,36.193],[138.83,36.212],[138.84,36.239],[138.818,36.237],[138.816,36.233],[138.797,36.227],[138.783,36.227],[138.771,36.251],[138.753,36.268],[138.754,36.283],[138.74,36.29],[138.705,36.28],[138.692,36.286],[138.683,36.28],[138.671,36.288],[138.657,36.287],[138.653,36.303],[138.645,36.295],[138.631,36.288],[138.613,36.286],[138.604,36.275],[138.606,36.267],[138.602,36.25],[138.612,36.241],[138.612,36.229],[138.622,36.215],[138.633,36.216],[138.637,36.204],[138.642,36.199],[138.661,36.202],[138.681,36.196],[138.689,36.209],[138.708,36.215],[138.737,36.201],[138.737,36.192],[138.749,36.195],[138.76,36.187],[138.76,36.176],[138.765,36.16],[138.768,36.145],[138.775,36.139],[138.791,36.136],[138.81,36.141],[138.827,36.158]]]]}},{"type":"Feature","properties":{"name":"甘楽郡南牧村","code":"10383"},"geometry":{"type":"MultiPolygon","coordinates":[[[[138.771,36.133],[138.764,36.143],[138.765,36.16],[138.76,36.176],[138.76,36.187],[138.749,36.195],[138.737,36.192],[138.737,36.201],[138.708,36.215],[138.689,36.209],[138.681,36.196],[138.661,36.202],[138.642,36.199],[138.637,36.204],[138.623,36.197],[138.637,36.175],[138.595,36.166],[138.581,36.176],[138.58,36.162],[138.593,36.153],[138.601,36.136],[138.622,36.132],[138.634,36.134],[138.637,36.124],[138.645,36.12],[138.666,36.117],[138.687,36.128],[138.706,36.122],[138.729,36.126],[138.742,36.119],[138.757,36.129],[138.771,36.133]]]]}},{"type":"Feature","properties":{"name":"甘楽郡甘楽町","code":"10384"},"geometry":{"type":"MultiPolygon","coordinates":[[[[138.944,36.268],[138.922,36.26],[138.919,36.248],[138.905,36.238],[138.901,36.226],[138.887,36.226],[138.878,36.221],[138.876,36.203],[138.859,36.203],[138.849,36.188],[138.831,36.178],[138.827,36.158],[138.87,36.17],[138.884,36.168],[138.902,36.181],[138.913,36.193],[138.943,36.199],[138.958,36.229],[138.954,36.251],[138.954,36.259],[138.944,36.268]]]]}},{"type":"Feature","properties":{"name":"吾妻郡中之条町","code":"10421"},"geometry":{"type":"MultiPolygon","coordinates":[[[[138.921,36.586],[138.91,36.601],[138.893,36.612],[138.894,36.62],[138.888,36.64],[138.893,36.657],[138.876,36.662],[138.871,36.668],[138.86,36.665],[138.827,36.664],[138.821,36.681],[138.825,36.702],[138.813,36.714],[138.803,36.719],[138.8,36.729],[138.789,36.745],[138.77,36.746],[138.753,36.755],[138.727,36.764],[138.722,36.75],[138.713,36.739],[138.696,36.738],[138.675,36.731],[138.649,36.727],[138.63,36.72],[138.622,36.72],[138.611,36.707],[138.594,36.714],[138.583,36.701],[138.575,36.707],[138.544,36.704],[138.52,36.692],[138.518,36.677],[138.534,36.666],[138.525,36.651],[138.535,36.656],[138.56,36.653],[138.571,36.642],[138.601,36.644],[138.613,36.639],[138.625,36.629],[138.63,36.614],[138.618,36.603],[138.608,36.599],[138.595,36.599],[138.597,36.582],[138.616,36.573],[138.618,36.565],[138.636,36.559],[138.65,36.57],[138.674,36.569],[138.682,36.575],[138.682,36.586],[138.697,36.595],[138.717,36.59],[138.731,36.598],[138.746,36.595],[138.761,36.585],[138.781,36.576],[138.794,36.582],[138.805,36.579],[138.821,36.587],[138.826,36.583],[138.863,36.581],[138.883,36.566],[138.896,36.562],[138.904,36.573],[138.897,36.578],[138.905,36.587],[138.921,36.586]]]]}},{"type":"Feature","properties":{"name":"吾妻郡長野原町","code":"10424"},"geometry":{"type":"MultiPolygon","coordinates":[[[[138.655,36.452],[138.647,36.466],[138.64,36.471],[138.645,36.484],[138.641,36.488],[138.64,36.504],[138.651,36.521],[138.664,36.524],[138.681,36.52],[138.7,36.535],[138.714,36.534],[138.722,36.544],[138.714,36.567],[138.69,36.569],[138.682,36.575],[138.674,36.569],[138.65,36.57],[138.636,36.559],[138.618,36.565],[138.616,36.573],[138.597,36.582],[138.585,36.579],[138.584,36.568],[138.597,36.55],[138.592,36.544],[138.596,36.528],[138.583,36.523],[138.571,36.537],[138.563,36.531],[138.565,36.509],[138.575,36.489],[138.569,36.478],[138.57,36.455],[138.581,36.451],[138.573,36.433],[138.571,36.42],[138.59,36.424],[138.608,36.423],[138.627,36.416],[138.637,36.417],[138.644,36.411],[138.647,36.425],[138.643,36.437],[138.655,36.452]]]]}},{"type":"Feature","properties":{"name":"吾妻郡嬬恋村","code":"10425"},"geometry":{"type":"MultiPolygon","coordinates":[[[[138.584,36.568],[138.565,36.579],[138.559,36.593],[138.541,36.6],[138.533,36.616],[138.539,36.63],[138.527,36.641],[138.525,36.651],[138.508,36.648],[138.49,36.641],[138.473,36.644],[138.459,36.635],[138.461,36.626],[138.455,36.614],[138.442,36.611],[138.429,36.598],[138.42,36.577],[138.428,36.569],[138.429,36.556],[138.418,36.543],[138.414,36.533],[138.404,36.522],[138.406,36.507],[138.397,36.491],[138.401,36.481],[138.4,36.461],[138.403,36.452],[138.401,36.434],[138.442,36.423],[138.457,36.42],[138.46,36.405],[138.478,36.404],[138.489,36.401],[138.492,36.413],[138.505,36.415],[138.529,36.403],[138.541,36.403],[138.555,36.418],[138.571,36.42],[138.573,36.433],[138.581,36.451],[138.57,36.455],[138.569,36.478],[138.575,36.489],[138.565,36.509],[138.563,36.531],[138.571,36.537],[138.583,36.523],[138.596,36.528],[138.592,36.544],[138.597,36.55],[138.584,36.568]]]]}},{"type":"Feature","properties":{"name":"吾妻郡草津町","code":"10426"},"geometry":{"type":"MultiPolygon","coordinates":[[[[138.525,36.651],[138.527,36.641],[138.539,36.63],[138.533,36.616],[138.541,36.6],[138.559,36.593],[138.565,36.579],[138.584,36.568],[138.585,36.579],[138.597,36.582],[138.595,36.599],[138.608,36.599],[138.618,36.603],[138.63,36.614],[138.625,36.629],[138.613,36.639],[138.601,36.644],[138.571,36.642],[138.56,36.653],[138.535,36.656],[138.525,36.651]]]]}},{"type":"Feature","properties":{"name":"吾妻郡高山村","code":"10428"},"geometry":{"type":"MultiPolygon","coordinates":[[[[138.985,36.645],[138.97,36.647],[138.957,36.654],[138.931,36.662],[138.924,36.657],[138.91,36.66],[138.893,36.657],[138.888,36.64],[138.894,36.62],[138.893,36.612],[138.91,36.601],[138.921,36.586],[138.947,36.586],[138.97,36.581],[138.995,36.592],[138.989,36.598],[138.99,36.614],[138.986,36.625],[138.991,36.637],[138.985,36.645]]]]}},{"type":"Feature","properties":{"name":"吾妻郡東吾妻町","code":"10429"},"geometry":{"type":"MultiPolygon","coordinates":[[[[138.877,36.483],[138.892,36.502],[138.904,36.509],[138.922,36.513],[138.941,36.53],[138.944,36.55],[138.911,36.551],[138.896,36.562],[138.883,36.566],[138.863,36.581],[138.826,36.583],[138.821,36.587],[138.805,36.579],[138.794,36.582],[138.781,36.576],[138.761,36.585],[138.746,36.595],[138.731,36.598],[138.717,36.59],[138.697,36.595],[138.682,36.586],[138.682,36.575],[138.69,36.569],[138.714,36.567],[138.722,36.544],[138.714,36.534],[138.7,36.535],[138.681,36.52],[138.664,36.524],[138.651,36.521],[138.64,36.504],[138.641,36.488],[138.645,36.484],[138.64,36.471],[138.647,36.466],[138.655,36.452],[138.67,36.463],[138.678,36.464],[138.687,36.473],[138.698,36.473],[138.707,36.478],[138.723,36.482],[138.731,36.478],[138.755,36.476],[138.763,36.479],[138.826,36.473],[138.848,36.475],[138.86,36.473],[138.866,36.481],[138.877,36.483]]]]}},{"type":"Feature","properties":{"name":"利根郡片品村","code":"10443"},"geometry":{"type":"MultiPolygon","coordinates":[[[[139.353,36.774],[139.374,36.784],[139.378,36.804],[139.389,36.805],[139.391,36.814],[139.407,36.827],[139.397,36.835],[139.387,36.836],[139.353,36.849],[139.358,36.872],[139.368,36.877],[139.371,36.89],[139.379,36.898],[139.394,36.903],[139.373,36.918],[139.353,36.916],[139.342,36.928],[139.328,36.925],[139.305,36.926],[139.295,36.934],[139.282,36.931],[139.268,36.939],[139.241,36.929],[139.23,36.938],[139.238,36.946],[139.229,36.961],[139.205,36.956],[139.18,36.965],[139.167,36.952],[139.166,36.937],[139.172,36.93],[139.176,36.913],[139.172,36.907],[139.172,36.888],[139.165,36.885],[139.153,36.873],[139.155,36.864],[139.166,36.865],[139.195,36.856],[139.196,36.838],[139.183,36.837],[139.159,36.824],[139.159,36.815],[139.139,36.804],[139.146,36.79],[139.16,36.777],[139.159,36.758],[139.153,36.754],[139.158,36.74],[139.173,36.743],[139.183,36.735],[139.195,36.734],[139.197,36.718],[139.207,36.71],[139.214,36.725],[139.22,36.727],[139.232,36.743],[139.253,36.746],[139.271,36.741],[139.3,36.76],[139.333,36.77],[139.348,36.776],[139.353,36.774]]]]}},{"type":"Feature","properties":{"name":"利根郡川場村","code":"10444"},"geometry":{"type":"MultiPolygon","coordinates":[[[[139.197,36.718],[139.195,36.734],[139.183,36.735],[139.173,36.743],[139.158,36.74],[139.153,36.754],[139.159,36.758],[139.16,36.777],[139.146,36.79],[139.139,36.804],[139.133,36.805],[139.121,36.794],[139.116,36.779],[139.093,36.759],[139.084,36.74],[139.084,36.704],[139.08,36.701],[139.084,36.686],[139.081,36.673],[139.109,36.675],[139.11,36.688],[139.129,36.69],[139.144,36.687],[139.163,36.698],[139.175,36.7],[139.176,36.706],[139.197,36.718]]]]}},{"type":"Feature","properties":{"name":"利根郡昭和村","code":"10448"},"geometry":{"type":"MultiPolygon","coordinates":[[[[139.058,36.586],[139.07,36.58],[139.076,36.584],[139.095,36.579],[139.108,36.581],[139.123,36.576],[139.133,36.578],[139.158,36.575],[139.162,36.57],[139.163,36.578],[139.15,36.597],[139.143,36.614],[139.143,36.622],[139.132,36.63],[139.125,36.646],[139.127,36.653],[139.117,36.659],[139.094,36.658],[139.073,36.648],[139.066,36.641],[139.062,36.63],[139.047,36.622],[139.043,36.61],[139.05,36.601],[139.051,36.592],[139.058,36.586]]]]}},{"type":"Feature","properties":{"name":"利根郡みなかみ町","code":"10449"},"geometry":{"type":"MultiPolygon","coordinates":[[[[139.121,36.794],[139.133,36.805],[139.139,36.804],[139.159,36.815],[139.159,36.824],[139.183,36.837],[139.196,36.838],[139.195,36.856],[139.166,36.865],[139.155,36.864],[139.153,36.873],[139.165,36.885],[139.172,36.888],[139.172,36.907],[139.176,36.913],[139.172,36.93],[139.166,36.937],[139.167,36.952],[139.18,36.965],[139.175,36.974],[139.179,36.991],[139.171,37.002],[139.15,37.01],[139.145,37.019],[139.132,37.026],[139.123,37.047],[139.111,37.055],[139.097,37.059],[139.09,37.045],[139.091,37.02],[139.081,37.009],[139.074,37.009],[139.05,36.995],[139.048,36.988],[139.03,36.984],[139.015,36.988],[139.001,36.979],[138.97,36.981],[138.966,36.979],[138.964,36.953],[138.967,36.931],[138.977,36.921],[138.974,36.913],[138.98,36.904],[138.979,36.891],[138.972,36.887],[138.954,36.895],[138.931,36.892],[138.923,36.883],[138.917,36.87],[138.922,36.861],[138.917,36.849],[138.924,36.847],[138.929,36.833],[138.903,36.827],[138.88,36.825],[138.876,36.819],[138.851,36.812],[138.84,36.817],[138.822,36.818],[138.829,36.795],[138.827,36.772],[138.818,36.762],[138.806,36.765],[138.795,36.758],[138.789,36.745],[138.8,36.729],[138.803,36.719],[138.813,36.714],[138.825,36.702],[138.821,36.681],[138.827,36.664],[138.86,36.665],[138.871,36.668],[138.876,36.662],[138.893,36.657],[138.91,36.66],[138.924,36.657],[138.931,36.662],[138.957,36.654],[138.97,36.647],[138.985,36.645],[138.999,36.651],[139.02,36.667],[139.024,36.679],[139.03,36.683],[139.024,36.705],[139.027,36.71],[139.019,36.722],[139.033,36.742],[139.025,36.747],[139.03,36.756],[139.025,36.77],[139.037,36.773],[139.038,36.782],[139.059,36.793],[139.081,36.79],[139.108,36.797],[139.121,36.794]]]]}},{"type":"Feature","properties":{"name":"佐波郡玉村町","code":"10464"},"geometry":{"type":"MultiPolygon","coordinates":[[[[139.093,36.324],[139.088,36.312],[139.101,36.299],[139.097,36.288],[139.111,36.282],[139.13,36.283],[139.136,36.278],[139.164,36.279],[139.171,36.274],[139.155,36.302],[139.143,36.31],[139.136,36.334],[139.126,36.327],[139.109,36.327],[139.107,36.316],[139.093,36.324]]]]}},{"type":"Feature","properties":{"name":"邑楽郡板倉町","code":"10521"},"geometry":{"type":"MultiPolygon","coordinates":[[[[139.581,36.218],[139.588,36.21],[139.604,36.203],[139.613,36.194],[139.626,36.193],[139.652,36.198],[139.649,36.211],[139.67,36.215],[139.659,36.231],[139.642,36.241],[139.631,36.255],[139.637,36.262],[139.634,36.27],[139.616,36.274],[139.609,36.268],[139.59,36.269],[139.626,36.253],[139.591,36.248],[139.574,36.239],[139.58,36.233],[139.581,36.218]]]]}},{"type":"Feature","properties":{"name":"邑楽郡明和町","code":"10522"},"geometry":{"type":"MultiPolygon","coordinates":[[[[139.479,36.212],[139.491,36.203],[139.493,36.192],[139.521,36.191],[139.535,36.193],[139.555,36.201],[139.573,36.204],[139.588,36.21],[139.581,36.218],[139.572,36.221],[139.563,36.217],[139.512,36.218],[139.501,36.21],[139.479,36.212]]]]}},{"type":"Feature","properties":{"name":"邑楽郡千代田町","code":"10523"},"geometry":{"type":"MultiPolygon","coordinates":[[[[139.463,36.225],[139.442,36.231],[139.428,36.245],[139.422,36.238],[139.409,36.234],[139.418,36.225],[139.417,36.218],[139.454,36.191],[139.474,36.189],[139.493,36.192],[139.491,36.203],[139.479,36.212],[139.46,36.215],[139.463,36.225]]]]}},{"type":"Feature","properties":{"name":"邑楽郡大泉町","code":"10524"},"geometry":{"type":"MultiPolygon","coordinates":[[[[139.383,36.238],[139.393,36.228],[139.417,36.218],[139.418,36.225],[139.409,36.234],[139.422,36.238],[139.428,36.245],[139.435,36.268],[139.414,36.271],[139.406,36.276],[139.389,36.267],[139.382,36.253],[139.383,36.238]]]]}},{"type":"Feature","properties":{"name":"邑楽郡邑楽町","code":"10525"},"geometry":{"type":"MultiPolygon","coordinates":[[[[139.435,36.268],[139.428,36.245],[139.442,36.231],[139.463,36.225],[139.488,36.225],[139.496,36.229],[139.492,36.239],[139.479,36.242],[139.489,36.253],[139.5,36.276],[139.483,36.272],[139.464,36.272],[139.467,36.28],[139.457,36.289],[139.444,36.288],[139.433,36.287],[139.43,36.279],[139.435,36.268]]]]}}]}