{"type":"FeatureCollection","features":[{"type":"Feature","properties":{"name":"さいたま市西区","code":"11101"},"geometry":{"type":"MultiPolygon","coordinates":[[[[139.548,35.934],[139.546,35.922],[139.555,35.904],[139.549,35.887],[139.56,35.881],[139.559,35.874],[139.576,35.871],[139.573,35.88],[139.598,35.881],[139.604,35.888],[139.597,35.891],[139.597,35.915],[139.597,35.937],[139.586,35.946],[139.575,35.944],[139.557,35.935],[139.548,35.934]]]]}},{"type":"Feature","properties":{"name":"さいたま市北区","code":"11102"},"geometry":{"type":"MultiPolygon","coordinates":[[[[139.597,35.915],[139.612,35.916],[139.619,35.922],[139.642,35.924],[139.642,35.939],[139.626,35.952],[139.614,35.966],[139.6,35.959],[139.588,35.96],[139.599,35.944],[139.597,35.937],[139.597,35.915]]]]}},{"type":"Feature","properties":{"name":"さいたま市大宮区","code":"11103"},"geometry":{"type":"MultiPolygon","coordinates":[[[[139.604,35.888],[139.607,35.896],[139.636,35.889],[139.647,35.89],[139.648,35.901],[139.648,35.912],[139.642,35.924],[139.619,35.922],[139.612,35.916],[139.597,35.915],[139.597,35.891],[139.604,35.888]]]]}},{"type":"Feature","properties":{"name":"さいたま市見沼区","code":"11104"},"geometry":{"type":"MultiPolygon","coordinates":[[[[139.642,35.924],[139.648,35.912],[139.648,35.901],[139.661,35.894],[139.67,35.897],[139.689,35.896],[139.701,35.899],[139.693,35.912],[139.7,35.916],[139.691,35.93],[139.685,35.933],[139.682,35.95],[139.67,35.964],[139.658,35.964],[139.649,35.962],[139.645,35.951],[139.637,35.955],[139.626,35.952],[139.642,35.939],[139.642,35.924]]]]}},{"type":"Feature","properties":{"name":"さいたま市中央区","code":"11105"},"geometry":{"type":"MultiPolygon","coordinates":[[[[139.604,35.889],[139.61,35.885],[139.619,35.869],[139.636,35.86],[139.64,35.858],[139.636,35.889],[139.607,35.896],[139.604,35.889]]]]}},{"type":"Feature","properties":{"name":"さいたま市桜区","code":"11106"},"geometry":{"type":"MultiPolygon","coordinates":[[[[139.576,35.871],[139.585,35.861],[139.607,35.835],[139.617,35.834],[139.636,35.841],[139.633,35.851],[139.636,35.86],[139.619,35.869],[139.61,35.885],[139.604,35.889],[139.598,35.881],[139.573,35.88],[139.576,35.871]]]]}},{"type":"Feature","properties":{"name":"さいたま市浦和区","code":"11107"},"geometry":{"type":"MultiPolygon","coordinates":[[[[139.636,35.889],[139.64,35.858],[139.659,35.847],[139.667,35.853],[139.666,35.861],[139.668,35.883],[139.661,35.894],[139.648,35.901],[139.647,35.89],[139.636,35.889]]]]}},{"type":"Feature","properties":{"name":"さいたま市南区","code":"11108"},"geometry":{"type":"MultiPolygon","coordinates":[[[[139.636,35.86],[139.633,35.851],[139.636,35.841],[139.617,35.834],[139.619,35.829],[139.65,35.833],[139.663,35.829],[139.677,35.833],[139.675,35.851],[139.696,35.849],[139.698,35.857],[139.695,35.863],[139.679,35.867],[139.666,35.861],[139.667,35.853],[139.659,35.847],[139.64,35.858],[139.636,35.86]]]]}},{"type":"Feature","properties":{"name":"さいたま市緑区","code":"11109"},"geometry":{"type":"MultiPolygon","coordinates":[[[[139.661,35.894],[139.668,35.883],[139.666,35.861],[139.679,35.867],[139.695,35.863],[139.698,35.857],[139.704,35.862],[139.718,35.862],[139.72,35.87],[139.714,35.877],[139.741,35.876],[139.743,35.886],[139.731,35.899],[139.718,35.909],[139.7,35.916],[139.693,35.912],[139.701,35.899],[139.689,35.896],[139.67,35.897],[139.661,35.894]]]]}},{"type":"Feature","properties":{"name":"さいたま市岩槻区","code":"11110"},"geometry":{"type":"MultiPolygon","coordinates":[[[[139.7,35.916],[139.718,35.909],[139.731,35.899],[139.743,35.886],[139.752,35.88],[139.745,35.894],[139.753,35.896],[139.755,35.91],[139.745,35.917],[139.754,35.935],[139.752,35.941],[139.746,35.952],[139.721,35.958],[139.713,35.966],[139.725,35.973],[139.724,35.986],[139.708,35.995],[139.692,35.999],[139.696,35.991],[139.684,35.976],[139.666,35.976],[139.658,35.964],[139.67,35.964],[139.682,35.95],[139.685,35.933],[139.691,35.93],[139.7,35.916]]]]}},{"type":"Feature","properties":{"name":"川越市","code":"11201"},"geometry":{"type":"MultiPolygon","coordinates":[[[[139.544,35.938],[139.537,35.948],[139.503,35.956],[139.479,35.956],[139.468,35.96],[139.451,35.948],[139.435,35.945],[139.431,35.959],[139.421,35.956],[139.429,35.94],[139.412,35.924],[139.389,35.914],[139.379,35.92],[139.384,35.909],[139.393,35.908],[139.402,35.896],[139.412,35.901],[139.441,35.885],[139.454,35.876],[139.462,35.878],[139.466,35.867],[139.459,35.859],[139.476,35.84],[139.487,35.842],[139.485,35.85],[139.475,35.855],[139.496,35.864],[139.511,35.88],[139.514,35.888],[139.528,35.881],[139.547,35.881],[139.549,35.887],[139.555,35.904],[139.546,35.922],[139.548,35.934],[139.544,35.938]]]]}},{"type":"Feature","properties":{"name":"熊谷市","code":"11202"},"geometry":{"type":"MultiPolygon","coordinates":[[[[139.444,36.197],[139.419,36.216],[139.393,36.228],[139.377,36.245],[139.358,36.253],[139.328,36.24],[139.336,36.233],[139.336,36.218],[139.332,36.185],[139.318,36.174],[139.313,36.178],[139.296,36.167],[139.293,36.162],[139.315,36.147],[139.312,36.138],[139.311,36.117],[139.301,36.11],[139.309,36.105],[139.321,36.091],[139.342,36.09],[139.344,36.104],[139.376,36.099],[139.387,36.102],[139.395,36.101],[139.413,36.09],[139.408,36.076],[139.422,36.07],[139.445,36.081],[139.447,36.084],[139.433,36.093],[139.432,36.111],[139.431,36.132],[139.423,36.139],[139.422,36.148],[139.434,36.147],[139.432,36.159],[139.435,36.17],[139.421,36.171],[139.419,36.189],[139.423,36.198],[139.444,36.197]]]]}},{"type":"Feature","properties":{"name":"川口市","code":"11203"},"geometry":{"type":"MultiPolygon","coordinates":[[[[139.677,35.833],[139.71,35.826],[139.7,35.815],[139.698,35.798],[139.709,35.792],[139.734,35.79],[139.738,35.781],[139.755,35.787],[139.761,35.797],[139.751,35.807],[139.768,35.818],[139.788,35.825],[139.779,35.833],[139.779,35.842],[139.771,35.848],[139.764,35.863],[139.77,35.866],[139.752,35.88],[139.743,35.886],[139.741,35.876],[139.714,35.877],[139.72,35.87],[139.718,35.862],[139.704,35.862],[139.698,35.857],[139.696,35.849],[139.675,35.851],[139.677,35.833]]]]}},{"type":"Feature","properties":{"name":"行田市","code":"11206"},"geometry":{"type":"MultiPolygon","coordinates":[[[[139.432,36.111],[139.441,36.117],[139.459,36.112],[139.466,36.113],[139.479,36.103],[139.488,36.092],[139.493,36.092],[139.503,36.104],[139.497,36.112],[139.506,36.115],[139.51,36.125],[139.531,36.118],[139.536,36.127],[139.524,36.138],[139.516,36.138],[139.512,36.154],[139.498,36.156],[139.498,36.162],[139.488,36.173],[139.502,36.183],[139.496,36.193],[139.474,36.189],[139.454,36.191],[139.444,36.197],[139.423,36.198],[139.419,36.189],[139.421,36.171],[139.435,36.17],[139.432,36.159],[139.434,36.147],[139.422,36.148],[139.423,36.139],[139.431,36.132],[139.432,36.111]]]]}},{"type":"Feature","properties":{"name":"秩父市","code":"11207"},"geometry":{"type":"MultiPolygon","coordinates":[[[[138.976,36.117],[138.97,36.124],[138.958,36.124],[138.957,36.106],[138.945,36.094],[138.931,36.088],[138.933,36.079],[138.955,36.06],[138.973,36.053],[138.969,36.043],[138.984,36.034],[139.009,36.028],[139.024,36.016],[139.038,36.021],[139.05,36.019],[139.051,36.009],[139.041,36.002],[139.05,35.992],[139.044,35.979],[139.029,35.969],[139.013,35.967],[139.008,35.98],[138.993,35.976],[138.982,35.983],[138.974,35.979],[138.958,35.98],[138.951,35.97],[138.94,35.967],[138.927,35.97],[138.918,35.968],[138.899,35.975],[138.879,35.975],[138.857,35.987],[138.841,36.001],[138.838,36.019],[138.842,36.03],[138.828,36.037],[138.802,36.033],[138.791,36.029],[138.781,36.037],[138.769,36.039],[138.754,36.035],[138.744,36.01],[138.732,35.998],[138.717,35.993],[138.712,35.979],[138.714,35.966],[138.726,35.958],[138.731,35.945],[138.739,35.939],[138.739,35.929],[138.729,35.917],[138.729,35.91],[138.749,35.902],[138.777,35.9],[138.789,35.893],[138.797,35.872],[138.808,35.87],[138.814,35.862],[138.845,35.867],[138.857,35.865],[138.859,35.858],[138.869,35.857],[138.88,35.847],[138.892,35.84],[138.911,35.853],[138.926,35.849],[138.944,35.855],[138.943,35.86],[138.954,35.874],[138.979,35.885],[138.985,35.881],[139.001,35.884],[139.011,35.897],[139.024,35.897],[139.05,35.879],[139.073,35.872],[139.083,35.875],[139.1,35.867],[139.108,35.873],[139.111,35.882],[139.121,35.895],[139.112,35.908],[139.112,35.92],[139.103,35.927],[139.095,35.936],[139.097,35.953],[139.089,35.966],[139.087,35.976],[139.095,35.998],[139.106,36.009],[139.115,35.999],[139.126,36.001],[139.159,35.995],[139.175,35.989],[139.176,35.998],[139.167,36.006],[139.153,36.027],[139.124,36.035],[139.119,36.043],[139.115,36.056],[139.108,36.06],[139.096,36.058],[139.084,36.066],[139.058,36.06],[139.055,36.073],[139.044,36.074],[139.035,36.07],[139.02,36.078],[139.014,36.085],[139.004,36.088],[139.008,36.097],[138.993,36.095],[138.976,36.117]]]]}},{"type":"Feature","properties":{"name":"所沢市","code":"11208"},"geometry":{"type":"MultiPolygon","coordinates":[[[[139.476,35.84],[139.463,35.844],[139.45,35.831],[139.433,35.822],[139.419,35.818],[139.401,35.809],[139.386,35.806],[139.389,35.8],[139.386,35.788],[139.395,35.782],[139.394,35.775],[139.381,35.774],[139.38,35.766],[139.398,35.764],[139.405,35.769],[139.42,35.766],[139.445,35.767],[139.471,35.773],[139.479,35.78],[139.507,35.783],[139.529,35.794],[139.542,35.807],[139.546,35.813],[139.535,35.819],[139.532,35.825],[139.503,35.814],[139.482,35.839],[139.478,35.838]]]]}},{"type":"Feature","properties":{"name":"飯能市","code":"11209"},"geometry":{"type":"MultiPolygon","coordinates":[[[[139.1,35.867],[139.112,35.865],[139.135,35.865],[139.159,35.857],[139.163,35.851],[139.192,35.84],[139.213,35.847],[139.233,35.837],[139.252,35.838],[139.261,35.836],[139.282,35.84],[139.301,35.835],[139.303,35.824],[139.316,35.819],[139.326,35.826],[139.345,35.828],[139.345,35.85],[139.35,35.859],[139.361,35.859],[139.375,35.868],[139.346,35.881],[139.335,35.878],[139.328,35.883],[139.296,35.868],[139.282,35.87],[139.275,35.875],[139.279,35.883],[139.277,35.901],[139.273,35.913],[139.263,35.924],[139.253,35.922],[139.237,35.93],[139.228,35.946],[139.213,35.956],[139.202,35.966],[139.179,35.97],[139.168,35.95],[139.144,35.942],[139.117,35.931],[139.103,35.927],[139.112,35.92],[139.112,35.908],[139.121,35.895],[139.111,35.882],[139.108,35.873],[139.1,35.867]]]]}},{"type":"Feature","properties":{"name":"加須市","code":"11210"},"geometry":{"type":"MultiPolygon","coordinates":[[[[139.531,36.118],[139.538,36.106],[139.551,36.101],[139.54,36.082],[139.553,36.079],[139.56,36.072],[139.576,36.071],[139.586,36.078],[139.593,36.073],[139.604,36.087],[139.628,36.08],[139.64,36.087],[139.646,36.098],[139.668,36.107],[139.664,36.117],[139.685,36.127],[139.685,36.137],[139.703,36.145],[139.696,36.156],[139.691,36.175],[139.694,36.192],[139.687,36.203],[139.675,36.208],[139.663,36.207],[139.649,36.211],[139.652,36.198],[139.637,36.197],[139.619,36.19],[139.61,36.197],[139.603,36.186],[139.613,36.171],[139.607,36.159],[139.59,36.164],[139.586,36.15],[139.573,36.15],[139.573,36.143],[139.563,36.137],[139.524,36.138],[139.536,36.127],[139.531,36.118]]]]}},{"type":"Feature","properties":{"name":"本庄市","code":"11211"},"geometry":{"type":"MultiPolygon","coordinates":[[[[139.244,36.245],[139.224,36.258],[139.212,36.256],[139.169,36.275],[139.166,36.26],[139.156,36.25],[139.168,36.239],[139.149,36.227],[139.136,36.221],[139.128,36.207],[139.109,36.207],[139.11,36.199],[139.097,36.194],[139.075,36.177],[139.076,36.162],[139.068,36.162],[139.067,36.143],[139.057,36.126],[139.071,36.119],[139.083,36.122],[139.088,36.131],[139.106,36.144],[139.115,36.143],[139.127,36.148],[139.137,36.146],[139.147,36.153],[139.143,36.164],[139.154,36.176],[139.152,36.182],[139.161,36.195],[139.163,36.205],[139.172,36.211],[139.194,36.208],[139.197,36.216],[139.219,36.228],[139.242,36.224],[139.248,36.233],[139.244,36.245]]]]}},{"type":"Feature","properties":{"name":"東松山市","code":"11212"},"geometry":{"type":"MultiPolygon","coordinates":[[[[139.387,36.102],[139.38,36.087],[139.379,36.064],[139.385,36.053],[139.386,36.041],[139.374,36.042],[139.368,36.037],[139.331,36.041],[139.332,36.031],[139.339,36.026],[139.338,36.014],[139.343,36.009],[139.369,35.996],[139.379,35.982],[139.404,35.985],[139.43,35.998],[139.435,36.004],[139.455,36.005],[139.457,36.012],[139.44,36.013],[139.435,36.022],[139.418,36.036],[139.42,36.048],[139.416,36.055],[139.422,36.07],[139.408,36.076],[139.413,36.09],[139.395,36.101],[139.387,36.102]]]]}},{"type":"Feature","properties":{"name":"春日部市","code":"11214"},"geometry":{"type":"MultiPolygon","coordinates":[[[[139.752,35.941],[139.766,35.936],[139.779,35.938],[139.776,35.948],[139.787,35.955],[139.802,35.941],[139.821,35.966],[139.833,35.969],[139.825,35.976],[139.827,35.983],[139.814,35.997],[139.817,36.002],[139.813,36.023],[139.815,36.037],[139.807,36.043],[139.778,36.026],[139.783,36.013],[139.777,36.007],[139.76,36.005],[139.758,36.0],[139.744,36.001],[139.725,35.998],[139.714,36.005],[139.708,35.995],[139.724,35.986],[139.725,35.973],[139.713,35.966],[139.721,35.958],[139.746,35.952],[139.752,35.941]]]]}},{"type":"Feature","properties":{"name":"狭山市","code":"11215"},"geometry":{"type":"MultiPolygon","coordinates":[[[[139.402,35.896],[139.388,35.882],[139.389,35.876],[139.375,35.868],[139.361,35.859],[139.364,35.842],[139.372,35.849],[139.39,35.853],[139.394,35.842],[139.407,35.84],[139.419,35.818],[139.433,35.822],[139.45,35.831],[139.463,35.844],[139.476,35.84],[139.459,35.859],[139.466,35.867],[139.462,35.878],[139.454,35.876],[139.441,35.885],[139.412,35.901],[139.402,35.896]]]]}},{"type":"Feature","properties":{"name":"羽生市","code":"11216"},"geometry":{"type":"MultiPolygon","coordinates":[[[[139.524,36.138],[139.563,36.137],[139.573,36.143],[139.573,36.15],[139.586,36.15],[139.59,36.164],[139.607,36.159],[139.613,36.171],[139.603,36.186],[139.61,36.197],[139.604,36.203],[139.588,36.21],[139.573,36.204],[139.555,36.201],[139.535,36.193],[139.521,36.191],[139.496,36.193],[139.502,36.183],[139.488,36.173],[139.498,36.162],[139.498,36.156],[139.512,36.154],[139.516,36.138],[139.524,36.138]]]]}},{"type":"Feature","properties":{"name":"鴻巣市","code":"11217"},"geometry":{"type":"MultiPolygon","coordinates":[[[[139.447,36.084],[139.456,36.08],[139.473,36.06],[139.483,36.059],[139.494,36.035],[139.523,36.036],[139.521,36.048],[139.533,36.052],[139.546,36.044],[139.553,36.044],[139.564,36.035],[139.57,36.041],[139.562,36.048],[139.565,36.057],[139.56,36.072],[139.553,36.079],[139.54,36.082],[139.551,36.101],[139.538,36.106],[139.531,36.118],[139.51,36.125],[139.506,36.115],[139.497,36.112],[139.503,36.104],[139.493,36.092],[139.488,36.092],[139.479,36.103],[139.466,36.113],[139.459,36.112],[139.441,36.117],[139.432,36.111],[139.433,36.093],[139.447,36.084]]]]}},{"type":"Feature","properties":{"name":"深谷市","code":"11218"},"geometry":{"type":"MultiPolygon","coordinates":[[[[139.328,36.24],[139.315,36.237],[139.295,36.244],[139.267,36.25],[139.244,36.245],[139.248,36.233],[139.242,36.224],[139.219,36.228],[139.197,36.216],[139.194,36.208],[139.197,36.197],[139.209,36.195],[139.204,36.184],[139.19,36.177],[139.22,36.159],[139.233,36.157],[139.205,36.142],[139.201,36.137],[139.217,36.128],[139.217,36.119],[139.273,36.119],[139.276,36.106],[139.288,36.107],[139.301,36.11],[139.311,36.117],[139.312,36.138],[139.315,36.147],[139.293,36.162],[139.296,36.167],[139.313,36.178],[139.318,36.174],[139.332,36.185],[139.336,36.218],[139.336,36.233],[139.328,36.24]]]]}},{"type":"Feature","properties":{"name":"上尾市","code":"11219"},"geometry":{"type":"MultiPolygon","coordinates":[[[[139.548,35.934],[139.557,35.935],[139.575,35.944],[139.586,35.946],[139.597,35.937],[139.599,35.944],[139.588,35.96],[139.6,35.959],[139.614,35.966],[139.626,35.952],[139.637,35.955],[139.645,35.951],[139.649,35.962],[139.642,35.97],[139.621,35.977],[139.605,35.995],[139.605,36.003],[139.591,36.009],[139.574,36.009],[139.574,35.998],[139.564,35.988],[139.539,35.993],[139.542,35.977],[139.535,35.969],[139.535,35.961],[139.545,35.951],[139.537,35.948],[139.544,35.938],[139.548,35.934]]]]}},{"type":"Feature","properties":{"name":"草加市","code":"11221"},"geometry":{"type":"MultiPolygon","coordinates":[[[[139.768,35.818],[139.779,35.808],[139.792,35.805],[139.813,35.808],[139.821,35.815],[139.813,35.816],[139.831,35.836],[139.829,35.857],[139.841,35.856],[139.84,35.859],[139.84,35.87],[139.818,35.869],[139.807,35.856],[139.787,35.861],[139.78,35.859],[139.77,35.866],[139.764,35.863],[139.771,35.848],[139.779,35.842],[139.779,35.833],[139.788,35.825],[139.768,35.818]]]]}},{"type":"Feature","properties":{"name":"越谷市","code":"11222"},"geometry":{"type":"MultiPolygon","coordinates":[[[[139.752,35.88],[139.77,35.866],[139.78,35.859],[139.787,35.861],[139.807,35.856],[139.818,35.869],[139.84,35.87],[139.839,35.894],[139.829,35.898],[139.837,35.906],[139.823,35.909],[139.82,35.915],[139.807,35.917],[139.805,35.924],[139.818,35.932],[139.802,35.941],[139.787,35.955],[139.776,35.948],[139.779,35.938],[139.766,35.936],[139.752,35.941],[139.754,35.935],[139.745,35.917],[139.755,35.91],[139.753,35.896],[139.745,35.894],[139.752,35.88]]]]}},{"type":"Feature","properties":{"name":"蕨市","code":"11223"},"geometry":{"type":"MultiPolygon","coordinates":[[[[139.663,35.829],[139.688,35.814],[139.7,35.815],[139.71,35.826],[139.677,35.833],[139.663,35.829]]]]}},{"type":"Feature","properties":{"name":"戸田市","code":"11224"},"geometry":{"type":"MultiPolygon","coordinates":[[[[139.619,35.829],[139.623,35.81],[139.646,35.798],[139.653,35.8],[139.698,35.798],[139.7,35.815],[139.688,35.814],[139.663,35.829],[139.65,35.833],[139.619,35.829]]]]}},{"type":"Feature","properties":{"name":"入間市","code":"11225"},"geometry":{"type":"MultiPolygon","coordinates":[[[[139.419,35.818],[139.407,35.84],[139.394,35.842],[139.39,35.853],[139.372,35.849],[139.364,35.842],[139.361,35.859],[139.35,35.859],[139.345,35.85],[139.345,35.828],[139.326,35.826],[139.316,35.819],[139.322,35.8],[139.333,35.792],[139.347,35.796],[139.369,35.79],[139.37,35.782],[139.381,35.774],[139.394,35.775],[139.395,35.782],[139.386,35.788],[139.389,35.8],[139.386,35.806],[139.401,35.809],[139.419,35.818]]]]}},{"type":"Feature","properties":{"name":"朝霞市","code":"11227"},"geometry":{"type":"MultiPolygon","coordinates":[[[[139.607,35.835],[139.595,35.827],[139.587,35.831],[139.578,35.823],[139.574,35.814],[139.579,35.788],[139.594,35.779],[139.597,35.778],[139.604,35.793],[139.614,35.797],[139.614,35.806],[139.623,35.81],[139.619,35.829],[139.617,35.834],[139.607,35.835]]]]}},{"type":"Feature","properties":{"name":"志木市","code":"11228"},"geometry":{"type":"MultiPolygon","coordinates":[[[[139.585,35.861],[139.571,35.835],[139.555,35.828],[139.562,35.818],[139.578,35.823],[139.587,35.831],[139.595,35.827],[139.607,35.835],[139.585,35.861]]]]}},{"type":"Feature","properties":{"name":"和光市","code":"11229"},"geometry":{"type":"MultiPolygon","coordinates":[[[[139.623,35.81],[139.614,35.806],[139.614,35.797],[139.604,35.793],[139.597,35.778],[139.603,35.771],[139.617,35.77],[139.625,35.781],[139.646,35.798],[139.623,35.81]]]]}},{"type":"Feature","properties":{"name":"新座市","code":"11230"},"geometry":{"type":"MultiPolygon","coordinates":[[[[139.542,35.807],[139.547,35.803],[139.538,35.791],[139.548,35.774],[139.547,35.753],[139.582,35.771],[139.594,35.779],[139.579,35.788],[139.574,35.814],[139.578,35.823],[139.562,35.818],[139.555,35.826],[139.552,35.82],[139.535,35.819],[139.546,35.813],[139.542,35.807]]]]}},{"type":"Feature","properties":{"name":"桶川市","code":"11231"},"geometry":{"type":"MultiPolygon","coordinates":[[[[139.564,36.035],[139.556,36.029],[139.559,36.018],[139.553,36.015],[139.523,36.012],[139.508,35.996],[139.512,35.984],[139.523,35.968],[139.535,35.961],[139.535,35.969],[139.542,35.977],[139.539,35.993],[139.564,35.988],[139.574,35.998],[139.574,36.009],[139.591,36.009],[139.596,36.027],[139.588,36.029],[139.571,36.036],[139.57,36.041],[139.564,36.035]]]]}},{"type":"Feature","properties":{"name":"久喜市","code":"11232"},"geometry":{"type":"MultiPolygon","coordinates":[[[[139.56,36.072],[139.565,36.057],[139.562,36.048],[139.57,36.041],[139.571,36.036],[139.588,36.029],[139.604,36.037],[139.606,36.045],[139.62,36.045],[139.651,36.038],[139.661,36.04],[139.659,36.049],[139.684,36.042],[139.689,36.045],[139.685,36.058],[139.699,36.056],[139.703,36.062],[139.708,36.075],[139.697,36.077],[139.691,36.084],[139.7,36.098],[139.72,36.101],[139.727,36.108],[139.726,36.113],[139.714,36.126],[139.703,36.145],[139.685,36.137],[139.685,36.127],[139.664,36.117],[139.668,36.107],[139.646,36.098],[139.64,36.087],[139.628,36.08],[139.604,36.087],[139.593,36.073],[139.586,36.078],[139.576,36.071],[139.56,36.072]]]]}},{"type":"Feature","properties":{"name":"北本市","code":"11233"},"geometry":{"type":"MultiPolygon","coordinates":[[[[139.494,36.035],[139.504,36.024],[139.5,36.014],[139.5,36.002],[139.508,35.996],[139.523,36.012],[139.553,36.015],[139.559,36.018],[139.556,36.029],[139.564,36.035],[139.553,36.044],[139.546,36.044],[139.533,36.052],[139.521,36.048],[139.523,36.036],[139.494,36.035]]]]}},{"type":"Feature","properties":{"name":"八潮市","code":"11234"},"geometry":{"type":"MultiPolygon","coordinates":[[[[139.821,35.815],[139.82,35.798],[139.826,35.793],[139.838,35.801],[139.853,35.792],[139.859,35.794],[139.856,35.804],[139.867,35.811],[139.865,35.823],[139.847,35.828],[139.841,35.856],[139.829,35.857],[139.831,35.836],[139.813,35.816],[139.821,35.815]]]]}},{"type":"Feature","properties":{"name":"富士見市","code":"11235"},"geometry":{"type":"MultiPolygon","coordinates":[[[[139.549,35.887],[139.547,35.881],[139.55,35.869],[139.519,35.864],[139.528,35.849],[139.54,35.836],[139.555,35.828],[139.571,35.835],[139.585,35.861],[139.576,35.871],[139.559,35.874],[139.56,35.881],[139.549,35.887]]]]}},{"type":"Feature","properties":{"name":"三郷市","code":"11237"},"geometry":{"type":"MultiPolygon","coordinates":[[[[139.841,35.856],[139.847,35.828],[139.865,35.823],[139.867,35.811],[139.856,35.804],[139.859,35.794],[139.871,35.797],[139.871,35.786],[139.877,35.781],[139.894,35.783],[139.889,35.796],[139.892,35.819],[139.888,35.824],[139.89,35.844],[139.896,35.853],[139.899,35.867],[139.878,35.866],[139.874,35.868],[139.84,35.859],[139.841,35.856]]]]}},{"type":"Feature","properties":{"name":"蓮田市","code":"11238"},"geometry":{"type":"MultiPolygon","coordinates":[[[[139.658,35.964],[139.666,35.976],[139.684,35.976],[139.696,35.991],[139.692,35.999],[139.687,36.004],[139.676,35.999],[139.662,36.012],[139.65,36.01],[139.649,36.031],[139.632,36.031],[139.626,36.028],[139.604,36.037],[139.588,36.029],[139.596,36.027],[139.612,36.021],[139.622,36.009],[139.635,36.006],[139.645,35.994],[139.642,35.97],[139.649,35.962],[139.658,35.964]]]]}},{"type":"Feature","properties":{"name":"坂戸市","code":"11239"},"geometry":{"type":"MultiPolygon","coordinates":[[[[139.468,35.96],[139.45,35.979],[139.44,35.984],[139.43,35.998],[139.404,35.985],[139.379,35.982],[139.359,35.977],[139.349,35.969],[139.358,35.952],[139.347,35.941],[139.343,35.931],[139.334,35.936],[139.324,35.929],[139.328,35.923],[139.341,35.92],[139.352,35.928],[139.372,35.945],[139.392,35.953],[139.41,35.949],[139.421,35.956],[139.431,35.959],[139.435,35.945],[139.451,35.948],[139.468,35.96]]]]}},{"type":"Feature","properties":{"name":"幸手市","code":"11240"},"geometry":{"type":"MultiPolygon","coordinates":[[[[139.703,36.062],[139.717,36.052],[139.74,36.041],[139.753,36.055],[139.767,36.043],[139.78,36.045],[139.781,36.056],[139.79,36.062],[139.783,36.07],[139.78,36.083],[139.766,36.08],[139.747,36.087],[139.728,36.09],[139.727,36.108],[139.72,36.101],[139.7,36.098],[139.691,36.084],[139.697,36.077],[139.708,36.075],[139.703,36.062]]]]}},{"type":"Feature","properties":{"name":"鶴ヶ島市","code":"11241"},"geometry":{"type":"MultiPolygon","coordinates":[[[[139.421,35.956],[139.41,35.949],[139.392,35.953],[139.372,35.945],[139.352,35.928],[139.366,35.928],[139.379,35.92],[139.389,35.914],[139.412,35.924],[139.429,35.94],[139.421,35.956]]]]}},{"type":"Feature","properties":{"name":"日高市","code":"11242"},"geometry":{"type":"MultiPolygon","coordinates":[[[[139.379,35.92],[139.366,35.928],[139.352,35.928],[139.341,35.92],[139.328,35.923],[139.31,35.915],[139.308,35.909],[139.277,35.901],[139.279,35.883],[139.275,35.875],[139.282,35.87],[139.296,35.868],[139.328,35.883],[139.335,35.878],[139.346,35.881],[139.375,35.868],[139.389,35.876],[139.388,35.882],[139.402,35.896],[139.393,35.908],[139.384,35.909],[139.379,35.92]]]]}},{"type":"Feature","properties":{"name":"吉川市","code":"11243"},"geometry":{"type":"MultiPolygon","coordinates":[[[[139.84,35.859],[139.874,35.868],[139.878,35.866],[139.899,35.867],[139.89,35.893],[139.861,35.932],[139.849,35.938],[139.837,35.927],[139.847,35.911],[139.837,35.906],[139.829,35.898],[139.839,35.894],[139.84,35.87],[139.84,35.859]]]]}},{"type":"Feature","properties":{"name":"ふじみ野市","code":"11245"},"geometry":{"type":"MultiPolygon","coordinates":[[[[139.487,35.842],[139.491,35.849],[139.51,35.85],[139.522,35.843],[139.528,35.849],[139.519,35.864],[139.55,35.869],[139.547,35.881],[139.528,35.881],[139.514,35.888],[139.511,35.88],[139.496,35.864],[139.475,35.855],[139.485,35.85],[139.487,35.842]]]]}},{"type":"Feature","properties":{"name":"白岡市","code":"11246"},"geometry":{"type":"MultiPolygon","coordinates":[[[[139.708,35.995],[139.714,36.005],[139.705,36.012],[139.71,36.019],[139.704,36.026],[139.69,36.028],[139.684,36.042],[139.659,36.049],[139.661,36.04],[139.651,36.038],[139.62,36.045],[139.606,36.045],[139.604,36.037],[139.626,36.028],[139.632,36.031],[139.649,36.031],[139.65,36.01],[139.662,36.012],[139.676,35.999],[139.687,36.004],[139.692,35.999],[139.708,35.995]]]]}},{"type":"Feature","properties":{"name":"北足立郡伊奈町","code":"11301"},"geometry":{"type":"MultiPolygon","coordinates":[[[[139.642,35.97],[139.645,35.994],[139.635,36.006],[139.622,36.009],[139.612,36.021],[139.596,36.027],[139.591,36.009],[139.605,36.003],[139.605,35.995],[139.621,35.977],[139.642,35.97]]]]}},{"type":"Feature","properties":{"name":"入間郡三芳町","code":"11324"},"geometry":{"type":"MultiPolygon","coordinates":[[[[139.478,35.838],[139.482,35.839],[139.503,35.814],[139.532,35.825],[139.535,35.819],[139.552,35.82],[139.555,35.826],[139.54,35.836],[139.528,35.849],[139.522,35.843],[139.51,35.85],[139.491,35.849],[139.487,35.842],[139.478,35.838]]]]}},{"type":"Feature","properties":{"name":"入間郡毛呂山町","code":"11326"},"geometry":{"type":"MultiPolygon","coordinates":[[[[139.277,35.901],[139.308,35.909],[139.31,35.915],[139.328,35.923],[139.324,35.929],[139.334,35.936],[139.343,35.931],[139.347,35.941],[139.358,35.952],[139.349,35.969],[139.339,35.962],[139.321,35.966],[139.315,35.963],[139.31,35.95],[139.3,35.945],[139.276,35.951],[139.261,35.934],[139.263,35.924],[139.273,35.913],[139.277,35.901]]]]}},{"type":"Feature","properties":{"name":"入間郡越生町","code":"11327"},"geometry":{"type":"MultiPolygon","coordinates":[[[[139.263,35.924],[139.261,35.934],[139.276,35.951],[139.3,35.945],[139.31,35.95],[139.315,35.963],[139.321,35.966],[139.301,35.985],[139.288,35.991],[139.272,35.985],[139.26,35.986],[139.231,35.975],[139.213,35.956],[139.228,35.946],[139.237,35.93],[139.253,35.922],[139.263,35.924]]]]}},{"type":"Feature","properties":{"name":"比企郡滑川町","code":"11341"},"geometry":{"type":"MultiPolygon","coordinates":[[[[139.321,36.091],[139.331,36.082],[139.326,36.067],[139.337,36.062],[139.334,36.054],[139.341,36.048],[139.331,36.041],[139.368,36.037],[139.374,36.042],[139.386,36.041],[139.385,36.053],[139.379,36.064],[139.38,36.087],[139.387,36.102],[139.376,36.099],[139.344,36.104],[139.342,36.09],[139.321,36.091]]]]}},{"type":"Feature","properties":{"name":"比企郡嵐山町","code":"11342"},"geometry":{"type":"MultiPolygon","coordinates":[[[[139.301,36.11],[139.288,36.107],[139.288,36.099],[139.291,36.081],[139.308,36.063],[139.3,36.059],[139.296,36.032],[139.316,36.015],[139.317,36.009],[139.336,36.007],[139.343,36.009],[139.338,36.014],[139.339,36.026],[139.332,36.031],[139.331,36.041],[139.341,36.048],[139.334,36.054],[139.337,36.062],[139.326,36.067],[139.331,36.082],[139.321,36.091],[139.309,36.105],[139.301,36.11]]]]}},{"type":"Feature","properties":{"name":"比企郡小川町","code":"11343"},"geometry":{"type":"MultiPolygon","coordinates":[[[[139.288,36.099],[139.28,36.093],[139.271,36.099],[139.252,36.084],[139.227,36.088],[139.21,36.088],[139.198,36.069],[139.225,36.059],[139.23,36.053],[139.199,36.03],[139.186,36.025],[139.19,36.006],[139.213,36.006],[139.224,36.011],[139.23,36.019],[139.258,36.034],[139.27,36.029],[139.288,36.029],[139.296,36.032],[139.3,36.059],[139.308,36.063],[139.291,36.081],[139.288,36.099]]]]}},{"type":"Feature","properties":{"name":"比企郡川島町","code":"11346"},"geometry":{"type":"MultiPolygon","coordinates":[[[[139.537,35.948],[139.545,35.951],[139.535,35.961],[139.523,35.968],[139.512,35.984],[139.508,35.996],[139.5,36.002],[139.5,36.014],[139.479,36.02],[139.457,36.012],[139.455,36.005],[139.435,36.004],[139.43,35.998],[139.44,35.984],[139.45,35.979],[139.468,35.96],[139.479,35.956],[139.503,35.956],[139.537,35.948]]]]}},{"type":"Feature","properties":{"name":"比企郡吉見町","code":"11347"},"geometry":{"type":"MultiPolygon","coordinates":[[[[139.422,36.07],[139.416,36.055],[139.42,36.048],[139.418,36.036],[139.435,36.022],[139.44,36.013],[139.457,36.012],[139.479,36.02],[139.5,36.014],[139.504,36.024],[139.494,36.035],[139.483,36.059],[139.473,36.06],[139.456,36.08],[139.447,36.084],[139.445,36.081],[139.422,36.07]]]]}},{"type":"Feature","properties":{"name":"比企郡鳩山町","code":"11348"},"geometry":{"type":"MultiPolygon","coordinates":[[[[139.343,36.009],[139.336,36.007],[139.317,36.009],[139.291,35.998],[139.288,35.991],[139.301,35.985],[139.321,35.966],[139.339,35.962],[139.349,35.969],[139.359,35.977],[139.379,35.982],[139.369,35.996],[139.343,36.009]]]]}},{"type":"Feature","properties":{"name":"比企郡ときがわ町","code":"11349"},"geometry":{"type":"MultiPolygon","coordinates":[[[[139.175,35.989],[139.17,35.986],[139.179,35.97],[139.202,35.966],[139.213,35.956],[139.231,35.975],[139.26,35.986],[139.272,35.985],[139.288,35.991],[139.291,35.998],[139.317,36.009],[139.316,36.015],[139.296,36.032],[139.288,36.029],[139.27,36.029],[139.258,36.034],[139.23,36.019],[139.224,36.011],[139.213,36.006],[139.19,36.006],[139.176,35.998],[139.175,35.989]]]]}},{"type":"Feature","properties":{"name":"秩父郡横瀬町","code":"11361"},"geometry":{"type":"MultiPolygon","coordinates":[[[[139.103,35.927],[139.117,35.931],[139.144,35.942],[139.168,35.95],[139.179,35.97],[139.17,35.986],[139.175,35.989],[139.159,35.995],[139.126,36.001],[139.115,35.999],[139.106,36.009],[139.095,35.998],[139.087,35.976],[139.089,35.966],[139.097,35.953],[139.095,35.936],[139.103,35.927]]]]}},{"type":"Feature","properties":{"name":"秩父郡皆野町","code":"11362"},"geometry":{"type":"MultiPolygon","coordinates":[[[[139.153,36.027],[139.157,36.032],[139.156,36.053],[139.159,36.059],[139.156,36.083],[139.152,36.088],[139.139,36.091],[139.11,36.087],[139.093,36.091],[139.086,36.102],[139.087,36.114],[139.083,36.122],[139.071,36.119],[139.057,36.126],[139.045,36.116],[139.043,36.107],[139.034,36.101],[139.008,36.097],[139.004,36.088],[139.014,36.085],[139.02,36.078],[139.035,36.07],[139.044,36.074],[139.055,36.073],[139.058,36.06],[139.084,36.066],[139.096,36.058],[139.108,36.06],[139.115,36.056],[139.119,36.043],[139.124,36.035],[139.153,36.027]]]]}},{"type":"Feature","properties":{"name":"秩父郡長瀞町","code":"11363"},"geometry":{"type":"MultiPolygon","coordinates":[[[[139.083,36.122],[139.087,36.114],[139.086,36.102],[139.093,36.091],[139.11,36.087],[139.139,36.091],[139.14,36.113],[139.148,36.133],[139.161,36.135],[139.154,36.142],[139.137,36.146],[139.127,36.148],[139.115,36.143],[139.106,36.144],[139.088,36.131],[139.083,36.122]]]]}},{"type":"Feature","properties":{"name":"秩父郡小鹿野町","code":"11365"},"geometry":{"type":"MultiPolygon","coordinates":[[[[138.931,36.088],[138.916,36.094],[138.898,36.091],[138.887,36.084],[138.864,36.077],[138.862,36.071],[138.846,36.067],[138.843,36.056],[138.832,36.048],[138.828,36.037],[138.842,36.03],[138.838,36.019],[138.841,36.001],[138.857,35.987],[138.879,35.975],[138.899,35.975],[138.918,35.968],[138.927,35.97],[138.94,35.967],[138.951,35.97],[138.958,35.98],[138.974,35.979],[138.982,35.983],[138.993,35.976],[139.008,35.98],[139.013,35.967],[139.029,35.969],[139.044,35.979],[139.05,35.992],[139.041,36.002],[139.051,36.009],[139.05,36.019],[139.038,36.021],[139.024,36.016],[139.009,36.028],[138.984,36.034],[138.969,36.043],[138.973,36.053],[138.955,36.06],[138.933,36.079],[138.931,36.088]]]]}},{"type":"Feature","properties":{"name":"秩父郡東秩父村","code":"11369"},"geometry":{"type":"MultiPolygon","coordinates":[[[[139.176,35.998],[139.19,36.006],[139.186,36.025],[139.199,36.03],[139.23,36.053],[139.225,36.059],[139.198,36.069],[139.19,36.069],[139.174,36.085],[139.157,36.093],[139.152,36.088],[139.156,36.083],[139.159,36.059],[139.156,36.053],[139.157,36.032],[139.153,36.027],[139.167,36.006],[139.176,35.998]]]]}},{"type":"Feature","properties":{"name":"児玉郡美里町","code":"11381"},"geometry":{"type":"MultiPolygon","coordinates":[[[[139.137,36.146],[139.154,36.142],[139.161,36.135],[139.177,36.135],[139.193,36.144],[139.198,36.159],[139.19,36.177],[139.204,36.184],[139.209,36.195],[139.197,36.197],[139.194,36.208],[139.172,36.211],[139.163,36.205],[139.161,36.195],[139.152,36.182],[139.154,36.176],[139.143,36.164],[139.147,36.153],[139.137,36.146]]]]}},{"type":"Feature","properties":{"name":"児玉郡神川町","code":"11383"},"geometry":{"type":"MultiPolygon","coordinates":[[[[139.008,36.097],[139.034,36.101],[139.043,36.107],[139.045,36.116],[139.057,36.126],[139.067,36.143],[139.068,36.162],[139.076,36.162],[139.075,36.177],[139.097,36.194],[139.11,36.199],[139.109,36.207],[139.128,36.207],[139.136,36.221],[139.119,36.219],[139.11,36.236],[139.097,36.238],[139.082,36.215],[139.063,36.196],[139.063,36.186],[139.056,36.181],[139.061,36.152],[139.043,36.148],[139.042,36.128],[139.031,36.128],[139.016,36.134],[139.002,36.125],[138.993,36.124],[138.986,36.116],[138.976,36.117],[138.993,36.095],[139.008,36.097]]]]}},{"type":"Feature","properties":{"name":"児玉郡上里町","code":"11385"},"geometry":{"type":"MultiPolygon","coordinates":[[[[139.169,36.275],[139.159,36.278],[139.127,36.279],[139.108,36.262],[139.111,36.258],[139.097,36.238],[139.11,36.236],[139.119,36.219],[139.136,36.221],[139.149,36.227],[139.168,36.239],[139.156,36.25],[139.166,36.26],[139.169,36.275]]]]}},{"type":"Feature","properties":{"name":"大里郡寄居町","code":"11408"},"geometry":{"type":"MultiPolygon","coordinates":[[[[139.19,36.177],[139.198,36.159],[139.193,36.144],[139.177,36.135],[139.161,36.135],[139.148,36.133],[139.14,36.113],[139.139,36.091],[139.152,36.088],[139.157,36.093],[139.174,36.085],[139.19,36.069],[139.198,36.069],[139.21,36.088],[139.227,36.088],[139.252,36.084],[139.271,36.099],[139.28,36.093],[139.288,36.099],[139.288,36.107],[139.276,36.106],[139.273,36.119],[139.217,36.119],[139.217,36.128],[139.201,36.137],[139.205,36.142],[139.233,36.157],[139.22,36.159],[139.19,36.177]]]]}},{"type":"Feature","properties":{"name":"南埼玉郡宮代町","code":"11442"},"geometry":{"type":"MultiPolygon","coordinates":[[[[139.744,36.001],[139.752,36.014],[139.732,36.026],[139.708,36.036],[139.697,36.049],[139.699,36.056],[139.685,36.058],[139.689,36.045],[139.684,36.042],[139.69,36.028],[139.704,36.026],[139.71,36.019],[139.705,36.012],[139.714,36.005],[139.725,35.998],[139.744,36.001]]]]}},{"type":"Feature","properties":{"name":"北葛飾郡杉戸町","code":"11464"},"geometry":{"type":"MultiPolygon","coordinates":[[[[139.807,36.043],[139.79,36.062],[139.781,36.056],[139.78,36.045],[139.767,36.043],[139.753,36.055],[139.74,36.041],[139.717,36.052],[139.703,36.062],[139.699,36.056],[139.697,36.049],[139.708,36.036],[139.732,36.026],[139.752,36.014],[139.744,36.001],[139.758,36.0],[139.76,36.005],[139.777,36.007],[139.783,36.013],[139.778,36.026],[139.807,36.043]]]]}},{"type":"Feature","properties":{"name":"北葛飾郡松伏町","code":"11465"},"geometry":{"type":"MultiPolygon","coordinates":[[[[139.802,35.941],[139.818,35.932],[139.805,35.924],[139.807,35.917],[139.82,35.915],[139.823,35.909],[139.837,35.906],[139.847,35.911],[139.837,35.927],[139.849,35.938],[139.838,35.954],[139.833,35.969],[139.821,35.966],[139.802,35.941]]]]}}]}