{"type":"FeatureCollection","features":[{"type":"Feature","properties":{"name":"千葉市中央区","code":"12101"},"geometry":{"type":"MultiPolygon","coordinates":[[[[140.083,35.588],[140.086,35.569],[140.112,35.57],[140.109,35.577],[140.105,35.578],[140.103,35.587],[140.083,35.588]]],[[[140.175,35.581],[140.168,35.587],[140.168,35.592],[140.151,35.606],[140.151,35.619],[140.134,35.615],[140.131,35.621],[140.125,35.628],[140.123,35.625],[140.115,35.625],[140.097,35.62],[140.105,35.611],[140.099,35.606],[140.089,35.595],[140.106,35.593],[140.111,35.59],[140.114,35.573],[140.116,35.569],[140.097,35.566],[140.091,35.561],[140.115,35.553],[140.121,35.551],[140.124,35.548],[140.13,35.547],[140.135,35.543],[140.142,35.548],[140.158,35.553],[140.16,35.565],[140.169,35.565],[140.173,35.568],[140.169,35.576],[140.175,35.581]]]]}},{"type":"Feature","properties":{"name":"千葉市花見川区","code":"12102"},"geometry":{"type":"MultiPolygon","coordinates":[[[[140.137,35.698],[140.124,35.699],[140.123,35.707],[140.113,35.714],[140.106,35.709],[140.101,35.703],[140.09,35.694],[140.082,35.695],[140.077,35.688],[140.066,35.677],[140.058,35.68],[140.042,35.678],[140.035,35.67],[140.046,35.661],[140.042,35.659],[140.058,35.65],[140.061,35.65],[140.074,35.641],[140.078,35.646],[140.087,35.65],[140.097,35.656],[140.1,35.663],[140.115,35.663],[140.12,35.675],[140.126,35.679],[140.137,35.675],[140.136,35.671],[140.138,35.675],[140.137,35.68],[140.139,35.688],[140.143,35.691],[140.147,35.692],[140.153,35.689],[140.149,35.692],[140.144,35.692],[140.137,35.698]]]]}},{"type":"Feature","properties":{"name":"千葉市稲毛区","code":"12103"},"geometry":{"type":"MultiPolygon","coordinates":[[[[140.125,35.628],[140.124,35.639],[140.129,35.653],[140.133,35.656],[140.138,35.654],[140.147,35.654],[140.15,35.657],[140.156,35.654],[140.15,35.668],[140.141,35.668],[140.136,35.671],[140.137,35.675],[140.126,35.679],[140.12,35.675],[140.115,35.663],[140.1,35.663],[140.097,35.656],[140.087,35.65],[140.078,35.646],[140.074,35.641],[140.088,35.63],[140.097,35.62],[140.115,35.625],[140.123,35.625],[140.125,35.628]]]]}},{"type":"Feature","properties":{"name":"千葉市若葉区","code":"12104"},"geometry":{"type":"MultiPolygon","coordinates":[[[[140.175,35.581],[140.187,35.586],[140.202,35.585],[140.202,35.579],[140.21,35.575],[140.215,35.577],[140.223,35.577],[140.226,35.573],[140.228,35.566],[140.237,35.562],[140.244,35.569],[140.26,35.559],[140.267,35.559],[140.269,35.567],[140.276,35.571],[140.289,35.57],[140.283,35.574],[140.281,35.579],[140.275,35.582],[140.276,35.587],[140.261,35.6],[140.263,35.606],[140.267,35.607],[140.268,35.617],[140.265,35.621],[140.266,35.626],[140.258,35.625],[140.251,35.626],[140.241,35.631],[140.229,35.633],[140.223,35.642],[140.22,35.652],[140.213,35.655],[140.205,35.651],[140.207,35.646],[140.204,35.64],[140.193,35.627],[140.185,35.629],[140.192,35.64],[140.176,35.653],[140.164,35.645],[140.158,35.646],[140.156,35.654],[140.15,35.657],[140.147,35.654],[140.138,35.654],[140.133,35.656],[140.129,35.653],[140.124,35.639],[140.125,35.628],[140.131,35.621],[140.134,35.615],[140.151,35.619],[140.151,35.606],[140.168,35.592],[140.168,35.587],[140.175,35.581]]]]}},{"type":"Feature","properties":{"name":"千葉市緑区","code":"12105"},"geometry":{"type":"MultiPolygon","coordinates":[[[[140.142,35.548],[140.159,35.536],[140.172,35.536],[140.179,35.533],[140.191,35.537],[140.194,35.543],[140.201,35.54],[140.209,35.545],[140.213,35.542],[140.218,35.544],[140.227,35.541],[140.232,35.533],[140.225,35.525],[140.221,35.524],[140.222,35.518],[140.23,35.51],[140.233,35.504],[140.243,35.505],[140.255,35.501],[140.256,35.494],[140.262,35.496],[140.26,35.502],[140.267,35.502],[140.271,35.499],[140.272,35.494],[140.274,35.507],[140.277,35.511],[140.282,35.513],[140.286,35.519],[140.293,35.515],[140.3,35.519],[140.288,35.523],[140.292,35.531],[140.286,35.539],[140.281,35.542],[140.281,35.548],[140.292,35.548],[140.291,35.556],[140.294,35.561],[140.289,35.566],[140.289,35.57],[140.276,35.571],[140.269,35.567],[140.267,35.559],[140.26,35.559],[140.244,35.569],[140.237,35.562],[140.228,35.566],[140.226,35.573],[140.223,35.577],[140.215,35.577],[140.21,35.575],[140.202,35.579],[140.202,35.585],[140.187,35.586],[140.175,35.581],[140.169,35.576],[140.173,35.568],[140.169,35.565],[140.16,35.565],[140.158,35.553],[140.142,35.548]]]]}},{"type":"Feature","properties":{"name":"千葉市美浜区","code":"12106"},"geometry":{"type":"MultiPolygon","coordinates":[[[[140.097,35.62],[140.088,35.63],[140.074,35.641],[140.061,35.65],[140.058,35.65],[140.042,35.659],[140.046,35.661],[140.035,35.67],[140.02,35.652],[140.029,35.644],[140.07,35.611],[140.084,35.597],[140.087,35.602],[140.078,35.61],[140.083,35.613],[140.094,35.604],[140.099,35.606],[140.105,35.611],[140.097,35.62]]]]}},{"type":"Feature","properties":{"name":"銚子市","code":"12202"},"geometry":{"type":"MultiPolygon","coordinates":[[[[140.761,35.698],[140.807,35.712],[140.819,35.713],[140.831,35.714],[140.838,35.711],[140.841,35.703],[140.845,35.698],[140.853,35.698],[140.858,35.695],[140.863,35.698],[140.867,35.715],[140.871,35.718],[140.868,35.727],[140.871,35.733],[140.866,35.741],[140.852,35.745],[140.846,35.74],[140.822,35.739],[140.815,35.742],[140.801,35.75],[140.788,35.758],[140.752,35.779],[140.742,35.785],[140.729,35.797],[140.726,35.801],[140.721,35.813],[140.703,35.806],[140.693,35.804],[140.69,35.794],[140.7,35.793],[140.7,35.785],[140.705,35.784],[140.704,35.779],[140.7,35.774],[140.707,35.771],[140.708,35.761],[140.724,35.759],[140.728,35.756],[140.724,35.739],[140.725,35.733],[140.732,35.732],[140.742,35.738],[140.748,35.728],[140.749,35.724],[140.74,35.72],[140.734,35.705],[140.741,35.702],[140.751,35.701],[140.756,35.703],[140.761,35.698]]]]}},{"type":"Feature","properties":{"name":"市川市","code":"12203"},"geometry":{"type":"MultiPolygon","coordinates":[[[[139.964,35.672],[139.963,35.681],[139.959,35.673],[139.964,35.672]]],[[[139.976,35.774],[139.957,35.775],[139.95,35.77],[139.952,35.762],[139.944,35.758],[139.944,35.751],[139.934,35.749],[139.932,35.76],[139.916,35.763],[139.909,35.767],[139.903,35.764],[139.902,35.756],[139.895,35.751],[139.89,35.75],[139.899,35.744],[139.901,35.737],[139.898,35.732],[139.899,35.723],[139.908,35.714],[139.916,35.708],[139.919,35.698],[139.909,35.686],[139.904,35.683],[139.888,35.68],[139.886,35.671],[139.893,35.673],[139.918,35.655],[139.921,35.661],[139.93,35.666],[139.948,35.67],[139.945,35.673],[139.937,35.673],[139.947,35.681],[139.953,35.672],[139.959,35.679],[139.963,35.681],[139.961,35.702],[139.947,35.708],[139.942,35.701],[139.939,35.703],[139.942,35.716],[139.949,35.716],[139.957,35.72],[139.963,35.735],[139.973,35.733],[139.975,35.745],[139.973,35.749],[139.971,35.758],[139.975,35.761],[139.976,35.774]]]]}},{"type":"Feature","properties":{"name":"船橋市","code":"12204"},"geometry":{"type":"MultiPolygon","coordinates":[[[[139.964,35.672],[139.972,35.671],[139.979,35.67],[139.978,35.68],[139.963,35.681],[139.964,35.672]]],[[[139.994,35.755],[139.989,35.752],[139.987,35.747],[139.996,35.743],[140.0,35.751],[139.994,35.755]]],[[[139.963,35.681],[139.975,35.683],[139.983,35.682],[139.986,35.664],[140.002,35.666],[140.005,35.669],[139.998,35.678],[140.009,35.695],[140.014,35.692],[140.029,35.691],[140.035,35.696],[140.044,35.693],[140.051,35.692],[140.053,35.697],[140.059,35.694],[140.064,35.696],[140.062,35.705],[140.068,35.708],[140.064,35.711],[140.072,35.717],[140.063,35.721],[140.068,35.734],[140.064,35.742],[140.066,35.748],[140.074,35.75],[140.078,35.757],[140.086,35.766],[140.086,35.781],[140.09,35.784],[140.083,35.792],[140.073,35.799],[140.069,35.799],[140.067,35.785],[140.062,35.776],[140.04,35.767],[140.03,35.771],[140.021,35.765],[140.014,35.761],[140.018,35.755],[140.008,35.748],[140.007,35.743],[139.999,35.744],[139.993,35.742],[139.988,35.744],[139.983,35.751],[139.973,35.749],[139.975,35.745],[139.973,35.733],[139.963,35.735],[139.957,35.72],[139.949,35.716],[139.942,35.716],[139.939,35.703],[139.942,35.701],[139.947,35.708],[139.961,35.702],[139.963,35.681]]]]}},{"type":"Feature","properties":{"name":"館山市","code":"12205"},"geometry":{"type":"MultiPolygon","coordinates":[[[[139.825,34.911],[139.833,34.911],[139.853,34.915],[139.858,34.923],[139.866,34.92],[139.879,34.925],[139.882,34.924],[139.891,34.931],[139.898,34.925],[139.904,34.928],[139.914,34.929],[139.918,34.927],[139.927,34.941],[139.918,34.945],[139.91,34.946],[139.903,34.958],[139.904,34.967],[139.91,34.98],[139.919,34.981],[139.929,34.984],[139.931,34.992],[139.941,35.001],[139.941,35.005],[139.933,35.017],[139.936,35.022],[139.933,35.026],[139.92,35.017],[139.905,35.018],[139.905,35.01],[139.887,35.007],[139.885,35.01],[139.886,35.019],[139.884,35.025],[139.883,35.041],[139.877,35.046],[139.871,35.045],[139.87,35.04],[139.862,35.038],[139.853,35.032],[139.833,35.032],[139.841,35.025],[139.849,35.025],[139.854,35.02],[139.858,35.011],[139.858,35.002],[139.855,34.99],[139.85,34.985],[139.842,34.986],[139.841,34.992],[139.829,34.991],[139.821,34.979],[139.812,34.979],[139.797,34.974],[139.786,34.973],[139.782,34.977],[139.755,34.977],[139.753,34.965],[139.759,34.959],[139.767,34.958],[139.771,34.955],[139.78,34.956],[139.807,34.946],[139.816,34.941],[139.825,34.933],[139.827,34.927],[139.824,34.922],[139.823,34.915],[139.825,34.911]]]]}},{"type":"Feature","properties":{"name":"木更津市","code":"12206"},"geometry":{"type":"MultiPolygon","coordinates":[[[[139.949,35.442],[139.94,35.443],[139.922,35.44],[139.903,35.431],[139.903,35.427],[139.897,35.423],[139.898,35.413],[139.902,35.401],[139.907,35.389],[139.913,35.391],[139.918,35.386],[139.904,35.375],[139.895,35.37],[139.888,35.371],[139.891,35.361],[139.888,35.361],[139.897,35.347],[139.9,35.337],[139.905,35.335],[139.914,35.341],[139.936,35.337],[139.953,35.33],[139.964,35.332],[139.966,35.327],[139.972,35.323],[139.974,35.318],[139.979,35.317],[139.997,35.317],[139.998,35.326],[140.005,35.327],[140.01,35.319],[140.017,35.319],[140.021,35.324],[140.021,35.329],[140.029,35.331],[140.042,35.336],[140.045,35.342],[140.044,35.348],[140.052,35.355],[140.059,35.354],[140.071,35.346],[140.083,35.346],[140.087,35.338],[140.094,35.328],[140.104,35.326],[140.109,35.319],[140.108,35.324],[140.113,35.329],[140.121,35.333],[140.121,35.337],[140.129,35.343],[140.129,35.347],[140.124,35.352],[140.123,35.358],[140.115,35.371],[140.106,35.379],[140.099,35.375],[140.09,35.381],[140.092,35.388],[140.085,35.382],[140.081,35.385],[140.065,35.383],[140.061,35.379],[140.053,35.378],[140.048,35.381],[140.042,35.371],[140.035,35.371],[140.033,35.361],[140.024,35.36],[140.021,35.352],[140.013,35.344],[140.002,35.345],[139.997,35.351],[140.001,35.353],[140.003,35.36],[139.999,35.365],[140.002,35.373],[140.001,35.38],[140.004,35.386],[139.999,35.388],[139.993,35.394],[140.001,35.397],[140.007,35.394],[140.01,35.398],[140.012,35.404],[139.995,35.405],[139.991,35.408],[139.971,35.41],[139.975,35.417],[139.968,35.42],[139.963,35.414],[139.957,35.411],[139.943,35.417],[139.942,35.426],[139.95,35.438],[139.949,35.442]]]]}},{"type":"Feature","properties":{"name":"松戸市","code":"12207"},"geometry":{"type":"MultiPolygon","coordinates":[[[[139.976,35.774],[139.984,35.776],[139.973,35.78],[139.968,35.786],[139.985,35.788],[139.989,35.791],[139.996,35.787],[140.001,35.791],[139.998,35.801],[139.989,35.807],[139.979,35.798],[139.967,35.803],[139.967,35.808],[139.958,35.809],[139.952,35.817],[139.951,35.828],[139.941,35.835],[139.936,35.84],[139.928,35.85],[139.923,35.849],[139.918,35.845],[139.918,35.842],[139.913,35.837],[139.897,35.83],[139.889,35.83],[139.888,35.824],[139.892,35.819],[139.889,35.807],[139.891,35.801],[139.889,35.796],[139.894,35.78],[139.883,35.774],[139.879,35.768],[139.883,35.759],[139.89,35.75],[139.895,35.751],[139.902,35.756],[139.903,35.764],[139.909,35.767],[139.916,35.763],[139.932,35.76],[139.934,35.749],[139.944,35.751],[139.944,35.758],[139.952,35.762],[139.95,35.77],[139.957,35.775],[139.976,35.774]]]]}},{"type":"Feature","properties":{"name":"野田市","code":"12208"},"geometry":{"type":"MultiPolygon","coordinates":[[[[139.952,35.936],[139.939,35.941],[139.932,35.951],[139.938,35.962],[139.932,35.969],[139.917,35.97],[139.899,35.978],[139.884,35.989],[139.878,36.008],[139.857,36.029],[139.847,36.034],[139.837,36.041],[139.823,36.054],[139.814,36.062],[139.808,36.07],[139.804,36.087],[139.797,36.096],[139.787,36.104],[139.778,36.099],[139.776,36.091],[139.78,36.083],[139.783,36.07],[139.791,36.058],[139.802,36.049],[139.805,36.045],[139.814,36.039],[139.817,36.03],[139.813,36.023],[139.817,36.002],[139.814,35.997],[139.827,35.983],[139.825,35.976],[139.827,35.971],[139.833,35.969],[139.838,35.954],[139.846,35.941],[139.861,35.932],[139.867,35.926],[139.875,35.913],[139.891,35.915],[139.901,35.915],[139.902,35.918],[139.912,35.915],[139.92,35.917],[139.928,35.918],[139.935,35.925],[139.949,35.931],[139.952,35.936]]]]}},{"type":"Feature","properties":{"name":"茂原市","code":"12210"},"geometry":{"type":"MultiPolygon","coordinates":[[[[140.256,35.494],[140.251,35.492],[140.248,35.486],[140.248,35.482],[140.249,35.476],[140.254,35.47],[140.25,35.466],[140.247,35.451],[140.249,35.439],[140.258,35.433],[140.26,35.425],[140.263,35.421],[140.26,35.411],[140.254,35.407],[140.257,35.399],[140.261,35.397],[140.278,35.403],[140.28,35.396],[140.276,35.393],[140.277,35.383],[140.298,35.379],[140.308,35.382],[140.312,35.391],[140.321,35.392],[140.316,35.403],[140.323,35.407],[140.324,35.418],[140.33,35.42],[140.342,35.429],[140.347,35.429],[140.348,35.434],[140.34,35.436],[140.34,35.442],[140.342,35.453],[140.35,35.456],[140.35,35.462],[140.356,35.463],[140.361,35.466],[140.363,35.474],[140.37,35.474],[140.373,35.469],[140.378,35.469],[140.381,35.475],[140.379,35.487],[140.372,35.494],[140.352,35.497],[140.348,35.485],[140.336,35.49],[140.326,35.492],[140.33,35.498],[140.313,35.502],[140.29,35.496],[140.28,35.499],[140.272,35.494],[140.271,35.499],[140.267,35.502],[140.26,35.502],[140.262,35.496],[140.256,35.494]]]]}},{"type":"Feature","properties":{"name":"成田市","code":"12211"},"geometry":{"type":"MultiPolygon","coordinates":[[[[140.385,35.885],[140.384,35.889],[140.375,35.895],[140.376,35.902],[140.364,35.899],[140.353,35.892],[140.348,35.883],[140.335,35.872],[140.323,35.866],[140.308,35.864],[140.3,35.867],[140.289,35.871],[140.282,35.859],[140.28,35.847],[140.283,35.832],[140.286,35.829],[140.279,35.819],[140.268,35.823],[140.266,35.82],[140.256,35.814],[140.252,35.8],[140.249,35.789],[140.25,35.785],[140.26,35.778],[140.258,35.764],[140.263,35.755],[140.274,35.755],[140.279,35.757],[140.284,35.751],[140.29,35.752],[140.292,35.757],[140.303,35.748],[140.314,35.756],[140.312,35.76],[140.319,35.774],[140.325,35.777],[140.332,35.765],[140.342,35.762],[140.355,35.752],[140.357,35.746],[140.362,35.742],[140.363,35.732],[140.368,35.731],[140.368,35.739],[140.377,35.738],[140.379,35.729],[140.387,35.723],[140.393,35.728],[140.387,35.731],[140.385,35.741],[140.4,35.742],[140.402,35.753],[140.396,35.757],[140.4,35.763],[140.393,35.768],[140.396,35.772],[140.403,35.775],[140.402,35.783],[140.407,35.787],[140.414,35.785],[140.418,35.781],[140.417,35.776],[140.424,35.775],[140.436,35.781],[140.433,35.786],[140.443,35.789],[140.444,35.803],[140.452,35.807],[140.452,35.811],[140.461,35.815],[140.455,35.818],[140.456,35.826],[140.469,35.834],[140.464,35.838],[140.464,35.845],[140.472,35.844],[140.472,35.851],[140.463,35.855],[140.46,35.863],[140.452,35.87],[140.447,35.865],[140.44,35.868],[140.437,35.863],[140.428,35.864],[140.422,35.866],[140.417,35.866],[140.403,35.853],[140.394,35.853],[140.394,35.858],[140.398,35.861],[140.401,35.872],[140.392,35.883],[140.385,35.885]]]]}},{"type":"Feature","properties":{"name":"佐倉市","code":"12212"},"geometry":{"type":"MultiPolygon","coordinates":[[[[140.153,35.689],[140.147,35.693],[140.149,35.701],[140.159,35.696],[140.177,35.695],[140.193,35.704],[140.207,35.706],[140.208,35.698],[140.202,35.686],[140.204,35.681],[140.209,35.676],[140.208,35.672],[140.215,35.663],[140.213,35.655],[140.22,35.652],[140.223,35.642],[140.229,35.633],[140.241,35.631],[140.251,35.626],[140.258,35.625],[140.257,35.629],[140.258,35.645],[140.25,35.652],[140.259,35.659],[140.257,35.664],[140.259,35.667],[140.267,35.666],[140.27,35.671],[140.268,35.677],[140.276,35.68],[140.283,35.679],[140.282,35.689],[140.287,35.692],[140.291,35.706],[140.284,35.703],[140.278,35.708],[140.276,35.704],[140.267,35.7],[140.26,35.714],[140.253,35.714],[140.249,35.722],[140.257,35.725],[140.255,35.729],[140.262,35.731],[140.259,35.74],[140.254,35.74],[140.224,35.757],[140.209,35.766],[140.205,35.765],[140.189,35.746],[140.182,35.748],[140.168,35.75],[140.152,35.76],[140.146,35.755],[140.147,35.749],[140.14,35.745],[140.139,35.737],[140.142,35.725],[140.134,35.719],[140.131,35.711],[140.14,35.703],[140.137,35.698],[140.144,35.692],[140.147,35.692],[140.153,35.689]]]]}},{"type":"Feature","properties":{"name":"東金市","code":"12213"},"geometry":{"type":"MultiPolygon","coordinates":[[[[140.289,35.57],[140.289,35.566],[140.294,35.561],[140.304,35.554],[140.314,35.557],[140.324,35.558],[140.324,35.552],[140.331,35.547],[140.336,35.537],[140.343,35.533],[140.347,35.54],[140.354,35.537],[140.356,35.53],[140.361,35.531],[140.357,35.521],[140.363,35.515],[140.381,35.512],[140.38,35.505],[140.385,35.5],[140.391,35.51],[140.401,35.506],[140.404,35.509],[140.41,35.519],[140.391,35.527],[140.396,35.532],[140.4,35.529],[140.409,35.53],[140.415,35.527],[140.419,35.533],[140.419,35.539],[140.422,35.547],[140.427,35.551],[140.429,35.558],[140.433,35.56],[140.435,35.568],[140.428,35.582],[140.425,35.596],[140.419,35.595],[140.418,35.591],[140.413,35.588],[140.409,35.592],[140.404,35.587],[140.4,35.589],[140.394,35.585],[140.385,35.593],[140.385,35.6],[140.383,35.604],[140.375,35.603],[140.371,35.606],[140.361,35.602],[140.354,35.61],[140.347,35.605],[140.331,35.606],[140.338,35.618],[140.333,35.622],[140.335,35.625],[140.329,35.632],[140.326,35.626],[140.316,35.631],[140.308,35.625],[140.313,35.622],[140.315,35.617],[140.309,35.613],[140.315,35.607],[140.324,35.609],[140.321,35.603],[140.324,35.593],[140.337,35.585],[140.319,35.586],[140.292,35.573],[140.287,35.573]]]]}},{"type":"Feature","properties":{"name":"旭市","code":"12215"},"geometry":{"type":"MultiPolygon","coordinates":[[[[140.7,35.774],[140.692,35.781],[140.687,35.783],[140.683,35.778],[140.673,35.772],[140.671,35.765],[140.662,35.775],[140.655,35.788],[140.638,35.786],[140.63,35.795],[140.625,35.794],[140.626,35.787],[140.617,35.781],[140.609,35.782],[140.602,35.774],[140.598,35.78],[140.592,35.778],[140.59,35.773],[140.576,35.767],[140.572,35.766],[140.566,35.755],[140.572,35.747],[140.565,35.741],[140.567,35.736],[140.579,35.738],[140.584,35.74],[140.593,35.738],[140.593,35.741],[140.604,35.738],[140.6,35.734],[140.598,35.722],[140.599,35.717],[140.591,35.718],[140.579,35.713],[140.582,35.709],[140.591,35.711],[140.593,35.708],[140.604,35.709],[140.607,35.701],[140.602,35.698],[140.603,35.692],[140.61,35.69],[140.609,35.682],[140.612,35.675],[140.622,35.678],[140.625,35.673],[140.644,35.683],[140.665,35.692],[140.693,35.699],[140.715,35.7],[140.72,35.699],[140.724,35.694],[140.739,35.692],[140.75,35.693],[140.761,35.698],[140.756,35.703],[140.751,35.701],[140.741,35.702],[140.734,35.705],[140.74,35.72],[140.749,35.724],[140.748,35.728],[140.742,35.738],[140.732,35.732],[140.725,35.733],[140.724,35.739],[140.728,35.756],[140.724,35.759],[140.708,35.761],[140.707,35.771],[140.7,35.774]]]]}},{"type":"Feature","properties":{"name":"習志野市","code":"12216"},"geometry":{"type":"MultiPolygon","coordinates":[[[[140.082,35.695],[140.077,35.701],[140.085,35.704],[140.068,35.708],[140.062,35.705],[140.064,35.696],[140.059,35.694],[140.053,35.697],[140.051,35.692],[140.044,35.693],[140.035,35.696],[140.029,35.691],[140.014,35.692],[140.009,35.695],[139.998,35.678],[140.005,35.669],[140.002,35.666],[140.003,35.66],[139.995,35.661],[139.986,35.66],[139.987,35.654],[140.014,35.658],[140.02,35.652],[140.035,35.67],[140.042,35.678],[140.055,35.677],[140.066,35.677],[140.077,35.688],[140.082,35.695]]]]}},{"type":"Feature","properties":{"name":"柏市","code":"12217"},"geometry":{"type":"MultiPolygon","coordinates":[[[[139.998,35.801],[140.002,35.804],[140.008,35.803],[140.023,35.796],[140.019,35.783],[140.03,35.799],[140.032,35.812],[140.042,35.824],[140.05,35.832],[140.057,35.835],[140.07,35.834],[140.075,35.831],[140.089,35.83],[140.093,35.826],[140.099,35.831],[140.109,35.834],[140.112,35.843],[140.111,35.848],[140.101,35.851],[140.065,35.855],[140.06,35.851],[140.052,35.853],[140.043,35.859],[140.033,35.856],[140.025,35.861],[140.008,35.862],[139.994,35.868],[139.991,35.871],[139.993,35.877],[139.999,35.884],[140.01,35.887],[140.016,35.896],[140.022,35.89],[140.031,35.901],[140.019,35.91],[140.013,35.911],[139.997,35.909],[139.986,35.915],[139.977,35.923],[139.965,35.927],[139.952,35.936],[139.949,35.931],[139.935,35.925],[139.928,35.918],[139.92,35.917],[139.92,35.906],[139.915,35.894],[139.921,35.89],[139.926,35.883],[139.93,35.887],[139.921,35.897],[139.923,35.9],[139.93,35.901],[139.935,35.893],[139.933,35.885],[139.94,35.885],[139.94,35.876],[139.942,35.869],[139.931,35.869],[139.93,35.865],[139.943,35.864],[139.941,35.852],[139.947,35.855],[139.953,35.851],[139.952,35.841],[139.958,35.835],[139.953,35.834],[139.945,35.837],[139.941,35.835],[139.951,35.828],[139.952,35.817],[139.958,35.809],[139.967,35.808],[139.967,35.803],[139.979,35.798],[139.989,35.807],[139.998,35.801]]]]}},{"type":"Feature","properties":{"name":"勝浦市","code":"12218"},"geometry":{"type":"MultiPolygon","coordinates":[[[[140.318,35.215],[140.313,35.22],[140.301,35.226],[140.297,35.238],[140.288,35.243],[140.281,35.242],[140.274,35.239],[140.271,35.234],[140.252,35.233],[140.259,35.228],[140.25,35.216],[140.246,35.214],[140.244,35.201],[140.246,35.192],[140.238,35.18],[140.231,35.181],[140.227,35.186],[140.222,35.187],[140.213,35.18],[140.205,35.184],[140.201,35.183],[140.199,35.178],[140.189,35.176],[140.188,35.17],[140.197,35.172],[140.202,35.17],[140.208,35.162],[140.208,35.154],[140.213,35.15],[140.216,35.141],[140.212,35.136],[140.216,35.134],[140.212,35.126],[140.214,35.121],[140.212,35.114],[140.22,35.117],[140.233,35.115],[140.238,35.118],[140.234,35.122],[140.247,35.128],[140.248,35.133],[140.253,35.134],[140.258,35.138],[140.267,35.136],[140.274,35.137],[140.286,35.134],[140.297,35.151],[140.304,35.151],[140.312,35.147],[140.313,35.139],[140.318,35.138],[140.325,35.14],[140.327,35.151],[140.333,35.158],[140.335,35.167],[140.345,35.173],[140.347,35.176],[140.339,35.175],[140.332,35.178],[140.324,35.174],[140.316,35.177],[140.31,35.19],[140.305,35.19],[140.303,35.196],[140.308,35.202],[140.308,35.208],[140.318,35.215]]]]}},{"type":"Feature","properties":{"name":"市原市","code":"12219"},"geometry":{"type":"MultiPolygon","coordinates":[[[[140.115,35.551],[140.112,35.55],[140.098,35.555],[140.092,35.554],[140.09,35.543],[140.101,35.538],[140.096,35.535],[140.087,35.54],[140.074,35.55],[140.064,35.543],[140.061,35.544],[140.054,35.535],[140.061,35.53],[140.058,35.527],[140.05,35.531],[140.038,35.516],[140.046,35.512],[140.042,35.507],[140.034,35.512],[140.025,35.502],[140.036,35.495],[140.033,35.492],[140.022,35.497],[140.012,35.485],[140.018,35.481],[140.018,35.473],[140.023,35.468],[140.04,35.446],[140.043,35.438],[140.041,35.43],[140.033,35.424],[140.044,35.424],[140.051,35.426],[140.06,35.426],[140.077,35.43],[140.081,35.432],[140.09,35.421],[140.089,35.412],[140.093,35.407],[140.09,35.4],[140.093,35.396],[140.092,35.388],[140.09,35.381],[140.099,35.375],[140.106,35.379],[140.115,35.371],[140.123,35.358],[140.124,35.352],[140.129,35.347],[140.129,35.343],[140.121,35.337],[140.121,35.333],[140.113,35.329],[140.108,35.324],[140.109,35.319],[140.102,35.317],[140.108,35.313],[140.118,35.316],[140.122,35.314],[140.122,35.307],[140.117,35.305],[140.114,35.29],[140.12,35.283],[140.118,35.273],[140.118,35.263],[140.125,35.244],[140.13,35.243],[140.132,35.238],[140.137,35.237],[140.141,35.231],[140.143,35.236],[140.149,35.24],[140.152,35.25],[140.163,35.255],[140.171,35.255],[140.176,35.259],[140.175,35.265],[140.178,35.275],[140.185,35.278],[140.189,35.277],[140.197,35.284],[140.203,35.288],[140.204,35.294],[140.199,35.299],[140.201,35.306],[140.212,35.302],[140.226,35.307],[140.227,35.311],[140.225,35.317],[140.22,35.328],[140.213,35.334],[140.214,35.34],[140.209,35.346],[140.206,35.36],[140.209,35.366],[140.202,35.366],[140.198,35.37],[140.2,35.378],[140.207,35.379],[140.2,35.391],[140.195,35.392],[140.189,35.404],[140.19,35.407],[140.181,35.415],[140.182,35.421],[140.175,35.43],[140.179,35.435],[140.185,35.437],[140.187,35.448],[140.171,35.457],[140.175,35.461],[140.174,35.469],[140.184,35.469],[140.186,35.474],[140.194,35.47],[140.202,35.475],[140.206,35.485],[140.212,35.487],[140.224,35.485],[140.237,35.48],[140.248,35.482],[140.248,35.486],[140.251,35.492],[140.256,35.494],[140.255,35.501],[140.243,35.505],[140.233,35.504],[140.23,35.51],[140.222,35.518],[140.221,35.524],[140.225,35.525],[140.232,35.533],[140.227,35.541],[140.218,35.544],[140.213,35.542],[140.209,35.545],[140.201,35.54],[140.194,35.543],[140.191,35.537],[140.179,35.533],[140.172,35.536],[140.159,35.536],[140.142,35.548],[140.135,35.543],[140.13,35.547],[140.124,35.548],[140.121,35.551],[140.115,35.551]]]]}},{"type":"Feature","properties":{"name":"流山市","code":"12220"},"geometry":{"type":"MultiPolygon","coordinates":[[[[139.941,35.835],[139.945,35.837],[139.953,35.834],[139.958,35.835],[139.952,35.841],[139.953,35.851],[139.947,35.855],[139.941,35.852],[139.943,35.864],[139.93,35.865],[139.931,35.869],[139.942,35.869],[139.94,35.876],[139.94,35.885],[139.933,35.885],[139.935,35.893],[139.93,35.901],[139.923,35.9],[139.921,35.897],[139.93,35.887],[139.926,35.883],[139.921,35.89],[139.915,35.894],[139.92,35.906],[139.92,35.917],[139.912,35.915],[139.902,35.918],[139.901,35.915],[139.891,35.915],[139.875,35.913],[139.89,35.893],[139.895,35.877],[139.9,35.864],[139.896,35.853],[139.89,35.844],[139.889,35.83],[139.897,35.83],[139.913,35.837],[139.918,35.842],[139.918,35.845],[139.923,35.849],[139.928,35.85],[139.936,35.84],[139.941,35.835]]]]}},{"type":"Feature","properties":{"name":"八千代市","code":"12221"},"geometry":{"type":"MultiPolygon","coordinates":[[[[140.137,35.698],[140.14,35.703],[140.131,35.711],[140.134,35.719],[140.142,35.725],[140.139,35.737],[140.14,35.745],[140.147,35.749],[140.146,35.755],[140.152,35.76],[140.147,35.765],[140.139,35.767],[140.133,35.773],[140.112,35.781],[140.103,35.78],[140.097,35.783],[140.09,35.784],[140.086,35.781],[140.086,35.766],[140.078,35.757],[140.074,35.75],[140.066,35.748],[140.064,35.742],[140.068,35.734],[140.063,35.721],[140.072,35.717],[140.064,35.711],[140.068,35.708],[140.085,35.704],[140.077,35.701],[140.082,35.695],[140.09,35.694],[140.101,35.703],[140.106,35.709],[140.113,35.714],[140.123,35.707],[140.124,35.699],[140.134,35.7]]]]}},{"type":"Feature","properties":{"name":"我孫子市","code":"12222"},"geometry":{"type":"MultiPolygon","coordinates":[[[[140.111,35.848],[140.123,35.846],[140.132,35.841],[140.146,35.846],[140.134,35.859],[140.128,35.87],[140.122,35.874],[140.112,35.876],[140.103,35.881],[140.088,35.884],[140.074,35.877],[140.067,35.881],[140.061,35.888],[140.048,35.892],[140.031,35.901],[140.022,35.89],[140.016,35.896],[140.01,35.887],[139.999,35.884],[139.993,35.877],[139.991,35.871],[139.994,35.868],[140.008,35.862],[140.025,35.861],[140.033,35.856],[140.043,35.859],[140.052,35.853],[140.06,35.851],[140.065,35.855],[140.101,35.851],[140.111,35.848]]]]}},{"type":"Feature","properties":{"name":"鴨川市","code":"12223"},"geometry":{"type":"MultiPolygon","coordinates":[[[[140.188,35.17],[140.175,35.167],[140.166,35.171],[140.162,35.174],[140.161,35.181],[140.153,35.182],[140.142,35.19],[140.135,35.191],[140.13,35.188],[140.121,35.191],[140.115,35.181],[140.11,35.179],[140.101,35.181],[140.097,35.178],[140.096,35.171],[140.091,35.168],[140.076,35.175],[140.066,35.17],[140.062,35.166],[140.054,35.165],[140.049,35.16],[140.043,35.162],[140.035,35.159],[140.029,35.164],[140.015,35.154],[140.008,35.156],[140.005,35.154],[139.993,35.156],[139.972,35.152],[139.963,35.155],[139.946,35.153],[139.938,35.146],[139.932,35.148],[139.932,35.139],[139.931,35.129],[139.936,35.122],[139.948,35.124],[139.952,35.119],[139.958,35.116],[139.959,35.112],[139.972,35.112],[139.982,35.106],[139.983,35.116],[139.997,35.115],[139.994,35.109],[139.995,35.104],[140.0,35.101],[139.997,35.094],[140.008,35.096],[140.02,35.089],[140.019,35.083],[140.025,35.081],[140.029,35.074],[140.03,35.065],[140.036,35.062],[140.032,35.059],[140.038,35.052],[140.055,35.059],[140.075,35.058],[140.075,35.062],[140.083,35.064],[140.079,35.068],[140.085,35.07],[140.099,35.08],[140.098,35.084],[140.104,35.091],[140.105,35.102],[140.109,35.107],[140.122,35.116],[140.134,35.122],[140.146,35.118],[140.152,35.117],[140.154,35.121],[140.168,35.124],[140.173,35.12],[140.178,35.121],[140.183,35.118],[140.186,35.125],[140.19,35.127],[140.197,35.121],[140.196,35.116],[140.203,35.11],[140.212,35.114],[140.214,35.121],[140.212,35.126],[140.216,35.134],[140.212,35.136],[140.216,35.141],[140.213,35.15],[140.208,35.154],[140.208,35.162],[140.202,35.17],[140.197,35.172],[140.188,35.17]]]]}},{"type":"Feature","properties":{"name":"鎌ケ谷市","code":"12224"},"geometry":{"type":"MultiPolygon","coordinates":[[[[139.973,35.749],[139.983,35.751],[139.988,35.744],[139.993,35.742],[139.999,35.744],[140.007,35.743],[140.008,35.748],[140.018,35.755],[140.014,35.761],[140.021,35.765],[140.015,35.768],[140.02,35.774],[140.022,35.781],[140.019,35.783],[140.023,35.796],[140.008,35.803],[140.002,35.804],[139.998,35.801],[140.001,35.791],[139.996,35.787],[139.989,35.791],[139.985,35.788],[139.968,35.786],[139.973,35.78],[139.984,35.776],[139.976,35.774],[139.975,35.761],[139.971,35.758],[139.975,35.752]],[[139.994,35.755],[140.0,35.751],[139.996,35.743],[139.987,35.747],[139.989,35.752],[139.994,35.755]]]]}},{"type":"Feature","properties":{"name":"君津市","code":"12225"},"geometry":{"type":"MultiPolygon","coordinates":[[[[139.888,35.361],[139.883,35.361],[139.862,35.368],[139.846,35.375],[139.839,35.367],[139.841,35.364],[139.852,35.358],[139.859,35.348],[139.852,35.349],[139.861,35.339],[139.866,35.337],[139.865,35.332],[139.876,35.326],[139.883,35.32],[139.887,35.313],[139.888,35.302],[139.898,35.3],[139.902,35.295],[139.902,35.29],[139.911,35.288],[139.91,35.281],[139.916,35.272],[139.923,35.271],[139.937,35.261],[139.944,35.263],[139.956,35.257],[139.955,35.253],[139.949,35.251],[139.952,35.241],[139.961,35.244],[139.971,35.238],[139.977,35.241],[139.98,35.227],[139.983,35.21],[139.997,35.193],[139.996,35.18],[140.001,35.172],[139.997,35.16],[139.993,35.156],[140.005,35.154],[140.008,35.156],[140.015,35.154],[140.029,35.164],[140.035,35.159],[140.043,35.162],[140.049,35.16],[140.054,35.165],[140.062,35.166],[140.066,35.17],[140.076,35.175],[140.091,35.168],[140.096,35.171],[140.097,35.178],[140.101,35.181],[140.11,35.179],[140.115,35.181],[140.121,35.191],[140.13,35.188],[140.135,35.191],[140.142,35.19],[140.153,35.182],[140.161,35.181],[140.16,35.19],[140.153,35.2],[140.152,35.206],[140.144,35.218],[140.139,35.228],[140.141,35.231],[140.137,35.237],[140.132,35.238],[140.13,35.243],[140.125,35.244],[140.118,35.263],[140.118,35.273],[140.12,35.283],[140.114,35.29],[140.117,35.305],[140.122,35.307],[140.122,35.314],[140.118,35.316],[140.108,35.313],[140.102,35.317],[140.109,35.319],[140.104,35.326],[140.094,35.328],[140.087,35.338],[140.083,35.346],[140.071,35.346],[140.059,35.354],[140.052,35.355],[140.044,35.348],[140.045,35.342],[140.042,35.336],[140.029,35.331],[140.021,35.329],[140.021,35.324],[140.017,35.319],[140.01,35.319],[140.005,35.327],[139.998,35.326],[139.997,35.317],[139.979,35.317],[139.974,35.318],[139.972,35.323],[139.966,35.327],[139.964,35.332],[139.953,35.33],[139.936,35.337],[139.914,35.341],[139.905,35.335],[139.9,35.337],[139.897,35.347],[139.888,35.361]]]]}},{"type":"Feature","properties":{"name":"富津市","code":"12226"},"geometry":{"type":"MultiPolygon","coordinates":[[[[139.993,35.156],[139.997,35.16],[140.001,35.172],[139.996,35.18],[139.997,35.193],[139.983,35.21],[139.978,35.225],[139.977,35.241],[139.971,35.238],[139.961,35.244],[139.952,35.241],[139.949,35.251],[139.955,35.253],[139.956,35.257],[139.944,35.263],[139.937,35.261],[139.923,35.271],[139.916,35.272],[139.91,35.281],[139.911,35.288],[139.902,35.29],[139.902,35.295],[139.898,35.3],[139.888,35.302],[139.887,35.313],[139.883,35.32],[139.876,35.326],[139.865,35.332],[139.866,35.337],[139.861,35.339],[139.852,35.349],[139.847,35.347],[139.838,35.359],[139.823,35.344],[139.829,35.337],[139.837,35.338],[139.839,35.334],[139.824,35.326],[139.816,35.324],[139.82,35.316],[139.807,35.315],[139.792,35.311],[139.812,35.306],[139.826,35.302],[139.839,35.296],[139.847,35.291],[139.853,35.284],[139.852,35.278],[139.847,35.272],[139.858,35.262],[139.864,35.254],[139.869,35.243],[139.871,35.231],[139.867,35.219],[139.849,35.213],[139.844,35.208],[139.831,35.204],[139.824,35.198],[139.817,35.186],[139.817,35.169],[139.822,35.167],[139.819,35.162],[139.818,35.155],[139.829,35.159],[139.838,35.159],[139.854,35.164],[139.86,35.161],[139.868,35.16],[139.871,35.157],[139.887,35.16],[139.895,35.156],[139.9,35.156],[139.902,35.151],[139.912,35.141],[139.932,35.139],[139.932,35.148],[139.938,35.146],[139.946,35.153],[139.963,35.155],[139.972,35.152],[139.993,35.156]]]]}},{"type":"Feature","properties":{"name":"浦安市","code":"12227"},"geometry":{"type":"MultiPolygon","coordinates":[[[[139.886,35.671],[139.887,35.656],[139.883,35.645],[139.871,35.639],[139.873,35.626],[139.888,35.622],[139.893,35.625],[139.898,35.617],[139.91,35.624],[139.939,35.64],[139.918,35.655],[139.893,35.673],[139.886,35.671]]]]}},{"type":"Feature","properties":{"name":"四街道市","code":"12228"},"geometry":{"type":"MultiPolygon","coordinates":[[[[140.136,35.671],[140.141,35.668],[140.15,35.668],[140.156,35.654],[140.158,35.646],[140.164,35.645],[140.174,35.654],[140.19,35.643],[140.185,35.629],[140.193,35.627],[140.204,35.64],[140.207,35.646],[140.205,35.651],[140.213,35.655],[140.215,35.663],[140.208,35.672],[140.209,35.676],[140.204,35.681],[140.202,35.686],[140.208,35.698],[140.207,35.706],[140.193,35.704],[140.177,35.695],[140.159,35.696],[140.149,35.701],[140.147,35.693],[140.151,35.691],[140.147,35.692],[140.143,35.691],[140.139,35.688],[140.137,35.68],[140.138,35.675],[140.136,35.671]]]]}},{"type":"Feature","properties":{"name":"袖ケ浦市","code":"12229"},"geometry":{"type":"MultiPolygon","coordinates":[[[[140.092,35.388],[140.093,35.396],[140.09,35.4],[140.093,35.407],[140.089,35.412],[140.09,35.421],[140.081,35.432],[140.077,35.43],[140.06,35.426],[140.051,35.426],[140.044,35.424],[140.033,35.424],[140.041,35.43],[140.043,35.438],[140.04,35.446],[140.023,35.468],[140.016,35.471],[140.013,35.476],[140.007,35.479],[139.998,35.474],[140.003,35.468],[139.999,35.466],[139.995,35.472],[139.989,35.47],[139.995,35.459],[139.982,35.475],[139.966,35.469],[139.974,35.448],[139.968,35.448],[139.962,35.459],[139.951,35.456],[139.949,35.442],[139.95,35.438],[139.942,35.426],[139.943,35.417],[139.957,35.411],[139.963,35.414],[139.968,35.42],[139.975,35.417],[139.971,35.41],[139.991,35.408],[139.995,35.405],[140.012,35.404],[140.01,35.398],[140.007,35.394],[140.001,35.397],[139.993,35.394],[139.999,35.388],[140.004,35.386],[140.001,35.38],[140.002,35.373],[139.999,35.365],[140.003,35.36],[140.001,35.353],[139.997,35.351],[140.002,35.345],[140.013,35.344],[140.021,35.352],[140.024,35.36],[140.033,35.361],[140.035,35.371],[140.042,35.371],[140.048,35.381],[140.053,35.378],[140.061,35.379],[140.065,35.383],[140.081,35.385],[140.085,35.382],[140.092,35.388]]]]}},{"type":"Feature","properties":{"name":"八街市","code":"12230"},"geometry":{"type":"MultiPolygon","coordinates":[[[[140.287,35.573],[140.292,35.573],[140.319,35.586],[140.337,35.585],[140.324,35.593],[140.321,35.603],[140.325,35.607],[140.315,35.607],[140.309,35.613],[140.315,35.617],[140.313,35.622],[140.308,35.625],[140.316,35.631],[140.326,35.626],[140.329,35.632],[140.321,35.64],[140.326,35.652],[140.337,35.66],[140.347,35.66],[140.34,35.668],[140.349,35.673],[140.347,35.677],[140.328,35.683],[140.322,35.687],[140.318,35.696],[140.321,35.7],[140.32,35.708],[140.311,35.706],[140.309,35.713],[140.303,35.715],[140.296,35.712],[140.291,35.706],[140.287,35.692],[140.282,35.689],[140.283,35.679],[140.276,35.68],[140.268,35.677],[140.27,35.671],[140.267,35.666],[140.259,35.667],[140.257,35.664],[140.259,35.659],[140.25,35.652],[140.258,35.645],[140.257,35.629],[140.258,35.625],[140.266,35.626],[140.265,35.621],[140.268,35.617],[140.267,35.607],[140.263,35.606],[140.261,35.6],[140.276,35.587],[140.275,35.582],[140.281,35.579],[140.283,35.574],[140.287,35.573]]]]}},{"type":"Feature","properties":{"name":"印西市","code":"12231"},"geometry":{"type":"MultiPolygon","coordinates":[[[[140.252,35.8],[140.25,35.821],[140.243,35.819],[140.237,35.821],[140.243,35.827],[140.233,35.832],[140.232,35.841],[140.213,35.839],[140.203,35.835],[140.193,35.837],[140.182,35.842],[140.168,35.845],[140.157,35.843],[140.146,35.846],[140.132,35.841],[140.123,35.846],[140.111,35.848],[140.112,35.843],[140.109,35.834],[140.099,35.831],[140.093,35.826],[140.087,35.816],[140.093,35.81],[140.1,35.809],[140.101,35.805],[140.107,35.806],[140.111,35.799],[140.106,35.798],[140.097,35.783],[140.103,35.78],[140.112,35.781],[140.133,35.773],[140.139,35.767],[140.147,35.765],[140.152,35.76],[140.168,35.75],[140.182,35.748],[140.189,35.746],[140.205,35.765],[140.209,35.766],[140.224,35.757],[140.254,35.74],[140.259,35.74],[140.265,35.743],[140.266,35.747],[140.263,35.755],[140.258,35.764],[140.26,35.778],[140.25,35.785],[140.249,35.789],[140.252,35.8]]]]}},{"type":"Feature","properties":{"name":"白井市","code":"12232"},"geometry":{"type":"MultiPolygon","coordinates":[[[[140.09,35.784],[140.097,35.783],[140.106,35.798],[140.111,35.799],[140.107,35.806],[140.101,35.805],[140.1,35.809],[140.093,35.81],[140.087,35.816],[140.094,35.824],[140.089,35.83],[140.075,35.831],[140.07,35.834],[140.057,35.835],[140.05,35.832],[140.042,35.824],[140.032,35.812],[140.03,35.799],[140.019,35.783],[140.022,35.781],[140.02,35.774],[140.015,35.768],[140.021,35.765],[140.03,35.771],[140.04,35.767],[140.062,35.776],[140.067,35.785],[140.069,35.799],[140.073,35.799],[140.083,35.792],[140.09,35.784]]]]}},{"type":"Feature","properties":{"name":"富里市","code":"12233"},"geometry":{"type":"MultiPolygon","coordinates":[[[[140.303,35.748],[140.306,35.741],[140.297,35.739],[140.289,35.73],[140.293,35.727],[140.296,35.72],[140.303,35.715],[140.309,35.713],[140.311,35.706],[140.32,35.708],[140.321,35.7],[140.318,35.696],[140.322,35.687],[140.328,35.683],[140.347,35.677],[140.354,35.684],[140.36,35.687],[140.373,35.681],[140.377,35.683],[140.391,35.676],[140.4,35.68],[140.4,35.69],[140.385,35.69],[140.378,35.694],[140.373,35.701],[140.382,35.704],[140.385,35.713],[140.379,35.714],[140.376,35.721],[140.366,35.726],[140.368,35.731],[140.363,35.732],[140.362,35.742],[140.357,35.746],[140.355,35.752],[140.342,35.762],[140.332,35.765],[140.325,35.777],[140.319,35.774],[140.312,35.76],[140.314,35.756],[140.303,35.748]]]]}},{"type":"Feature","properties":{"name":"南房総市","code":"12234"},"geometry":{"type":"MultiPolygon","coordinates":[[[[139.824,34.911],[139.84,34.904],[139.846,34.903],[139.865,34.907],[139.874,34.903],[139.883,34.903],[139.893,34.906],[139.903,34.904],[139.908,34.907],[139.917,34.906],[139.92,34.91],[139.929,34.912],[139.942,34.917],[139.942,34.922],[139.952,34.929],[139.955,34.934],[139.961,34.938],[139.965,34.946],[139.965,34.952],[139.961,34.965],[139.963,34.972],[139.971,34.986],[139.972,34.993],[139.976,35.003],[139.98,35.01],[139.993,35.023],[140.003,35.031],[140.013,35.036],[140.017,35.036],[140.025,35.044],[140.038,35.052],[140.032,35.059],[140.036,35.062],[140.03,35.065],[140.029,35.074],[140.025,35.081],[140.019,35.083],[140.02,35.089],[140.008,35.096],[139.997,35.094],[140.0,35.101],[139.995,35.104],[139.994,35.109],[139.997,35.115],[139.983,35.116],[139.982,35.106],[139.972,35.112],[139.959,35.112],[139.958,35.116],[139.952,35.119],[139.948,35.124],[139.936,35.122],[139.931,35.129],[139.926,35.127],[139.924,35.118],[139.919,35.113],[139.913,35.115],[139.901,35.114],[139.888,35.11],[139.88,35.109],[139.869,35.111],[139.862,35.107],[139.856,35.108],[139.844,35.1],[139.836,35.1],[139.841,35.092],[139.842,35.086],[139.838,35.079],[139.822,35.072],[139.821,35.068],[139.832,35.05],[139.83,35.041],[139.823,35.038],[139.814,35.043],[139.81,35.038],[139.825,35.031],[139.833,35.032],[139.853,35.032],[139.862,35.038],[139.87,35.04],[139.871,35.045],[139.877,35.046],[139.883,35.041],[139.884,35.025],[139.886,35.019],[139.885,35.01],[139.887,35.007],[139.905,35.01],[139.905,35.018],[139.92,35.017],[139.933,35.026],[139.936,35.022],[139.933,35.017],[139.941,35.005],[139.941,35.001],[139.931,34.992],[139.929,34.984],[139.919,34.981],[139.91,34.98],[139.904,34.967],[139.903,34.958],[139.91,34.946],[139.918,34.945],[139.927,34.941],[139.918,34.927],[139.914,34.929],[139.904,34.928],[139.898,34.925],[139.891,34.931],[139.882,34.924],[139.879,34.925],[139.866,34.92],[139.858,34.923],[139.853,34.915],[139.833,34.911],[139.825,34.911]]]]}},{"type":"Feature","properties":{"name":"匝瑳市","code":"12235"},"geometry":{"type":"MultiPolygon","coordinates":[[[[140.566,35.755],[140.556,35.754],[140.55,35.761],[140.548,35.758],[140.537,35.757],[140.53,35.761],[140.527,35.754],[140.519,35.755],[140.516,35.761],[140.505,35.759],[140.507,35.751],[140.502,35.739],[140.502,35.736],[140.486,35.725],[140.486,35.721],[140.503,35.706],[140.499,35.698],[140.504,35.686],[140.514,35.684],[140.516,35.674],[140.524,35.679],[140.538,35.67],[140.542,35.665],[140.53,35.657],[140.534,35.651],[140.545,35.639],[140.548,35.639],[140.559,35.628],[140.612,35.665],[140.625,35.673],[140.622,35.678],[140.612,35.675],[140.609,35.682],[140.61,35.69],[140.603,35.692],[140.602,35.698],[140.607,35.701],[140.604,35.709],[140.593,35.708],[140.591,35.711],[140.582,35.709],[140.579,35.713],[140.591,35.718],[140.599,35.717],[140.598,35.722],[140.6,35.734],[140.604,35.738],[140.593,35.741],[140.593,35.738],[140.584,35.74],[140.579,35.738],[140.567,35.736],[140.565,35.741],[140.572,35.747],[140.566,35.755]]]]}},{"type":"Feature","properties":{"name":"香取市","code":"12236"},"geometry":{"type":"MultiPolygon","coordinates":[[[[140.452,35.807],[140.459,35.802],[140.468,35.798],[140.468,35.792],[140.481,35.79],[140.487,35.798],[140.495,35.802],[140.503,35.796],[140.5,35.789],[140.512,35.781],[140.519,35.783],[140.533,35.775],[140.543,35.774],[140.546,35.765],[140.55,35.761],[140.556,35.754],[140.566,35.755],[140.572,35.766],[140.576,35.767],[140.59,35.773],[140.592,35.778],[140.598,35.78],[140.602,35.774],[140.609,35.782],[140.617,35.781],[140.626,35.787],[140.625,35.794],[140.624,35.8],[140.634,35.803],[140.634,35.808],[140.644,35.814],[140.642,35.825],[140.651,35.827],[140.648,35.842],[140.645,35.847],[140.648,35.856],[140.631,35.859],[140.629,35.865],[140.616,35.881],[140.613,35.889],[140.608,35.896],[140.599,35.903],[140.589,35.906],[140.581,35.916],[140.571,35.924],[140.557,35.931],[140.537,35.939],[140.527,35.948],[140.511,35.959],[140.504,35.951],[140.5,35.944],[140.497,35.934],[140.487,35.929],[140.491,35.915],[140.498,35.909],[140.485,35.91],[140.474,35.916],[140.471,35.92],[140.458,35.927],[140.448,35.915],[140.435,35.911],[140.437,35.908],[140.429,35.902],[140.425,35.888],[140.428,35.884],[140.425,35.873],[140.431,35.874],[140.439,35.871],[140.447,35.865],[140.452,35.87],[140.46,35.863],[140.463,35.855],[140.472,35.851],[140.472,35.844],[140.464,35.845],[140.464,35.838],[140.469,35.834],[140.456,35.826],[140.455,35.818],[140.461,35.815],[140.452,35.811],[140.452,35.807]]]]}},{"type":"Feature","properties":{"name":"山武市","code":"12237"},"geometry":{"type":"MultiPolygon","coordinates":[[[[140.435,35.568],[140.447,35.564],[140.463,35.551],[140.47,35.547],[140.478,35.558],[140.496,35.576],[140.508,35.587],[140.526,35.602],[140.516,35.611],[140.507,35.617],[140.497,35.61],[140.49,35.617],[140.492,35.622],[140.501,35.629],[140.495,35.637],[140.488,35.631],[140.476,35.637],[140.466,35.644],[140.479,35.654],[140.471,35.656],[140.467,35.66],[140.451,35.666],[140.444,35.662],[140.435,35.667],[140.436,35.672],[140.432,35.677],[140.424,35.68],[140.417,35.679],[140.413,35.675],[140.4,35.68],[140.391,35.676],[140.377,35.683],[140.373,35.681],[140.36,35.687],[140.354,35.684],[140.347,35.677],[140.349,35.673],[140.34,35.668],[140.347,35.66],[140.337,35.66],[140.326,35.652],[140.321,35.64],[140.329,35.632],[140.335,35.625],[140.333,35.622],[140.338,35.618],[140.331,35.606],[140.347,35.605],[140.354,35.61],[140.361,35.602],[140.371,35.606],[140.375,35.603],[140.383,35.604],[140.385,35.6],[140.385,35.593],[140.394,35.585],[140.4,35.589],[140.404,35.587],[140.409,35.592],[140.413,35.588],[140.418,35.591],[140.419,35.595],[140.425,35.596],[140.428,35.582],[140.435,35.568]]]]}},{"type":"Feature","properties":{"name":"いすみ市","code":"12238"},"geometry":{"type":"MultiPolygon","coordinates":[[[[140.318,35.215],[140.323,35.214],[140.324,35.22],[140.337,35.219],[140.338,35.215],[140.349,35.217],[140.363,35.218],[140.36,35.202],[140.368,35.198],[140.378,35.198],[140.385,35.192],[140.394,35.203],[140.392,35.211],[140.405,35.237],[140.404,35.246],[140.405,35.252],[140.401,35.255],[140.4,35.269],[140.405,35.287],[140.412,35.301],[140.414,35.304],[140.413,35.314],[140.406,35.326],[140.398,35.331],[140.393,35.331],[140.388,35.335],[140.383,35.33],[140.372,35.329],[140.374,35.343],[140.366,35.342],[140.353,35.346],[140.342,35.345],[140.327,35.344],[140.318,35.346],[140.307,35.337],[140.301,35.338],[140.294,35.333],[140.289,35.321],[140.278,35.319],[140.271,35.313],[140.277,35.296],[140.266,35.284],[140.26,35.284],[140.255,35.28],[140.259,35.272],[140.268,35.269],[140.272,35.27],[140.279,35.265],[140.279,35.262],[140.286,35.256],[140.281,35.25],[140.281,35.242],[140.288,35.243],[140.297,35.238],[140.301,35.226],[140.313,35.22],[140.318,35.215]]]]}},{"type":"Feature","properties":{"name":"大網白里市","code":"12239"},"geometry":{"type":"MultiPolygon","coordinates":[[[[140.272,35.494],[140.28,35.499],[140.29,35.496],[140.313,35.502],[140.33,35.498],[140.326,35.492],[140.336,35.49],[140.348,35.485],[140.352,35.497],[140.372,35.494],[140.379,35.487],[140.381,35.475],[140.386,35.477],[140.401,35.475],[140.416,35.472],[140.43,35.498],[140.404,35.509],[140.401,35.506],[140.391,35.51],[140.385,35.5],[140.38,35.505],[140.381,35.512],[140.363,35.515],[140.357,35.521],[140.361,35.531],[140.356,35.53],[140.354,35.537],[140.347,35.54],[140.343,35.533],[140.336,35.537],[140.331,35.547],[140.324,35.552],[140.324,35.558],[140.314,35.557],[140.304,35.554],[140.294,35.561],[140.291,35.556],[140.292,35.548],[140.281,35.548],[140.281,35.542],[140.286,35.539],[140.292,35.531],[140.288,35.523],[140.3,35.519],[140.293,35.515],[140.286,35.519],[140.282,35.513],[140.277,35.511],[140.274,35.507],[140.272,35.494]]]]}},{"type":"Feature","properties":{"name":"印旛郡酒々井町","code":"12322"},"geometry":{"type":"MultiPolygon","coordinates":[[[[140.263,35.755],[140.266,35.747],[140.265,35.743],[140.259,35.74],[140.262,35.731],[140.255,35.729],[140.257,35.725],[140.249,35.722],[140.253,35.714],[140.26,35.714],[140.267,35.7],[140.276,35.704],[140.278,35.708],[140.284,35.703],[140.291,35.706],[140.296,35.712],[140.303,35.715],[140.296,35.72],[140.293,35.727],[140.289,35.73],[140.297,35.739],[140.306,35.741],[140.303,35.748],[140.292,35.757],[140.29,35.752],[140.284,35.751],[140.279,35.757],[140.274,35.755],[140.263,35.755]]]]}},{"type":"Feature","properties":{"name":"印旛郡栄町","code":"12329"},"geometry":{"type":"MultiPolygon","coordinates":[[[[140.289,35.871],[140.281,35.874],[140.266,35.869],[140.244,35.855],[140.233,35.854],[140.215,35.862],[140.205,35.861],[140.199,35.859],[140.187,35.852],[140.168,35.845],[140.182,35.842],[140.193,35.837],[140.203,35.835],[140.213,35.839],[140.232,35.841],[140.233,35.832],[140.243,35.827],[140.237,35.821],[140.243,35.819],[140.25,35.821],[140.252,35.8],[140.257,35.811],[140.266,35.82],[140.268,35.823],[140.279,35.819],[140.286,35.829],[140.283,35.832],[140.28,35.847],[140.282,35.859],[140.289,35.871]]]]}},{"type":"Feature","properties":{"name":"香取郡神崎町","code":"12342"},"geometry":{"type":"MultiPolygon","coordinates":[[[[140.44,35.868],[140.431,35.874],[140.425,35.873],[140.428,35.884],[140.425,35.888],[140.429,35.902],[140.437,35.908],[140.435,35.911],[140.423,35.907],[140.418,35.906],[140.408,35.909],[140.396,35.909],[140.376,35.902],[140.375,35.895],[140.384,35.889],[140.385,35.885],[140.392,35.883],[140.401,35.872],[140.398,35.861],[140.394,35.858],[140.394,35.853],[140.403,35.853],[140.417,35.866],[140.422,35.866],[140.428,35.864],[140.437,35.863],[140.44,35.868]]]]}},{"type":"Feature","properties":{"name":"香取郡多古町","code":"12347"},"geometry":{"type":"MultiPolygon","coordinates":[[[[140.403,35.775],[140.406,35.77],[140.415,35.774],[140.421,35.773],[140.425,35.77],[140.423,35.761],[140.425,35.755],[140.428,35.751],[140.435,35.735],[140.436,35.731],[140.429,35.722],[140.438,35.718],[140.443,35.712],[140.448,35.713],[140.45,35.706],[140.454,35.706],[140.455,35.699],[140.46,35.697],[140.461,35.691],[140.466,35.692],[140.468,35.698],[140.476,35.711],[140.479,35.715],[140.481,35.722],[140.486,35.721],[140.486,35.725],[140.502,35.736],[140.502,35.739],[140.507,35.751],[140.505,35.759],[140.516,35.761],[140.519,35.755],[140.527,35.754],[140.53,35.761],[140.537,35.757],[140.548,35.758],[140.55,35.761],[140.546,35.765],[140.543,35.774],[140.533,35.775],[140.519,35.783],[140.512,35.781],[140.5,35.789],[140.503,35.796],[140.495,35.802],[140.487,35.798],[140.481,35.79],[140.468,35.792],[140.468,35.798],[140.459,35.802],[140.452,35.807],[140.444,35.803],[140.443,35.789],[140.433,35.786],[140.436,35.781],[140.424,35.775],[140.417,35.776],[140.418,35.781],[140.414,35.785],[140.407,35.787],[140.402,35.783],[140.403,35.775]]]]}},{"type":"Feature","properties":{"name":"香取郡東庄町","code":"12349"},"geometry":{"type":"MultiPolygon","coordinates":[[[[140.721,35.813],[140.717,35.823],[140.707,35.836],[140.687,35.848],[140.666,35.853],[140.648,35.856],[140.645,35.847],[140.648,35.842],[140.651,35.827],[140.642,35.825],[140.644,35.814],[140.634,35.808],[140.634,35.803],[140.624,35.8],[140.625,35.794],[140.63,35.795],[140.638,35.786],[140.655,35.788],[140.662,35.775],[140.671,35.765],[140.673,35.772],[140.683,35.778],[140.687,35.783],[140.692,35.781],[140.7,35.774],[140.704,35.779],[140.705,35.784],[140.7,35.785],[140.7,35.793],[140.69,35.794],[140.693,35.804],[140.703,35.806],[140.721,35.813]]]]}},{"type":"Feature","properties":{"name":"山武郡九十九里町","code":"12403"},"geometry":{"type":"MultiPolygon","coordinates":[[[[140.404,35.509],[140.43,35.498],[140.448,35.522],[140.459,35.534],[140.464,35.535],[140.47,35.547],[140.463,35.551],[140.447,35.564],[140.437,35.57],[140.433,35.56],[140.429,35.558],[140.427,35.551],[140.422,35.547],[140.419,35.539],[140.419,35.533],[140.415,35.527],[140.409,35.53],[140.4,35.529],[140.396,35.532],[140.391,35.527],[140.41,35.519],[140.404,35.509]]]]}},{"type":"Feature","properties":{"name":"山武郡芝山町","code":"12409"},"geometry":{"type":"MultiPolygon","coordinates":[[[[140.368,35.731],[140.366,35.726],[140.376,35.721],[140.379,35.714],[140.385,35.713],[140.382,35.704],[140.373,35.701],[140.378,35.694],[140.385,35.69],[140.4,35.69],[140.4,35.68],[140.413,35.675],[140.417,35.679],[140.435,35.692],[140.446,35.697],[140.455,35.699],[140.454,35.706],[140.45,35.706],[140.448,35.713],[140.443,35.712],[140.438,35.718],[140.429,35.722],[140.436,35.731],[140.435,35.735],[140.428,35.751],[140.425,35.755],[140.423,35.761],[140.425,35.77],[140.421,35.773],[140.415,35.774],[140.406,35.77],[140.403,35.775],[140.396,35.772],[140.393,35.768],[140.4,35.763],[140.396,35.757],[140.402,35.753],[140.4,35.742],[140.385,35.741],[140.387,35.731],[140.393,35.728],[140.387,35.723],[140.379,35.729],[140.377,35.738],[140.368,35.739],[140.368,35.731]]]]}},{"type":"Feature","properties":{"name":"山武郡横芝光町","code":"12410"},"geometry":{"type":"MultiPolygon","coordinates":[[[[140.486,35.721],[140.481,35.722],[140.479,35.715],[140.476,35.711],[140.468,35.698],[140.466,35.692],[140.461,35.691],[140.46,35.697],[140.455,35.699],[140.446,35.697],[140.435,35.692],[140.417,35.682],[140.424,35.68],[140.432,35.677],[140.436,35.672],[140.435,35.667],[140.444,35.662],[140.451,35.666],[140.467,35.66],[140.471,35.656],[140.479,35.654],[140.466,35.644],[140.476,35.637],[140.488,35.631],[140.495,35.637],[140.501,35.629],[140.492,35.622],[140.49,35.617],[140.497,35.61],[140.507,35.617],[140.516,35.611],[140.526,35.602],[140.559,35.628],[140.548,35.639],[140.545,35.639],[140.534,35.651],[140.53,35.657],[140.542,35.665],[140.538,35.67],[140.524,35.679],[140.516,35.674],[140.514,35.684],[140.504,35.686],[140.499,35.698],[140.503,35.706],[140.487,35.719]]]]}},{"type":"Feature","properties":{"name":"長生郡一宮町","code":"12421"},"geometry":{"type":"MultiPolygon","coordinates":[[[[140.398,35.331],[140.395,35.335],[140.392,35.354],[140.391,35.378],[140.392,35.383],[140.388,35.385],[140.388,35.39],[140.379,35.387],[140.365,35.389],[140.364,35.386],[140.357,35.382],[140.351,35.381],[140.345,35.373],[140.348,35.369],[140.342,35.36],[140.344,35.354],[140.342,35.345],[140.353,35.346],[140.366,35.342],[140.374,35.343],[140.372,35.329],[140.383,35.33],[140.388,35.335],[140.393,35.331],[140.398,35.331]]]]}},{"type":"Feature","properties":{"name":"長生郡睦沢町","code":"12422"},"geometry":{"type":"MultiPolygon","coordinates":[[[[140.308,35.382],[140.306,35.377],[140.31,35.368],[140.305,35.362],[140.3,35.364],[140.291,35.361],[140.283,35.361],[140.27,35.356],[140.267,35.351],[140.258,35.339],[140.252,35.337],[140.253,35.329],[140.251,35.324],[140.253,35.318],[140.259,35.318],[140.263,35.314],[140.271,35.313],[140.278,35.319],[140.289,35.321],[140.294,35.333],[140.301,35.338],[140.307,35.337],[140.318,35.346],[140.327,35.344],[140.342,35.345],[140.344,35.354],[140.342,35.36],[140.348,35.369],[140.345,35.373],[140.351,35.381],[140.341,35.386],[140.34,35.392],[140.333,35.387],[140.321,35.392],[140.312,35.391],[140.308,35.382]]]]}},{"type":"Feature","properties":{"name":"長生郡長生村","code":"12423"},"geometry":{"type":"MultiPolygon","coordinates":[[[[140.321,35.392],[140.333,35.387],[140.34,35.392],[140.341,35.386],[140.351,35.381],[140.357,35.382],[140.364,35.386],[140.365,35.389],[140.376,35.39],[140.388,35.39],[140.388,35.385],[140.392,35.383],[140.392,35.397],[140.397,35.419],[140.38,35.422],[140.374,35.424],[140.375,35.431],[140.364,35.434],[140.348,35.434],[140.347,35.429],[140.342,35.429],[140.33,35.42],[140.324,35.418],[140.326,35.408],[140.318,35.405],[140.321,35.392]]]]}},{"type":"Feature","properties":{"name":"長生郡白子町","code":"12424"},"geometry":{"type":"MultiPolygon","coordinates":[[[[140.348,35.434],[140.364,35.434],[140.375,35.431],[140.374,35.424],[140.38,35.422],[140.397,35.419],[140.404,35.443],[140.416,35.472],[140.401,35.475],[140.386,35.477],[140.381,35.475],[140.378,35.469],[140.373,35.469],[140.37,35.474],[140.363,35.474],[140.361,35.466],[140.356,35.463],[140.35,35.462],[140.35,35.456],[140.342,35.453],[140.34,35.442],[140.34,35.436],[140.348,35.434]]]]}},{"type":"Feature","properties":{"name":"長生郡長柄町","code":"12426"},"geometry":{"type":"MultiPolygon","coordinates":[[[[140.248,35.482],[140.24,35.483],[140.224,35.485],[140.212,35.487],[140.206,35.485],[140.202,35.475],[140.194,35.47],[140.186,35.474],[140.184,35.469],[140.174,35.469],[140.175,35.461],[140.171,35.457],[140.187,35.448],[140.185,35.437],[140.179,35.435],[140.175,35.43],[140.182,35.421],[140.181,35.415],[140.19,35.407],[140.189,35.404],[140.195,35.392],[140.2,35.391],[140.197,35.398],[140.201,35.404],[140.21,35.403],[140.214,35.41],[140.215,35.419],[140.227,35.419],[140.239,35.427],[140.258,35.427],[140.258,35.433],[140.249,35.439],[140.247,35.451],[140.25,35.466],[140.254,35.47],[140.249,35.476],[140.248,35.482]]]]}},{"type":"Feature","properties":{"name":"長生郡長南町","code":"12427"},"geometry":{"type":"MultiPolygon","coordinates":[[[[140.26,35.425],[140.239,35.427],[140.227,35.419],[140.215,35.419],[140.212,35.412],[140.21,35.403],[140.201,35.404],[140.197,35.398],[140.2,35.391],[140.207,35.379],[140.2,35.378],[140.198,35.37],[140.202,35.366],[140.209,35.366],[140.206,35.36],[140.209,35.346],[140.214,35.34],[140.213,35.334],[140.22,35.328],[140.225,35.317],[140.234,35.323],[140.24,35.324],[140.246,35.327],[140.251,35.324],[140.253,35.329],[140.252,35.337],[140.258,35.339],[140.267,35.351],[140.27,35.356],[140.283,35.361],[140.291,35.361],[140.3,35.364],[140.305,35.362],[140.31,35.368],[140.306,35.377],[140.308,35.382],[140.298,35.379],[140.277,35.383],[140.276,35.393],[140.28,35.396],[140.278,35.403],[140.261,35.397],[140.257,35.399],[140.254,35.407],[140.26,35.411],[140.263,35.421],[140.26,35.425]]]]}},{"type":"Feature","properties":{"name":"夷隅郡大多喜町","code":"12441"},"geometry":{"type":"MultiPolygon","coordinates":[[[[140.281,35.242],[140.281,35.25],[140.286,35.256],[140.279,35.262],[140.279,35.265],[140.272,35.27],[140.268,35.269],[140.259,35.272],[140.255,35.28],[140.26,35.284],[140.266,35.284],[140.277,35.296],[140.271,35.313],[140.263,35.314],[140.259,35.318],[140.253,35.318],[140.251,35.324],[140.246,35.327],[140.24,35.324],[140.234,35.323],[140.225,35.317],[140.227,35.311],[140.226,35.307],[140.212,35.302],[140.201,35.306],[140.199,35.299],[140.204,35.294],[140.203,35.288],[140.197,35.284],[140.189,35.277],[140.185,35.278],[140.178,35.275],[140.175,35.265],[140.176,35.259],[140.171,35.255],[140.163,35.255],[140.152,35.25],[140.149,35.24],[140.143,35.236],[140.141,35.231],[140.139,35.228],[140.144,35.218],[140.152,35.206],[140.153,35.2],[140.16,35.19],[140.161,35.181],[140.162,35.174],[140.166,35.171],[140.175,35.167],[140.188,35.17],[140.189,35.176],[140.199,35.178],[140.201,35.183],[140.205,35.184],[140.213,35.18],[140.222,35.187],[140.227,35.186],[140.231,35.181],[140.238,35.18],[140.246,35.192],[140.244,35.201],[140.246,35.214],[140.25,35.216],[140.259,35.228],[140.252,35.233],[140.271,35.234],[140.274,35.239],[140.281,35.242]]]]}},{"type":"Feature","properties":{"name":"夷隅郡御宿町","code":"12443"},"geometry":{"type":"MultiPolygon","coordinates":[[[[140.347,35.176],[140.349,35.18],[140.359,35.182],[140.368,35.179],[140.374,35.18],[140.384,35.188],[140.385,35.192],[140.378,35.198],[140.368,35.198],[140.36,35.202],[140.363,35.218],[140.349,35.217],[140.338,35.215],[140.337,35.219],[140.324,35.22],[140.323,35.214],[140.318,35.215],[140.308,35.208],[140.308,35.202],[140.303,35.196],[140.305,35.19],[140.31,35.19],[140.316,35.177],[140.324,35.174],[140.332,35.178],[140.339,35.175],[140.347,35.176]]]]}},{"type":"Feature","properties":{"name":"安房郡鋸南町","code":"12463"},"geometry":{"type":"MultiPolygon","coordinates":[[[[139.932,35.139],[139.912,35.141],[139.902,35.151],[139.9,35.156],[139.895,35.156],[139.887,35.16],[139.871,35.157],[139.868,35.16],[139.86,35.161],[139.854,35.164],[139.838,35.159],[139.829,35.159],[139.818,35.155],[139.828,35.151],[139.83,35.145],[139.837,35.138],[139.839,35.129],[139.832,35.123],[139.832,35.12],[139.825,35.113],[139.828,35.1],[139.836,35.1],[139.844,35.1],[139.856,35.108],[139.862,35.107],[139.869,35.111],[139.88,35.109],[139.888,35.11],[139.901,35.114],[139.913,35.115],[139.919,35.113],[139.924,35.118],[139.926,35.127],[139.931,35.129],[139.932,35.139]]]]}},{"type":"Feature","properties":{"name":"所属未定地","code":null},"geometry":{"type":"MultiPolygon","coordinates":[[[[139.959,35.673],[139.972,35.671],[139.964,35.672],[139.959,35.673]]]]}}]}