{"type":"FeatureCollection","features":[{"type":"Feature","properties":{"name":"千代田区","code":"13101"},"geometry":{"type":"MultiPolygon","coordinates":[[[[139.773,35.705],[139.77,35.703],[139.766,35.702],[139.761,35.702],[139.757,35.702],[139.75,35.703],[139.746,35.703],[139.742,35.698],[139.739,35.695],[139.732,35.69],[139.73,35.685],[139.731,35.681],[139.737,35.679],[139.739,35.674],[139.743,35.671],[139.747,35.67],[139.75,35.671],[139.754,35.67],[139.764,35.673],[139.77,35.678],[139.771,35.685],[139.77,35.689],[139.775,35.691],[139.78,35.693],[139.783,35.697],[139.78,35.7],[139.777,35.701],[139.773,35.702],[139.773,35.705]]]]}},{"type":"Feature","properties":{"name":"中央区","code":"13102"},"geometry":{"type":"MultiPolygon","coordinates":[[[[139.754,35.67],[139.758,35.669],[139.759,35.659],[139.765,35.656],[139.771,35.655],[139.767,35.655],[139.767,35.651],[139.772,35.653],[139.769,35.649],[139.773,35.646],[139.78,35.651],[139.789,35.656],[139.789,35.666],[139.787,35.672],[139.788,35.677],[139.792,35.683],[139.792,35.687],[139.789,35.691],[139.789,35.695],[139.783,35.697],[139.78,35.693],[139.775,35.691],[139.77,35.689],[139.771,35.685],[139.77,35.678],[139.764,35.673],[139.754,35.67]]]]}},{"type":"Feature","properties":{"name":"港区","code":"13103"},"geometry":{"type":"MultiPolygon","coordinates":[[[[139.759,35.628],[139.759,35.634],[139.755,35.634],[139.754,35.624],[139.758,35.624],[139.757,35.628]]],[[[139.782,35.63],[139.777,35.636],[139.777,35.632],[139.774,35.629],[139.769,35.626],[139.771,35.623],[139.782,35.63]]],[[[139.731,35.681],[139.728,35.683],[139.727,35.679],[139.72,35.678],[139.719,35.674],[139.715,35.673],[139.714,35.669],[139.709,35.664],[139.712,35.661],[139.715,35.657],[139.718,35.657],[139.723,35.656],[139.724,35.647],[139.719,35.642],[139.717,35.638],[139.72,35.635],[139.726,35.635],[139.731,35.631],[139.731,35.626],[139.735,35.623],[139.743,35.625],[139.747,35.623],[139.75,35.625],[139.753,35.634],[139.755,35.639],[139.76,35.637],[139.76,35.645],[139.761,35.652],[139.765,35.656],[139.759,35.659],[139.758,35.667],[139.754,35.67],[139.75,35.671],[139.747,35.67],[139.743,35.671],[139.739,35.674],[139.737,35.679],[139.731,35.681]]]]}},{"type":"Feature","properties":{"name":"新宿区","code":"13104"},"geometry":{"type":"MultiPolygon","coordinates":[[[[139.746,35.703],[139.743,35.708],[139.736,35.709],[139.732,35.707],[139.726,35.709],[139.723,35.712],[139.714,35.713],[139.71,35.713],[139.707,35.714],[139.706,35.719],[139.705,35.723],[139.7,35.724],[139.695,35.722],[139.687,35.723],[139.683,35.724],[139.681,35.727],[139.677,35.729],[139.676,35.726],[139.676,35.722],[139.674,35.719],[139.68,35.716],[139.682,35.712],[139.688,35.711],[139.694,35.711],[139.689,35.707],[139.687,35.702],[139.686,35.694],[139.683,35.689],[139.686,35.684],[139.695,35.687],[139.702,35.689],[139.706,35.688],[139.707,35.684],[139.711,35.683],[139.715,35.681],[139.713,35.677],[139.717,35.673],[139.72,35.675],[139.725,35.679],[139.728,35.683],[139.731,35.681],[139.73,35.685],[139.732,35.69],[139.736,35.692],[139.742,35.698],[139.746,35.703]]]]}},{"type":"Feature","properties":{"name":"文京区","code":"13105"},"geometry":{"type":"MultiPolygon","coordinates":[[[[139.77,35.705],[139.771,35.709],[139.767,35.709],[139.768,35.713],[139.766,35.717],[139.763,35.722],[139.765,35.727],[139.763,35.731],[139.754,35.735],[139.749,35.733],[139.745,35.736],[139.743,35.733],[139.739,35.732],[139.737,35.727],[139.734,35.726],[139.726,35.727],[139.723,35.725],[139.725,35.72],[139.718,35.718],[139.718,35.714],[139.723,35.712],[139.726,35.709],[139.732,35.709],[139.735,35.708],[139.743,35.708],[139.745,35.704],[139.75,35.703],[139.757,35.702],[139.761,35.702],[139.766,35.7],[139.768,35.703]]]]}},{"type":"Feature","properties":{"name":"台東区","code":"13106"},"geometry":{"type":"MultiPolygon","coordinates":[[[[139.783,35.697],[139.789,35.695],[139.793,35.701],[139.797,35.708],[139.807,35.717],[139.809,35.724],[139.81,35.728],[139.801,35.729],[139.795,35.729],[139.791,35.731],[139.788,35.728],[139.784,35.728],[139.781,35.725],[139.777,35.725],[139.77,35.728],[139.766,35.728],[139.763,35.731],[139.765,35.727],[139.763,35.722],[139.767,35.718],[139.766,35.714],[139.767,35.709],[139.771,35.709],[139.77,35.705],[139.773,35.702],[139.777,35.701],[139.78,35.7],[139.783,35.697]]]]}},{"type":"Feature","properties":{"name":"墨田区","code":"13107"},"geometry":{"type":"MultiPolygon","coordinates":[[[[139.79,35.689],[139.793,35.691],[139.799,35.69],[139.805,35.689],[139.809,35.687],[139.811,35.692],[139.82,35.693],[139.819,35.708],[139.829,35.704],[139.835,35.703],[139.836,35.707],[139.839,35.71],[139.836,35.712],[139.833,35.716],[139.839,35.717],[139.842,35.719],[139.837,35.724],[139.83,35.731],[139.824,35.738],[139.82,35.743],[139.817,35.741],[139.814,35.736],[139.811,35.733],[139.81,35.728],[139.809,35.724],[139.808,35.72],[139.799,35.711],[139.793,35.701],[139.79,35.697],[139.789,35.691]]]]}},{"type":"Feature","properties":{"name":"江東区","code":"13108"},"geometry":{"type":"MultiPolygon","coordinates":[[[[139.81,35.594],[139.808,35.598],[139.812,35.595],[139.817,35.598],[139.821,35.603],[139.82,35.607],[139.806,35.599],[139.81,35.594]]],[[[139.817,35.61],[139.811,35.613],[139.799,35.607],[139.791,35.597],[139.819,35.609]]],[[[139.798,35.617],[139.79,35.628],[139.785,35.625],[139.794,35.614],[139.798,35.617]]],[[[139.771,35.623],[139.773,35.619],[139.787,35.602],[139.793,35.61],[139.781,35.624],[139.785,35.626],[139.782,35.63],[139.774,35.625]]],[[[139.84,35.631],[139.837,35.632],[139.826,35.631],[139.827,35.62],[139.832,35.621],[139.836,35.612],[139.839,35.614],[139.84,35.631]]],[[[139.825,35.64],[139.82,35.639],[139.821,35.634],[139.826,35.634],[139.833,35.638],[139.825,35.64]]],[[[139.79,35.656],[139.792,35.653],[139.787,35.649],[139.776,35.642],[139.779,35.639],[139.795,35.647],[139.795,35.65],[139.798,35.645],[139.794,35.645],[139.784,35.639],[139.781,35.639],[139.785,35.63],[139.792,35.63],[139.799,35.622],[139.802,35.626],[139.8,35.631],[139.801,35.636],[139.807,35.637],[139.806,35.645],[139.808,35.64],[139.82,35.642],[139.834,35.644],[139.834,35.635],[139.821,35.633],[139.836,35.633],[139.84,35.634],[139.841,35.643],[139.842,35.651],[139.843,35.657],[139.847,35.674],[139.848,35.679],[139.848,35.688],[139.848,35.695],[139.845,35.699],[139.835,35.703],[139.831,35.703],[139.819,35.708],[139.82,35.693],[139.813,35.693],[139.812,35.689],[139.805,35.687],[139.8,35.688],[139.796,35.69],[139.79,35.689],[139.793,35.684],[139.789,35.679],[139.787,35.672],[139.789,35.666],[139.789,35.659]]]]}},{"type":"Feature","properties":{"name":"品川区","code":"13109"},"geometry":{"type":"MultiPolygon","coordinates":[[[[139.773,35.596],[139.763,35.609],[139.762,35.615],[139.758,35.618],[139.753,35.618],[139.752,35.605],[139.749,35.601],[139.749,35.595],[139.749,35.592],[139.749,35.589],[139.756,35.589],[139.756,35.585],[139.763,35.585],[139.763,35.59],[139.763,35.595],[139.767,35.593],[139.773,35.596]]],[[[139.754,35.624],[139.753,35.619],[139.759,35.619],[139.759,35.628],[139.758,35.624],[139.754,35.624]]],[[[139.719,35.642],[139.715,35.64],[139.714,35.634],[139.715,35.629],[139.709,35.626],[139.704,35.625],[139.698,35.626],[139.702,35.623],[139.702,35.62],[139.698,35.615],[139.696,35.612],[139.695,35.607],[139.698,35.604],[139.712,35.601],[139.715,35.597],[139.719,35.593],[139.728,35.594],[139.729,35.589],[139.736,35.587],[139.747,35.59],[139.748,35.603],[139.751,35.606],[139.751,35.618],[139.752,35.625],[139.747,35.623],[139.743,35.625],[139.738,35.625],[139.734,35.626],[139.731,35.631],[139.727,35.632],[139.722,35.636],[139.717,35.638],[139.719,35.642]]]]}},{"type":"Feature","properties":{"name":"目黒区","code":"13110"},"geometry":{"type":"MultiPolygon","coordinates":[[[[139.718,35.642],[139.711,35.642],[139.699,35.649],[139.693,35.654],[139.687,35.662],[139.68,35.664],[139.675,35.664],[139.679,35.657],[139.683,35.654],[139.684,35.649],[139.685,35.646],[139.686,35.641],[139.684,35.634],[139.682,35.631],[139.68,35.626],[139.676,35.627],[139.672,35.63],[139.664,35.632],[139.662,35.627],[139.664,35.624],[139.666,35.619],[139.663,35.616],[139.663,35.609],[139.669,35.607],[139.673,35.608],[139.677,35.608],[139.68,35.603],[139.685,35.605],[139.685,35.609],[139.684,35.613],[139.691,35.611],[139.695,35.607],[139.696,35.612],[139.698,35.615],[139.702,35.62],[139.702,35.623],[139.697,35.625],[139.701,35.626],[139.708,35.626],[139.712,35.628],[139.714,35.634],[139.713,35.638],[139.718,35.642]]]]}},{"type":"Feature","properties":{"name":"大田区","code":"13111"},"geometry":{"type":"MultiPolygon","coordinates":[[[[139.817,35.533],[139.826,35.542],[139.82,35.542],[139.807,35.531],[139.811,35.528],[139.817,35.533]]],[[[139.764,35.575],[139.758,35.574],[139.758,35.568],[139.766,35.565],[139.772,35.573],[139.764,35.575]]],[[[139.749,35.589],[139.754,35.578],[139.762,35.577],[139.768,35.581],[139.767,35.577],[139.783,35.577],[139.788,35.58],[139.782,35.584],[139.779,35.586],[139.775,35.585],[139.777,35.59],[139.773,35.596],[139.767,35.593],[139.763,35.595],[139.763,35.59],[139.763,35.585],[139.756,35.585],[139.756,35.589],[139.75,35.589]]],[[[139.794,35.592],[139.806,35.585],[139.812,35.589],[139.806,35.596],[139.794,35.592]]],[[[139.695,35.607],[139.691,35.611],[139.686,35.612],[139.685,35.605],[139.681,35.603],[139.681,35.595],[139.676,35.592],[139.67,35.599],[139.665,35.599],[139.66,35.6],[139.656,35.596],[139.657,35.593],[139.655,35.59],[139.663,35.59],[139.667,35.587],[139.671,35.579],[139.676,35.566],[139.679,35.563],[139.686,35.559],[139.69,35.557],[139.698,35.556],[139.703,35.553],[139.704,35.549],[139.698,35.545],[139.698,35.541],[139.7,35.538],[139.706,35.536],[139.711,35.537],[139.717,35.538],[139.722,35.542],[139.726,35.543],[139.731,35.543],[139.735,35.541],[139.738,35.544],[139.747,35.544],[139.75,35.545],[139.756,35.545],[139.768,35.539],[139.776,35.534],[139.782,35.539],[139.784,35.535],[139.788,35.534],[139.795,35.532],[139.806,35.538],[139.804,35.546],[139.785,35.571],[139.771,35.569],[139.764,35.56],[139.759,35.564],[139.753,35.562],[139.75,35.567],[139.756,35.569],[139.754,35.574],[139.751,35.575],[139.752,35.579],[139.748,35.589],[139.739,35.588],[139.73,35.587],[139.731,35.592],[139.721,35.594],[139.717,35.596],[139.714,35.6],[139.701,35.601],[139.695,35.607]]]]}},{"type":"Feature","properties":{"name":"世田谷区","code":"13112"},"geometry":{"type":"MultiPolygon","coordinates":[[[[139.675,35.664],[139.673,35.667],[139.673,35.672],[139.662,35.671],[139.655,35.671],[139.65,35.67],[139.645,35.668],[139.641,35.667],[139.633,35.668],[139.625,35.669],[139.622,35.673],[139.612,35.676],[139.613,35.673],[139.617,35.673],[139.611,35.67],[139.609,35.675],[139.603,35.681],[139.598,35.682],[139.594,35.682],[139.588,35.682],[139.587,35.678],[139.587,35.674],[139.583,35.674],[139.589,35.671],[139.59,35.667],[139.587,35.663],[139.59,35.657],[139.593,35.652],[139.592,35.646],[139.588,35.646],[139.587,35.643],[139.586,35.637],[139.59,35.634],[139.591,35.631],[139.594,35.627],[139.59,35.624],[139.589,35.621],[139.593,35.618],[139.597,35.618],[139.6,35.618],[139.605,35.616],[139.609,35.616],[139.612,35.616],[139.616,35.613],[139.624,35.611],[139.631,35.607],[139.635,35.604],[139.64,35.6],[139.649,35.595],[139.655,35.59],[139.657,35.593],[139.653,35.596],[139.658,35.599],[139.663,35.598],[139.67,35.599],[139.674,35.594],[139.681,35.595],[139.68,35.601],[139.679,35.606],[139.673,35.608],[139.669,35.607],[139.665,35.607],[139.663,35.616],[139.666,35.619],[139.666,35.622],[139.663,35.627],[139.662,35.63],[139.672,35.63],[139.676,35.627],[139.68,35.626],[139.682,35.631],[139.684,35.634],[139.686,35.638],[139.684,35.644],[139.684,35.649],[139.683,35.654],[139.679,35.657],[139.676,35.661]]]]}},{"type":"Feature","properties":{"name":"渋谷区","code":"13113"},"geometry":{"type":"MultiPolygon","coordinates":[[[[139.717,35.673],[139.713,35.675],[139.715,35.681],[139.711,35.683],[139.707,35.684],[139.706,35.688],[139.703,35.688],[139.695,35.687],[139.688,35.682],[139.684,35.688],[139.685,35.691],[139.68,35.69],[139.676,35.686],[139.671,35.681],[139.668,35.68],[139.665,35.677],[139.662,35.675],[139.662,35.671],[139.673,35.672],[139.673,35.667],[139.675,35.664],[139.68,35.664],[139.685,35.663],[139.691,35.657],[139.699,35.649],[139.709,35.642],[139.715,35.643],[139.719,35.642],[139.722,35.644],[139.722,35.654],[139.718,35.657],[139.715,35.657],[139.712,35.661],[139.709,35.664],[139.714,35.669],[139.715,35.673]]]]}},{"type":"Feature","properties":{"name":"中野区","code":"13114"},"geometry":{"type":"MultiPolygon","coordinates":[[[[139.677,35.729],[139.675,35.733],[139.671,35.734],[139.665,35.731],[139.662,35.727],[139.656,35.726],[139.652,35.726],[139.647,35.727],[139.644,35.725],[139.64,35.726],[139.636,35.732],[139.634,35.735],[139.628,35.735],[139.625,35.73],[139.629,35.721],[139.632,35.717],[139.637,35.716],[139.642,35.715],[139.643,35.712],[139.652,35.709],[139.658,35.709],[139.658,35.705],[139.661,35.701],[139.661,35.696],[139.664,35.695],[139.668,35.692],[139.664,35.689],[139.661,35.687],[139.659,35.682],[139.663,35.679],[139.664,35.676],[139.668,35.68],[139.671,35.681],[139.675,35.685],[139.68,35.69],[139.684,35.692],[139.688,35.699],[139.688,35.704],[139.693,35.71],[139.69,35.711],[139.683,35.71],[139.681,35.714],[139.676,35.72],[139.675,35.724],[139.677,35.729]]]]}},{"type":"Feature","properties":{"name":"杉並区","code":"13115"},"geometry":{"type":"MultiPolygon","coordinates":[[[[139.662,35.673],[139.664,35.676],[139.663,35.679],[139.659,35.682],[139.659,35.687],[139.664,35.688],[139.668,35.692],[139.666,35.695],[139.661,35.695],[139.663,35.699],[139.661,35.705],[139.658,35.709],[139.654,35.709],[139.643,35.712],[139.642,35.715],[139.637,35.716],[139.632,35.717],[139.629,35.721],[139.624,35.729],[139.616,35.73],[139.61,35.729],[139.602,35.726],[139.596,35.722],[139.594,35.718],[139.589,35.72],[139.585,35.718],[139.586,35.714],[139.591,35.709],[139.595,35.705],[139.59,35.695],[139.587,35.694],[139.592,35.691],[139.591,35.687],[139.594,35.684],[139.598,35.682],[139.603,35.681],[139.608,35.676],[139.609,35.672],[139.616,35.67],[139.613,35.673],[139.612,35.676],[139.622,35.673],[139.625,35.67],[139.633,35.668],[139.639,35.666],[139.645,35.668],[139.65,35.67],[139.655,35.671],[139.662,35.673]]]]}},{"type":"Feature","properties":{"name":"豊島区","code":"13116"},"geometry":{"type":"MultiPolygon","coordinates":[[[[139.723,35.712],[139.718,35.714],[139.718,35.718],[139.723,35.719],[139.723,35.722],[139.725,35.727],[139.732,35.724],[139.737,35.727],[139.739,35.732],[139.743,35.733],[139.745,35.736],[139.749,35.733],[139.753,35.735],[139.75,35.737],[139.744,35.74],[139.736,35.741],[139.732,35.743],[139.728,35.745],[139.724,35.74],[139.72,35.742],[139.72,35.745],[139.715,35.746],[139.71,35.746],[139.708,35.742],[139.704,35.737],[139.701,35.74],[139.695,35.742],[139.69,35.741],[139.683,35.739],[139.679,35.734],[139.678,35.731],[139.681,35.727],[139.683,35.724],[139.687,35.723],[139.694,35.722],[139.699,35.722],[139.705,35.723],[139.706,35.719],[139.706,35.713],[139.71,35.713],[139.714,35.713],[139.723,35.712]]]]}},{"type":"Feature","properties":{"name":"北区","code":"13117"},"geometry":{"type":"MultiPolygon","coordinates":[[[[139.761,35.732],[139.766,35.736],[139.771,35.738],[139.768,35.741],[139.763,35.744],[139.757,35.745],[139.755,35.749],[139.75,35.75],[139.751,35.754],[139.758,35.753],[139.75,35.756],[139.749,35.76],[139.758,35.765],[139.76,35.769],[139.755,35.768],[139.751,35.767],[139.746,35.767],[139.74,35.769],[139.737,35.77],[139.736,35.774],[139.738,35.777],[139.738,35.781],[139.739,35.787],[139.734,35.79],[139.727,35.787],[139.723,35.788],[139.717,35.792],[139.709,35.792],[139.705,35.793],[139.697,35.799],[139.692,35.792],[139.689,35.787],[139.695,35.783],[139.699,35.782],[139.702,35.784],[139.702,35.781],[139.704,35.775],[139.706,35.768],[139.708,35.765],[139.713,35.763],[139.716,35.761],[139.722,35.754],[139.721,35.746],[139.72,35.742],[139.724,35.74],[139.728,35.745],[139.733,35.745],[139.736,35.741],[139.741,35.742],[139.744,35.741],[139.748,35.739],[139.753,35.735],[139.76,35.732]]]]}},{"type":"Feature","properties":{"name":"荒川区","code":"13118"},"geometry":{"type":"MultiPolygon","coordinates":[[[[139.763,35.731],[139.766,35.728],[139.77,35.728],[139.775,35.726],[139.781,35.725],[139.784,35.728],[139.788,35.728],[139.791,35.731],[139.794,35.73],[139.801,35.729],[139.81,35.728],[139.811,35.733],[139.814,35.736],[139.813,35.741],[139.809,35.741],[139.802,35.739],[139.795,35.74],[139.79,35.743],[139.789,35.747],[139.791,35.75],[139.785,35.754],[139.776,35.754],[139.772,35.754],[139.764,35.754],[139.758,35.755],[139.751,35.754],[139.75,35.75],[139.755,35.749],[139.758,35.748],[139.76,35.743],[139.766,35.742],[139.769,35.739],[139.766,35.736],[139.761,35.734],[139.763,35.731]]]]}},{"type":"Feature","properties":{"name":"板橋区","code":"13119"},"geometry":{"type":"MultiPolygon","coordinates":[[[[139.72,35.745],[139.723,35.753],[139.716,35.761],[139.713,35.763],[139.708,35.765],[139.706,35.768],[139.704,35.775],[139.702,35.781],[139.702,35.784],[139.699,35.782],[139.695,35.783],[139.691,35.784],[139.691,35.791],[139.696,35.798],[139.693,35.8],[139.688,35.801],[139.682,35.799],[139.678,35.799],[139.674,35.799],[139.67,35.8],[139.666,35.801],[139.658,35.801],[139.653,35.8],[139.648,35.798],[139.644,35.798],[139.641,35.798],[139.639,35.793],[139.634,35.79],[139.632,35.786],[139.628,35.785],[139.625,35.781],[139.629,35.777],[139.629,35.772],[139.635,35.77],[139.641,35.769],[139.646,35.769],[139.651,35.769],[139.661,35.769],[139.667,35.767],[139.671,35.762],[139.674,35.758],[139.673,35.755],[139.675,35.752],[139.672,35.745],[139.676,35.745],[139.681,35.744],[139.679,35.74],[139.683,35.739],[139.69,35.741],[139.695,35.742],[139.699,35.742],[139.702,35.737],[139.708,35.742],[139.71,35.746],[139.714,35.745],[139.72,35.745]]]]}},{"type":"Feature","properties":{"name":"練馬区","code":"13120"},"geometry":{"type":"MultiPolygon","coordinates":[[[[139.678,35.731],[139.679,35.734],[139.681,35.738],[139.681,35.744],[139.676,35.745],[139.672,35.745],[139.675,35.752],[139.673,35.755],[139.674,35.758],[139.671,35.762],[139.669,35.767],[139.661,35.769],[139.651,35.769],[139.648,35.769],[139.643,35.771],[139.635,35.769],[139.63,35.772],[139.629,35.777],[139.625,35.778],[139.624,35.774],[139.623,35.767],[139.618,35.767],[139.617,35.77],[139.61,35.771],[139.607,35.769],[139.604,35.77],[139.599,35.769],[139.598,35.772],[139.604,35.775],[139.597,35.776],[139.593,35.777],[139.589,35.779],[139.587,35.775],[139.582,35.771],[139.578,35.771],[139.574,35.768],[139.57,35.765],[139.565,35.762],[139.568,35.755],[139.569,35.752],[139.569,35.748],[139.568,35.743],[139.568,35.738],[139.569,35.734],[139.566,35.727],[139.566,35.722],[139.574,35.719],[139.579,35.716],[139.587,35.712],[139.585,35.716],[139.587,35.72],[139.594,35.718],[139.596,35.722],[139.6,35.724],[139.61,35.729],[139.615,35.73],[139.622,35.73],[139.626,35.733],[139.634,35.735],[139.636,35.732],[139.638,35.728],[139.644,35.725],[139.647,35.725],[139.652,35.726],[139.656,35.726],[139.662,35.727],[139.665,35.731],[139.67,35.732],[139.675,35.733],[139.678,35.731]]]]}},{"type":"Feature","properties":{"name":"足立区","code":"13121"},"geometry":{"type":"MultiPolygon","coordinates":[[[[139.82,35.743],[139.817,35.749],[139.815,35.752],[139.813,35.759],[139.817,35.761],[139.82,35.756],[139.824,35.756],[139.824,35.761],[139.828,35.757],[139.831,35.759],[139.831,35.763],[139.836,35.763],[139.842,35.766],[139.846,35.77],[139.851,35.77],[139.852,35.766],[139.857,35.764],[139.859,35.768],[139.854,35.775],[139.85,35.78],[139.845,35.788],[139.844,35.791],[139.847,35.797],[139.843,35.8],[139.838,35.801],[139.833,35.796],[139.826,35.793],[139.822,35.796],[139.82,35.8],[139.821,35.806],[139.823,35.809],[139.823,35.814],[139.82,35.812],[139.813,35.808],[139.81,35.808],[139.805,35.809],[139.799,35.806],[139.795,35.805],[139.788,35.807],[139.781,35.807],[139.777,35.811],[139.772,35.817],[139.766,35.817],[139.761,35.813],[139.757,35.812],[139.752,35.811],[139.751,35.807],[139.755,35.803],[139.76,35.799],[139.76,35.794],[139.756,35.79],[139.755,35.787],[139.749,35.786],[139.743,35.782],[139.738,35.78],[139.736,35.774],[139.737,35.77],[139.74,35.769],[139.746,35.767],[139.751,35.767],[139.755,35.768],[139.76,35.769],[139.758,35.765],[139.749,35.76],[139.75,35.756],[139.758,35.755],[139.764,35.754],[139.772,35.754],[139.776,35.754],[139.782,35.754],[139.789,35.753],[139.791,35.748],[139.789,35.744],[139.792,35.741],[139.802,35.739],[139.809,35.741],[139.813,35.741],[139.817,35.741],[139.82,35.743]]]]}},{"type":"Feature","properties":{"name":"葛飾区","code":"13122"},"geometry":{"type":"MultiPolygon","coordinates":[[[[139.842,35.719],[139.851,35.711],[139.855,35.713],[139.862,35.713],[139.867,35.713],[139.866,35.719],[139.869,35.724],[139.87,35.729],[139.872,35.732],[139.874,35.737],[139.877,35.738],[139.878,35.741],[139.882,35.744],[139.885,35.747],[139.883,35.75],[139.886,35.751],[139.89,35.751],[139.884,35.757],[139.883,35.762],[139.879,35.768],[139.881,35.772],[139.888,35.776],[139.893,35.778],[139.894,35.783],[139.887,35.784],[139.883,35.783],[139.877,35.781],[139.871,35.786],[139.873,35.79],[139.877,35.794],[139.871,35.797],[139.868,35.797],[139.864,35.795],[139.86,35.795],[139.856,35.791],[139.853,35.792],[139.847,35.797],[139.844,35.791],[139.845,35.788],[139.848,35.782],[139.854,35.775],[139.858,35.771],[139.858,35.766],[139.852,35.766],[139.851,35.77],[139.846,35.77],[139.842,35.766],[139.838,35.766],[139.832,35.764],[139.831,35.759],[139.828,35.757],[139.826,35.762],[139.824,35.756],[139.82,35.756],[139.82,35.76],[139.814,35.76],[139.813,35.754],[139.817,35.749],[139.82,35.743],[139.824,35.738],[139.83,35.731],[139.837,35.724],[139.842,35.719]]]]}},{"type":"Feature","properties":{"name":"江戸川区","code":"13123"},"geometry":{"type":"MultiPolygon","coordinates":[[[[139.835,35.703],[139.844,35.7],[139.848,35.695],[139.848,35.691],[139.846,35.681],[139.847,35.674],[139.846,35.657],[139.85,35.657],[139.849,35.643],[139.853,35.641],[139.858,35.639],[139.862,35.638],[139.866,35.639],[139.871,35.639],[139.88,35.643],[139.883,35.645],[139.887,35.654],[139.887,35.665],[139.887,35.669],[139.886,35.672],[139.886,35.679],[139.894,35.682],[139.904,35.683],[139.909,35.686],[139.914,35.691],[139.919,35.698],[139.917,35.704],[139.916,35.708],[139.908,35.714],[139.906,35.718],[139.899,35.723],[139.897,35.727],[139.898,35.732],[139.901,35.737],[139.899,35.744],[139.893,35.748],[139.886,35.751],[139.883,35.75],[139.885,35.747],[139.882,35.744],[139.88,35.74],[139.874,35.737],[139.872,35.732],[139.87,35.729],[139.871,35.725],[139.866,35.719],[139.869,35.715],[139.862,35.713],[139.856,35.714],[139.851,35.711],[139.842,35.719],[139.839,35.717],[139.835,35.718],[139.834,35.714],[139.839,35.711],[139.836,35.707],[139.835,35.703]]]]}},{"type":"Feature","properties":{"name":"八王子市","code":"13201"},"geometry":{"type":"MultiPolygon","coordinates":[[[[139.331,35.713],[139.328,35.71],[139.323,35.716],[139.319,35.719],[139.316,35.714],[139.308,35.716],[139.305,35.712],[139.296,35.711],[139.291,35.714],[139.285,35.713],[139.282,35.714],[139.277,35.714],[139.272,35.715],[139.271,35.711],[139.261,35.71],[139.255,35.713],[139.252,35.712],[139.246,35.711],[139.243,35.712],[139.237,35.713],[139.233,35.715],[139.23,35.715],[139.226,35.716],[139.222,35.716],[139.217,35.719],[139.21,35.714],[139.207,35.713],[139.204,35.707],[139.205,35.703],[139.205,35.7],[139.201,35.699],[139.2,35.694],[139.2,35.69],[139.196,35.688],[139.191,35.688],[139.187,35.688],[139.182,35.688],[139.179,35.689],[139.174,35.689],[139.171,35.683],[139.17,35.68],[139.168,35.677],[139.165,35.67],[139.162,35.668],[139.165,35.665],[139.167,35.662],[139.168,35.659],[139.168,35.654],[139.172,35.65],[139.175,35.65],[139.179,35.646],[139.184,35.645],[139.188,35.647],[139.192,35.647],[139.194,35.652],[139.198,35.653],[139.205,35.652],[139.211,35.649],[139.215,35.647],[139.214,35.641],[139.215,35.637],[139.219,35.634],[139.221,35.629],[139.22,35.626],[139.225,35.624],[139.229,35.62],[139.23,35.617],[139.235,35.612],[139.238,35.609],[139.243,35.606],[139.247,35.605],[139.251,35.603],[139.258,35.604],[139.261,35.603],[139.265,35.602],[139.266,35.606],[139.269,35.609],[139.272,35.614],[139.276,35.615],[139.277,35.619],[139.282,35.62],[139.286,35.621],[139.289,35.62],[139.294,35.621],[139.297,35.616],[139.303,35.615],[139.308,35.616],[139.314,35.614],[139.317,35.615],[139.322,35.616],[139.326,35.615],[139.33,35.616],[139.336,35.615],[139.339,35.62],[139.338,35.623],[139.342,35.62],[139.342,35.614],[139.348,35.609],[139.352,35.609],[139.36,35.606],[139.366,35.609],[139.369,35.606],[139.373,35.604],[139.378,35.604],[139.382,35.602],[139.386,35.599],[139.388,35.602],[139.39,35.607],[139.394,35.608],[139.399,35.612],[139.401,35.616],[139.405,35.621],[139.408,35.623],[139.412,35.624],[139.416,35.626],[139.42,35.629],[139.424,35.63],[139.427,35.632],[139.427,35.638],[139.423,35.641],[139.418,35.643],[139.415,35.647],[139.412,35.646],[139.406,35.645],[139.399,35.641],[139.396,35.64],[139.392,35.64],[139.387,35.641],[139.382,35.641],[139.378,35.639],[139.379,35.644],[139.373,35.644],[139.369,35.644],[139.365,35.646],[139.361,35.651],[139.358,35.654],[139.359,35.659],[139.362,35.661],[139.372,35.666],[139.373,35.673],[139.377,35.676],[139.375,35.682],[139.375,35.686],[139.379,35.688],[139.376,35.692],[139.368,35.692],[139.363,35.694],[139.354,35.693],[139.346,35.692],[139.34,35.694],[139.336,35.696],[139.336,35.699],[139.333,35.705],[139.331,35.71],[139.331,35.713]]]]}},{"type":"Feature","properties":{"name":"立川市","code":"13202"},"geometry":{"type":"MultiPolygon","coordinates":[[[[139.414,35.733],[139.409,35.733],[139.402,35.734],[139.398,35.735],[139.388,35.739],[139.385,35.742],[139.385,35.738],[139.391,35.734],[139.384,35.736],[139.378,35.734],[139.374,35.737],[139.37,35.737],[139.365,35.739],[139.36,35.74],[139.353,35.736],[139.353,35.733],[139.353,35.728],[139.357,35.726],[139.362,35.724],[139.367,35.725],[139.37,35.726],[139.373,35.725],[139.376,35.725],[139.38,35.726],[139.379,35.722],[139.382,35.721],[139.386,35.72],[139.389,35.718],[139.389,35.714],[139.395,35.712],[139.398,35.711],[139.396,35.707],[139.393,35.703],[139.393,35.699],[139.389,35.695],[139.385,35.691],[139.395,35.689],[139.406,35.686],[139.413,35.683],[139.418,35.683],[139.421,35.689],[139.425,35.687],[139.428,35.691],[139.432,35.697],[139.428,35.698],[139.426,35.702],[139.43,35.704],[139.436,35.704],[139.432,35.711],[139.428,35.717],[139.433,35.718],[139.437,35.715],[139.442,35.716],[139.446,35.723],[139.436,35.725],[139.424,35.73],[139.416,35.732]]]]}},{"type":"Feature","properties":{"name":"武蔵野市","code":"13203"},"geometry":{"type":"MultiPolygon","coordinates":[[[[139.587,35.712],[139.582,35.714],[139.576,35.718],[139.566,35.722],[139.562,35.722],[139.557,35.722],[139.549,35.717],[139.541,35.713],[139.537,35.711],[139.532,35.713],[139.53,35.718],[139.527,35.719],[139.525,35.713],[139.527,35.71],[139.533,35.709],[139.532,35.703],[139.534,35.699],[139.537,35.695],[139.542,35.695],[139.549,35.695],[139.55,35.707],[139.562,35.702],[139.571,35.699],[139.577,35.701],[139.58,35.699],[139.585,35.697],[139.587,35.694],[139.59,35.695],[139.594,35.703],[139.591,35.709],[139.587,35.712]]]]}},{"type":"Feature","properties":{"name":"三鷹市","code":"13204"},"geometry":{"type":"MultiPolygon","coordinates":[[[[139.594,35.682],[139.592,35.685],[139.594,35.689],[139.587,35.694],[139.585,35.697],[139.58,35.699],[139.577,35.701],[139.573,35.699],[139.562,35.702],[139.55,35.707],[139.551,35.695],[139.542,35.697],[139.537,35.695],[139.534,35.699],[139.534,35.695],[139.532,35.689],[139.529,35.691],[139.525,35.69],[139.526,35.687],[139.529,35.683],[139.525,35.681],[139.526,35.677],[139.529,35.674],[139.532,35.67],[139.536,35.669],[139.537,35.665],[139.542,35.664],[139.542,35.668],[139.542,35.677],[139.543,35.68],[139.552,35.681],[139.561,35.683],[139.562,35.678],[139.564,35.672],[139.564,35.669],[139.566,35.664],[139.573,35.664],[139.576,35.66],[139.582,35.665],[139.579,35.669],[139.578,35.673],[139.581,35.67],[139.586,35.671],[139.583,35.674],[139.587,35.674],[139.587,35.678],[139.588,35.682],[139.591,35.682]]]]}},{"type":"Feature","properties":{"name":"青梅市","code":"13205"},"geometry":{"type":"MultiPolygon","coordinates":[[[[139.33,35.794],[139.326,35.795],[139.322,35.8],[139.319,35.808],[139.317,35.811],[139.315,35.817],[139.316,35.824],[139.311,35.825],[139.307,35.823],[139.303,35.824],[139.301,35.83],[139.301,35.835],[139.296,35.835],[139.292,35.837],[139.286,35.837],[139.283,35.837],[139.272,35.84],[139.268,35.838],[139.264,35.837],[139.261,35.836],[139.252,35.838],[139.247,35.837],[139.243,35.837],[139.241,35.84],[139.237,35.84],[139.233,35.837],[139.228,35.839],[139.225,35.84],[139.22,35.841],[139.214,35.845],[139.21,35.846],[139.205,35.845],[139.203,35.841],[139.199,35.841],[139.196,35.84],[139.192,35.84],[139.187,35.843],[139.184,35.844],[139.177,35.847],[139.171,35.849],[139.166,35.85],[139.163,35.85],[139.166,35.845],[139.171,35.84],[139.175,35.836],[139.177,35.833],[139.175,35.827],[139.177,35.82],[139.174,35.813],[139.176,35.807],[139.172,35.805],[139.167,35.802],[139.161,35.799],[139.156,35.799],[139.15,35.796],[139.147,35.793],[139.148,35.789],[139.147,35.785],[139.148,35.782],[139.143,35.781],[139.137,35.778],[139.138,35.772],[139.143,35.776],[139.147,35.775],[139.149,35.779],[139.152,35.776],[139.157,35.774],[139.159,35.778],[139.163,35.778],[139.167,35.781],[139.172,35.782],[139.176,35.785],[139.179,35.786],[139.186,35.788],[139.191,35.789],[139.196,35.787],[139.199,35.784],[139.202,35.782],[139.206,35.778],[139.211,35.773],[139.214,35.774],[139.218,35.773],[139.223,35.772],[139.231,35.77],[139.234,35.769],[139.238,35.768],[139.243,35.767],[139.251,35.766],[139.255,35.763],[139.262,35.76],[139.267,35.76],[139.274,35.761],[139.288,35.761],[139.294,35.755],[139.297,35.76],[139.297,35.763],[139.297,35.766],[139.295,35.77],[139.292,35.775],[139.296,35.778],[139.298,35.781],[139.302,35.78],[139.308,35.777],[139.311,35.777],[139.318,35.778],[139.324,35.78],[139.321,35.783],[139.321,35.788],[139.326,35.787],[139.33,35.791],[139.33,35.794]]]]}},{"type":"Feature","properties":{"name":"府中市","code":"13206"},"geometry":{"type":"MultiPolygon","coordinates":[[[[139.464,35.697],[139.46,35.7],[139.459,35.692],[139.456,35.691],[139.454,35.688],[139.453,35.684],[139.452,35.679],[139.451,35.674],[139.447,35.673],[139.442,35.672],[139.437,35.672],[139.432,35.673],[139.437,35.664],[139.441,35.66],[139.452,35.655],[139.455,35.654],[139.468,35.651],[139.473,35.649],[139.479,35.652],[139.486,35.653],[139.49,35.652],[139.496,35.652],[139.499,35.651],[139.503,35.65],[139.507,35.651],[139.512,35.651],[139.517,35.649],[139.521,35.646],[139.521,35.651],[139.518,35.656],[139.519,35.66],[139.522,35.664],[139.523,35.668],[139.526,35.672],[139.525,35.676],[139.524,35.68],[139.521,35.681],[139.522,35.685],[139.518,35.691],[139.515,35.689],[139.515,35.686],[139.506,35.687],[139.501,35.685],[139.496,35.687],[139.492,35.69],[139.489,35.691],[139.49,35.695],[139.486,35.692],[139.478,35.69],[139.474,35.689],[139.468,35.688],[139.466,35.692],[139.467,35.695],[139.464,35.695]]]]}},{"type":"Feature","properties":{"name":"昭島市","code":"13207"},"geometry":{"type":"MultiPolygon","coordinates":[[[[139.376,35.692],[139.385,35.691],[139.389,35.693],[139.39,35.699],[139.394,35.702],[139.395,35.706],[139.398,35.711],[139.395,35.712],[139.391,35.715],[139.387,35.717],[139.386,35.72],[139.382,35.721],[139.379,35.722],[139.38,35.726],[139.376,35.725],[139.373,35.725],[139.37,35.725],[139.367,35.725],[139.362,35.726],[139.357,35.726],[139.353,35.725],[139.349,35.722],[139.343,35.722],[139.339,35.719],[139.339,35.716],[139.333,35.713],[139.331,35.71],[139.333,35.705],[139.337,35.702],[139.336,35.696],[139.34,35.694],[139.346,35.692],[139.352,35.692],[139.363,35.694],[139.368,35.692],[139.376,35.692]]]]}},{"type":"Feature","properties":{"name":"調布市","code":"13208"},"geometry":{"type":"MultiPolygon","coordinates":[[[[139.589,35.669],[139.581,35.67],[139.578,35.673],[139.579,35.669],[139.58,35.666],[139.578,35.662],[139.575,35.662],[139.569,35.664],[139.564,35.669],[139.564,35.672],[139.562,35.678],[139.561,35.683],[139.555,35.682],[139.545,35.682],[139.542,35.677],[139.541,35.67],[139.544,35.667],[139.539,35.665],[139.536,35.669],[139.531,35.668],[139.53,35.671],[139.528,35.674],[139.527,35.679],[139.529,35.683],[139.525,35.686],[139.522,35.685],[139.52,35.682],[139.524,35.68],[139.525,35.676],[139.526,35.672],[139.525,35.669],[139.522,35.664],[139.519,35.66],[139.518,35.656],[139.521,35.654],[139.521,35.646],[139.524,35.643],[139.531,35.642],[139.536,35.639],[139.548,35.637],[139.555,35.634],[139.559,35.634],[139.562,35.633],[139.563,35.637],[139.563,35.641],[139.565,35.645],[139.569,35.647],[139.572,35.649],[139.577,35.65],[139.581,35.647],[139.584,35.648],[139.588,35.646],[139.592,35.646],[139.592,35.651],[139.592,35.655],[139.59,35.661],[139.588,35.664],[139.589,35.669]]]]}},{"type":"Feature","properties":{"name":"町田市","code":"13209"},"geometry":{"type":"MultiPolygon","coordinates":[[[[139.269,35.609],[139.274,35.611],[139.28,35.611],[139.285,35.613],[139.293,35.612],[139.297,35.609],[139.299,35.606],[139.305,35.605],[139.309,35.604],[139.314,35.604],[139.321,35.607],[139.326,35.605],[139.329,35.604],[139.338,35.604],[139.342,35.605],[139.35,35.601],[139.355,35.6],[139.359,35.599],[139.363,35.599],[139.367,35.597],[139.37,35.594],[139.375,35.594],[139.385,35.588],[139.389,35.589],[139.391,35.585],[139.394,35.586],[139.399,35.585],[139.401,35.58],[139.403,35.576],[139.406,35.576],[139.411,35.571],[139.413,35.566],[139.416,35.562],[139.422,35.559],[139.424,35.556],[139.429,35.55],[139.432,35.549],[139.436,35.547],[139.441,35.543],[139.445,35.541],[139.448,35.538],[139.451,35.534],[139.454,35.531],[139.458,35.528],[139.455,35.523],[139.461,35.519],[139.464,35.516],[139.464,35.513],[139.468,35.508],[139.468,35.502],[139.471,35.502],[139.476,35.501],[139.48,35.503],[139.485,35.504],[139.481,35.505],[139.477,35.511],[139.48,35.515],[139.483,35.519],[139.486,35.52],[139.487,35.524],[139.488,35.528],[139.486,35.531],[139.487,35.536],[139.484,35.539],[139.48,35.543],[139.482,35.547],[139.482,35.556],[139.48,35.559],[139.476,35.562],[139.47,35.56],[139.469,35.565],[139.47,35.569],[139.473,35.574],[139.476,35.581],[139.482,35.582],[139.487,35.585],[139.49,35.584],[139.488,35.578],[139.485,35.576],[139.484,35.572],[139.486,35.569],[139.489,35.563],[139.493,35.563],[139.496,35.565],[139.498,35.568],[139.504,35.572],[139.507,35.574],[139.499,35.581],[139.494,35.583],[139.494,35.586],[139.486,35.592],[139.482,35.595],[139.478,35.598],[139.474,35.6],[139.47,35.603],[139.467,35.607],[139.463,35.608],[139.457,35.607],[139.453,35.605],[139.451,35.61],[139.448,35.611],[139.442,35.609],[139.438,35.61],[139.434,35.606],[139.428,35.608],[139.423,35.607],[139.421,35.61],[139.416,35.612],[139.413,35.612],[139.408,35.612],[139.403,35.609],[139.399,35.61],[139.394,35.608],[139.39,35.607],[139.388,35.602],[139.386,35.599],[139.382,35.602],[139.378,35.604],[139.373,35.604],[139.369,35.606],[139.366,35.609],[139.362,35.605],[139.354,35.607],[139.348,35.609],[139.342,35.614],[139.34,35.617],[139.34,35.621],[139.337,35.614],[139.331,35.615],[139.326,35.616],[139.323,35.615],[139.317,35.615],[139.314,35.614],[139.31,35.616],[139.303,35.615],[139.298,35.616],[139.294,35.618],[139.289,35.62],[139.286,35.621],[139.282,35.62],[139.277,35.619],[139.276,35.615],[139.272,35.614],[139.269,35.609]]]]}},{"type":"Feature","properties":{"name":"小金井市","code":"13210"},"geometry":{"type":"MultiPolygon","coordinates":[[[[139.526,35.717],[139.523,35.718],[139.515,35.717],[139.509,35.716],[139.508,35.712],[139.501,35.712],[139.496,35.713],[139.495,35.71],[139.492,35.71],[139.486,35.709],[139.487,35.704],[139.491,35.7],[139.491,35.697],[139.488,35.693],[139.492,35.69],[139.496,35.689],[139.499,35.686],[139.503,35.687],[139.514,35.686],[139.515,35.689],[139.518,35.691],[139.522,35.687],[139.527,35.684],[139.524,35.688],[139.529,35.691],[139.532,35.689],[139.531,35.695],[139.534,35.699],[139.532,35.703],[139.533,35.709],[139.527,35.71],[139.525,35.713],[139.526,35.717]]]]}},{"type":"Feature","properties":{"name":"小平市","code":"13211"},"geometry":{"type":"MultiPolygon","coordinates":[[[[139.446,35.723],[139.458,35.721],[139.465,35.717],[139.472,35.715],[139.472,35.711],[139.477,35.709],[139.48,35.714],[139.486,35.708],[139.492,35.708],[139.495,35.71],[139.496,35.713],[139.501,35.712],[139.508,35.712],[139.509,35.716],[139.515,35.717],[139.523,35.719],[139.523,35.723],[139.518,35.727],[139.517,35.731],[139.52,35.733],[139.521,35.739],[139.515,35.739],[139.508,35.738],[139.506,35.732],[139.505,35.737],[139.504,35.74],[139.498,35.746],[139.491,35.742],[139.486,35.744],[139.487,35.74],[139.486,35.735],[139.479,35.735],[139.477,35.74],[139.471,35.743],[139.466,35.744],[139.462,35.742],[139.451,35.737],[139.447,35.735],[139.442,35.736],[139.436,35.733],[139.429,35.73],[139.424,35.73],[139.434,35.727],[139.446,35.723]]]]}},{"type":"Feature","properties":{"name":"日野市","code":"13212"},"geometry":{"type":"MultiPolygon","coordinates":[[[[139.415,35.647],[139.421,35.646],[139.426,35.645],[139.43,35.647],[139.434,35.651],[139.438,35.65],[139.438,35.655],[139.442,35.658],[139.437,35.664],[139.431,35.67],[139.428,35.673],[139.422,35.679],[139.419,35.682],[139.413,35.683],[139.406,35.686],[139.395,35.689],[139.388,35.69],[139.376,35.692],[139.379,35.688],[139.375,35.686],[139.375,35.682],[139.377,35.678],[139.373,35.673],[139.37,35.669],[139.362,35.661],[139.359,35.659],[139.357,35.656],[139.361,35.651],[139.365,35.646],[139.369,35.644],[139.373,35.644],[139.377,35.645],[139.379,35.642],[139.382,35.641],[139.385,35.641],[139.391,35.641],[139.396,35.64],[139.399,35.641],[139.406,35.645],[139.412,35.646],[139.415,35.647]]]]}},{"type":"Feature","properties":{"name":"東村山市","code":"13213"},"geometry":{"type":"MultiPolygon","coordinates":[[[[139.486,35.744],[139.487,35.747],[139.489,35.751],[139.494,35.754],[139.495,35.758],[139.505,35.761],[139.497,35.762],[139.501,35.766],[139.5,35.77],[139.497,35.777],[139.496,35.782],[139.491,35.78],[139.485,35.781],[139.481,35.781],[139.475,35.777],[139.471,35.773],[139.465,35.774],[139.461,35.773],[139.459,35.77],[139.451,35.769],[139.446,35.768],[139.441,35.767],[139.44,35.764],[139.441,35.76],[139.444,35.756],[139.448,35.753],[139.448,35.749],[139.451,35.746],[139.451,35.742],[139.45,35.739],[139.462,35.742],[139.466,35.744],[139.471,35.743],[139.475,35.741],[139.477,35.738],[139.483,35.735],[139.487,35.74],[139.486,35.744]]]]}},{"type":"Feature","properties":{"name":"国分寺市","code":"13214"},"geometry":{"type":"MultiPolygon","coordinates":[[[[139.43,35.704],[139.436,35.701],[139.441,35.701],[139.446,35.7],[139.456,35.695],[139.459,35.692],[139.46,35.7],[139.464,35.697],[139.468,35.692],[139.466,35.689],[139.474,35.689],[139.477,35.689],[139.484,35.691],[139.488,35.695],[139.491,35.7],[139.484,35.702],[139.487,35.706],[139.48,35.714],[139.478,35.709],[139.472,35.711],[139.472,35.715],[139.465,35.717],[139.459,35.718],[139.446,35.723],[139.444,35.713],[139.437,35.715],[139.433,35.718],[139.428,35.717],[139.432,35.712],[139.436,35.704],[139.43,35.704]]]]}},{"type":"Feature","properties":{"name":"国立市","code":"13215"},"geometry":{"type":"MultiPolygon","coordinates":[[[[139.418,35.683],[139.422,35.679],[139.428,35.673],[139.432,35.673],[139.436,35.672],[139.441,35.671],[139.447,35.673],[139.451,35.672],[139.451,35.677],[139.451,35.681],[139.454,35.688],[139.456,35.691],[139.459,35.692],[139.456,35.695],[139.449,35.701],[139.442,35.7],[139.436,35.701],[139.432,35.702],[139.427,35.704],[139.428,35.698],[139.432,35.697],[139.43,35.694],[139.431,35.69],[139.427,35.689],[139.421,35.689],[139.419,35.685]]]]}},{"type":"Feature","properties":{"name":"福生市","code":"13218"},"geometry":{"type":"MultiPolygon","coordinates":[[[[139.332,35.713],[139.339,35.716],[139.339,35.719],[139.343,35.722],[139.346,35.721],[139.353,35.723],[139.355,35.726],[139.352,35.733],[139.353,35.736],[139.359,35.737],[139.358,35.741],[139.355,35.743],[139.351,35.747],[139.353,35.743],[139.346,35.747],[139.342,35.746],[139.343,35.75],[139.339,35.75],[139.332,35.752],[139.327,35.753],[139.322,35.754],[139.321,35.75],[139.317,35.749],[139.314,35.747],[139.317,35.743],[139.32,35.733],[139.328,35.728],[139.328,35.724],[139.33,35.72],[139.331,35.713]]]]}},{"type":"Feature","properties":{"name":"狛江市","code":"13219"},"geometry":{"type":"MultiPolygon","coordinates":[[[[139.588,35.646],[139.584,35.648],[139.581,35.647],[139.577,35.65],[139.572,35.649],[139.569,35.647],[139.565,35.645],[139.563,35.641],[139.563,35.637],[139.562,35.633],[139.566,35.629],[139.571,35.624],[139.577,35.622],[139.583,35.622],[139.586,35.62],[139.59,35.618],[139.59,35.624],[139.594,35.627],[139.591,35.631],[139.59,35.634],[139.586,35.637],[139.585,35.641],[139.588,35.646]]]]}},{"type":"Feature","properties":{"name":"東大和市","code":"13220"},"geometry":{"type":"MultiPolygon","coordinates":[[[[139.426,35.73],[139.436,35.733],[139.442,35.736],[139.446,35.735],[139.451,35.737],[139.451,35.742],[139.451,35.746],[139.448,35.749],[139.448,35.753],[139.446,35.756],[139.441,35.76],[139.44,35.764],[139.441,35.767],[139.435,35.767],[139.432,35.766],[139.428,35.766],[139.422,35.768],[139.416,35.766],[139.41,35.769],[139.405,35.769],[139.4,35.768],[139.398,35.764],[139.392,35.763],[139.395,35.763],[139.401,35.762],[139.405,35.762],[139.409,35.758],[139.409,35.755],[139.407,35.749],[139.411,35.748],[139.411,35.744],[139.412,35.739],[139.414,35.735],[139.416,35.732],[139.422,35.731],[139.426,35.731]]]]}},{"type":"Feature","properties":{"name":"清瀬市","code":"13221"},"geometry":{"type":"MultiPolygon","coordinates":[[[[139.505,35.761],[139.509,35.762],[139.516,35.766],[139.521,35.77],[139.526,35.772],[139.532,35.773],[139.536,35.775],[139.543,35.78],[139.544,35.783],[139.544,35.788],[139.541,35.79],[139.538,35.791],[139.544,35.796],[139.547,35.803],[139.544,35.807],[139.537,35.804],[139.532,35.798],[139.529,35.794],[139.526,35.792],[139.52,35.788],[139.517,35.789],[139.513,35.786],[139.508,35.785],[139.504,35.783],[139.499,35.782],[139.497,35.779],[139.498,35.772],[139.501,35.766],[139.497,35.762],[139.505,35.761]]]]}},{"type":"Feature","properties":{"name":"東久留米市","code":"13222"},"geometry":{"type":"MultiPolygon","coordinates":[[[[139.52,35.733],[139.53,35.74],[139.527,35.744],[139.532,35.744],[139.537,35.748],[139.545,35.755],[139.547,35.76],[139.548,35.766],[139.548,35.774],[139.542,35.772],[139.537,35.77],[139.533,35.769],[139.527,35.768],[139.521,35.768],[139.516,35.766],[139.509,35.762],[139.505,35.761],[139.497,35.759],[139.494,35.756],[139.489,35.751],[139.487,35.747],[139.486,35.744],[139.49,35.744],[139.498,35.744],[139.504,35.743],[139.504,35.737],[139.504,35.732],[139.506,35.736],[139.507,35.74],[139.513,35.738],[139.521,35.739],[139.52,35.733]]]]}},{"type":"Feature","properties":{"name":"武蔵村山市","code":"13223"},"geometry":{"type":"MultiPolygon","coordinates":[[[[139.414,35.733],[139.411,35.737],[139.411,35.741],[139.411,35.748],[139.407,35.749],[139.407,35.752],[139.409,35.758],[139.405,35.762],[139.401,35.762],[139.395,35.763],[139.392,35.763],[139.392,35.767],[139.385,35.765],[139.38,35.766],[139.379,35.771],[139.374,35.769],[139.368,35.773],[139.367,35.769],[139.366,35.766],[139.363,35.763],[139.36,35.759],[139.358,35.756],[139.358,35.751],[139.356,35.747],[139.355,35.743],[139.358,35.741],[139.365,35.739],[139.369,35.736],[139.374,35.737],[139.378,35.735],[139.381,35.735],[139.389,35.734],[139.387,35.737],[139.385,35.742],[139.388,35.739],[139.395,35.734],[139.4,35.734],[139.409,35.734],[139.414,35.733]]]]}},{"type":"Feature","properties":{"name":"多摩市","code":"13224"},"geometry":{"type":"MultiPolygon","coordinates":[[[[139.394,35.608],[139.399,35.61],[139.403,35.609],[139.408,35.612],[139.413,35.612],[139.416,35.612],[139.421,35.61],[139.423,35.607],[139.428,35.606],[139.432,35.606],[139.436,35.607],[139.442,35.609],[139.446,35.609],[139.449,35.612],[139.452,35.616],[139.461,35.622],[139.464,35.625],[139.465,35.629],[139.469,35.632],[139.469,35.64],[139.469,35.645],[139.474,35.647],[139.468,35.651],[139.455,35.654],[139.452,35.655],[139.442,35.658],[139.438,35.655],[139.438,35.65],[139.434,35.651],[139.43,35.647],[139.427,35.644],[139.421,35.646],[139.417,35.649],[139.416,35.645],[139.423,35.641],[139.427,35.638],[139.43,35.634],[139.425,35.63],[139.42,35.629],[139.416,35.626],[139.412,35.624],[139.408,35.623],[139.405,35.621],[139.403,35.618],[139.401,35.615],[139.394,35.609]]]]}},{"type":"Feature","properties":{"name":"稲城市","code":"13225"},"geometry":{"type":"MultiPolygon","coordinates":[[[[139.474,35.649],[139.469,35.645],[139.469,35.64],[139.472,35.634],[139.465,35.63],[139.464,35.625],[139.468,35.621],[139.474,35.62],[139.477,35.615],[139.481,35.61],[139.487,35.608],[139.489,35.605],[139.494,35.606],[139.498,35.605],[139.496,35.612],[139.494,35.615],[139.498,35.618],[139.503,35.623],[139.51,35.624],[139.514,35.625],[139.517,35.628],[139.523,35.632],[139.521,35.637],[139.524,35.642],[139.521,35.646],[139.517,35.649],[139.512,35.651],[139.507,35.651],[139.503,35.65],[139.499,35.651],[139.496,35.652],[139.49,35.652],[139.486,35.653],[139.479,35.652],[139.474,35.651]]]]}},{"type":"Feature","properties":{"name":"羽村市","code":"13227"},"geometry":{"type":"MultiPolygon","coordinates":[[[[139.297,35.755],[139.303,35.755],[139.307,35.753],[139.311,35.751],[139.314,35.747],[139.317,35.749],[139.321,35.75],[139.322,35.754],[139.326,35.754],[139.332,35.753],[139.336,35.751],[139.343,35.75],[139.343,35.753],[139.339,35.755],[139.336,35.759],[139.335,35.766],[139.334,35.771],[139.329,35.771],[139.321,35.777],[139.312,35.776],[139.309,35.776],[139.303,35.778],[139.298,35.781],[139.296,35.778],[139.292,35.775],[139.293,35.772],[139.297,35.766],[139.297,35.763],[139.297,35.76],[139.297,35.755]]]]}},{"type":"Feature","properties":{"name":"あきる野市","code":"13228"},"geometry":{"type":"MultiPolygon","coordinates":[[[[139.331,35.713],[139.33,35.72],[139.328,35.724],[139.328,35.728],[139.322,35.733],[139.317,35.743],[139.314,35.747],[139.311,35.751],[139.307,35.753],[139.303,35.755],[139.297,35.755],[139.29,35.76],[139.276,35.762],[139.269,35.761],[139.264,35.761],[139.257,35.761],[139.262,35.756],[139.269,35.754],[139.273,35.754],[139.278,35.752],[139.281,35.747],[139.279,35.742],[139.282,35.741],[139.284,35.732],[139.278,35.734],[139.27,35.733],[139.263,35.732],[139.258,35.734],[139.253,35.736],[139.245,35.737],[139.239,35.74],[139.233,35.739],[139.228,35.74],[139.219,35.744],[139.215,35.747],[139.213,35.752],[139.208,35.753],[139.204,35.756],[139.198,35.758],[139.194,35.761],[139.189,35.762],[139.181,35.763],[139.181,35.769],[139.177,35.771],[139.167,35.776],[139.163,35.778],[139.159,35.778],[139.157,35.774],[139.153,35.774],[139.149,35.779],[139.148,35.775],[139.144,35.777],[139.139,35.772],[139.136,35.77],[139.139,35.768],[139.143,35.766],[139.147,35.762],[139.142,35.76],[139.141,35.755],[139.145,35.755],[139.149,35.754],[139.154,35.75],[139.156,35.747],[139.161,35.743],[139.165,35.738],[139.164,35.732],[139.166,35.729],[139.165,35.723],[139.166,35.718],[139.166,35.714],[139.165,35.706],[139.17,35.703],[139.173,35.697],[139.172,35.693],[139.171,35.689],[139.179,35.689],[139.182,35.688],[139.187,35.688],[139.191,35.688],[139.196,35.688],[139.199,35.688],[139.2,35.694],[139.201,35.699],[139.205,35.7],[139.205,35.703],[139.204,35.707],[139.207,35.713],[139.21,35.714],[139.215,35.716],[139.219,35.717],[139.224,35.717],[139.229,35.716],[139.233,35.715],[139.237,35.713],[139.241,35.714],[139.245,35.713],[139.25,35.71],[139.255,35.713],[139.258,35.712],[139.269,35.71],[139.272,35.713],[139.277,35.714],[139.282,35.714],[139.285,35.713],[139.289,35.713],[139.294,35.713],[139.303,35.713],[139.308,35.715],[139.314,35.714],[139.319,35.719],[139.323,35.716],[139.325,35.713],[139.329,35.712]]]]}},{"type":"Feature","properties":{"name":"西東京市","code":"13229"},"geometry":{"type":"MultiPolygon","coordinates":[[[[139.563,35.762],[139.558,35.76],[139.555,35.756],[139.552,35.756],[139.547,35.753],[139.537,35.748],[139.534,35.745],[139.528,35.745],[139.531,35.74],[139.52,35.733],[139.517,35.731],[139.518,35.727],[139.523,35.723],[139.525,35.719],[139.53,35.718],[139.529,35.713],[139.537,35.711],[139.541,35.713],[139.549,35.717],[139.555,35.721],[139.562,35.722],[139.566,35.722],[139.566,35.727],[139.569,35.734],[139.568,35.738],[139.568,35.743],[139.567,35.747],[139.569,35.752],[139.568,35.755],[139.563,35.762]]]]}},{"type":"Feature","properties":{"name":"西多摩郡瑞穂町","code":"13303"},"geometry":{"type":"MultiPolygon","coordinates":[[[[139.321,35.777],[139.329,35.771],[139.334,35.771],[139.333,35.768],[139.336,35.761],[139.338,35.757],[139.342,35.754],[139.343,35.75],[139.342,35.746],[139.346,35.747],[139.352,35.741],[139.35,35.745],[139.355,35.746],[139.357,35.751],[139.358,35.756],[139.36,35.759],[139.363,35.763],[139.366,35.766],[139.367,35.769],[139.368,35.773],[139.373,35.771],[139.376,35.77],[139.382,35.774],[139.38,35.779],[139.376,35.78],[139.37,35.782],[139.368,35.787],[139.369,35.79],[139.36,35.792],[139.357,35.793],[139.353,35.793],[139.35,35.795],[139.347,35.796],[139.343,35.794],[139.338,35.795],[139.335,35.794],[139.33,35.794],[139.33,35.791],[139.326,35.787],[139.322,35.79],[139.321,35.783],[139.324,35.781],[139.321,35.777]]]]}},{"type":"Feature","properties":{"name":"西多摩郡日の出町","code":"13305"},"geometry":{"type":"MultiPolygon","coordinates":[[[[139.163,35.778],[139.167,35.776],[139.177,35.771],[139.181,35.769],[139.181,35.764],[139.186,35.762],[139.194,35.761],[139.198,35.758],[139.201,35.758],[139.205,35.754],[139.211,35.752],[139.212,35.749],[139.216,35.744],[139.226,35.74],[139.233,35.739],[139.239,35.74],[139.244,35.739],[139.253,35.736],[139.257,35.735],[139.261,35.734],[139.27,35.733],[139.278,35.734],[139.284,35.731],[139.284,35.738],[139.279,35.742],[139.281,35.747],[139.278,35.752],[139.273,35.754],[139.27,35.753],[139.265,35.755],[139.256,35.759],[139.255,35.763],[139.252,35.764],[139.245,35.767],[139.238,35.767],[139.235,35.769],[139.232,35.769],[139.224,35.773],[139.221,35.774],[139.215,35.773],[139.211,35.773],[139.206,35.778],[139.202,35.782],[139.199,35.784],[139.196,35.787],[139.191,35.789],[139.186,35.788],[139.182,35.788],[139.176,35.785],[139.172,35.782],[139.167,35.781],[139.163,35.778]]]]}},{"type":"Feature","properties":{"name":"西多摩郡檜原村","code":"13307"},"geometry":{"type":"MultiPolygon","coordinates":[[[[139.171,35.689],[139.172,35.693],[139.173,35.697],[139.172,35.702],[139.168,35.704],[139.165,35.712],[139.166,35.718],[139.167,35.722],[139.165,35.727],[139.165,35.73],[139.166,35.736],[139.164,35.741],[139.157,35.745],[139.154,35.748],[139.152,35.751],[139.147,35.754],[139.141,35.755],[139.14,35.759],[139.145,35.76],[139.145,35.764],[139.139,35.768],[139.136,35.77],[139.133,35.766],[139.128,35.767],[139.125,35.768],[139.121,35.77],[139.115,35.773],[139.11,35.776],[139.106,35.779],[139.102,35.778],[139.097,35.776],[139.095,35.773],[139.088,35.77],[139.083,35.77],[139.075,35.772],[139.071,35.769],[139.066,35.766],[139.061,35.764],[139.057,35.764],[139.055,35.76],[139.049,35.76],[139.046,35.758],[139.043,35.755],[139.04,35.751],[139.041,35.748],[139.04,35.745],[139.034,35.742],[139.028,35.744],[139.022,35.74],[139.017,35.74],[139.012,35.739],[139.014,35.735],[139.018,35.731],[139.021,35.727],[139.023,35.722],[139.029,35.717],[139.032,35.716],[139.039,35.711],[139.043,35.71],[139.047,35.709],[139.051,35.707],[139.059,35.702],[139.063,35.7],[139.067,35.698],[139.071,35.698],[139.075,35.696],[139.078,35.696],[139.082,35.696],[139.088,35.692],[139.092,35.691],[139.095,35.691],[139.106,35.691],[139.11,35.688],[139.116,35.684],[139.119,35.681],[139.123,35.678],[139.127,35.677],[139.131,35.672],[139.137,35.672],[139.143,35.67],[139.147,35.667],[139.151,35.667],[139.162,35.668],[139.165,35.67],[139.166,35.675],[139.17,35.68],[139.171,35.683],[139.171,35.689]]]]}},{"type":"Feature","properties":{"name":"西多摩郡奥多摩町","code":"13308"},"geometry":{"type":"MultiPolygon","coordinates":[[[[139.164,35.851],[139.159,35.857],[139.155,35.859],[139.15,35.861],[139.144,35.863],[139.139,35.864],[139.135,35.865],[139.131,35.864],[139.126,35.865],[139.122,35.865],[139.116,35.864],[139.112,35.865],[139.108,35.866],[139.103,35.867],[139.099,35.869],[139.094,35.87],[139.089,35.871],[139.084,35.873],[139.078,35.875],[139.073,35.872],[139.061,35.874],[139.058,35.877],[139.05,35.879],[139.043,35.886],[139.038,35.889],[139.034,35.891],[139.029,35.893],[139.025,35.896],[139.021,35.897],[139.013,35.898],[139.007,35.894],[139.007,35.89],[139.003,35.886],[138.996,35.884],[138.989,35.881],[138.985,35.881],[138.979,35.885],[138.976,35.883],[138.972,35.882],[138.968,35.882],[138.966,35.879],[138.962,35.877],[138.954,35.875],[138.949,35.869],[138.945,35.868],[138.947,35.864],[138.943,35.86],[138.944,35.855],[138.949,35.85],[138.948,35.845],[138.949,35.84],[138.953,35.837],[138.959,35.833],[138.962,35.83],[138.969,35.831],[138.97,35.827],[138.97,35.823],[138.969,35.819],[138.972,35.814],[138.971,35.81],[138.97,35.805],[138.971,35.801],[138.973,35.798],[138.977,35.793],[138.977,35.789],[138.982,35.787],[138.985,35.785],[138.986,35.782],[138.985,35.774],[138.984,35.768],[138.989,35.763],[138.991,35.759],[138.992,35.756],[138.996,35.754],[138.999,35.751],[139.002,35.75],[139.005,35.75],[139.01,35.742],[139.012,35.739],[139.017,35.74],[139.022,35.74],[139.027,35.742],[139.032,35.744],[139.04,35.745],[139.041,35.748],[139.04,35.751],[139.043,35.755],[139.046,35.758],[139.049,35.76],[139.053,35.76],[139.057,35.764],[139.061,35.764],[139.066,35.766],[139.071,35.769],[139.075,35.772],[139.08,35.77],[139.087,35.771],[139.093,35.77],[139.095,35.775],[139.101,35.778],[139.106,35.779],[139.11,35.776],[139.114,35.774],[139.118,35.771],[139.123,35.769],[139.128,35.767],[139.133,35.766],[139.136,35.77],[139.137,35.778],[139.14,35.779],[139.148,35.782],[139.147,35.785],[139.148,35.789],[139.147,35.793],[139.15,35.796],[139.155,35.798],[139.158,35.798],[139.165,35.802],[139.172,35.804],[139.174,35.807],[139.174,35.813],[139.177,35.82],[139.175,35.827],[139.178,35.831],[139.177,35.835],[139.172,35.84],[139.166,35.843],[139.165,35.847],[139.164,35.851]]]]}},{"type":"Feature","properties":{"name":"大島支庁大島町","code":"13361"},"geometry":{"type":"MultiPolygon","coordinates":[[[[139.361,34.799],[139.359,34.793],[139.354,34.789],[139.352,34.784],[139.349,34.775],[139.352,34.772],[139.351,34.767],[139.349,34.762],[139.349,34.759],[139.352,34.753],[139.353,34.75],[139.353,34.746],[139.356,34.743],[139.356,34.74],[139.357,34.735],[139.353,34.731],[139.353,34.727],[139.353,34.719],[139.356,34.716],[139.361,34.71],[139.359,34.702],[139.365,34.701],[139.373,34.7],[139.377,34.696],[139.381,34.696],[139.384,34.694],[139.387,34.69],[139.391,34.688],[139.394,34.687],[139.396,34.684],[139.399,34.684],[139.404,34.683],[139.41,34.681],[139.416,34.681],[139.421,34.682],[139.425,34.683],[139.429,34.68],[139.434,34.678],[139.439,34.679],[139.441,34.682],[139.436,34.688],[139.444,34.684],[139.444,34.689],[139.447,34.693],[139.45,34.697],[139.448,34.7],[139.444,34.703],[139.444,34.707],[139.445,34.711],[139.449,34.713],[139.449,34.72],[139.445,34.725],[139.445,34.731],[139.444,34.734],[139.448,34.738],[139.448,34.744],[139.443,34.748],[139.441,34.754],[139.44,34.76],[139.438,34.764],[139.437,34.768],[139.433,34.772],[139.429,34.775],[139.425,34.779],[139.421,34.781],[139.415,34.784],[139.412,34.787],[139.408,34.786],[139.403,34.787],[139.4,34.788],[139.392,34.79],[139.384,34.79],[139.38,34.794],[139.376,34.795],[139.372,34.798],[139.368,34.796],[139.364,34.798]]]]}},{"type":"Feature","properties":{"name":"大島支庁利島村","code":"13362"},"geometry":{"type":"MultiPolygon","coordinates":[[[[139.276,34.532],[139.272,34.531],[139.269,34.527],[139.267,34.523],[139.268,34.517],[139.272,34.513],[139.276,34.511],[139.281,34.512],[139.285,34.516],[139.291,34.521],[139.293,34.525],[139.291,34.529],[139.285,34.532],[139.281,34.532],[139.276,34.532]]]]}},{"type":"Feature","properties":{"name":"大島支庁新島村","code":"13363"},"geometry":{"type":"MultiPolygon","coordinates":[[[[139.213,34.337],[139.209,34.337],[139.206,34.335],[139.209,34.331],[139.204,34.327],[139.201,34.327],[139.197,34.323],[139.195,34.318],[139.201,34.316],[139.203,34.321],[139.207,34.321],[139.208,34.317],[139.212,34.316],[139.215,34.318],[139.22,34.322],[139.224,34.323],[139.227,34.328],[139.226,34.331],[139.221,34.332],[139.217,34.334],[139.213,34.337]]],[[[139.224,34.376],[139.228,34.371],[139.226,34.367],[139.229,34.373],[139.224,34.376]]],[[[139.279,34.431],[139.28,34.427],[139.281,34.421],[139.276,34.416],[139.272,34.417],[139.269,34.415],[139.268,34.412],[139.267,34.408],[139.264,34.406],[139.261,34.405],[139.256,34.4],[139.255,34.396],[139.257,34.392],[139.256,34.384],[139.254,34.379],[139.249,34.371],[139.246,34.368],[139.242,34.364],[139.245,34.359],[139.246,34.354],[139.244,34.348],[139.249,34.345],[139.253,34.339],[139.258,34.336],[139.261,34.334],[139.266,34.333],[139.271,34.331],[139.272,34.337],[139.273,34.341],[139.276,34.348],[139.276,34.353],[139.276,34.362],[139.276,34.37],[139.277,34.382],[139.278,34.39],[139.28,34.394],[139.285,34.4],[139.29,34.403],[139.289,34.406],[139.287,34.412],[139.292,34.418],[139.291,34.424],[139.286,34.429],[139.283,34.43],[139.279,34.431]]],[[[139.287,34.478],[139.289,34.475],[139.292,34.471],[139.299,34.47],[139.292,34.475],[139.289,34.478]]]]}},{"type":"Feature","properties":{"name":"小笠原支庁小笠原村","code":"13421"},"geometry":{"type":"MultiPolygon","coordinates":[[[[153.984,24.298],[153.978,24.291],[153.972,24.287],[153.978,24.283],[153.982,24.281],[153.986,24.282],[153.985,24.29],[153.985,24.294],[153.984,24.298]]],[[[142.126,26.714],[142.123,26.711],[142.123,26.706],[142.127,26.701],[142.129,26.695],[142.131,26.69],[142.134,26.687],[142.136,26.682],[142.143,26.677],[142.144,26.672],[142.142,26.667],[142.145,26.667],[142.149,26.666],[142.149,26.662],[142.145,26.658],[142.146,26.653],[142.148,26.649],[142.152,26.648],[142.154,26.637],[142.158,26.639],[142.161,26.634],[142.162,26.63],[142.165,26.631],[142.17,26.632],[142.172,26.628],[142.176,26.624],[142.177,26.619],[142.178,26.615],[142.174,26.61],[142.178,26.608],[142.182,26.61],[142.181,26.614],[142.182,26.621],[142.18,26.624],[142.18,26.627],[142.18,26.631],[142.177,26.634],[142.173,26.636],[142.173,26.639],[142.171,26.643],[142.173,26.647],[142.174,26.653],[142.178,26.655],[142.184,26.655],[142.188,26.655],[142.188,26.659],[142.185,26.658],[142.181,26.657],[142.176,26.657],[142.173,26.656],[142.169,26.658],[142.165,26.661],[142.164,26.664],[142.163,26.67],[142.164,26.676],[142.166,26.68],[142.166,26.685],[142.168,26.69],[142.165,26.687],[142.159,26.687],[142.154,26.684],[142.15,26.684],[142.147,26.685],[142.146,26.693],[142.151,26.694],[142.154,26.699],[142.16,26.701],[142.163,26.7],[142.159,26.704],[142.155,26.709],[142.148,26.708],[142.142,26.708],[142.142,26.703],[142.143,26.699],[142.136,26.7],[142.131,26.704],[142.13,26.709],[142.126,26.714]]],[[[141.462,24.245],[141.459,24.245],[141.455,24.242],[141.454,24.236],[141.453,24.229],[141.456,24.225],[141.459,24.225],[141.469,24.227],[141.472,24.233],[141.473,24.24],[141.462,24.245]]],[[[141.323,24.813],[141.322,24.808],[141.317,24.806],[141.311,24.803],[141.305,24.799],[141.3,24.797],[141.297,24.796],[141.29,24.791],[141.286,24.787],[141.289,24.787],[141.293,24.781],[141.294,24.778],[141.294,24.771],[141.291,24.763],[141.289,24.757],[141.285,24.751],[141.286,24.746],[141.292,24.749],[141.295,24.753],[141.302,24.757],[141.311,24.761],[141.318,24.765],[141.324,24.769],[141.329,24.771],[141.336,24.771],[141.339,24.772],[141.343,24.775],[141.346,24.779],[141.346,24.782],[141.345,24.789],[141.344,24.794],[141.341,24.8],[141.336,24.806],[141.33,24.811],[141.323,24.813]]],[[[141.284,25.449],[141.28,25.448],[141.274,25.442],[141.272,25.429],[141.275,25.422],[141.278,25.419],[141.282,25.419],[141.288,25.421],[141.293,25.426],[141.293,25.429],[141.292,25.433],[141.293,25.436],[141.291,25.441],[141.29,25.444],[141.288,25.447],[141.284,25.449]]],[[[142.213,26.564],[142.21,26.564],[142.206,26.562],[142.202,26.557],[142.202,26.553],[142.205,26.555],[142.212,26.556],[142.215,26.557],[142.218,26.562],[142.213,26.564]]],[[[142.155,26.565],[142.153,26.559],[142.153,26.556],[142.154,26.552],[142.151,26.548],[142.156,26.543],[142.158,26.547],[142.161,26.549],[142.161,26.553],[142.159,26.556],[142.161,26.559],[142.157,26.562]]],[[[142.231,26.576],[142.227,26.571],[142.226,26.566],[142.232,26.567],[142.236,26.567],[142.24,26.569],[142.235,26.571],[142.231,26.576]]],[[[142.161,26.588],[142.158,26.588],[142.155,26.588],[142.149,26.586],[142.151,26.582],[142.155,26.584],[142.158,26.583],[142.161,26.586]]],[[[142.131,26.611],[142.127,26.61],[142.126,26.607],[142.124,26.604],[142.127,26.599],[142.125,26.596],[142.129,26.595],[142.133,26.596],[142.136,26.601],[142.135,26.605],[142.134,26.608]]],[[[142.174,27.044],[142.174,27.037],[142.175,27.032],[142.175,27.037],[142.174,27.044]]],[[[142.193,27.106],[142.189,27.105],[142.183,27.103],[142.183,27.097],[142.183,27.093],[142.186,27.091],[142.188,27.088],[142.192,27.093],[142.198,27.096],[142.201,27.099],[142.201,27.096],[142.203,27.091],[142.202,27.087],[142.206,27.086],[142.207,27.082],[142.207,27.078],[142.206,27.075],[142.202,27.073],[142.199,27.075],[142.192,27.075],[142.187,27.073],[142.183,27.075],[142.182,27.071],[142.187,27.072],[142.191,27.068],[142.191,27.065],[142.195,27.063],[142.194,27.059],[142.188,27.062],[142.188,27.056],[142.189,27.052],[142.189,27.049],[142.185,27.046],[142.19,27.044],[142.195,27.042],[142.198,27.046],[142.206,27.044],[142.208,27.04],[142.212,27.041],[142.217,27.042],[142.221,27.04],[142.22,27.036],[142.223,27.036],[142.229,27.036],[142.226,27.039],[142.223,27.044],[142.226,27.046],[142.226,27.05],[142.222,27.053],[142.225,27.054],[142.229,27.057],[142.234,27.051],[142.237,27.051],[142.235,27.056],[142.23,27.059],[142.232,27.063],[142.231,27.069],[142.233,27.073],[142.233,27.078],[142.228,27.081],[142.224,27.082],[142.223,27.086],[142.225,27.09],[142.223,27.093],[142.22,27.096],[142.218,27.1],[142.211,27.103],[142.206,27.103],[142.198,27.105],[142.193,27.104]]],[[[142.168,27.122],[142.165,27.121],[142.165,27.118],[142.162,27.115],[142.166,27.113],[142.17,27.115],[142.17,27.119]]],[[[142.192,27.144],[142.191,27.14],[142.193,27.134],[142.19,27.132],[142.189,27.127],[142.19,27.123],[142.187,27.122],[142.194,27.123],[142.198,27.123],[142.202,27.12],[142.206,27.118],[142.203,27.114],[142.201,27.11],[142.204,27.11],[142.21,27.109],[142.217,27.108],[142.22,27.109],[142.226,27.111],[142.229,27.11],[142.234,27.109],[142.235,27.114],[142.229,27.115],[142.227,27.118],[142.227,27.124],[142.223,27.126],[142.219,27.13],[142.22,27.133],[142.216,27.133],[142.21,27.13],[142.205,27.129],[142.207,27.133],[142.204,27.135],[142.2,27.133],[142.195,27.138],[142.194,27.141],[142.192,27.144]]],[[[142.189,27.19],[142.185,27.187],[142.188,27.184],[142.186,27.18],[142.188,27.177],[142.188,27.172],[142.184,27.169],[142.184,27.159],[142.186,27.155],[142.186,27.15],[142.181,27.151],[142.181,27.146],[142.187,27.145],[142.188,27.15],[142.192,27.151],[142.196,27.155],[142.199,27.158],[142.2,27.163],[142.201,27.166],[142.198,27.171],[142.195,27.176],[142.2,27.181],[142.196,27.185],[142.191,27.186],[142.189,27.19]]],[[[140.875,27.254],[140.871,27.251],[140.871,27.247],[140.869,27.243],[140.875,27.238],[140.878,27.238],[140.882,27.237],[140.887,27.239],[140.889,27.243],[140.889,27.248],[140.886,27.251],[140.88,27.253],[140.875,27.254]]],[[[142.211,27.502],[142.205,27.5],[142.204,27.497],[142.211,27.495],[142.212,27.49],[142.215,27.49],[142.214,27.495],[142.213,27.498],[142.211,27.502]]],[[[142.175,27.636],[142.171,27.631],[142.173,27.626],[142.179,27.625],[142.183,27.621],[142.187,27.623],[142.185,27.626],[142.183,27.63],[142.18,27.63],[142.178,27.634],[142.175,27.636]]],[[[142.131,27.689],[142.128,27.688],[142.125,27.684],[142.129,27.682],[142.133,27.68],[142.139,27.679],[142.138,27.674],[142.141,27.671],[142.146,27.671],[142.149,27.674],[142.148,27.68],[142.148,27.684],[142.143,27.686],[142.14,27.689],[142.136,27.687],[142.133,27.686],[142.131,27.689]]]]}},{"type":"Feature","properties":{"name":"所属未定地","code":null},"geometry":{"type":"MultiPolygon","coordinates":[[[[139.841,35.643],[139.849,35.643],[139.85,35.657],[139.846,35.657],[139.843,35.653],[139.841,35.643]]],[[[139.807,35.598],[139.812,35.589],[139.806,35.585],[139.813,35.579],[139.832,35.589],[139.821,35.606],[139.815,35.6],[139.812,35.595],[139.809,35.599],[139.811,35.594],[139.807,35.598]]],[[[140.304,30.496],[140.298,30.495],[140.294,30.493],[140.29,30.489],[140.286,30.483],[140.29,30.481],[140.296,30.474],[140.301,30.473],[140.309,30.475],[140.314,30.482],[140.314,30.487],[140.312,30.491],[140.307,30.495],[140.304,30.496]]]]}},{"type":"Feature","properties":{"name":"大島支庁神津島村","code":"13364"},"geometry":{"type":"MultiPolygon","coordinates":[[[[139.143,34.244],[139.14,34.243],[139.138,34.238],[139.134,34.235],[139.136,34.232],[139.137,34.226],[139.131,34.223],[139.128,34.223],[139.131,34.219],[139.131,34.212],[139.133,34.207],[139.133,34.202],[139.129,34.201],[139.126,34.201],[139.122,34.199],[139.121,34.196],[139.121,34.19],[139.124,34.19],[139.128,34.187],[139.133,34.186],[139.139,34.186],[139.143,34.188],[139.146,34.189],[139.146,34.193],[139.149,34.197],[139.152,34.193],[139.155,34.195],[139.156,34.199],[139.157,34.205],[139.162,34.207],[139.166,34.208],[139.17,34.205],[139.175,34.206],[139.175,34.21],[139.173,34.214],[139.174,34.218],[139.172,34.224],[139.17,34.231],[139.168,34.234],[139.163,34.236],[139.158,34.238],[139.152,34.24],[139.149,34.24],[139.143,34.244]]]]}},{"type":"Feature","properties":{"name":"三宅支庁三宅村","code":"13381"},"geometry":{"type":"MultiPolygon","coordinates":[[[[139.532,34.125],[139.527,34.125],[139.523,34.125],[139.519,34.124],[139.514,34.121],[139.507,34.123],[139.502,34.121],[139.499,34.122],[139.493,34.12],[139.49,34.115],[139.492,34.109],[139.494,34.106],[139.493,34.102],[139.488,34.101],[139.488,34.096],[139.483,34.092],[139.481,34.087],[139.482,34.083],[139.478,34.08],[139.474,34.078],[139.475,34.074],[139.478,34.073],[139.48,34.068],[139.478,34.063],[139.479,34.059],[139.481,34.054],[139.485,34.053],[139.488,34.052],[139.493,34.048],[139.497,34.048],[139.501,34.046],[139.506,34.048],[139.512,34.049],[139.517,34.048],[139.522,34.047],[139.525,34.049],[139.529,34.047],[139.533,34.049],[139.535,34.053],[139.538,34.054],[139.542,34.056],[139.546,34.058],[139.551,34.059],[139.555,34.063],[139.56,34.066],[139.561,34.069],[139.564,34.074],[139.563,34.078],[139.563,34.082],[139.561,34.085],[139.563,34.089],[139.565,34.094],[139.565,34.098],[139.565,34.102],[139.563,34.105],[139.559,34.111],[139.555,34.113],[139.551,34.116],[139.548,34.117],[139.547,34.12],[139.541,34.122],[139.536,34.123],[139.532,34.125]]]]}},{"type":"Feature","properties":{"name":"三宅支庁御蔵島村","code":"13382"},"geometry":{"type":"MultiPolygon","coordinates":[[[[139.604,33.901],[139.6,33.901],[139.594,33.899],[139.591,33.898],[139.583,33.889],[139.578,33.883],[139.577,33.878],[139.577,33.871],[139.577,33.866],[139.578,33.861],[139.583,33.858],[139.589,33.856],[139.592,33.854],[139.601,33.855],[139.611,33.853],[139.619,33.852],[139.624,33.855],[139.626,33.859],[139.632,33.869],[139.63,33.874],[139.628,33.878],[139.625,33.884],[139.622,33.888],[139.619,33.892],[139.613,33.896],[139.61,33.899],[139.606,33.901]]]]}},{"type":"Feature","properties":{"name":"八丈支庁八丈町","code":"13401"},"geometry":{"type":"MultiPolygon","coordinates":[[[[139.686,33.137],[139.681,33.135],[139.677,33.135],[139.675,33.131],[139.681,33.126],[139.684,33.119],[139.689,33.116],[139.694,33.118],[139.698,33.117],[139.699,33.121],[139.699,33.125],[139.697,33.128],[139.691,33.13],[139.688,33.134]]],[[[139.76,33.159],[139.757,33.158],[139.753,33.158],[139.749,33.157],[139.746,33.156],[139.743,33.151],[139.741,33.147],[139.74,33.144],[139.738,33.138],[139.74,33.134],[139.741,33.129],[139.743,33.126],[139.745,33.123],[139.748,33.119],[139.751,33.116],[139.752,33.112],[139.753,33.109],[139.755,33.104],[139.761,33.103],[139.767,33.102],[139.773,33.098],[139.777,33.1],[139.779,33.096],[139.78,33.093],[139.78,33.089],[139.78,33.082],[139.78,33.076],[139.784,33.07],[139.79,33.066],[139.796,33.063],[139.802,33.064],[139.805,33.062],[139.811,33.059],[139.815,33.06],[139.819,33.059],[139.822,33.055],[139.827,33.05],[139.832,33.045],[139.836,33.048],[139.836,33.052],[139.834,33.063],[139.833,33.066],[139.837,33.07],[139.839,33.073],[139.842,33.076],[139.845,33.076],[139.85,33.078],[139.855,33.077],[139.859,33.084],[139.856,33.088],[139.854,33.094],[139.857,33.098],[139.852,33.105],[139.85,33.108],[139.849,33.112],[139.845,33.116],[139.836,33.118],[139.83,33.117],[139.826,33.118],[139.82,33.12],[139.817,33.123],[139.814,33.128],[139.81,33.13],[139.806,33.129],[139.803,33.133],[139.798,33.134],[139.797,33.137],[139.796,33.142],[139.789,33.145],[139.783,33.149],[139.776,33.155],[139.771,33.158],[139.764,33.159],[139.76,33.159]]]]}},{"type":"Feature","properties":{"name":"八丈支庁青ヶ島村","code":"13402"},"geometry":{"type":"MultiPolygon","coordinates":[[[[139.758,32.473],[139.755,32.472],[139.754,32.467],[139.755,32.455],[139.755,32.451],[139.761,32.446],[139.767,32.443],[139.773,32.445],[139.779,32.447],[139.781,32.45],[139.78,32.455],[139.779,32.459],[139.774,32.463],[139.77,32.469],[139.762,32.471],[139.758,32.473]]]]}}]}