{"type":"FeatureCollection","features":[{"type":"Feature","properties":{"name":"横浜市鶴見区","code":"14101"},"geometry":{"type":"MultiPolygon","coordinates":[[[[139.695,35.465],[139.692,35.472],[139.673,35.465],[139.673,35.461],[139.677,35.458],[139.695,35.45],[139.702,35.455],[139.698,35.461],[139.688,35.457],[139.685,35.459],[139.695,35.464]]],[[[139.725,35.47],[139.714,35.486],[139.702,35.481],[139.706,35.475],[139.713,35.464],[139.725,35.47]]],[[[139.678,35.54],[139.675,35.537],[139.666,35.533],[139.656,35.539],[139.65,35.537],[139.647,35.533],[139.647,35.523],[139.642,35.523],[139.641,35.518],[139.635,35.515],[139.639,35.506],[139.645,35.505],[139.653,35.5],[139.658,35.498],[139.658,35.495],[139.667,35.484],[139.673,35.475],[139.668,35.474],[139.668,35.468],[139.682,35.473],[139.682,35.478],[139.689,35.479],[139.693,35.481],[139.688,35.49],[139.693,35.492],[139.696,35.484],[139.711,35.491],[139.705,35.501],[139.703,35.504],[139.699,35.503],[139.697,35.506],[139.692,35.519],[139.688,35.523],[139.689,35.526],[139.684,35.531],[139.685,35.54],[139.678,35.54]]]]}},{"type":"Feature","properties":{"name":"横浜市神奈川区","code":"14102"},"geometry":{"type":"MultiPolygon","coordinates":[[[[139.646,35.475],[139.642,35.472],[139.653,35.464],[139.652,35.467],[139.656,35.47],[139.65,35.474],[139.646,35.475]]],[[[139.639,35.506],[139.637,35.501],[139.637,35.496],[139.631,35.494],[139.625,35.489],[139.622,35.491],[139.619,35.495],[139.613,35.492],[139.609,35.499],[139.603,35.498],[139.591,35.502],[139.583,35.504],[139.573,35.504],[139.568,35.497],[139.573,35.491],[139.58,35.475],[139.592,35.482],[139.601,35.48],[139.602,35.474],[139.599,35.468],[139.605,35.468],[139.611,35.472],[139.616,35.469],[139.623,35.468],[139.627,35.466],[139.632,35.467],[139.638,35.465],[139.642,35.473],[139.652,35.476],[139.648,35.48],[139.651,35.482],[139.654,35.477],[139.669,35.477],[139.667,35.484],[139.658,35.495],[139.658,35.498],[139.653,35.5],[139.644,35.502],[139.639,35.506]]]]}},{"type":"Feature","properties":{"name":"横浜市西区","code":"14103"},"geometry":{"type":"MultiPolygon","coordinates":[[[[139.605,35.468],[139.606,35.458],[139.605,35.451],[139.604,35.443],[139.615,35.444],[139.622,35.442],[139.626,35.444],[139.63,35.455],[139.636,35.455],[139.638,35.464],[139.633,35.465],[139.627,35.466],[139.623,35.468],[139.616,35.469],[139.611,35.472],[139.605,35.468]]]]}},{"type":"Feature","properties":{"name":"横浜市中区","code":"14104"},"geometry":{"type":"MultiPolygon","coordinates":[[[[139.692,35.41],[139.689,35.413],[139.684,35.409],[139.68,35.41],[139.671,35.403],[139.676,35.4],[139.682,35.405],[139.685,35.402],[139.679,35.395],[139.682,35.393],[139.689,35.399],[139.685,35.405],[139.692,35.41]]],[[[139.622,35.442],[139.63,35.44],[139.636,35.433],[139.634,35.428],[139.628,35.428],[139.628,35.424],[139.632,35.419],[139.638,35.419],[139.642,35.412],[139.653,35.413],[139.663,35.407],[139.669,35.406],[139.67,35.403],[139.679,35.411],[139.681,35.415],[139.678,35.416],[139.681,35.426],[139.685,35.427],[139.691,35.439],[139.685,35.442],[139.678,35.43],[139.681,35.442],[139.675,35.446],[139.671,35.439],[139.674,35.45],[139.67,35.451],[139.664,35.443],[139.66,35.441],[139.657,35.444],[139.664,35.447],[139.657,35.451],[139.652,35.445],[139.647,35.448],[139.644,35.454],[139.639,35.457],[139.63,35.455],[139.626,35.444],[139.622,35.442]]]]}},{"type":"Feature","properties":{"name":"横浜市南区","code":"14105"},"geometry":{"type":"MultiPolygon","coordinates":[[[[139.607,35.443],[139.601,35.44],[139.587,35.44],[139.583,35.435],[139.578,35.434],[139.573,35.422],[139.577,35.422],[139.581,35.413],[139.586,35.411],[139.591,35.413],[139.598,35.416],[139.597,35.412],[139.603,35.409],[139.606,35.408],[139.606,35.413],[139.607,35.42],[139.613,35.422],[139.616,35.425],[139.628,35.428],[139.634,35.428],[139.636,35.433],[139.63,35.44],[139.624,35.44],[139.615,35.444],[139.607,35.443]]]]}},{"type":"Feature","properties":{"name":"横浜市保土ケ谷区","code":"14106"},"geometry":{"type":"MultiPolygon","coordinates":[[[[139.568,35.497],[139.564,35.493],[139.553,35.498],[139.55,35.493],[139.557,35.485],[139.565,35.484],[139.567,35.481],[139.562,35.48],[139.558,35.472],[139.56,35.468],[139.564,35.465],[139.569,35.46],[139.562,35.453],[139.552,35.454],[139.545,35.451],[139.547,35.447],[139.552,35.443],[139.558,35.441],[139.558,35.438],[139.562,35.435],[139.572,35.438],[139.575,35.431],[139.583,35.435],[139.587,35.44],[139.601,35.44],[139.607,35.443],[139.605,35.451],[139.606,35.458],[139.605,35.468],[139.599,35.468],[139.602,35.474],[139.601,35.48],[139.592,35.482],[139.583,35.474],[139.573,35.491],[139.568,35.497]]]]}},{"type":"Feature","properties":{"name":"横浜市磯子区","code":"14107"},"geometry":{"type":"MultiPolygon","coordinates":[[[[139.628,35.428],[139.616,35.425],[139.613,35.422],[139.607,35.42],[139.606,35.413],[139.606,35.408],[139.609,35.404],[139.597,35.402],[139.604,35.395],[139.603,35.386],[139.598,35.388],[139.592,35.385],[139.588,35.385],[139.592,35.379],[139.597,35.367],[139.591,35.363],[139.59,35.355],[139.598,35.356],[139.605,35.357],[139.608,35.361],[139.613,35.363],[139.616,35.367],[139.62,35.373],[139.624,35.381],[139.629,35.384],[139.637,35.39],[139.631,35.395],[139.625,35.392],[139.622,35.396],[139.626,35.402],[139.632,35.4],[139.645,35.403],[139.642,35.407],[139.631,35.405],[139.628,35.409],[139.631,35.411],[139.642,35.412],[139.638,35.419],[139.632,35.419],[139.628,35.424],[139.628,35.428]]]]}},{"type":"Feature","properties":{"name":"横浜市金沢区","code":"14108"},"geometry":{"type":"MultiPolygon","coordinates":[[[[139.634,35.33],[139.63,35.329],[139.634,35.323],[139.638,35.327],[139.634,35.33]]],[[[139.59,35.355],[139.589,35.35],[139.589,35.342],[139.588,35.337],[139.589,35.33],[139.593,35.324],[139.593,35.32],[139.596,35.316],[139.602,35.317],[139.609,35.313],[139.614,35.317],[139.625,35.319],[139.632,35.325],[139.623,35.33],[139.63,35.33],[139.635,35.333],[139.634,35.336],[139.639,35.341],[139.646,35.34],[139.657,35.342],[139.657,35.353],[139.651,35.36],[139.651,35.366],[139.657,35.367],[139.657,35.373],[139.65,35.373],[139.646,35.378],[139.651,35.383],[139.653,35.387],[139.646,35.391],[139.64,35.385],[139.634,35.383],[139.629,35.384],[139.624,35.381],[139.62,35.373],[139.616,35.367],[139.613,35.363],[139.608,35.361],[139.605,35.357],[139.601,35.355],[139.59,35.355]]]]}},{"type":"Feature","properties":{"name":"横浜市港北区","code":"14109"},"geometry":{"type":"MultiPolygon","coordinates":[[[[139.656,35.539],[139.654,35.543],[139.658,35.555],[139.652,35.557],[139.648,35.56],[139.643,35.558],[139.633,35.561],[139.626,35.563],[139.614,35.561],[139.611,35.557],[139.611,35.553],[139.607,35.552],[139.603,35.546],[139.602,35.541],[139.599,35.541],[139.596,35.537],[139.599,35.533],[139.6,35.528],[139.604,35.523],[139.602,35.516],[139.597,35.517],[139.592,35.514],[139.585,35.513],[139.587,35.508],[139.583,35.504],[139.591,35.504],[139.603,35.498],[139.609,35.499],[139.613,35.492],[139.619,35.495],[139.622,35.491],[139.625,35.489],[139.631,35.494],[139.635,35.493],[139.637,35.501],[139.639,35.506],[139.635,35.515],[139.641,35.518],[139.642,35.523],[139.647,35.523],[139.647,35.533],[139.65,35.537],[139.656,35.539]]]]}},{"type":"Feature","properties":{"name":"横浜市戸塚区","code":"14110"},"geometry":{"type":"MultiPolygon","coordinates":[[[[139.575,35.431],[139.572,35.438],[139.562,35.435],[139.558,35.438],[139.558,35.441],[139.552,35.443],[139.547,35.447],[139.537,35.443],[139.534,35.447],[139.531,35.448],[139.527,35.447],[139.53,35.443],[139.526,35.438],[139.53,35.429],[139.527,35.422],[139.52,35.412],[139.519,35.405],[139.513,35.405],[139.506,35.395],[139.502,35.393],[139.497,35.395],[139.492,35.39],[139.484,35.387],[139.486,35.382],[139.492,35.38],[139.494,35.375],[139.49,35.372],[139.489,35.366],[139.486,35.359],[139.495,35.358],[139.503,35.368],[139.514,35.362],[139.519,35.362],[139.52,35.365],[139.517,35.374],[139.526,35.379],[139.532,35.377],[139.532,35.383],[139.536,35.383],[139.542,35.379],[139.548,35.379],[139.553,35.384],[139.556,35.39],[139.561,35.397],[139.557,35.4],[139.557,35.409],[139.554,35.411],[139.554,35.415],[139.558,35.416],[139.562,35.42],[139.566,35.417],[139.573,35.422],[139.575,35.431]]]]}},{"type":"Feature","properties":{"name":"横浜市港南区","code":"14111"},"geometry":{"type":"MultiPolygon","coordinates":[[[[139.573,35.422],[139.566,35.417],[139.562,35.42],[139.558,35.416],[139.554,35.415],[139.554,35.411],[139.557,35.409],[139.557,35.4],[139.561,35.397],[139.559,35.392],[139.553,35.384],[139.561,35.38],[139.559,35.376],[139.563,35.373],[139.568,35.373],[139.581,35.366],[139.591,35.363],[139.597,35.367],[139.589,35.378],[139.588,35.385],[139.592,35.385],[139.598,35.388],[139.603,35.386],[139.604,35.395],[139.597,35.402],[139.609,35.404],[139.606,35.408],[139.603,35.409],[139.597,35.412],[139.598,35.416],[139.593,35.415],[139.586,35.411],[139.581,35.413],[139.577,35.422],[139.573,35.422]]]]}},{"type":"Feature","properties":{"name":"横浜市旭区","code":"14112"},"geometry":{"type":"MultiPolygon","coordinates":[[[[139.553,35.498],[139.547,35.499],[139.543,35.497],[139.539,35.501],[139.534,35.5],[139.53,35.503],[139.526,35.504],[139.514,35.499],[139.506,35.502],[139.506,35.506],[139.503,35.509],[139.491,35.507],[139.488,35.503],[139.487,35.499],[139.489,35.489],[139.502,35.479],[139.501,35.475],[139.503,35.469],[139.505,35.461],[139.508,35.457],[139.507,35.453],[139.511,35.446],[139.516,35.449],[139.524,35.448],[139.531,35.448],[139.534,35.447],[139.537,35.443],[139.547,35.447],[139.545,35.451],[139.552,35.454],[139.562,35.453],[139.569,35.46],[139.564,35.465],[139.56,35.468],[139.558,35.472],[139.563,35.478],[139.567,35.481],[139.565,35.484],[139.557,35.485],[139.55,35.493],[139.553,35.498]]]]}},{"type":"Feature","properties":{"name":"横浜市緑区","code":"14113"},"geometry":{"type":"MultiPolygon","coordinates":[[[[139.583,35.504],[139.587,35.508],[139.585,35.513],[139.575,35.516],[139.569,35.513],[139.564,35.513],[139.558,35.511],[139.553,35.512],[139.551,35.519],[139.548,35.522],[139.545,35.532],[139.541,35.536],[139.538,35.535],[139.534,35.537],[139.524,35.532],[139.522,35.527],[139.518,35.531],[139.513,35.53],[139.508,35.535],[139.502,35.535],[139.495,35.539],[139.487,35.536],[139.486,35.531],[139.488,35.528],[139.486,35.52],[139.483,35.519],[139.477,35.511],[139.481,35.505],[139.485,35.504],[139.488,35.503],[139.491,35.507],[139.503,35.509],[139.506,35.506],[139.506,35.502],[139.514,35.499],[139.526,35.504],[139.53,35.503],[139.534,35.5],[139.539,35.501],[139.543,35.497],[139.547,35.499],[139.553,35.498],[139.564,35.493],[139.568,35.497],[139.573,35.504],[139.583,35.504]]]]}},{"type":"Feature","properties":{"name":"横浜市瀬谷区","code":"14114"},"geometry":{"type":"MultiPolygon","coordinates":[[[[139.488,35.503],[139.485,35.504],[139.476,35.501],[139.468,35.502],[139.465,35.498],[139.471,35.493],[139.469,35.485],[139.47,35.478],[139.472,35.472],[139.472,35.462],[139.474,35.457],[139.481,35.449],[139.484,35.448],[139.485,35.443],[139.495,35.443],[139.495,35.438],[139.504,35.435],[139.51,35.438],[139.509,35.441],[139.511,35.446],[139.507,35.453],[139.508,35.457],[139.505,35.461],[139.505,35.467],[139.501,35.475],[139.502,35.479],[139.489,35.489],[139.487,35.499],[139.488,35.503]]]]}},{"type":"Feature","properties":{"name":"横浜市栄区","code":"14115"},"geometry":{"type":"MultiPolygon","coordinates":[[[[139.591,35.363],[139.581,35.366],[139.568,35.373],[139.563,35.373],[139.559,35.376],[139.561,35.38],[139.553,35.384],[139.548,35.379],[139.542,35.379],[139.536,35.383],[139.532,35.383],[139.532,35.377],[139.526,35.379],[139.517,35.374],[139.52,35.365],[139.519,35.362],[139.526,35.357],[139.531,35.357],[139.536,35.355],[139.542,35.357],[139.544,35.363],[139.549,35.36],[139.548,35.355],[139.554,35.352],[139.558,35.347],[139.561,35.346],[139.57,35.348],[139.573,35.342],[139.574,35.337],[139.588,35.337],[139.589,35.342],[139.589,35.35],[139.59,35.355],[139.593,35.362]]]]}},{"type":"Feature","properties":{"name":"横浜市泉区","code":"14116"},"geometry":{"type":"MultiPolygon","coordinates":[[[[139.531,35.448],[139.524,35.448],[139.516,35.449],[139.511,35.446],[139.509,35.441],[139.51,35.438],[139.506,35.437],[139.495,35.438],[139.495,35.443],[139.485,35.443],[139.484,35.448],[139.481,35.449],[139.473,35.436],[139.474,35.431],[139.473,35.424],[139.478,35.42],[139.476,35.41],[139.479,35.392],[139.484,35.387],[139.492,35.39],[139.497,35.395],[139.502,35.393],[139.506,35.395],[139.51,35.404],[139.519,35.405],[139.52,35.412],[139.527,35.422],[139.53,35.429],[139.526,35.438],[139.53,35.44],[139.527,35.447],[139.531,35.448]]]]}},{"type":"Feature","properties":{"name":"横浜市青葉区","code":"14117"},"geometry":{"type":"MultiPolygon","coordinates":[[[[139.541,35.536],[139.552,35.54],[139.552,35.548],[139.558,35.553],[139.562,35.552],[139.564,35.556],[139.562,35.561],[139.568,35.571],[139.565,35.579],[139.556,35.587],[139.537,35.591],[139.527,35.593],[139.528,35.588],[139.529,35.582],[139.525,35.579],[139.524,35.574],[139.513,35.57],[139.507,35.576],[139.507,35.572],[139.501,35.57],[139.496,35.565],[139.491,35.561],[139.486,35.569],[139.483,35.571],[139.475,35.571],[139.47,35.57],[139.468,35.563],[139.48,35.559],[139.482,35.556],[139.482,35.547],[139.48,35.543],[139.482,35.54],[139.487,35.536],[139.495,35.539],[139.502,35.535],[139.508,35.535],[139.513,35.53],[139.518,35.531],[139.522,35.527],[139.524,35.532],[139.534,35.537],[139.538,35.535],[139.541,35.536]]]]}},{"type":"Feature","properties":{"name":"横浜市都筑区","code":"14118"},"geometry":{"type":"MultiPolygon","coordinates":[[[[139.614,35.561],[139.61,35.565],[139.601,35.566],[139.58,35.569],[139.575,35.569],[139.572,35.572],[139.568,35.571],[139.562,35.561],[139.564,35.556],[139.562,35.552],[139.558,35.553],[139.552,35.548],[139.552,35.54],[139.541,35.536],[139.545,35.532],[139.548,35.522],[139.551,35.519],[139.553,35.512],[139.558,35.511],[139.564,35.513],[139.569,35.513],[139.575,35.516],[139.585,35.513],[139.592,35.514],[139.597,35.517],[139.602,35.516],[139.604,35.523],[139.6,35.528],[139.599,35.533],[139.596,35.537],[139.599,35.541],[139.602,35.541],[139.603,35.546],[139.607,35.552],[139.611,35.553],[139.611,35.557],[139.614,35.561]]]]}},{"type":"Feature","properties":{"name":"川崎市川崎区","code":"14131"},"geometry":{"type":"MultiPolygon","coordinates":[[[[139.725,35.47],[139.742,35.477],[139.735,35.487],[139.739,35.489],[139.734,35.495],[139.714,35.486],[139.725,35.47]]],[[[139.771,35.506],[139.761,35.506],[139.736,35.494],[139.74,35.488],[139.746,35.485],[139.779,35.5],[139.776,35.503],[139.771,35.506]]],[[[139.757,35.527],[139.749,35.52],[139.752,35.509],[139.765,35.512],[139.759,35.526]]],[[[139.711,35.491],[139.731,35.499],[139.73,35.511],[139.734,35.501],[139.749,35.507],[139.746,35.519],[139.756,35.528],[139.761,35.53],[139.77,35.514],[139.776,35.51],[139.78,35.513],[139.791,35.508],[139.794,35.512],[139.796,35.519],[139.79,35.52],[139.788,35.524],[139.774,35.532],[139.768,35.539],[139.756,35.545],[139.747,35.544],[139.739,35.545],[139.735,35.541],[139.726,35.543],[139.717,35.538],[139.711,35.537],[139.703,35.537],[139.69,35.526],[139.688,35.523],[139.692,35.519],[139.697,35.506],[139.699,35.503],[139.703,35.504],[139.705,35.501],[139.711,35.491]]]]}},{"type":"Feature","properties":{"name":"川崎市幸区","code":"14132"},"geometry":{"type":"MultiPolygon","coordinates":[[[[139.689,35.526],[139.703,35.537],[139.698,35.541],[139.698,35.545],[139.704,35.549],[139.703,35.553],[139.698,35.556],[139.69,35.557],[139.681,35.561],[139.685,35.559],[139.68,35.555],[139.674,35.555],[139.669,35.561],[139.669,35.553],[139.664,35.553],[139.663,35.558],[139.658,35.555],[139.654,35.543],[139.656,35.539],[139.666,35.533],[139.675,35.537],[139.678,35.54],[139.685,35.54],[139.684,35.531],[139.689,35.526]]]]}},{"type":"Feature","properties":{"name":"川崎市中原区","code":"14133"},"geometry":{"type":"MultiPolygon","coordinates":[[[[139.658,35.555],[139.663,35.558],[139.664,35.553],[139.669,35.553],[139.667,35.559],[139.674,35.555],[139.68,35.555],[139.685,35.559],[139.681,35.561],[139.676,35.566],[139.669,35.585],[139.663,35.59],[139.657,35.59],[139.65,35.593],[139.643,35.598],[139.638,35.593],[139.634,35.595],[139.629,35.596],[139.628,35.592],[139.629,35.58],[139.634,35.572],[139.64,35.568],[139.637,35.566],[139.633,35.561],[139.643,35.558],[139.648,35.56],[139.652,35.557],[139.658,35.555]]]]}},{"type":"Feature","properties":{"name":"川崎市高津区","code":"14134"},"geometry":{"type":"MultiPolygon","coordinates":[[[[139.633,35.561],[139.637,35.566],[139.64,35.568],[139.634,35.572],[139.629,35.58],[139.628,35.592],[139.629,35.596],[139.634,35.595],[139.638,35.593],[139.643,35.598],[139.631,35.607],[139.625,35.61],[139.618,35.614],[139.612,35.616],[139.605,35.616],[139.6,35.618],[139.597,35.618],[139.601,35.612],[139.591,35.611],[139.588,35.606],[139.588,35.601],[139.587,35.598],[139.592,35.594],[139.598,35.591],[139.601,35.586],[139.61,35.581],[139.616,35.581],[139.62,35.575],[139.615,35.573],[139.61,35.565],[139.614,35.561],[139.626,35.563],[139.633,35.561]]]]}},{"type":"Feature","properties":{"name":"川崎市多摩区","code":"14135"},"geometry":{"type":"MultiPolygon","coordinates":[[[[139.597,35.618],[139.592,35.618],[139.586,35.62],[139.577,35.622],[139.571,35.624],[139.563,35.632],[139.557,35.634],[139.549,35.634],[139.536,35.639],[139.531,35.642],[139.525,35.643],[139.521,35.637],[139.523,35.632],[139.517,35.631],[139.515,35.625],[139.52,35.621],[139.524,35.622],[139.526,35.618],[139.523,35.615],[139.524,35.607],[139.527,35.603],[139.531,35.603],[139.531,35.597],[139.539,35.597],[139.547,35.6],[139.553,35.606],[139.565,35.604],[139.572,35.605],[139.576,35.608],[139.588,35.606],[139.592,35.608],[139.601,35.612],[139.597,35.618]]]]}},{"type":"Feature","properties":{"name":"川崎市宮前区","code":"14136"},"geometry":{"type":"MultiPolygon","coordinates":[[[[139.568,35.571],[139.572,35.572],[139.575,35.569],[139.58,35.569],[139.601,35.566],[139.61,35.565],[139.615,35.573],[139.62,35.575],[139.616,35.581],[139.61,35.581],[139.601,35.586],[139.598,35.591],[139.594,35.591],[139.587,35.598],[139.588,35.601],[139.588,35.606],[139.578,35.605],[139.572,35.605],[139.565,35.604],[139.553,35.606],[139.547,35.6],[139.539,35.597],[139.531,35.597],[139.527,35.593],[139.537,35.591],[139.556,35.587],[139.565,35.579],[139.568,35.571]]]]}},{"type":"Feature","properties":{"name":"川崎市麻生区","code":"14137"},"geometry":{"type":"MultiPolygon","coordinates":[[[[139.483,35.571],[139.486,35.579],[139.49,35.584],[139.485,35.585],[139.476,35.581],[139.473,35.574],[139.47,35.57],[139.475,35.571],[139.483,35.571]]],[[[139.527,35.593],[139.531,35.597],[139.531,35.603],[139.527,35.603],[139.524,35.607],[139.523,35.615],[139.526,35.618],[139.524,35.622],[139.52,35.621],[139.515,35.625],[139.503,35.623],[139.495,35.617],[139.496,35.612],[139.5,35.607],[139.489,35.605],[139.487,35.608],[139.481,35.61],[139.477,35.615],[139.476,35.619],[139.468,35.621],[139.465,35.624],[139.461,35.622],[139.452,35.616],[139.449,35.612],[139.453,35.607],[139.457,35.607],[139.464,35.609],[139.47,35.603],[139.477,35.6],[139.494,35.586],[139.494,35.583],[139.499,35.581],[139.505,35.575],[139.513,35.57],[139.522,35.571],[139.525,35.579],[139.529,35.582],[139.527,35.586],[139.527,35.593]]]]}},{"type":"Feature","properties":{"name":"相模原市緑区","code":"14151"},"geometry":{"type":"MultiPolygon","coordinates":[[[[139.361,35.599],[139.357,35.599],[139.338,35.604],[139.329,35.604],[139.321,35.607],[139.314,35.604],[139.305,35.605],[139.299,35.606],[139.293,35.612],[139.283,35.613],[139.274,35.611],[139.266,35.607],[139.265,35.602],[139.258,35.604],[139.252,35.602],[139.247,35.605],[139.239,35.607],[139.23,35.615],[139.229,35.62],[139.225,35.624],[139.22,35.626],[139.221,35.629],[139.215,35.637],[139.214,35.641],[139.216,35.646],[139.211,35.649],[139.205,35.652],[139.198,35.653],[139.193,35.65],[139.184,35.645],[139.179,35.646],[139.175,35.65],[139.169,35.651],[139.167,35.662],[139.162,35.668],[139.154,35.666],[139.147,35.667],[139.137,35.672],[139.131,35.672],[139.124,35.663],[139.12,35.66],[139.117,35.655],[139.127,35.642],[139.124,35.634],[139.124,35.631],[139.123,35.624],[139.13,35.618],[139.134,35.616],[139.128,35.613],[139.132,35.609],[139.129,35.595],[139.125,35.593],[139.121,35.587],[139.124,35.582],[139.128,35.581],[139.127,35.572],[139.13,35.567],[139.128,35.563],[139.121,35.556],[139.115,35.554],[139.112,35.55],[139.112,35.545],[139.114,35.538],[139.107,35.532],[139.104,35.527],[139.094,35.522],[139.086,35.512],[139.081,35.513],[139.074,35.51],[139.069,35.511],[139.068,35.504],[139.073,35.5],[139.074,35.496],[139.087,35.493],[139.091,35.488],[139.097,35.487],[139.102,35.479],[139.108,35.479],[139.115,35.477],[139.127,35.478],[139.13,35.485],[139.14,35.486],[139.147,35.483],[139.148,35.478],[139.158,35.478],[139.163,35.475],[139.166,35.479],[139.167,35.483],[139.176,35.49],[139.181,35.497],[139.192,35.506],[139.2,35.507],[139.204,35.514],[139.209,35.515],[139.211,35.521],[139.215,35.521],[139.217,35.525],[139.223,35.529],[139.218,35.533],[139.23,35.536],[139.232,35.532],[139.238,35.534],[139.241,35.538],[139.248,35.543],[139.25,35.547],[139.262,35.55],[139.267,35.55],[139.277,35.546],[139.287,35.556],[139.294,35.557],[139.298,35.554],[139.303,35.552],[139.304,35.548],[139.307,35.545],[139.313,35.542],[139.317,35.538],[139.325,35.544],[139.323,35.547],[139.324,35.551],[139.323,35.559],[139.329,35.562],[139.331,35.568],[139.338,35.573],[139.346,35.57],[139.354,35.566],[139.352,35.571],[139.347,35.571],[139.341,35.577],[139.345,35.586],[139.353,35.584],[139.353,35.589],[139.356,35.589],[139.358,35.595],[139.361,35.599]]]]}},{"type":"Feature","properties":{"name":"相模原市中央区","code":"14152"},"geometry":{"type":"MultiPolygon","coordinates":[[[[139.325,35.544],[139.344,35.533],[139.355,35.527],[139.361,35.534],[139.368,35.534],[139.373,35.537],[139.375,35.542],[139.382,35.544],[139.388,35.549],[139.392,35.55],[139.396,35.554],[139.403,35.559],[139.413,35.555],[139.418,35.558],[139.418,35.562],[139.413,35.566],[139.409,35.575],[139.403,35.576],[139.399,35.585],[139.391,35.585],[139.389,35.589],[139.385,35.588],[139.377,35.592],[139.373,35.595],[139.361,35.599],[139.358,35.595],[139.356,35.589],[139.353,35.589],[139.353,35.584],[139.345,35.586],[139.341,35.577],[139.347,35.571],[139.352,35.571],[139.354,35.566],[139.348,35.567],[139.339,35.571],[139.331,35.568],[139.329,35.562],[139.323,35.559],[139.324,35.551],[139.323,35.547],[139.325,35.544]]]]}},{"type":"Feature","properties":{"name":"相模原市南区","code":"14153"},"geometry":{"type":"MultiPolygon","coordinates":[[[[139.355,35.527],[139.364,35.521],[139.375,35.517],[139.377,35.513],[139.376,35.503],[139.374,35.492],[139.388,35.491],[139.395,35.497],[139.4,35.497],[139.407,35.499],[139.41,35.502],[139.411,35.507],[139.421,35.515],[139.428,35.511],[139.429,35.507],[139.443,35.512],[139.447,35.517],[139.456,35.52],[139.458,35.528],[139.449,35.535],[139.445,35.541],[139.441,35.543],[139.436,35.547],[139.429,35.55],[139.424,35.556],[139.422,35.559],[139.418,35.562],[139.418,35.558],[139.413,35.555],[139.403,35.559],[139.396,35.554],[139.392,35.55],[139.388,35.549],[139.382,35.544],[139.375,35.542],[139.373,35.537],[139.368,35.534],[139.361,35.534],[139.355,35.527]]]]}},{"type":"Feature","properties":{"name":"横須賀市","code":"14201"},"geometry":{"type":"MultiPolygon","coordinates":[[[[139.652,35.307],[139.644,35.3],[139.649,35.295],[139.653,35.297],[139.656,35.302],[139.652,35.307]]],[[[139.636,35.323],[139.632,35.322],[139.632,35.325],[139.625,35.319],[139.614,35.317],[139.609,35.313],[139.612,35.307],[139.618,35.303],[139.619,35.3],[139.623,35.293],[139.624,35.288],[139.621,35.284],[139.623,35.279],[139.628,35.279],[139.631,35.275],[139.639,35.274],[139.638,35.265],[139.636,35.262],[139.63,35.258],[139.622,35.257],[139.618,35.261],[139.613,35.258],[139.603,35.258],[139.597,35.256],[139.582,35.255],[139.578,35.253],[139.586,35.251],[139.6,35.239],[139.6,35.235],[139.604,35.232],[139.603,35.225],[139.609,35.222],[139.613,35.223],[139.621,35.22],[139.627,35.217],[139.627,35.213],[139.623,35.208],[139.617,35.208],[139.614,35.21],[139.609,35.209],[139.605,35.204],[139.605,35.199],[139.599,35.196],[139.606,35.194],[139.61,35.19],[139.616,35.19],[139.621,35.197],[139.626,35.199],[139.633,35.205],[139.641,35.207],[139.647,35.206],[139.655,35.21],[139.655,35.204],[139.658,35.202],[139.66,35.198],[139.665,35.193],[139.685,35.207],[139.693,35.209],[139.715,35.212],[139.725,35.212],[139.723,35.218],[139.716,35.218],[139.713,35.224],[139.718,35.228],[139.721,35.227],[139.723,35.224],[139.727,35.225],[139.729,35.229],[139.728,35.233],[139.72,35.24],[139.727,35.24],[139.733,35.241],[139.734,35.246],[139.738,35.25],[139.746,35.253],[139.74,35.261],[139.733,35.262],[139.727,35.264],[139.721,35.263],[139.703,35.264],[139.691,35.266],[139.69,35.271],[139.685,35.274],[139.677,35.28],[139.674,35.287],[139.68,35.289],[139.68,35.296],[139.674,35.3],[139.669,35.302],[139.662,35.301],[139.665,35.293],[139.658,35.291],[139.661,35.287],[139.661,35.283],[139.655,35.285],[139.65,35.288],[139.647,35.296],[139.642,35.299],[139.639,35.295],[139.635,35.296],[139.632,35.301],[139.639,35.301],[139.656,35.322],[139.661,35.322],[139.661,35.328],[139.649,35.327],[139.641,35.33],[139.638,35.326]]]]}},{"type":"Feature","properties":{"name":"平塚市","code":"14203"},"geometry":{"type":"MultiPolygon","coordinates":[[[[139.373,35.395],[139.359,35.395],[139.355,35.404],[139.355,35.393],[139.356,35.384],[139.347,35.379],[139.335,35.385],[139.332,35.381],[139.322,35.381],[139.319,35.378],[139.322,35.369],[139.316,35.372],[139.313,35.378],[139.308,35.382],[139.304,35.383],[139.301,35.381],[139.29,35.381],[139.292,35.373],[139.283,35.374],[139.275,35.373],[139.274,35.368],[139.267,35.356],[139.263,35.357],[139.251,35.354],[139.239,35.346],[139.24,35.335],[139.244,35.335],[139.249,35.33],[139.26,35.331],[139.262,35.334],[139.272,35.334],[139.28,35.333],[139.284,35.33],[139.296,35.331],[139.296,35.325],[139.307,35.319],[139.312,35.322],[139.319,35.323],[139.328,35.325],[139.331,35.326],[139.334,35.323],[139.329,35.321],[139.329,35.316],[139.33,35.312],[139.338,35.314],[139.359,35.315],[139.368,35.314],[139.374,35.315],[139.374,35.319],[139.369,35.323],[139.369,35.33],[139.371,35.335],[139.375,35.34],[139.37,35.34],[139.369,35.344],[139.37,35.351],[139.372,35.355],[139.372,35.361],[139.369,35.363],[139.371,35.368],[139.375,35.389],[139.373,35.395]]]]}},{"type":"Feature","properties":{"name":"鎌倉市","code":"14204"},"geometry":{"type":"MultiPolygon","coordinates":[[[[139.588,35.337],[139.574,35.337],[139.573,35.342],[139.57,35.348],[139.561,35.346],[139.558,35.347],[139.554,35.352],[139.548,35.355],[139.549,35.36],[139.544,35.363],[139.542,35.357],[139.536,35.355],[139.531,35.357],[139.526,35.357],[139.522,35.361],[139.514,35.362],[139.503,35.368],[139.495,35.358],[139.501,35.357],[139.508,35.351],[139.51,35.346],[139.517,35.341],[139.51,35.334],[139.503,35.333],[139.501,35.328],[139.497,35.324],[139.497,35.32],[139.491,35.314],[139.489,35.308],[139.51,35.305],[139.526,35.302],[139.532,35.304],[139.534,35.309],[139.54,35.309],[139.547,35.307],[139.552,35.303],[139.552,35.299],[139.557,35.303],[139.56,35.307],[139.569,35.31],[139.574,35.313],[139.585,35.317],[139.593,35.32],[139.593,35.324],[139.589,35.33],[139.588,35.337]]]]}},{"type":"Feature","properties":{"name":"藤沢市","code":"14205"},"geometry":{"type":"MultiPolygon","coordinates":[[[[139.483,35.303],[139.477,35.297],[139.487,35.299],[139.483,35.303]]],[[[139.484,35.387],[139.479,35.392],[139.476,35.41],[139.478,35.42],[139.473,35.424],[139.466,35.424],[139.461,35.423],[139.448,35.428],[139.444,35.428],[139.457,35.417],[139.449,35.408],[139.443,35.407],[139.443,35.413],[139.43,35.42],[139.425,35.42],[139.424,35.416],[139.413,35.419],[139.413,35.416],[139.407,35.408],[139.401,35.401],[139.395,35.401],[139.394,35.398],[139.395,35.391],[139.403,35.39],[139.4,35.385],[139.402,35.38],[139.405,35.377],[139.416,35.385],[139.428,35.384],[139.432,35.38],[139.432,35.373],[139.439,35.37],[139.44,35.365],[139.437,35.363],[139.436,35.359],[139.437,35.354],[139.443,35.347],[139.444,35.342],[139.444,35.332],[139.438,35.319],[139.454,35.318],[139.469,35.315],[139.477,35.311],[139.483,35.305],[139.489,35.308],[139.491,35.314],[139.497,35.32],[139.497,35.324],[139.501,35.328],[139.503,35.333],[139.51,35.334],[139.517,35.341],[139.51,35.346],[139.508,35.351],[139.501,35.357],[139.495,35.358],[139.486,35.359],[139.489,35.366],[139.49,35.372],[139.494,35.375],[139.492,35.38],[139.486,35.382],[139.484,35.387]]]]}},{"type":"Feature","properties":{"name":"小田原市","code":"14206"},"geometry":{"type":"MultiPolygon","coordinates":[[[[139.187,35.323],[139.181,35.329],[139.176,35.327],[139.17,35.327],[139.169,35.322],[139.165,35.318],[139.161,35.317],[139.155,35.313],[139.149,35.314],[139.143,35.323],[139.136,35.323],[139.136,35.319],[139.131,35.318],[139.134,35.31],[139.132,35.301],[139.131,35.288],[139.12,35.285],[139.118,35.28],[139.108,35.28],[139.092,35.278],[139.072,35.272],[139.066,35.273],[139.06,35.272],[139.063,35.265],[139.065,35.256],[139.069,35.255],[139.065,35.251],[139.059,35.248],[139.067,35.241],[139.073,35.242],[139.084,35.234],[139.087,35.235],[139.091,35.24],[139.092,35.243],[139.098,35.242],[139.104,35.24],[139.109,35.239],[139.118,35.24],[139.12,35.237],[139.114,35.232],[139.116,35.228],[139.11,35.226],[139.101,35.225],[139.092,35.221],[139.085,35.215],[139.084,35.207],[139.082,35.203],[139.077,35.2],[139.078,35.196],[139.087,35.194],[139.091,35.193],[139.094,35.19],[139.103,35.187],[139.111,35.186],[139.126,35.182],[139.131,35.178],[139.137,35.179],[139.136,35.182],[139.14,35.188],[139.138,35.193],[139.138,35.2],[139.141,35.203],[139.142,35.209],[139.141,35.215],[139.143,35.218],[139.142,35.225],[139.144,35.234],[139.148,35.239],[139.158,35.244],[139.171,35.254],[139.186,35.261],[139.208,35.277],[139.221,35.281],[139.234,35.286],[139.237,35.29],[139.237,35.296],[139.238,35.301],[139.238,35.304],[139.236,35.311],[139.238,35.315],[139.233,35.32],[139.227,35.318],[139.224,35.316],[139.214,35.317],[139.203,35.312],[139.197,35.317],[139.192,35.318],[139.187,35.323]]]]}},{"type":"Feature","properties":{"name":"茅ヶ崎市","code":"14207"},"geometry":{"type":"MultiPolygon","coordinates":[[[[139.374,35.315],[139.383,35.315],[139.397,35.316],[139.403,35.318],[139.415,35.316],[139.423,35.318],[139.438,35.319],[139.444,35.332],[139.444,35.342],[139.443,35.347],[139.44,35.353],[139.436,35.359],[139.437,35.363],[139.44,35.365],[139.439,35.37],[139.432,35.373],[139.432,35.38],[139.428,35.384],[139.416,35.385],[139.406,35.38],[139.401,35.368],[139.394,35.363],[139.397,35.356],[139.395,35.352],[139.375,35.35],[139.37,35.351],[139.369,35.344],[139.37,35.34],[139.375,35.34],[139.371,35.335],[139.369,35.33],[139.369,35.323],[139.374,35.319],[139.374,35.315]]]]}},{"type":"Feature","properties":{"name":"逗子市","code":"14208"},"geometry":{"type":"MultiPolygon","coordinates":[[[[139.593,35.32],[139.587,35.32],[139.574,35.313],[139.569,35.31],[139.56,35.307],[139.557,35.303],[139.552,35.299],[139.554,35.294],[139.561,35.293],[139.571,35.293],[139.573,35.287],[139.57,35.285],[139.575,35.283],[139.579,35.287],[139.584,35.286],[139.589,35.291],[139.602,35.292],[139.61,35.29],[139.612,35.287],[139.604,35.282],[139.598,35.281],[139.6,35.278],[139.606,35.276],[139.614,35.278],[139.623,35.276],[139.623,35.279],[139.621,35.284],[139.624,35.288],[139.623,35.293],[139.619,35.3],[139.618,35.303],[139.612,35.307],[139.609,35.313],[139.602,35.317],[139.596,35.316],[139.593,35.32]]]]}},{"type":"Feature","properties":{"name":"三浦市","code":"14210"},"geometry":{"type":"MultiPolygon","coordinates":[[[[139.61,35.138],[139.61,35.133],[139.622,35.132],[139.621,35.136],[139.61,35.138]]],[[[139.616,35.19],[139.618,35.185],[139.616,35.181],[139.62,35.173],[139.617,35.172],[139.617,35.167],[139.623,35.166],[139.616,35.162],[139.614,35.156],[139.61,35.153],[139.616,35.147],[139.611,35.146],[139.608,35.143],[139.615,35.139],[139.623,35.139],[139.627,35.137],[139.64,35.141],[139.646,35.138],[139.653,35.14],[139.657,35.139],[139.664,35.14],[139.665,35.146],[139.669,35.142],[139.677,35.139],[139.681,35.151],[139.679,35.157],[139.668,35.158],[139.663,35.159],[139.66,35.164],[139.66,35.171],[139.656,35.173],[139.655,35.181],[139.659,35.189],[139.665,35.193],[139.66,35.198],[139.658,35.202],[139.655,35.204],[139.655,35.21],[139.647,35.206],[139.641,35.207],[139.633,35.205],[139.629,35.199],[139.621,35.197],[139.616,35.19]]]]}},{"type":"Feature","properties":{"name":"秦野市","code":"14211"},"geometry":{"type":"MultiPolygon","coordinates":[[[[139.29,35.381],[139.284,35.383],[139.28,35.386],[139.267,35.384],[139.256,35.382],[139.253,35.385],[139.251,35.391],[139.258,35.398],[139.255,35.402],[139.249,35.409],[139.247,35.413],[139.244,35.414],[139.239,35.418],[139.239,35.422],[139.235,35.425],[139.231,35.432],[139.23,35.438],[139.231,35.441],[139.232,35.446],[139.228,35.452],[139.229,35.457],[139.222,35.459],[139.216,35.461],[139.207,35.459],[139.204,35.46],[139.202,35.455],[139.197,35.45],[139.194,35.451],[139.179,35.447],[139.177,35.451],[139.173,35.453],[139.163,35.454],[139.161,35.45],[139.158,35.449],[139.155,35.445],[139.141,35.444],[139.141,35.435],[139.146,35.43],[139.148,35.42],[139.148,35.414],[139.145,35.411],[139.146,35.407],[139.15,35.404],[139.149,35.401],[139.151,35.396],[139.15,35.392],[139.145,35.388],[139.144,35.382],[139.149,35.373],[139.157,35.365],[139.16,35.356],[139.171,35.359],[139.174,35.351],[139.18,35.346],[139.188,35.352],[139.196,35.356],[139.2,35.359],[139.205,35.361],[139.213,35.358],[139.218,35.352],[139.222,35.354],[139.234,35.351],[139.241,35.353],[139.244,35.355],[139.251,35.354],[139.263,35.357],[139.267,35.356],[139.274,35.368],[139.275,35.373],[139.283,35.374],[139.292,35.373],[139.29,35.381]]]]}},{"type":"Feature","properties":{"name":"厚木市","code":"14212"},"geometry":{"type":"MultiPolygon","coordinates":[[[[139.355,35.527],[139.351,35.524],[139.354,35.519],[139.347,35.517],[139.35,35.509],[139.347,35.507],[139.348,35.499],[139.344,35.498],[139.335,35.505],[139.327,35.506],[139.323,35.506],[139.316,35.511],[139.316,35.514],[139.312,35.517],[139.311,35.521],[139.307,35.523],[139.302,35.521],[139.295,35.52],[139.29,35.515],[139.284,35.512],[139.278,35.513],[139.276,35.507],[139.279,35.5],[139.283,35.497],[139.287,35.489],[139.291,35.482],[139.295,35.481],[139.299,35.478],[139.298,35.472],[139.296,35.465],[139.285,35.461],[139.281,35.462],[139.273,35.461],[139.266,35.461],[139.249,35.46],[139.246,35.463],[139.237,35.459],[139.231,35.452],[139.232,35.446],[139.231,35.441],[139.241,35.442],[139.243,35.447],[139.251,35.447],[139.255,35.448],[139.264,35.445],[139.277,35.443],[139.288,35.44],[139.3,35.435],[139.303,35.428],[139.31,35.424],[139.316,35.421],[139.322,35.424],[139.323,35.429],[139.326,35.428],[139.33,35.424],[139.333,35.423],[139.347,35.416],[139.348,35.412],[139.348,35.406],[139.352,35.4],[139.355,35.393],[139.355,35.404],[139.359,35.395],[139.373,35.395],[139.372,35.401],[139.369,35.407],[139.37,35.416],[139.374,35.429],[139.373,35.434],[139.375,35.437],[139.371,35.445],[139.371,35.45],[139.378,35.458],[139.38,35.463],[139.38,35.47],[139.375,35.484],[139.374,35.492],[139.376,35.503],[139.377,35.513],[139.375,35.517],[139.364,35.521],[139.355,35.527]]]]}},{"type":"Feature","properties":{"name":"大和市","code":"14213"},"geometry":{"type":"MultiPolygon","coordinates":[[[[139.468,35.502],[139.468,35.506],[139.465,35.511],[139.463,35.518],[139.456,35.52],[139.447,35.517],[139.443,35.512],[139.429,35.507],[139.434,35.496],[139.439,35.48],[139.435,35.477],[139.436,35.467],[139.451,35.468],[139.452,35.459],[139.455,35.452],[139.45,35.446],[139.449,35.432],[139.448,35.428],[139.461,35.423],[139.466,35.424],[139.473,35.424],[139.474,35.431],[139.473,35.436],[139.481,35.449],[139.474,35.457],[139.472,35.462],[139.475,35.47],[139.47,35.478],[139.469,35.485],[139.471,35.493],[139.466,35.495],[139.468,35.502]]]]}},{"type":"Feature","properties":{"name":"伊勢原市","code":"14214"},"geometry":{"type":"MultiPolygon","coordinates":[[[[139.355,35.393],[139.352,35.4],[139.348,35.406],[139.348,35.412],[139.347,35.416],[139.333,35.423],[139.33,35.424],[139.326,35.428],[139.323,35.429],[139.322,35.424],[139.316,35.421],[139.31,35.424],[139.303,35.428],[139.302,35.433],[139.288,35.44],[139.279,35.441],[139.264,35.445],[139.255,35.448],[139.251,35.447],[139.243,35.447],[139.241,35.442],[139.231,35.441],[139.23,35.438],[139.233,35.435],[139.235,35.425],[139.239,35.422],[139.239,35.418],[139.244,35.414],[139.247,35.413],[139.249,35.409],[139.255,35.405],[139.258,35.398],[139.251,35.391],[139.253,35.385],[139.256,35.382],[139.265,35.386],[139.28,35.386],[139.284,35.383],[139.29,35.381],[139.301,35.381],[139.304,35.383],[139.308,35.382],[139.313,35.378],[139.316,35.372],[139.322,35.369],[139.319,35.378],[139.322,35.381],[139.332,35.381],[139.335,35.385],[139.347,35.379],[139.353,35.381],[139.357,35.391]]]]}},{"type":"Feature","properties":{"name":"海老名市","code":"14215"},"geometry":{"type":"MultiPolygon","coordinates":[[[[139.407,35.408],[139.406,35.411],[139.409,35.422],[139.41,35.43],[139.407,35.44],[139.407,35.443],[139.403,35.449],[139.407,35.449],[139.406,35.453],[139.409,35.456],[139.416,35.458],[139.414,35.461],[139.421,35.468],[139.436,35.467],[139.435,35.477],[139.421,35.469],[139.414,35.471],[139.409,35.471],[139.403,35.474],[139.397,35.474],[139.388,35.47],[139.38,35.47],[139.38,35.463],[139.378,35.458],[139.371,35.45],[139.371,35.445],[139.373,35.439],[139.373,35.434],[139.374,35.429],[139.37,35.416],[139.369,35.407],[139.372,35.401],[139.384,35.401],[139.389,35.4],[139.395,35.401],[139.401,35.401],[139.407,35.408]]]]}},{"type":"Feature","properties":{"name":"座間市","code":"14216"},"geometry":{"type":"MultiPolygon","coordinates":[[[[139.374,35.492],[139.375,35.484],[139.38,35.47],[139.388,35.47],[139.396,35.472],[139.403,35.474],[139.409,35.471],[139.414,35.471],[139.421,35.469],[139.435,35.477],[139.439,35.48],[139.434,35.496],[139.429,35.507],[139.428,35.511],[139.421,35.515],[139.411,35.507],[139.41,35.502],[139.407,35.499],[139.4,35.497],[139.395,35.497],[139.388,35.491],[139.374,35.492]]]]}},{"type":"Feature","properties":{"name":"南足柄市","code":"14217"},"geometry":{"type":"MultiPolygon","coordinates":[[[[139.131,35.318],[139.126,35.318],[139.121,35.322],[139.117,35.331],[139.115,35.339],[139.11,35.34],[139.107,35.345],[139.112,35.352],[139.102,35.351],[139.097,35.347],[139.093,35.347],[139.091,35.35],[139.086,35.349],[139.081,35.35],[139.071,35.347],[139.063,35.348],[139.059,35.351],[139.05,35.349],[139.049,35.345],[139.044,35.343],[139.037,35.342],[139.03,35.336],[139.032,35.332],[139.023,35.332],[139.019,35.33],[139.017,35.323],[139.01,35.314],[139.011,35.311],[139.006,35.298],[139.005,35.29],[139.01,35.285],[139.016,35.282],[139.026,35.277],[139.031,35.274],[139.037,35.278],[139.049,35.282],[139.056,35.274],[139.06,35.272],[139.066,35.273],[139.072,35.272],[139.092,35.278],[139.108,35.28],[139.118,35.28],[139.12,35.285],[139.131,35.288],[139.132,35.301],[139.132,35.308],[139.131,35.318]]]]}},{"type":"Feature","properties":{"name":"綾瀬市","code":"14218"},"geometry":{"type":"MultiPolygon","coordinates":[[[[139.448,35.428],[139.449,35.432],[139.45,35.446],[139.455,35.452],[139.454,35.457],[139.451,35.468],[139.436,35.467],[139.422,35.466],[139.414,35.461],[139.416,35.458],[139.409,35.456],[139.406,35.453],[139.407,35.449],[139.403,35.449],[139.407,35.443],[139.407,35.44],[139.41,35.43],[139.409,35.422],[139.406,35.411],[139.407,35.408],[139.413,35.416],[139.413,35.419],[139.424,35.416],[139.425,35.42],[139.43,35.42],[139.443,35.413],[139.443,35.407],[139.449,35.408],[139.457,35.415],[139.444,35.428],[139.448,35.428]]]]}},{"type":"Feature","properties":{"name":"三浦郡葉山町","code":"14301"},"geometry":{"type":"MultiPolygon","coordinates":[[[[139.578,35.253],[139.582,35.255],[139.597,35.256],[139.603,35.258],[139.613,35.258],[139.618,35.261],[139.622,35.257],[139.628,35.256],[139.636,35.262],[139.638,35.265],[139.639,35.274],[139.631,35.275],[139.628,35.279],[139.623,35.279],[139.623,35.276],[139.614,35.278],[139.606,35.276],[139.6,35.278],[139.598,35.281],[139.604,35.282],[139.612,35.287],[139.61,35.29],[139.602,35.292],[139.592,35.29],[139.584,35.286],[139.579,35.287],[139.575,35.283],[139.57,35.285],[139.571,35.275],[139.572,35.266],[139.577,35.263],[139.58,35.256],[139.577,35.253]]]]}},{"type":"Feature","properties":{"name":"高座郡寒川町","code":"14321"},"geometry":{"type":"MultiPolygon","coordinates":[[[[139.37,35.351],[139.375,35.35],[139.395,35.352],[139.397,35.356],[139.394,35.363],[139.401,35.368],[139.405,35.377],[139.402,35.38],[139.4,35.385],[139.403,35.39],[139.395,35.391],[139.396,35.395],[139.395,35.401],[139.389,35.4],[139.384,35.401],[139.372,35.401],[139.373,35.395],[139.375,35.389],[139.371,35.368],[139.369,35.363],[139.372,35.361],[139.372,35.355],[139.37,35.351]]]]}},{"type":"Feature","properties":{"name":"中郡大磯町","code":"14341"},"geometry":{"type":"MultiPolygon","coordinates":[[[[139.251,35.329],[139.257,35.319],[139.258,35.315],[139.263,35.316],[139.266,35.309],[139.266,35.305],[139.269,35.297],[139.312,35.306],[139.318,35.307],[139.321,35.31],[139.33,35.312],[139.329,35.316],[139.329,35.321],[139.334,35.323],[139.331,35.326],[139.328,35.325],[139.319,35.325],[139.312,35.322],[139.307,35.319],[139.296,35.325],[139.296,35.331],[139.284,35.33],[139.28,35.333],[139.272,35.334],[139.262,35.334],[139.26,35.331],[139.251,35.329]]]]}},{"type":"Feature","properties":{"name":"中郡二宮町","code":"14342"},"geometry":{"type":"MultiPolygon","coordinates":[[[[139.249,35.33],[139.245,35.329],[139.239,35.324],[139.237,35.321],[139.233,35.32],[139.238,35.315],[139.236,35.311],[139.238,35.304],[139.238,35.301],[139.237,35.296],[139.237,35.29],[139.234,35.286],[139.25,35.293],[139.269,35.297],[139.266,35.305],[139.266,35.309],[139.263,35.316],[139.258,35.315],[139.257,35.319],[139.251,35.329]]]]}},{"type":"Feature","properties":{"name":"足柄上郡中井町","code":"14361"},"geometry":{"type":"MultiPolygon","coordinates":[[[[139.251,35.354],[139.244,35.355],[139.241,35.353],[139.234,35.351],[139.222,35.354],[139.218,35.352],[139.212,35.356],[139.205,35.361],[139.2,35.359],[139.196,35.356],[139.189,35.353],[139.187,35.347],[139.197,35.342],[139.19,35.338],[139.194,35.329],[139.187,35.323],[139.192,35.318],[139.197,35.317],[139.203,35.312],[139.212,35.315],[139.224,35.316],[139.227,35.318],[139.233,35.32],[139.237,35.321],[139.239,35.324],[139.245,35.329],[139.249,35.33],[139.244,35.335],[139.24,35.335],[139.239,35.346],[139.251,35.354]]]]}},{"type":"Feature","properties":{"name":"足柄上郡大井町","code":"14362"},"geometry":{"type":"MultiPolygon","coordinates":[[[[139.187,35.323],[139.194,35.329],[139.192,35.336],[139.197,35.342],[139.187,35.347],[139.188,35.352],[139.182,35.349],[139.174,35.351],[139.171,35.359],[139.16,35.356],[139.162,35.35],[139.159,35.346],[139.15,35.344],[139.142,35.338],[139.136,35.337],[139.138,35.33],[139.143,35.323],[139.149,35.314],[139.155,35.313],[139.161,35.317],[139.165,35.318],[139.169,35.322],[139.17,35.327],[139.176,35.327],[139.181,35.329],[139.187,35.323]]]]}},{"type":"Feature","properties":{"name":"足柄上郡松田町","code":"14363"},"geometry":{"type":"MultiPolygon","coordinates":[[[[139.141,35.444],[139.13,35.446],[139.128,35.442],[139.123,35.438],[139.118,35.436],[139.116,35.431],[139.108,35.427],[139.101,35.418],[139.102,35.415],[139.106,35.409],[139.1,35.406],[139.101,35.401],[139.099,35.397],[139.1,35.39],[139.117,35.382],[139.122,35.381],[139.125,35.374],[139.123,35.363],[139.115,35.357],[139.114,35.352],[139.119,35.351],[139.129,35.347],[139.134,35.341],[139.136,35.337],[139.142,35.338],[139.15,35.344],[139.159,35.346],[139.162,35.35],[139.163,35.355],[139.157,35.365],[139.149,35.373],[139.144,35.382],[139.145,35.388],[139.15,35.392],[139.151,35.396],[139.149,35.401],[139.15,35.404],[139.146,35.407],[139.145,35.411],[139.148,35.414],[139.148,35.42],[139.146,35.43],[139.141,35.435],[139.141,35.444]]]]}},{"type":"Feature","properties":{"name":"足柄上郡山北町","code":"14364"},"geometry":{"type":"MultiPolygon","coordinates":[[[[139.066,35.509],[139.06,35.507],[139.053,35.509],[139.046,35.51],[139.044,35.499],[139.037,35.491],[139.031,35.489],[139.028,35.485],[139.028,35.481],[139.021,35.479],[139.015,35.48],[139.008,35.475],[138.998,35.475],[138.989,35.474],[138.985,35.469],[138.979,35.464],[138.973,35.467],[138.969,35.464],[138.959,35.462],[138.954,35.46],[138.932,35.443],[138.927,35.438],[138.927,35.43],[138.931,35.426],[138.93,35.421],[138.927,35.42],[138.926,35.415],[138.918,35.411],[138.916,35.404],[138.916,35.401],[138.931,35.401],[138.938,35.399],[138.946,35.4],[138.966,35.402],[138.969,35.405],[138.98,35.405],[138.984,35.402],[138.994,35.403],[138.998,35.403],[139.002,35.399],[139.001,35.392],[138.999,35.384],[139.006,35.375],[139.007,35.361],[139.012,35.358],[139.008,35.35],[139.011,35.344],[139.011,35.338],[139.019,35.33],[139.023,35.332],[139.032,35.332],[139.03,35.336],[139.037,35.342],[139.044,35.343],[139.049,35.345],[139.05,35.349],[139.059,35.351],[139.063,35.348],[139.071,35.347],[139.081,35.35],[139.086,35.349],[139.091,35.35],[139.093,35.347],[139.097,35.347],[139.102,35.351],[139.112,35.352],[139.115,35.357],[139.123,35.363],[139.125,35.374],[139.122,35.381],[139.117,35.382],[139.1,35.39],[139.099,35.397],[139.101,35.401],[139.1,35.406],[139.106,35.409],[139.102,35.415],[139.101,35.418],[139.108,35.427],[139.116,35.431],[139.118,35.436],[139.123,35.438],[139.128,35.442],[139.13,35.446],[139.141,35.444],[139.155,35.445],[139.158,35.449],[139.161,35.45],[139.163,35.454],[139.166,35.465],[139.163,35.475],[139.158,35.478],[139.151,35.477],[139.147,35.483],[139.14,35.486],[139.13,35.485],[139.127,35.478],[139.117,35.478],[139.108,35.479],[139.102,35.479],[139.097,35.487],[139.091,35.488],[139.087,35.493],[139.074,35.496],[139.073,35.5],[139.068,35.504],[139.066,35.509]]]]}},{"type":"Feature","properties":{"name":"足柄上郡開成町","code":"14366"},"geometry":{"type":"MultiPolygon","coordinates":[[[[139.143,35.323],[139.138,35.33],[139.136,35.337],[139.134,35.341],[139.129,35.347],[139.119,35.351],[139.114,35.352],[139.107,35.345],[139.11,35.34],[139.115,35.339],[139.117,35.331],[139.121,35.324],[139.126,35.318],[139.131,35.318],[139.136,35.319],[139.136,35.323],[139.143,35.323]]]]}},{"type":"Feature","properties":{"name":"足柄下郡箱根町","code":"14382"},"geometry":{"type":"MultiPolygon","coordinates":[[[[139.06,35.272],[139.056,35.274],[139.049,35.282],[139.037,35.278],[139.031,35.274],[139.026,35.277],[139.017,35.279],[139.011,35.282],[139.005,35.29],[138.997,35.289],[138.986,35.278],[138.982,35.273],[138.982,35.27],[138.975,35.264],[138.974,35.256],[138.976,35.252],[138.974,35.248],[138.976,35.242],[138.976,35.236],[138.98,35.233],[138.981,35.228],[138.984,35.222],[138.982,35.218],[138.988,35.213],[138.986,35.206],[138.988,35.201],[138.993,35.199],[139.001,35.191],[139.011,35.183],[139.022,35.182],[139.027,35.175],[139.035,35.176],[139.041,35.178],[139.046,35.181],[139.049,35.185],[139.057,35.19],[139.064,35.193],[139.07,35.197],[139.075,35.201],[139.082,35.203],[139.084,35.207],[139.085,35.215],[139.092,35.221],[139.101,35.225],[139.11,35.226],[139.116,35.228],[139.114,35.232],[139.12,35.237],[139.118,35.24],[139.109,35.239],[139.104,35.24],[139.1,35.24],[139.092,35.243],[139.091,35.24],[139.087,35.235],[139.084,35.234],[139.073,35.242],[139.067,35.241],[139.059,35.248],[139.065,35.251],[139.069,35.255],[139.065,35.256],[139.063,35.265],[139.06,35.272]]]]}},{"type":"Feature","properties":{"name":"足柄下郡真鶴町","code":"14383"},"geometry":{"type":"MultiPolygon","coordinates":[[[[139.103,35.187],[139.116,35.178],[139.12,35.171],[139.129,35.166],[139.127,35.159],[139.133,35.154],[139.137,35.149],[139.143,35.145],[139.148,35.145],[139.151,35.141],[139.155,35.142],[139.162,35.142],[139.158,35.147],[139.149,35.148],[139.144,35.152],[139.144,35.16],[139.14,35.163],[139.145,35.167],[139.143,35.173],[139.137,35.179],[139.131,35.178],[139.126,35.182],[139.111,35.186],[139.103,35.187]]]]}},{"type":"Feature","properties":{"name":"足柄下郡湯河原町","code":"14384"},"geometry":{"type":"MultiPolygon","coordinates":[[[[139.077,35.2],[139.07,35.197],[139.064,35.193],[139.057,35.19],[139.049,35.185],[139.046,35.181],[139.041,35.178],[139.035,35.176],[139.027,35.175],[139.029,35.17],[139.029,35.165],[139.026,35.161],[139.031,35.159],[139.028,35.155],[139.03,35.15],[139.04,35.151],[139.049,35.15],[139.06,35.146],[139.066,35.144],[139.073,35.145],[139.084,35.141],[139.09,35.14],[139.101,35.14],[139.109,35.142],[139.112,35.141],[139.12,35.149],[139.132,35.151],[139.137,35.149],[139.133,35.154],[139.127,35.159],[139.129,35.166],[139.12,35.171],[139.116,35.178],[139.105,35.184],[139.094,35.19],[139.091,35.193],[139.087,35.194],[139.078,35.196],[139.077,35.2]]]]}},{"type":"Feature","properties":{"name":"愛甲郡愛川町","code":"14401"},"geometry":{"type":"MultiPolygon","coordinates":[[[[139.248,35.543],[139.246,35.534],[139.248,35.529],[139.251,35.524],[139.262,35.518],[139.264,35.511],[139.271,35.507],[139.276,35.507],[139.278,35.513],[139.284,35.512],[139.29,35.515],[139.295,35.52],[139.302,35.521],[139.307,35.523],[139.311,35.521],[139.312,35.517],[139.316,35.514],[139.316,35.511],[139.323,35.506],[139.327,35.506],[139.335,35.505],[139.344,35.498],[139.348,35.499],[139.347,35.507],[139.35,35.509],[139.347,35.517],[139.354,35.519],[139.351,35.524],[139.355,35.527],[139.344,35.533],[139.325,35.544],[139.317,35.538],[139.313,35.542],[139.307,35.545],[139.304,35.548],[139.303,35.552],[139.298,35.554],[139.294,35.557],[139.287,35.556],[139.277,35.546],[139.267,35.55],[139.262,35.55],[139.25,35.547],[139.248,35.543]]]]}},{"type":"Feature","properties":{"name":"愛甲郡清川村","code":"14402"},"geometry":{"type":"MultiPolygon","coordinates":[[[[139.163,35.475],[139.166,35.465],[139.165,35.457],[139.173,35.453],[139.177,35.451],[139.179,35.447],[139.194,35.451],[139.197,35.45],[139.202,35.455],[139.204,35.46],[139.207,35.459],[139.216,35.461],[139.222,35.459],[139.229,35.457],[139.228,35.452],[139.237,35.459],[139.246,35.463],[139.249,35.46],[139.266,35.461],[139.273,35.461],[139.281,35.462],[139.285,35.461],[139.296,35.465],[139.296,35.47],[139.299,35.478],[139.295,35.481],[139.291,35.482],[139.287,35.489],[139.282,35.495],[139.279,35.5],[139.276,35.507],[139.271,35.507],[139.264,35.511],[139.262,35.518],[139.251,35.524],[139.248,35.529],[139.246,35.534],[139.248,35.543],[139.241,35.538],[139.238,35.534],[139.232,35.532],[139.23,35.536],[139.22,35.535],[139.223,35.529],[139.217,35.525],[139.215,35.521],[139.211,35.521],[139.209,35.515],[139.204,35.514],[139.2,35.507],[139.192,35.506],[139.181,35.497],[139.176,35.49],[139.167,35.483],[139.166,35.479],[139.163,35.475]]]]}}]}