{"type":"FeatureCollection","features":[{"type":"Feature","properties":{"name":"新潟市北区","code":"15101"},"geometry":{"type":"MultiPolygon","coordinates":[[[[139.233,37.966],[139.228,37.971],[139.228,37.975],[139.221,37.989],[139.215,37.993],[139.205,37.988],[139.204,37.985],[139.192,37.979],[139.132,37.962],[139.134,37.948],[139.144,37.937],[139.143,37.933],[139.148,37.923],[139.148,37.914],[139.15,37.903],[139.156,37.891],[139.178,37.865],[139.192,37.862],[139.198,37.866],[139.205,37.867],[139.212,37.865],[139.233,37.865],[139.236,37.875],[139.245,37.876],[139.249,37.89],[139.255,37.883],[139.26,37.884],[139.26,37.892],[139.265,37.902],[139.262,37.908],[139.255,37.912],[139.253,37.918],[139.248,37.916],[139.25,37.933],[139.259,37.938],[139.248,37.946],[139.242,37.947],[139.232,37.948],[139.236,37.956],[139.231,37.963]]]]}},{"type":"Feature","properties":{"name":"新潟市東区","code":"15102"},"geometry":{"type":"MultiPolygon","coordinates":[[[[139.132,37.962],[139.123,37.962],[139.109,37.959],[139.094,37.959],[139.093,37.955],[139.076,37.951],[139.066,37.944],[139.065,37.941],[139.076,37.922],[139.077,37.917],[139.081,37.911],[139.073,37.908],[139.074,37.901],[139.079,37.898],[139.086,37.898],[139.097,37.893],[139.099,37.89],[139.12,37.901],[139.13,37.909],[139.148,37.914],[139.148,37.923],[139.143,37.933],[139.144,37.937],[139.134,37.948],[139.132,37.962]]]]}},{"type":"Feature","properties":{"name":"新潟市中央区","code":"15103"},"geometry":{"type":"MultiPolygon","coordinates":[[[[139.066,37.944],[139.058,37.946],[139.053,37.941],[139.042,37.933],[139.001,37.908],[139.004,37.909],[139.012,37.897],[139.013,37.888],[139.023,37.875],[139.037,37.879],[139.039,37.874],[139.045,37.873],[139.074,37.879],[139.081,37.881],[139.093,37.888],[139.099,37.89],[139.097,37.893],[139.086,37.898],[139.079,37.898],[139.074,37.901],[139.073,37.908],[139.081,37.911],[139.077,37.917],[139.076,37.922],[139.065,37.941],[139.066,37.944]]]]}},{"type":"Feature","properties":{"name":"新潟市江南区","code":"15104"},"geometry":{"type":"MultiPolygon","coordinates":[[[[139.148,37.914],[139.13,37.909],[139.12,37.901],[139.099,37.89],[139.093,37.888],[139.081,37.881],[139.074,37.879],[139.045,37.873],[139.039,37.874],[139.037,37.879],[139.023,37.875],[139.025,37.867],[139.021,37.855],[139.027,37.843],[139.04,37.838],[139.052,37.84],[139.059,37.837],[139.062,37.832],[139.072,37.833],[139.083,37.84],[139.095,37.835],[139.105,37.841],[139.116,37.841],[139.119,37.834],[139.13,37.836],[139.134,37.831],[139.14,37.833],[139.142,37.828],[139.154,37.823],[139.16,37.827],[139.163,37.823],[139.175,37.822],[139.177,37.829],[139.174,37.832],[139.158,37.836],[139.153,37.842],[139.158,37.846],[139.159,37.85],[139.178,37.865],[139.156,37.891],[139.15,37.903],[139.148,37.914]]]]}},{"type":"Feature","properties":{"name":"新潟市秋葉区","code":"15105"},"geometry":{"type":"MultiPolygon","coordinates":[[[[139.062,37.832],[139.062,37.818],[139.065,37.811],[139.063,37.794],[139.058,37.787],[139.061,37.78],[139.069,37.776],[139.071,37.771],[139.064,37.76],[139.067,37.749],[139.061,37.737],[139.062,37.728],[139.069,37.731],[139.083,37.727],[139.088,37.732],[139.099,37.734],[139.108,37.726],[139.111,37.734],[139.121,37.733],[139.131,37.738],[139.133,37.748],[139.14,37.753],[139.148,37.756],[139.147,37.763],[139.155,37.768],[139.159,37.765],[139.171,37.77],[139.169,37.775],[139.18,37.777],[139.188,37.774],[139.189,37.779],[139.177,37.78],[139.174,37.787],[139.175,37.793],[139.18,37.799],[139.178,37.805],[139.164,37.807],[139.155,37.807],[139.151,37.815],[139.153,37.818],[139.163,37.823],[139.16,37.827],[139.154,37.823],[139.142,37.828],[139.14,37.833],[139.134,37.831],[139.13,37.836],[139.119,37.834],[139.116,37.841],[139.105,37.841],[139.095,37.835],[139.083,37.84],[139.072,37.833],[139.062,37.832]]]]}},{"type":"Feature","properties":{"name":"新潟市南区","code":"15106"},"geometry":{"type":"MultiPolygon","coordinates":[[[[139.021,37.855],[139.021,37.845],[139.012,37.843],[139.009,37.836],[139.001,37.826],[139.007,37.816],[138.987,37.812],[138.979,37.806],[138.983,37.802],[138.98,37.789],[138.985,37.785],[138.982,37.78],[138.99,37.775],[138.995,37.759],[138.988,37.757],[138.977,37.749],[138.971,37.752],[138.973,37.736],[138.986,37.73],[138.985,37.714],[138.986,37.702],[138.978,37.692],[138.98,37.684],[138.974,37.682],[138.967,37.681],[138.984,37.679],[138.993,37.68],[138.99,37.685],[138.993,37.696],[139.001,37.704],[139.006,37.704],[139.017,37.711],[139.025,37.706],[139.025,37.695],[139.033,37.693],[139.032,37.701],[139.042,37.71],[139.047,37.719],[139.062,37.728],[139.061,37.737],[139.067,37.749],[139.064,37.76],[139.071,37.771],[139.069,37.776],[139.061,37.78],[139.058,37.787],[139.063,37.794],[139.065,37.811],[139.062,37.818],[139.062,37.832],[139.059,37.837],[139.052,37.84],[139.04,37.838],[139.027,37.843],[139.021,37.855]]]]}},{"type":"Feature","properties":{"name":"新潟市西区","code":"15107"},"geometry":{"type":"MultiPolygon","coordinates":[[[[139.001,37.908],[138.968,37.892],[138.956,37.884],[138.922,37.869],[138.918,37.865],[138.892,37.853],[138.87,37.839],[138.86,37.832],[138.866,37.828],[138.861,37.82],[138.857,37.807],[138.864,37.806],[138.87,37.809],[138.874,37.807],[138.885,37.808],[138.891,37.805],[138.907,37.809],[138.91,37.812],[138.926,37.81],[138.941,37.818],[138.951,37.82],[138.958,37.82],[138.963,37.831],[138.974,37.81],[138.979,37.806],[138.987,37.812],[139.007,37.816],[139.001,37.826],[139.009,37.836],[139.012,37.843],[139.021,37.845],[139.021,37.855],[139.025,37.867],[139.023,37.875],[139.013,37.888],[139.012,37.897],[139.004,37.909],[139.001,37.908]]]]}},{"type":"Feature","properties":{"name":"新潟市西蒲区","code":"15108"},"geometry":{"type":"MultiPolygon","coordinates":[[[[138.979,37.806],[138.974,37.81],[138.963,37.831],[138.958,37.82],[138.951,37.82],[138.941,37.818],[138.926,37.81],[138.91,37.812],[138.907,37.809],[138.891,37.805],[138.885,37.808],[138.874,37.807],[138.87,37.809],[138.864,37.806],[138.857,37.807],[138.861,37.82],[138.866,37.828],[138.86,37.832],[138.835,37.811],[138.834,37.807],[138.816,37.788],[138.81,37.77],[138.801,37.755],[138.797,37.745],[138.793,37.731],[138.786,37.721],[138.786,37.707],[138.791,37.705],[138.797,37.71],[138.808,37.707],[138.816,37.718],[138.833,37.714],[138.844,37.715],[138.852,37.709],[138.865,37.707],[138.872,37.711],[138.884,37.713],[138.9,37.714],[138.912,37.719],[138.915,37.73],[138.933,37.73],[138.931,37.721],[138.94,37.72],[138.946,37.716],[138.946,37.705],[138.956,37.703],[138.966,37.705],[138.962,37.693],[138.973,37.689],[138.974,37.682],[138.98,37.684],[138.978,37.692],[138.986,37.702],[138.985,37.714],[138.986,37.73],[138.973,37.736],[138.971,37.752],[138.977,37.749],[138.988,37.757],[138.995,37.759],[138.99,37.775],[138.982,37.78],[138.985,37.785],[138.98,37.789],[138.983,37.802],[138.979,37.806]]]]}},{"type":"Feature","properties":{"name":"長岡市","code":"15202"},"geometry":{"type":"MultiPolygon","coordinates":[[[[138.901,37.289],[138.895,37.292],[138.889,37.291],[138.884,37.3],[138.876,37.298],[138.873,37.303],[138.856,37.308],[138.85,37.308],[138.849,37.3],[138.844,37.301],[138.839,37.292],[138.836,37.283],[138.83,37.283],[138.827,37.275],[138.841,37.263],[138.852,37.25],[138.849,37.245],[138.843,37.242],[138.837,37.243],[138.832,37.239],[138.834,37.233],[138.831,37.227],[138.838,37.223],[138.842,37.213],[138.839,37.208],[138.834,37.206],[138.833,37.202],[138.837,37.188],[138.835,37.176],[138.849,37.185],[138.853,37.19],[138.858,37.203],[138.864,37.203],[138.869,37.208],[138.871,37.22],[138.88,37.224],[138.882,37.231],[138.881,37.24],[138.888,37.243],[138.888,37.25],[138.893,37.255],[138.888,37.265],[138.891,37.279],[138.899,37.281],[138.901,37.289]]],[[[138.786,37.707],[138.783,37.692],[138.767,37.644],[138.76,37.635],[138.76,37.63],[138.75,37.612],[138.748,37.606],[138.733,37.591],[138.727,37.578],[138.727,37.573],[138.723,37.566],[138.734,37.565],[138.742,37.561],[138.749,37.562],[138.746,37.553],[138.741,37.547],[138.754,37.541],[138.761,37.533],[138.758,37.525],[138.753,37.523],[138.752,37.516],[138.742,37.516],[138.742,37.51],[138.734,37.503],[138.74,37.497],[138.739,37.49],[138.728,37.492],[138.722,37.487],[138.715,37.477],[138.704,37.466],[138.699,37.456],[138.695,37.444],[138.691,37.438],[138.697,37.432],[138.697,37.426],[138.702,37.421],[138.708,37.419],[138.699,37.402],[138.701,37.396],[138.706,37.395],[138.718,37.387],[138.714,37.375],[138.701,37.36],[138.699,37.352],[138.69,37.35],[138.682,37.344],[138.676,37.335],[138.676,37.33],[138.667,37.329],[138.661,37.323],[138.664,37.319],[138.657,37.315],[138.658,37.31],[138.652,37.299],[138.644,37.294],[138.644,37.283],[138.647,37.277],[138.652,37.276],[138.654,37.27],[138.661,37.268],[138.661,37.264],[138.675,37.237],[138.683,37.234],[138.687,37.236],[138.703,37.233],[138.719,37.235],[138.725,37.229],[138.73,37.234],[138.732,37.247],[138.74,37.257],[138.748,37.265],[138.744,37.276],[138.752,37.282],[138.747,37.287],[138.75,37.3],[138.755,37.304],[138.752,37.311],[138.755,37.317],[138.752,37.326],[138.759,37.347],[138.758,37.359],[138.764,37.375],[138.769,37.382],[138.774,37.384],[138.79,37.382],[138.795,37.38],[138.793,37.374],[138.802,37.367],[138.811,37.367],[138.821,37.357],[138.823,37.347],[138.823,37.339],[138.827,37.335],[138.833,37.338],[138.853,37.343],[138.861,37.348],[138.862,37.352],[138.869,37.352],[138.87,37.347],[138.878,37.34],[138.876,37.335],[138.867,37.321],[138.873,37.32],[138.876,37.315],[138.895,37.31],[138.901,37.302],[138.906,37.306],[138.915,37.299],[138.911,37.293],[138.915,37.292],[138.926,37.297],[138.934,37.304],[138.932,37.313],[138.939,37.318],[138.94,37.325],[138.933,37.339],[138.94,37.34],[138.951,37.345],[138.955,37.351],[138.964,37.354],[138.957,37.36],[138.957,37.373],[138.962,37.374],[138.969,37.384],[138.98,37.38],[138.988,37.373],[138.994,37.372],[139.0,37.375],[139.014,37.378],[139.019,37.389],[139.029,37.398],[139.034,37.4],[139.049,37.402],[139.047,37.408],[139.055,37.414],[139.062,37.406],[139.081,37.403],[139.09,37.406],[139.095,37.41],[139.108,37.411],[139.123,37.41],[139.124,37.42],[139.122,37.426],[139.109,37.438],[139.093,37.45],[139.088,37.468],[139.088,37.475],[139.095,37.477],[139.106,37.486],[139.103,37.492],[139.105,37.501],[139.11,37.504],[139.112,37.511],[139.11,37.516],[139.104,37.516],[139.093,37.521],[139.084,37.521],[139.081,37.525],[139.064,37.525],[139.048,37.521],[139.028,37.53],[139.0,37.526],[138.996,37.516],[138.989,37.513],[138.986,37.498],[138.977,37.499],[138.956,37.489],[138.956,37.483],[138.961,37.483],[138.965,37.474],[138.949,37.468],[138.941,37.47],[138.938,37.484],[138.933,37.489],[138.916,37.488],[138.901,37.492],[138.901,37.503],[138.889,37.505],[138.887,37.509],[138.894,37.512],[138.886,37.516],[138.879,37.525],[138.883,37.535],[138.879,37.541],[138.885,37.547],[138.875,37.556],[138.876,37.561],[138.871,37.568],[138.876,37.576],[138.874,37.592],[138.875,37.599],[138.881,37.604],[138.882,37.617],[138.881,37.62],[138.852,37.611],[138.841,37.605],[138.831,37.594],[138.831,37.604],[138.826,37.609],[138.832,37.616],[138.838,37.618],[138.824,37.636],[138.823,37.645],[138.814,37.643],[138.808,37.637],[138.787,37.655],[138.788,37.672],[138.794,37.679],[138.806,37.678],[138.805,37.686],[138.809,37.692],[138.811,37.701],[138.808,37.707],[138.797,37.71],[138.791,37.705],[138.786,37.707]]]]}},{"type":"Feature","properties":{"name":"三条市","code":"15204"},"geometry":{"type":"MultiPolygon","coordinates":[[[[138.967,37.681],[138.956,37.673],[138.957,37.664],[138.954,37.658],[138.936,37.648],[138.926,37.655],[138.922,37.652],[138.927,37.648],[138.927,37.641],[138.935,37.636],[138.933,37.631],[138.92,37.631],[138.899,37.623],[138.886,37.623],[138.881,37.62],[138.882,37.617],[138.881,37.604],[138.875,37.599],[138.874,37.592],[138.879,37.594],[138.891,37.583],[138.899,37.574],[138.903,37.574],[138.911,37.565],[138.923,37.563],[138.928,37.564],[138.935,37.554],[138.944,37.556],[138.947,37.549],[138.954,37.548],[138.954,37.541],[138.966,37.546],[138.968,37.555],[138.976,37.562],[138.981,37.56],[138.986,37.55],[138.982,37.547],[138.983,37.54],[138.991,37.538],[139.001,37.533],[139.0,37.526],[139.028,37.53],[139.048,37.521],[139.064,37.525],[139.081,37.525],[139.084,37.521],[139.093,37.521],[139.104,37.516],[139.11,37.516],[139.112,37.511],[139.11,37.504],[139.105,37.501],[139.103,37.492],[139.106,37.486],[139.095,37.477],[139.088,37.475],[139.088,37.468],[139.093,37.45],[139.109,37.438],[139.122,37.426],[139.124,37.42],[139.123,37.41],[139.128,37.401],[139.137,37.398],[139.143,37.398],[139.148,37.404],[139.164,37.413],[139.172,37.41],[139.187,37.412],[139.197,37.411],[139.208,37.417],[139.208,37.429],[139.213,37.439],[139.223,37.449],[139.237,37.445],[139.251,37.452],[139.257,37.464],[139.276,37.475],[139.283,37.484],[139.298,37.485],[139.296,37.493],[139.29,37.498],[139.287,37.508],[139.278,37.507],[139.274,37.516],[139.266,37.512],[139.26,37.512],[139.26,37.519],[139.256,37.526],[139.259,37.536],[139.248,37.538],[139.242,37.549],[139.234,37.555],[139.232,37.559],[139.227,37.556],[139.222,37.559],[139.21,37.561],[139.196,37.555],[139.175,37.556],[139.152,37.561],[139.147,37.564],[139.134,37.567],[139.122,37.58],[139.117,37.582],[139.108,37.582],[139.108,37.591],[139.099,37.595],[139.085,37.593],[139.076,37.6],[139.076,37.611],[139.067,37.61],[139.058,37.612],[139.052,37.616],[139.041,37.613],[139.032,37.62],[139.039,37.631],[139.039,37.638],[139.035,37.645],[139.027,37.648],[139.024,37.654],[139.012,37.662],[139.005,37.665],[139.01,37.674],[139.007,37.678],[138.993,37.68],[138.984,37.679],[138.967,37.681]]]]}},{"type":"Feature","properties":{"name":"柏崎市","code":"15205"},"geometry":{"type":"MultiPolygon","coordinates":[[[[138.699,37.402],[138.685,37.415],[138.679,37.423],[138.681,37.433],[138.691,37.438],[138.695,37.444],[138.699,37.456],[138.704,37.466],[138.715,37.477],[138.722,37.487],[138.698,37.498],[138.675,37.495],[138.672,37.508],[138.676,37.509],[138.68,37.517],[138.674,37.524],[138.66,37.524],[138.648,37.506],[138.639,37.497],[138.634,37.495],[138.632,37.489],[138.625,37.485],[138.617,37.484],[138.618,37.475],[138.606,37.451],[138.592,37.429],[138.588,37.421],[138.559,37.383],[138.544,37.369],[138.527,37.366],[138.515,37.357],[138.5,37.352],[138.489,37.351],[138.486,37.346],[138.465,37.336],[138.461,37.336],[138.446,37.324],[138.437,37.322],[138.418,37.307],[138.423,37.294],[138.428,37.301],[138.434,37.302],[138.437,37.294],[138.444,37.297],[138.452,37.296],[138.458,37.293],[138.469,37.292],[138.473,37.29],[138.49,37.288],[138.5,37.28],[138.512,37.273],[138.523,37.276],[138.53,37.273],[138.534,37.267],[138.535,37.262],[138.52,37.253],[138.515,37.246],[138.516,37.238],[138.505,37.229],[138.522,37.221],[138.527,37.217],[138.528,37.205],[138.537,37.198],[138.549,37.202],[138.556,37.199],[138.554,37.19],[138.563,37.185],[138.569,37.179],[138.566,37.17],[138.574,37.167],[138.584,37.167],[138.594,37.171],[138.6,37.172],[138.612,37.164],[138.619,37.164],[138.619,37.178],[138.624,37.179],[138.64,37.175],[138.65,37.177],[138.651,37.189],[138.655,37.194],[138.662,37.197],[138.664,37.202],[138.673,37.208],[138.673,37.218],[138.677,37.222],[138.671,37.229],[138.675,37.237],[138.661,37.264],[138.661,37.268],[138.654,37.27],[138.652,37.276],[138.647,37.277],[138.644,37.283],[138.644,37.294],[138.652,37.299],[138.658,37.31],[138.657,37.315],[138.664,37.319],[138.661,37.323],[138.667,37.329],[138.676,37.33],[138.676,37.335],[138.682,37.344],[138.69,37.35],[138.699,37.352],[138.701,37.36],[138.714,37.375],[138.718,37.387],[138.706,37.395],[138.701,37.396],[138.699,37.402]],[[138.631,37.454],[138.635,37.457],[138.642,37.454],[138.636,37.443],[138.637,37.439],[138.632,37.434],[138.645,37.431],[138.669,37.412],[138.665,37.406],[138.646,37.408],[138.632,37.414],[138.625,37.408],[138.622,37.402],[138.61,37.403],[138.593,37.399],[138.591,37.402],[138.6,37.414],[138.608,37.43],[138.606,37.435],[138.599,37.437],[138.603,37.443],[138.618,37.451],[138.631,37.454]]]]}},{"type":"Feature","properties":{"name":"新発田市","code":"15206"},"geometry":{"type":"MultiPolygon","coordinates":[[[[139.26,37.892],[139.271,37.885],[139.272,37.878],[139.277,37.875],[139.28,37.869],[139.299,37.857],[139.307,37.862],[139.31,37.858],[139.318,37.86],[139.327,37.864],[139.345,37.856],[139.356,37.854],[139.36,37.847],[139.369,37.846],[139.365,37.839],[139.36,37.825],[139.374,37.825],[139.39,37.827],[139.411,37.814],[139.423,37.817],[139.429,37.815],[139.434,37.81],[139.443,37.806],[139.455,37.797],[139.468,37.791],[139.482,37.797],[139.49,37.794],[139.507,37.797],[139.524,37.793],[139.533,37.797],[139.535,37.804],[139.55,37.807],[139.556,37.804],[139.563,37.806],[139.568,37.811],[139.578,37.813],[139.585,37.811],[139.594,37.815],[139.608,37.819],[139.611,37.825],[139.62,37.83],[139.63,37.83],[139.633,37.833],[139.645,37.829],[139.66,37.833],[139.673,37.838],[139.682,37.847],[139.679,37.852],[139.657,37.864],[139.657,37.872],[139.65,37.876],[139.638,37.88],[139.638,37.884],[139.629,37.894],[139.624,37.891],[139.606,37.886],[139.606,37.88],[139.595,37.87],[139.591,37.87],[139.586,37.864],[139.567,37.861],[139.556,37.863],[139.559,37.874],[139.553,37.882],[139.541,37.885],[139.54,37.888],[139.529,37.886],[139.521,37.888],[139.507,37.889],[139.5,37.901],[139.512,37.921],[139.504,37.938],[139.492,37.949],[139.492,37.959],[139.489,37.963],[139.491,37.976],[139.494,37.984],[139.493,37.998],[139.486,38.003],[139.477,38.003],[139.474,38.01],[139.46,38.008],[139.45,38.016],[139.435,38.022],[139.426,38.02],[139.417,38.02],[139.408,38.027],[139.399,38.031],[139.389,38.028],[139.382,38.033],[139.36,38.032],[139.356,38.02],[139.351,38.02],[139.322,38.037],[139.314,38.049],[139.303,38.041],[139.288,38.031],[139.29,38.023],[139.3,38.014],[139.292,38.007],[139.285,38.004],[139.271,37.995],[139.282,37.99],[139.286,37.986],[139.298,37.987],[139.314,37.986],[139.305,37.97],[139.298,37.967],[139.293,37.956],[139.269,37.953],[139.257,37.955],[139.242,37.95],[139.248,37.946],[139.259,37.938],[139.25,37.933],[139.248,37.916],[139.253,37.918],[139.255,37.912],[139.262,37.908],[139.265,37.902],[139.26,37.892]]]]}},{"type":"Feature","properties":{"name":"小千谷市","code":"15208"},"geometry":{"type":"MultiPolygon","coordinates":[[[[138.901,37.289],[138.905,37.293],[138.911,37.293],[138.915,37.299],[138.906,37.306],[138.901,37.302],[138.895,37.31],[138.876,37.315],[138.873,37.32],[138.867,37.321],[138.876,37.335],[138.878,37.34],[138.87,37.347],[138.869,37.352],[138.862,37.352],[138.861,37.348],[138.853,37.343],[138.833,37.338],[138.827,37.335],[138.823,37.339],[138.823,37.347],[138.821,37.357],[138.811,37.367],[138.802,37.367],[138.793,37.374],[138.795,37.38],[138.79,37.382],[138.774,37.384],[138.769,37.382],[138.764,37.375],[138.758,37.359],[138.762,37.348],[138.752,37.326],[138.755,37.317],[138.752,37.311],[138.755,37.304],[138.75,37.3],[138.747,37.287],[138.752,37.282],[138.744,37.276],[138.748,37.265],[138.74,37.257],[138.732,37.247],[138.73,37.234],[138.725,37.229],[138.726,37.222],[138.732,37.218],[138.755,37.217],[138.759,37.216],[138.776,37.22],[138.781,37.226],[138.785,37.22],[138.794,37.217],[138.808,37.218],[138.82,37.216],[138.828,37.208],[138.834,37.206],[138.839,37.208],[138.842,37.213],[138.838,37.223],[138.831,37.227],[138.834,37.233],[138.832,37.239],[138.837,37.243],[138.843,37.242],[138.849,37.245],[138.852,37.25],[138.841,37.263],[138.827,37.275],[138.83,37.283],[138.836,37.283],[138.839,37.292],[138.844,37.301],[138.849,37.3],[138.85,37.308],[138.856,37.308],[138.873,37.303],[138.876,37.298],[138.884,37.3],[138.889,37.291],[138.895,37.292],[138.901,37.289]]]]}},{"type":"Feature","properties":{"name":"加茂市","code":"15209"},"geometry":{"type":"MultiPolygon","coordinates":[[[[138.993,37.68],[139.007,37.678],[139.01,37.674],[139.005,37.665],[139.012,37.662],[139.024,37.654],[139.027,37.648],[139.035,37.645],[139.039,37.638],[139.039,37.631],[139.032,37.62],[139.041,37.613],[139.052,37.616],[139.058,37.612],[139.067,37.61],[139.076,37.611],[139.076,37.6],[139.085,37.593],[139.099,37.595],[139.108,37.591],[139.108,37.582],[139.117,37.582],[139.122,37.58],[139.134,37.567],[139.147,37.564],[139.152,37.561],[139.175,37.556],[139.196,37.555],[139.21,37.561],[139.222,37.559],[139.227,37.556],[139.232,37.559],[139.234,37.568],[139.231,37.578],[139.225,37.582],[139.219,37.594],[139.219,37.602],[139.204,37.611],[139.194,37.614],[139.19,37.607],[139.18,37.6],[139.17,37.599],[139.168,37.604],[139.154,37.609],[139.152,37.613],[139.153,37.62],[139.15,37.626],[139.14,37.629],[139.139,37.637],[139.134,37.642],[139.132,37.651],[139.134,37.657],[139.121,37.657],[139.109,37.652],[139.104,37.657],[139.109,37.661],[139.104,37.668],[139.1,37.67],[139.101,37.678],[139.093,37.68],[139.069,37.674],[139.046,37.671],[139.04,37.685],[139.032,37.691],[139.025,37.695],[139.025,37.706],[139.017,37.711],[139.006,37.704],[139.001,37.704],[138.993,37.696],[138.99,37.685],[138.993,37.68]]]]}},{"type":"Feature","properties":{"name":"十日町市","code":"15210"},"geometry":{"type":"MultiPolygon","coordinates":[[[[138.834,37.206],[138.828,37.208],[138.82,37.216],[138.808,37.218],[138.794,37.217],[138.785,37.22],[138.781,37.226],[138.776,37.22],[138.759,37.216],[138.755,37.217],[138.732,37.218],[138.726,37.222],[138.725,37.229],[138.719,37.235],[138.703,37.233],[138.687,37.236],[138.683,37.234],[138.675,37.237],[138.671,37.229],[138.677,37.222],[138.673,37.218],[138.673,37.208],[138.664,37.202],[138.662,37.197],[138.655,37.194],[138.651,37.189],[138.65,37.177],[138.64,37.175],[138.624,37.179],[138.619,37.178],[138.619,37.164],[138.612,37.164],[138.6,37.172],[138.594,37.171],[138.584,37.167],[138.574,37.167],[138.566,37.17],[138.566,37.163],[138.562,37.155],[138.549,37.147],[138.542,37.139],[138.529,37.138],[138.525,37.129],[138.529,37.124],[138.527,37.116],[138.523,37.111],[138.526,37.105],[138.534,37.099],[138.535,37.092],[138.545,37.086],[138.536,37.072],[138.538,37.064],[138.537,37.056],[138.54,37.045],[138.525,37.034],[138.525,37.03],[138.529,37.025],[138.537,37.021],[138.549,37.021],[138.553,37.024],[138.566,37.021],[138.568,37.026],[138.578,37.031],[138.587,37.031],[138.599,37.039],[138.614,37.04],[138.618,37.044],[138.626,37.042],[138.633,37.044],[138.636,37.049],[138.643,37.049],[138.645,37.057],[138.667,37.065],[138.686,37.057],[138.683,37.05],[138.691,37.041],[138.692,37.036],[138.684,37.03],[138.685,37.011],[138.691,37.015],[138.699,37.003],[138.699,36.99],[138.709,36.981],[138.71,36.975],[138.708,36.969],[138.716,36.961],[138.711,36.947],[138.703,36.946],[138.689,36.939],[138.69,36.95],[138.674,36.942],[138.664,36.935],[138.662,36.927],[138.662,36.913],[138.654,36.907],[138.66,36.896],[138.668,36.892],[138.675,36.881],[138.692,36.877],[138.7,36.868],[138.714,36.874],[138.715,36.882],[138.721,36.89],[138.729,36.896],[138.733,36.902],[138.731,36.909],[138.738,36.912],[138.744,36.922],[138.753,36.926],[138.753,36.931],[138.763,36.935],[138.773,36.946],[138.779,36.958],[138.769,36.963],[138.765,36.977],[138.771,36.983],[138.774,37.0],[138.779,37.005],[138.775,37.01],[138.782,37.016],[138.788,37.03],[138.792,37.03],[138.802,37.044],[138.803,37.054],[138.812,37.059],[138.811,37.067],[138.819,37.072],[138.83,37.077],[138.824,37.087],[138.827,37.091],[138.83,37.102],[138.834,37.103],[138.84,37.112],[138.841,37.119],[138.858,37.125],[138.859,37.131],[138.87,37.133],[138.875,37.14],[138.868,37.149],[138.861,37.149],[138.854,37.158],[138.846,37.162],[138.845,37.165],[138.835,37.176],[138.837,37.188],[138.833,37.202],[138.834,37.206]]]]}},{"type":"Feature","properties":{"name":"見附市","code":"15211"},"geometry":{"type":"MultiPolygon","coordinates":[[[[139.0,37.526],[139.001,37.533],[138.991,37.538],[138.983,37.54],[138.982,37.547],[138.986,37.55],[138.981,37.56],[138.976,37.562],[138.968,37.555],[138.966,37.546],[138.954,37.541],[138.954,37.548],[138.947,37.549],[138.944,37.556],[138.935,37.554],[138.928,37.564],[138.923,37.563],[138.911,37.565],[138.903,37.574],[138.899,37.574],[138.891,37.583],[138.879,37.594],[138.874,37.592],[138.876,37.576],[138.871,37.568],[138.876,37.561],[138.875,37.556],[138.885,37.547],[138.879,37.541],[138.883,37.535],[138.879,37.525],[138.886,37.516],[138.894,37.512],[138.887,37.509],[138.889,37.505],[138.901,37.503],[138.901,37.492],[138.916,37.488],[138.933,37.489],[138.938,37.484],[138.941,37.47],[138.949,37.468],[138.965,37.474],[138.961,37.483],[138.956,37.483],[138.956,37.489],[138.977,37.499],[138.986,37.498],[138.989,37.513],[138.996,37.516],[139.0,37.526]]]]}},{"type":"Feature","properties":{"name":"村上市","code":"15212"},"geometry":{"type":"MultiPolygon","coordinates":[[[[139.685,38.159],[139.686,38.166],[139.682,38.17],[139.688,38.178],[139.696,38.187],[139.698,38.195],[139.713,38.207],[139.731,38.201],[139.739,38.202],[139.747,38.196],[139.758,38.193],[139.764,38.199],[139.776,38.198],[139.781,38.194],[139.8,38.202],[139.811,38.212],[139.819,38.213],[139.839,38.224],[139.847,38.225],[139.86,38.231],[139.869,38.248],[139.876,38.252],[139.877,38.262],[139.9,38.276],[139.899,38.293],[139.889,38.301],[139.879,38.303],[139.875,38.317],[139.867,38.322],[139.865,38.326],[139.857,38.332],[139.848,38.337],[139.848,38.343],[139.839,38.343],[139.827,38.345],[139.825,38.35],[139.816,38.356],[139.804,38.355],[139.79,38.349],[139.784,38.353],[139.771,38.353],[139.762,38.361],[139.752,38.359],[139.733,38.371],[139.729,38.377],[139.731,38.381],[139.722,38.394],[139.712,38.387],[139.705,38.394],[139.703,38.4],[139.706,38.408],[139.712,38.413],[139.717,38.421],[139.717,38.432],[139.72,38.451],[139.715,38.459],[139.716,38.467],[139.712,38.472],[139.716,38.479],[139.726,38.487],[139.721,38.496],[139.702,38.502],[139.693,38.507],[139.683,38.505],[139.667,38.506],[139.662,38.508],[139.653,38.507],[139.647,38.511],[139.641,38.511],[139.631,38.522],[139.614,38.526],[139.599,38.522],[139.595,38.527],[139.583,38.533],[139.577,38.54],[139.572,38.539],[139.557,38.545],[139.55,38.543],[139.538,38.524],[139.522,38.506],[139.521,38.501],[139.514,38.491],[139.508,38.484],[139.497,38.459],[139.482,38.44],[139.483,38.434],[139.472,38.423],[139.463,38.401],[139.457,38.398],[139.455,38.39],[139.46,38.381],[139.451,38.361],[139.453,38.337],[139.449,38.313],[139.451,38.309],[139.448,38.284],[139.449,38.273],[139.446,38.268],[139.447,38.262],[139.441,38.247],[139.45,38.242],[139.449,38.234],[139.437,38.215],[139.428,38.197],[139.43,38.181],[139.414,38.16],[139.409,38.15],[139.412,38.144],[139.408,38.139],[139.411,38.135],[139.408,38.13],[139.408,38.121],[139.418,38.113],[139.414,38.109],[139.43,38.097],[139.442,38.103],[139.444,38.095],[139.453,38.09],[139.47,38.081],[139.481,38.078],[139.487,38.079],[139.49,38.085],[139.495,38.09],[139.501,38.092],[139.506,38.1],[139.511,38.1],[139.512,38.109],[139.502,38.116],[139.504,38.124],[139.514,38.127],[139.504,38.135],[139.511,38.143],[139.521,38.142],[139.529,38.149],[139.538,38.151],[139.546,38.148],[139.556,38.149],[139.561,38.157],[139.577,38.161],[139.579,38.165],[139.587,38.17],[139.601,38.166],[139.611,38.167],[139.615,38.164],[139.637,38.166],[139.645,38.165],[139.655,38.168],[139.669,38.158],[139.679,38.161],[139.685,38.159]]]]}},{"type":"Feature","properties":{"name":"上越市","code":"15222"},"geometry":{"type":"MultiPolygon","coordinates":[[[[138.418,37.307],[138.355,37.255],[138.316,37.225],[138.285,37.204],[138.278,37.212],[138.27,37.204],[138.276,37.198],[138.267,37.195],[138.255,37.192],[138.247,37.184],[138.232,37.174],[138.216,37.169],[138.207,37.168],[138.197,37.17],[138.177,37.164],[138.166,37.162],[138.152,37.161],[138.148,37.163],[138.132,37.164],[138.123,37.17],[138.102,37.174],[138.092,37.17],[138.083,37.158],[138.068,37.148],[138.073,37.145],[138.075,37.138],[138.084,37.121],[138.081,37.112],[138.082,37.109],[138.076,37.103],[138.074,37.091],[138.081,37.091],[138.082,37.084],[138.087,37.079],[138.085,37.069],[138.096,37.062],[138.093,37.047],[138.09,37.043],[138.088,37.03],[138.09,37.023],[138.087,37.015],[138.094,36.995],[138.096,36.984],[138.094,36.976],[138.102,36.971],[138.107,36.976],[138.124,36.966],[138.129,36.96],[138.142,36.955],[138.149,36.95],[138.153,36.944],[138.161,36.945],[138.167,36.948],[138.177,36.946],[138.193,36.948],[138.206,36.952],[138.213,36.947],[138.212,36.943],[138.221,36.941],[138.231,36.945],[138.231,36.951],[138.24,36.957],[138.242,36.967],[138.25,36.978],[138.245,36.985],[138.243,36.99],[138.248,37.0],[138.248,37.011],[138.238,37.008],[138.227,36.996],[138.223,36.995],[138.218,37.001],[138.201,36.992],[138.185,36.985],[138.174,36.971],[138.161,36.971],[138.153,36.965],[138.139,36.971],[138.134,36.969],[138.13,36.977],[138.132,36.989],[138.14,36.997],[138.138,37.009],[138.141,37.011],[138.135,37.022],[138.138,37.031],[138.147,37.031],[138.159,37.036],[138.159,37.043],[138.163,37.045],[138.177,37.043],[138.183,37.045],[138.181,37.052],[138.176,37.059],[138.191,37.062],[138.195,37.066],[138.207,37.068],[138.217,37.065],[138.226,37.065],[138.235,37.068],[138.253,37.065],[138.253,37.061],[138.263,37.057],[138.264,37.065],[138.28,37.063],[138.274,37.055],[138.267,37.051],[138.27,37.045],[138.276,37.047],[138.283,37.041],[138.28,37.036],[138.289,37.018],[138.287,37.012],[138.292,37.002],[138.297,36.997],[138.307,36.996],[138.33,36.992],[138.335,36.987],[138.343,36.986],[138.348,36.977],[138.362,36.976],[138.371,36.977],[138.379,36.98],[138.391,36.988],[138.394,36.995],[138.4,36.998],[138.411,36.999],[138.412,37.002],[138.423,37.005],[138.431,37.006],[138.443,37.013],[138.451,37.015],[138.455,37.02],[138.468,37.018],[138.481,37.022],[138.492,37.02],[138.497,37.026],[138.501,37.025],[138.525,37.03],[138.525,37.034],[138.54,37.045],[138.537,37.056],[138.538,37.064],[138.536,37.072],[138.545,37.086],[138.535,37.092],[138.534,37.099],[138.526,37.105],[138.523,37.111],[138.527,37.116],[138.529,37.124],[138.525,37.129],[138.529,37.138],[138.542,37.139],[138.549,37.147],[138.562,37.155],[138.566,37.163],[138.566,37.17],[138.569,37.179],[138.563,37.185],[138.554,37.19],[138.556,37.199],[138.549,37.202],[138.537,37.198],[138.528,37.205],[138.527,37.217],[138.522,37.221],[138.505,37.229],[138.516,37.238],[138.515,37.246],[138.52,37.253],[138.535,37.262],[138.534,37.267],[138.53,37.273],[138.523,37.276],[138.512,37.273],[138.5,37.28],[138.49,37.288],[138.473,37.29],[138.469,37.292],[138.458,37.293],[138.452,37.296],[138.444,37.297],[138.437,37.294],[138.434,37.302],[138.428,37.301],[138.423,37.294],[138.418,37.307]]]]}},{"type":"Feature","properties":{"name":"阿賀野市","code":"15223"},"geometry":{"type":"MultiPolygon","coordinates":[[[[139.178,37.865],[139.159,37.85],[139.158,37.846],[139.153,37.842],[139.158,37.836],[139.174,37.832],[139.177,37.829],[139.175,37.822],[139.163,37.823],[139.153,37.818],[139.151,37.815],[139.155,37.807],[139.164,37.807],[139.178,37.805],[139.18,37.799],[139.175,37.793],[139.174,37.787],[139.177,37.78],[139.189,37.779],[139.188,37.774],[139.211,37.764],[139.221,37.758],[139.226,37.751],[139.223,37.745],[139.231,37.742],[139.238,37.746],[139.262,37.743],[139.285,37.735],[139.292,37.744],[139.289,37.757],[139.299,37.762],[139.315,37.766],[139.324,37.77],[139.327,37.779],[139.334,37.782],[139.334,37.786],[139.341,37.792],[139.343,37.799],[139.348,37.801],[139.356,37.809],[139.364,37.815],[139.362,37.822],[139.365,37.839],[139.369,37.846],[139.36,37.847],[139.356,37.854],[139.345,37.856],[139.327,37.864],[139.318,37.86],[139.31,37.858],[139.307,37.862],[139.299,37.857],[139.28,37.869],[139.277,37.875],[139.272,37.878],[139.271,37.885],[139.26,37.892],[139.26,37.884],[139.255,37.883],[139.249,37.89],[139.245,37.876],[139.236,37.875],[139.233,37.865],[139.212,37.865],[139.205,37.867],[139.198,37.866],[139.192,37.862],[139.178,37.865]]]]}},{"type":"Feature","properties":{"name":"佐渡市","code":"15224"},"geometry":{"type":"MultiPolygon","coordinates":[[[[138.503,38.332],[138.494,38.332],[138.479,38.326],[138.473,38.322],[138.463,38.323],[138.464,38.315],[138.453,38.308],[138.452,38.301],[138.44,38.287],[138.444,38.278],[138.437,38.27],[138.437,38.262],[138.429,38.254],[138.417,38.254],[138.405,38.25],[138.39,38.239],[138.388,38.232],[138.376,38.227],[138.373,38.22],[138.364,38.213],[138.355,38.209],[138.351,38.204],[138.34,38.199],[138.326,38.197],[138.326,38.194],[138.315,38.179],[138.312,38.169],[138.303,38.166],[138.302,38.152],[138.295,38.144],[138.291,38.143],[138.29,38.134],[138.271,38.122],[138.272,38.115],[138.26,38.102],[138.261,38.098],[138.244,38.089],[138.24,38.081],[138.248,38.076],[138.241,38.067],[138.233,38.062],[138.238,38.047],[138.235,38.039],[138.239,38.031],[138.236,38.025],[138.228,38.023],[138.221,38.014],[138.233,38.009],[138.235,37.995],[138.235,37.984],[138.227,37.98],[138.248,37.968],[138.253,37.964],[138.262,37.985],[138.273,37.992],[138.274,38.002],[138.286,38.007],[138.299,38.007],[138.306,38.005],[138.319,37.999],[138.328,37.991],[138.341,37.978],[138.344,37.965],[138.341,37.96],[138.333,37.956],[138.329,37.95],[138.305,37.94],[138.301,37.931],[138.293,37.924],[138.285,37.92],[138.285,37.915],[138.278,37.907],[138.282,37.902],[138.289,37.897],[138.29,37.885],[138.283,37.877],[138.28,37.863],[138.269,37.848],[138.26,37.842],[138.25,37.843],[138.245,37.838],[138.232,37.839],[138.225,37.835],[138.217,37.837],[138.207,37.828],[138.204,37.82],[138.215,37.811],[138.231,37.806],[138.236,37.808],[138.25,37.803],[138.264,37.806],[138.271,37.811],[138.28,37.811],[138.282,37.816],[138.292,37.822],[138.298,37.821],[138.304,37.827],[138.321,37.827],[138.325,37.824],[138.339,37.827],[138.344,37.825],[138.35,37.829],[138.36,37.83],[138.381,37.843],[138.386,37.849],[138.4,37.861],[138.411,37.863],[138.411,37.869],[138.417,37.872],[138.427,37.88],[138.442,37.883],[138.449,37.89],[138.471,37.897],[138.473,37.903],[138.49,37.92],[138.5,37.921],[138.499,37.925],[138.504,37.937],[138.503,37.944],[138.511,37.954],[138.512,37.96],[138.521,37.973],[138.521,37.978],[138.527,37.983],[138.531,37.992],[138.538,37.999],[138.539,38.003],[138.546,38.008],[138.551,38.019],[138.554,38.031],[138.564,38.042],[138.563,38.046],[138.567,38.056],[138.573,38.062],[138.57,38.074],[138.573,38.079],[138.569,38.084],[138.561,38.086],[138.553,38.081],[138.545,38.081],[138.536,38.079],[138.521,38.071],[138.509,38.07],[138.506,38.072],[138.492,38.07],[138.48,38.062],[138.467,38.066],[138.451,38.072],[138.437,38.082],[138.434,38.094],[138.438,38.102],[138.435,38.115],[138.442,38.128],[138.447,38.134],[138.45,38.146],[138.459,38.157],[138.46,38.162],[138.477,38.18],[138.482,38.193],[138.491,38.202],[138.494,38.225],[138.503,38.241],[138.508,38.263],[138.509,38.285],[138.508,38.296],[138.511,38.3],[138.512,38.315],[138.521,38.322],[138.517,38.325],[138.515,38.332],[138.503,38.332]]]]}},{"type":"Feature","properties":{"name":"燕市","code":"15213"},"geometry":{"type":"MultiPolygon","coordinates":[[[[138.974,37.682],[138.973,37.689],[138.962,37.693],[138.966,37.705],[138.956,37.703],[138.946,37.705],[138.946,37.716],[138.94,37.72],[138.931,37.721],[138.933,37.73],[138.915,37.73],[138.912,37.719],[138.9,37.714],[138.884,37.713],[138.872,37.711],[138.865,37.707],[138.865,37.701],[138.872,37.696],[138.866,37.692],[138.872,37.685],[138.868,37.671],[138.855,37.673],[138.848,37.658],[138.839,37.658],[138.843,37.664],[138.843,37.669],[138.826,37.67],[138.809,37.674],[138.806,37.678],[138.794,37.679],[138.788,37.672],[138.787,37.655],[138.808,37.637],[138.814,37.643],[138.823,37.645],[138.824,37.636],[138.838,37.618],[138.832,37.616],[138.826,37.609],[138.831,37.604],[138.831,37.594],[138.841,37.605],[138.852,37.611],[138.881,37.62],[138.886,37.623],[138.899,37.623],[138.92,37.631],[138.933,37.631],[138.935,37.636],[138.927,37.641],[138.927,37.648],[138.922,37.652],[138.926,37.655],[138.936,37.648],[138.954,37.658],[138.957,37.664],[138.956,37.673],[138.967,37.681],[138.974,37.682]]]]}},{"type":"Feature","properties":{"name":"糸魚川市","code":"15216"},"geometry":{"type":"MultiPolygon","coordinates":[[[[138.068,37.148],[138.06,37.143],[138.058,37.138],[138.049,37.128],[138.028,37.117],[138.017,37.114],[138.005,37.115],[137.995,37.11],[137.989,37.104],[137.976,37.099],[137.973,37.095],[137.961,37.089],[137.949,37.086],[137.943,37.081],[137.94,37.075],[137.929,37.07],[137.912,37.061],[137.885,37.052],[137.846,37.044],[137.829,37.04],[137.814,37.03],[137.767,37.018],[137.729,37.004],[137.711,36.999],[137.7,36.994],[137.68,36.991],[137.668,36.986],[137.658,36.985],[137.651,36.981],[137.636,36.98],[137.638,36.977],[137.652,36.969],[137.658,36.96],[137.666,36.954],[137.68,36.948],[137.687,36.943],[137.699,36.942],[137.711,36.944],[137.713,36.935],[137.72,36.927],[137.718,36.923],[137.718,36.908],[137.713,36.904],[137.713,36.894],[137.725,36.878],[137.732,36.874],[137.735,36.855],[137.733,36.845],[137.734,36.831],[137.732,36.824],[137.745,36.815],[137.749,36.81],[137.751,36.801],[137.754,36.797],[137.751,36.791],[137.75,36.78],[137.758,36.774],[137.765,36.768],[137.776,36.774],[137.782,36.773],[137.791,36.779],[137.793,36.787],[137.799,36.788],[137.82,36.798],[137.823,36.806],[137.831,36.808],[137.831,36.818],[137.845,36.835],[137.857,36.844],[137.856,36.85],[137.868,36.863],[137.873,36.864],[137.878,36.873],[137.868,36.878],[137.866,36.887],[137.862,36.891],[137.871,36.903],[137.863,36.907],[137.863,36.913],[137.875,36.916],[137.879,36.913],[137.893,36.91],[137.901,36.912],[137.911,36.918],[137.92,36.92],[137.932,36.914],[137.947,36.913],[137.953,36.905],[137.962,36.902],[137.97,36.911],[137.976,36.908],[137.992,36.911],[138.003,36.905],[138.014,36.904],[138.015,36.911],[138.024,36.911],[138.033,36.921],[138.042,36.918],[138.054,36.922],[138.061,36.92],[138.067,36.922],[138.079,36.942],[138.1,36.948],[138.108,36.947],[138.113,36.956],[138.103,36.967],[138.102,36.971],[138.094,36.976],[138.096,36.984],[138.094,36.995],[138.087,37.015],[138.09,37.023],[138.088,37.03],[138.09,37.043],[138.093,37.047],[138.096,37.062],[138.085,37.069],[138.087,37.079],[138.082,37.084],[138.081,37.091],[138.074,37.091],[138.076,37.103],[138.082,37.109],[138.081,37.112],[138.084,37.121],[138.075,37.138],[138.073,37.145],[138.068,37.148]]]]}},{"type":"Feature","properties":{"name":"妙高市","code":"15217"},"geometry":{"type":"MultiPolygon","coordinates":[[[[138.102,36.971],[138.103,36.967],[138.113,36.956],[138.108,36.947],[138.1,36.948],[138.079,36.942],[138.067,36.922],[138.061,36.92],[138.054,36.922],[138.042,36.918],[138.033,36.921],[138.024,36.911],[138.015,36.911],[138.014,36.904],[138.016,36.893],[138.022,36.891],[138.031,36.891],[138.033,36.886],[138.032,36.878],[138.026,36.874],[138.021,36.863],[138.017,36.86],[138.016,36.852],[138.019,36.85],[138.02,36.842],[138.014,36.839],[138.003,36.826],[138.017,36.819],[138.029,36.817],[138.034,36.809],[138.045,36.81],[138.052,36.807],[138.052,36.8],[138.065,36.804],[138.068,36.804],[138.075,36.81],[138.073,36.817],[138.081,36.83],[138.099,36.844],[138.106,36.844],[138.115,36.85],[138.125,36.848],[138.132,36.851],[138.142,36.847],[138.163,36.844],[138.177,36.848],[138.178,36.852],[138.196,36.854],[138.206,36.859],[138.206,36.863],[138.213,36.868],[138.229,36.864],[138.249,36.865],[138.255,36.87],[138.258,36.864],[138.268,36.86],[138.272,36.855],[138.271,36.844],[138.275,36.841],[138.288,36.846],[138.289,36.851],[138.296,36.858],[138.289,36.868],[138.293,36.873],[138.293,36.878],[138.299,36.887],[138.29,36.897],[138.294,36.901],[138.296,36.911],[138.309,36.92],[138.318,36.925],[138.329,36.927],[138.338,36.925],[138.343,36.921],[138.349,36.929],[138.358,36.934],[138.36,36.94],[138.365,36.944],[138.364,36.953],[138.368,36.957],[138.37,36.964],[138.376,36.972],[138.382,36.976],[138.379,36.98],[138.371,36.977],[138.362,36.976],[138.348,36.977],[138.343,36.986],[138.335,36.987],[138.33,36.992],[138.307,36.996],[138.297,36.997],[138.292,37.002],[138.287,37.012],[138.289,37.018],[138.28,37.036],[138.283,37.041],[138.276,37.047],[138.27,37.045],[138.267,37.051],[138.274,37.055],[138.28,37.063],[138.264,37.065],[138.263,37.057],[138.253,37.061],[138.253,37.065],[138.235,37.068],[138.226,37.065],[138.217,37.065],[138.207,37.068],[138.195,37.066],[138.191,37.062],[138.178,37.061],[138.181,37.052],[138.183,37.045],[138.177,37.043],[138.163,37.045],[138.159,37.043],[138.159,37.036],[138.147,37.031],[138.138,37.031],[138.135,37.022],[138.141,37.011],[138.138,37.009],[138.14,36.997],[138.132,36.989],[138.13,36.977],[138.134,36.969],[138.139,36.971],[138.153,36.965],[138.161,36.971],[138.174,36.971],[138.185,36.985],[138.201,36.992],[138.218,37.001],[138.223,36.995],[138.227,36.996],[138.238,37.008],[138.248,37.011],[138.248,37.0],[138.243,36.99],[138.245,36.985],[138.25,36.978],[138.242,36.967],[138.24,36.957],[138.231,36.951],[138.231,36.945],[138.221,36.941],[138.212,36.943],[138.213,36.947],[138.206,36.952],[138.193,36.948],[138.177,36.946],[138.167,36.948],[138.161,36.945],[138.153,36.944],[138.149,36.95],[138.142,36.955],[138.129,36.96],[138.124,36.966],[138.107,36.976],[138.102,36.971]]]]}},{"type":"Feature","properties":{"name":"五泉市","code":"15218"},"geometry":{"type":"MultiPolygon","coordinates":[[[[139.108,37.726],[139.1,37.721],[139.098,37.713],[139.093,37.709],[139.105,37.7],[139.106,37.695],[139.1,37.689],[139.102,37.684],[139.098,37.68],[139.1,37.67],[139.104,37.668],[139.109,37.661],[139.104,37.657],[139.109,37.652],[139.121,37.657],[139.134,37.657],[139.132,37.651],[139.134,37.642],[139.139,37.637],[139.14,37.629],[139.15,37.626],[139.153,37.62],[139.152,37.613],[139.154,37.609],[139.168,37.604],[139.17,37.599],[139.18,37.6],[139.19,37.607],[139.194,37.614],[139.204,37.611],[139.219,37.602],[139.219,37.594],[139.225,37.582],[139.231,37.578],[139.234,37.568],[139.232,37.559],[139.234,37.555],[139.242,37.549],[139.248,37.538],[139.259,37.536],[139.256,37.526],[139.26,37.519],[139.26,37.512],[139.266,37.512],[139.274,37.516],[139.276,37.51],[139.291,37.518],[139.302,37.53],[139.308,37.531],[139.322,37.543],[139.321,37.551],[139.314,37.553],[139.309,37.559],[139.309,37.565],[139.316,37.577],[139.326,37.589],[139.323,37.596],[139.339,37.596],[139.349,37.601],[139.348,37.607],[139.343,37.611],[139.345,37.624],[139.348,37.63],[139.335,37.637],[139.329,37.639],[139.322,37.647],[139.326,37.651],[139.323,37.655],[139.324,37.662],[139.314,37.667],[139.308,37.675],[139.31,37.687],[139.302,37.695],[139.287,37.695],[139.28,37.702],[139.285,37.707],[139.286,37.721],[139.291,37.723],[139.296,37.729],[139.293,37.738],[139.287,37.738],[139.262,37.743],[139.238,37.746],[139.231,37.742],[139.223,37.745],[139.226,37.751],[139.221,37.758],[139.211,37.764],[139.188,37.774],[139.18,37.777],[139.169,37.775],[139.171,37.77],[139.159,37.765],[139.155,37.768],[139.147,37.763],[139.148,37.756],[139.14,37.753],[139.133,37.748],[139.131,37.738],[139.121,37.733],[139.111,37.734],[139.108,37.726]]]]}},{"type":"Feature","properties":{"name":"魚沼市","code":"15225"},"geometry":{"type":"MultiPolygon","coordinates":[[[[138.835,37.176],[138.845,37.165],[138.848,37.174],[138.857,37.177],[138.868,37.187],[138.873,37.194],[138.882,37.191],[138.885,37.178],[138.89,37.172],[138.897,37.175],[138.905,37.175],[138.912,37.185],[138.908,37.194],[138.915,37.201],[138.933,37.209],[138.936,37.203],[138.944,37.198],[138.938,37.19],[138.928,37.181],[138.939,37.172],[138.946,37.175],[138.953,37.175],[138.956,37.185],[138.964,37.192],[138.968,37.191],[138.98,37.195],[138.993,37.194],[139.003,37.187],[139.017,37.188],[139.026,37.184],[139.023,37.18],[139.021,37.168],[139.028,37.166],[139.025,37.155],[139.027,37.149],[139.039,37.144],[139.055,37.142],[139.054,37.138],[139.063,37.134],[139.078,37.131],[139.08,37.126],[139.076,37.122],[139.078,37.116],[139.079,37.098],[139.081,37.092],[139.077,37.086],[139.083,37.075],[139.098,37.066],[139.097,37.059],[139.111,37.055],[139.115,37.048],[139.123,37.047],[139.132,37.026],[139.145,37.019],[139.15,37.01],[139.162,37.004],[139.171,37.002],[139.179,36.991],[139.175,36.974],[139.183,36.961],[139.194,36.961],[139.205,36.956],[139.219,36.961],[139.229,36.961],[139.24,36.941],[139.242,36.949],[139.251,36.962],[139.248,36.971],[139.252,36.977],[139.247,36.98],[139.253,36.984],[139.254,36.99],[139.251,37.005],[139.243,37.015],[139.249,37.024],[139.249,37.031],[139.253,37.034],[139.255,37.04],[139.26,37.043],[139.257,37.056],[139.247,37.071],[139.249,37.081],[139.243,37.085],[139.239,37.091],[139.241,37.094],[139.236,37.102],[139.235,37.114],[139.243,37.127],[139.246,37.145],[139.253,37.161],[139.251,37.166],[139.243,37.17],[139.245,37.181],[139.24,37.188],[139.236,37.188],[139.228,37.197],[139.226,37.204],[139.218,37.209],[139.213,37.2],[139.205,37.194],[139.197,37.194],[139.195,37.204],[139.187,37.21],[139.183,37.217],[139.173,37.225],[139.166,37.232],[139.165,37.239],[139.175,37.256],[139.192,37.269],[139.205,37.284],[139.212,37.286],[139.216,37.309],[139.222,37.315],[139.224,37.321],[139.221,37.324],[139.218,37.334],[139.228,37.343],[139.234,37.344],[139.234,37.357],[139.238,37.373],[139.231,37.38],[139.232,37.387],[139.222,37.393],[139.215,37.391],[139.208,37.396],[139.208,37.401],[139.202,37.409],[139.197,37.411],[139.187,37.412],[139.172,37.41],[139.164,37.413],[139.148,37.404],[139.143,37.398],[139.137,37.398],[139.128,37.401],[139.123,37.41],[139.108,37.411],[139.095,37.41],[139.09,37.406],[139.081,37.403],[139.062,37.406],[139.055,37.414],[139.047,37.408],[139.049,37.402],[139.034,37.4],[139.029,37.398],[139.019,37.389],[139.014,37.378],[139.0,37.375],[138.994,37.372],[138.988,37.373],[138.98,37.38],[138.969,37.384],[138.962,37.374],[138.957,37.373],[138.957,37.36],[138.964,37.354],[138.955,37.351],[138.951,37.345],[138.94,37.34],[138.933,37.339],[138.94,37.325],[138.939,37.318],[138.932,37.313],[138.934,37.304],[138.926,37.297],[138.915,37.292],[138.911,37.293],[138.905,37.293],[138.901,37.289],[138.899,37.281],[138.891,37.279],[138.888,37.265],[138.893,37.255],[138.888,37.25],[138.888,37.243],[138.881,37.24],[138.882,37.231],[138.88,37.224],[138.871,37.22],[138.869,37.208],[138.864,37.203],[138.858,37.203],[138.853,37.19],[138.849,37.185],[138.835,37.176]]]]}},{"type":"Feature","properties":{"name":"南魚沼市","code":"15226"},"geometry":{"type":"MultiPolygon","coordinates":[[[[138.779,36.958],[138.784,36.964],[138.796,36.964],[138.807,36.962],[138.816,36.957],[138.82,36.951],[138.838,36.954],[138.841,36.96],[138.855,36.96],[138.859,36.95],[138.865,36.948],[138.875,36.951],[138.889,36.949],[138.899,36.941],[138.898,36.936],[138.913,36.932],[138.916,36.923],[138.926,36.913],[138.926,36.905],[138.932,36.894],[138.94,36.895],[138.95,36.893],[138.954,36.895],[138.967,36.891],[138.972,36.887],[138.979,36.891],[138.98,36.904],[138.974,36.913],[138.977,36.921],[138.967,36.931],[138.964,36.953],[138.966,36.958],[138.966,36.979],[138.97,36.981],[139.001,36.979],[139.015,36.988],[139.03,36.984],[139.048,36.988],[139.05,36.995],[139.074,37.009],[139.081,37.009],[139.091,37.02],[139.089,37.029],[139.091,37.04],[139.09,37.045],[139.097,37.059],[139.098,37.066],[139.083,37.075],[139.077,37.086],[139.081,37.092],[139.079,37.098],[139.078,37.116],[139.076,37.122],[139.08,37.126],[139.078,37.131],[139.063,37.134],[139.054,37.138],[139.055,37.142],[139.039,37.144],[139.027,37.149],[139.025,37.155],[139.028,37.166],[139.021,37.168],[139.023,37.18],[139.026,37.184],[139.017,37.188],[139.003,37.187],[138.993,37.194],[138.98,37.195],[138.968,37.191],[138.964,37.192],[138.956,37.185],[138.953,37.175],[138.946,37.175],[138.939,37.172],[138.928,37.181],[138.938,37.19],[138.944,37.198],[138.936,37.203],[138.933,37.209],[138.915,37.201],[138.908,37.194],[138.912,37.185],[138.905,37.175],[138.897,37.175],[138.89,37.172],[138.885,37.178],[138.882,37.191],[138.873,37.194],[138.868,37.187],[138.857,37.177],[138.848,37.174],[138.845,37.165],[138.846,37.162],[138.854,37.158],[138.861,37.149],[138.868,37.149],[138.875,37.14],[138.87,37.133],[138.859,37.131],[138.858,37.125],[138.841,37.119],[138.84,37.112],[138.834,37.103],[138.83,37.102],[138.827,37.091],[138.824,37.087],[138.83,37.077],[138.819,37.072],[138.811,37.067],[138.812,37.059],[138.803,37.054],[138.802,37.044],[138.792,37.03],[138.788,37.03],[138.782,37.016],[138.775,37.01],[138.779,37.005],[138.774,37.0],[138.771,36.983],[138.765,36.977],[138.769,36.963],[138.779,36.958]]]]}},{"type":"Feature","properties":{"name":"胎内市","code":"15227"},"geometry":{"type":"MultiPolygon","coordinates":[[[[139.629,37.894],[139.632,37.899],[139.626,37.909],[139.629,37.912],[139.625,37.918],[139.61,37.926],[139.606,37.935],[139.599,37.934],[139.585,37.935],[139.581,37.933],[139.568,37.932],[139.561,37.944],[139.562,37.956],[139.556,37.957],[139.557,37.962],[139.563,37.966],[139.562,37.976],[139.565,37.984],[139.553,37.996],[139.546,37.998],[139.543,38.006],[139.531,38.013],[139.535,38.019],[139.534,38.023],[139.54,38.032],[139.537,38.041],[139.527,38.05],[139.523,38.063],[139.523,38.07],[139.527,38.074],[139.524,38.083],[139.514,38.083],[139.509,38.089],[139.498,38.088],[139.49,38.085],[139.487,38.079],[139.481,38.078],[139.47,38.081],[139.453,38.09],[139.444,38.095],[139.442,38.103],[139.43,38.097],[139.414,38.109],[139.418,38.113],[139.408,38.121],[139.408,38.13],[139.411,38.135],[139.408,38.139],[139.412,38.144],[139.409,38.15],[139.387,38.123],[139.364,38.097],[139.35,38.082],[139.335,38.068],[139.314,38.049],[139.322,38.037],[139.351,38.02],[139.356,38.02],[139.36,38.032],[139.382,38.033],[139.389,38.028],[139.399,38.031],[139.408,38.027],[139.417,38.02],[139.426,38.02],[139.435,38.022],[139.45,38.016],[139.46,38.008],[139.474,38.01],[139.477,38.003],[139.486,38.003],[139.493,37.998],[139.494,37.984],[139.491,37.976],[139.489,37.963],[139.492,37.959],[139.492,37.949],[139.504,37.938],[139.512,37.921],[139.5,37.901],[139.507,37.889],[139.521,37.888],[139.529,37.886],[139.54,37.888],[139.541,37.885],[139.553,37.882],[139.559,37.874],[139.556,37.863],[139.567,37.861],[139.586,37.864],[139.591,37.87],[139.595,37.87],[139.606,37.88],[139.606,37.886],[139.624,37.891],[139.629,37.894]]]]}},{"type":"Feature","properties":{"name":"北蒲原郡聖籠町","code":"15307"},"geometry":{"type":"MultiPolygon","coordinates":[[[[139.242,37.947],[139.257,37.955],[139.269,37.953],[139.293,37.956],[139.298,37.967],[139.305,37.97],[139.314,37.986],[139.299,37.989],[139.286,37.986],[139.282,37.99],[139.271,37.995],[139.285,38.004],[139.292,38.007],[139.3,38.014],[139.29,38.023],[139.288,38.031],[139.277,38.023],[139.246,38.004],[139.241,38.007],[139.227,37.999],[139.226,37.992],[139.231,37.982],[139.238,37.972],[139.233,37.966],[139.236,37.956],[139.232,37.948],[139.242,37.947]]]]}},{"type":"Feature","properties":{"name":"西蒲原郡弥彦村","code":"15342"},"geometry":{"type":"MultiPolygon","coordinates":[[[[138.808,37.707],[138.811,37.701],[138.809,37.692],[138.805,37.686],[138.806,37.678],[138.809,37.674],[138.826,37.67],[138.843,37.669],[138.843,37.664],[138.839,37.658],[138.848,37.658],[138.855,37.673],[138.868,37.671],[138.872,37.685],[138.866,37.692],[138.872,37.696],[138.865,37.701],[138.865,37.707],[138.852,37.709],[138.844,37.715],[138.833,37.714],[138.816,37.718],[138.808,37.707]]]]}},{"type":"Feature","properties":{"name":"南蒲原郡田上町","code":"15361"},"geometry":{"type":"MultiPolygon","coordinates":[[[[139.062,37.728],[139.047,37.719],[139.042,37.71],[139.032,37.701],[139.033,37.693],[139.04,37.685],[139.046,37.671],[139.069,37.674],[139.093,37.68],[139.098,37.68],[139.102,37.684],[139.1,37.689],[139.106,37.695],[139.105,37.7],[139.093,37.709],[139.098,37.713],[139.1,37.721],[139.108,37.726],[139.099,37.734],[139.088,37.732],[139.083,37.727],[139.069,37.731],[139.062,37.728]]]]}},{"type":"Feature","properties":{"name":"岩船郡粟島浦村","code":"15586"},"geometry":{"type":"MultiPolygon","coordinates":[[[[139.256,38.491],[139.237,38.475],[139.239,38.471],[139.232,38.464],[139.223,38.459],[139.225,38.454],[139.223,38.448],[139.215,38.437],[139.226,38.437],[139.248,38.453],[139.254,38.462],[139.254,38.465],[139.259,38.482],[139.264,38.489],[139.256,38.491]]]]}},{"type":"Feature","properties":{"name":"東蒲原郡阿賀町","code":"15385"},"geometry":{"type":"MultiPolygon","coordinates":[[[[139.251,37.452],[139.259,37.447],[139.277,37.453],[139.287,37.452],[139.307,37.459],[139.326,37.462],[139.335,37.458],[139.346,37.46],[139.351,37.466],[139.363,37.47],[139.369,37.465],[139.386,37.464],[139.398,37.46],[139.406,37.466],[139.406,37.478],[139.41,37.484],[139.408,37.492],[139.414,37.497],[139.411,37.502],[139.414,37.508],[139.428,37.514],[139.439,37.513],[139.451,37.517],[139.457,37.518],[139.466,37.508],[139.476,37.503],[139.486,37.51],[139.497,37.513],[139.514,37.509],[139.52,37.514],[139.543,37.512],[139.555,37.506],[139.567,37.502],[139.585,37.513],[139.591,37.528],[139.579,37.53],[139.57,37.539],[139.57,37.551],[139.568,37.563],[139.572,37.568],[139.57,37.58],[139.564,37.589],[139.566,37.593],[139.562,37.6],[139.554,37.602],[139.549,37.61],[139.552,37.619],[139.548,37.622],[139.546,37.629],[139.552,37.637],[139.553,37.642],[139.549,37.649],[139.563,37.654],[139.568,37.653],[139.589,37.667],[139.594,37.665],[139.601,37.669],[139.609,37.684],[139.618,37.689],[139.627,37.688],[139.628,37.692],[139.622,37.7],[139.624,37.708],[139.643,37.728],[139.65,37.729],[139.652,37.738],[139.657,37.741],[139.659,37.75],[139.658,37.755],[139.667,37.757],[139.669,37.763],[139.678,37.77],[139.68,37.775],[139.697,37.785],[139.705,37.796],[139.714,37.799],[139.722,37.809],[139.742,37.818],[139.736,37.828],[139.729,37.831],[139.721,37.84],[139.715,37.853],[139.711,37.854],[139.698,37.848],[139.682,37.847],[139.673,37.838],[139.66,37.833],[139.645,37.829],[139.633,37.833],[139.63,37.83],[139.62,37.83],[139.611,37.825],[139.608,37.819],[139.594,37.815],[139.585,37.811],[139.578,37.813],[139.568,37.811],[139.563,37.806],[139.556,37.804],[139.55,37.807],[139.535,37.804],[139.533,37.797],[139.524,37.793],[139.507,37.797],[139.49,37.794],[139.482,37.797],[139.468,37.791],[139.455,37.794],[139.443,37.806],[139.434,37.81],[139.429,37.815],[139.423,37.817],[139.411,37.814],[139.39,37.827],[139.374,37.825],[139.362,37.822],[139.364,37.815],[139.356,37.809],[139.348,37.801],[139.343,37.799],[139.341,37.792],[139.334,37.786],[139.334,37.782],[139.327,37.779],[139.324,37.77],[139.315,37.766],[139.299,37.762],[139.289,37.757],[139.292,37.744],[139.287,37.738],[139.293,37.738],[139.296,37.729],[139.291,37.723],[139.286,37.721],[139.285,37.707],[139.28,37.702],[139.287,37.695],[139.302,37.695],[139.31,37.687],[139.308,37.675],[139.314,37.667],[139.324,37.662],[139.323,37.655],[139.326,37.651],[139.322,37.647],[139.329,37.639],[139.335,37.637],[139.348,37.63],[139.345,37.624],[139.343,37.611],[139.348,37.607],[139.349,37.601],[139.339,37.596],[139.323,37.596],[139.326,37.589],[139.316,37.577],[139.309,37.565],[139.309,37.559],[139.314,37.553],[139.321,37.551],[139.322,37.543],[139.308,37.531],[139.302,37.53],[139.291,37.518],[139.276,37.51],[139.287,37.508],[139.29,37.498],[139.296,37.493],[139.298,37.485],[139.283,37.484],[139.276,37.475],[139.257,37.464],[139.251,37.452]]]]}},{"type":"Feature","properties":{"name":"三島郡出雲崎町","code":"15405"},"geometry":{"type":"MultiPolygon","coordinates":[[[[138.727,37.578],[138.715,37.56],[138.709,37.555],[138.695,37.547],[138.676,37.538],[138.665,37.53],[138.66,37.524],[138.674,37.524],[138.68,37.517],[138.676,37.509],[138.672,37.508],[138.675,37.495],[138.698,37.498],[138.722,37.487],[138.728,37.492],[138.739,37.49],[138.74,37.497],[138.734,37.503],[138.742,37.51],[138.742,37.516],[138.752,37.516],[138.753,37.523],[138.758,37.525],[138.761,37.533],[138.754,37.541],[138.741,37.547],[138.746,37.553],[138.749,37.562],[138.742,37.561],[138.734,37.565],[138.723,37.566],[138.727,37.573],[138.727,37.578]]]]}},{"type":"Feature","properties":{"name":"南魚沼郡湯沢町","code":"15461"},"geometry":{"type":"MultiPolygon","coordinates":[[[[138.7,36.868],[138.706,36.859],[138.703,36.85],[138.69,36.846],[138.69,36.832],[138.681,36.824],[138.68,36.82],[138.687,36.818],[138.696,36.809],[138.689,36.798],[138.689,36.794],[138.684,36.788],[138.672,36.784],[138.67,36.774],[138.68,36.766],[138.688,36.766],[138.692,36.759],[138.692,36.746],[138.697,36.738],[138.705,36.737],[138.713,36.739],[138.716,36.746],[138.722,36.75],[138.721,36.759],[138.727,36.764],[138.753,36.755],[138.761,36.749],[138.77,36.746],[138.778,36.748],[138.789,36.745],[138.793,36.748],[138.795,36.758],[138.806,36.765],[138.818,36.762],[138.827,36.772],[138.825,36.776],[138.83,36.786],[138.829,36.795],[138.826,36.805],[138.822,36.813],[138.822,36.818],[138.84,36.817],[138.851,36.812],[138.857,36.812],[138.865,36.816],[138.876,36.819],[138.88,36.825],[138.903,36.827],[138.929,36.833],[138.93,36.838],[138.924,36.847],[138.917,36.849],[138.918,36.857],[138.922,36.861],[138.917,36.87],[138.923,36.883],[138.931,36.887],[138.932,36.894],[138.926,36.905],[138.926,36.913],[138.916,36.923],[138.913,36.932],[138.898,36.936],[138.899,36.941],[138.889,36.949],[138.875,36.951],[138.865,36.948],[138.859,36.95],[138.855,36.96],[138.841,36.96],[138.838,36.954],[138.82,36.951],[138.816,36.957],[138.807,36.962],[138.796,36.964],[138.784,36.964],[138.779,36.958],[138.773,36.946],[138.763,36.935],[138.753,36.931],[138.753,36.926],[138.744,36.922],[138.738,36.912],[138.731,36.909],[138.733,36.902],[138.729,36.896],[138.721,36.89],[138.715,36.882],[138.714,36.874],[138.7,36.868]]]]}},{"type":"Feature","properties":{"name":"中魚沼郡津南町","code":"15482"},"geometry":{"type":"MultiPolygon","coordinates":[[[[138.566,37.021],[138.57,37.015],[138.571,37.005],[138.576,36.997],[138.586,36.987],[138.588,36.977],[138.586,36.957],[138.587,36.954],[138.585,36.932],[138.587,36.926],[138.592,36.925],[138.589,36.915],[138.596,36.907],[138.613,36.909],[138.621,36.904],[138.618,36.892],[138.623,36.885],[138.641,36.879],[138.651,36.874],[138.657,36.868],[138.667,36.867],[138.676,36.867],[138.688,36.861],[138.694,36.852],[138.69,36.846],[138.703,36.85],[138.706,36.859],[138.7,36.868],[138.692,36.877],[138.675,36.881],[138.668,36.892],[138.66,36.896],[138.654,36.907],[138.662,36.913],[138.662,36.927],[138.664,36.935],[138.674,36.942],[138.69,36.95],[138.689,36.939],[138.703,36.946],[138.711,36.947],[138.716,36.961],[138.708,36.969],[138.71,36.975],[138.709,36.981],[138.699,36.99],[138.699,37.003],[138.691,37.015],[138.685,37.011],[138.684,37.03],[138.692,37.036],[138.691,37.041],[138.683,37.05],[138.686,37.057],[138.667,37.065],[138.645,37.057],[138.643,37.049],[138.636,37.049],[138.633,37.044],[138.626,37.042],[138.618,37.044],[138.614,37.04],[138.599,37.039],[138.587,37.031],[138.578,37.031],[138.568,37.026],[138.566,37.021]]]]}},{"type":"Feature","properties":{"name":"刈羽郡刈羽村","code":"15504"},"geometry":{"type":"MultiPolygon","coordinates":[[[[138.691,37.438],[138.681,37.433],[138.679,37.423],[138.685,37.415],[138.699,37.402],[138.708,37.419],[138.702,37.421],[138.697,37.426],[138.697,37.432],[138.691,37.438]]],[[[138.631,37.454],[138.618,37.451],[138.603,37.443],[138.599,37.437],[138.606,37.435],[138.608,37.43],[138.6,37.414],[138.591,37.402],[138.593,37.399],[138.61,37.403],[138.622,37.402],[138.625,37.408],[138.632,37.414],[138.646,37.408],[138.665,37.406],[138.669,37.412],[138.645,37.431],[138.632,37.434],[138.637,37.439],[138.636,37.443],[138.642,37.454],[138.635,37.457],[138.631,37.454]]]]}},{"type":"Feature","properties":{"name":"岩船郡関川村","code":"15581"},"geometry":{"type":"MultiPolygon","coordinates":[[[[139.49,38.085],[139.498,38.088],[139.509,38.089],[139.514,38.083],[139.524,38.083],[139.527,38.074],[139.523,38.07],[139.523,38.063],[139.528,38.052],[139.537,38.041],[139.54,38.032],[139.534,38.023],[139.535,38.019],[139.531,38.013],[139.543,38.006],[139.546,37.998],[139.553,37.996],[139.565,37.984],[139.562,37.976],[139.563,37.966],[139.557,37.962],[139.556,37.957],[139.562,37.956],[139.561,37.944],[139.568,37.932],[139.581,37.933],[139.585,37.935],[139.599,37.934],[139.606,37.935],[139.61,37.926],[139.625,37.918],[139.632,37.93],[139.639,37.935],[139.643,37.947],[139.64,37.952],[139.645,37.963],[139.639,37.969],[139.644,37.98],[139.639,37.984],[139.645,37.992],[139.654,37.997],[139.653,38.003],[139.654,38.015],[139.652,38.021],[139.657,38.029],[139.658,38.037],[139.663,38.04],[139.675,38.041],[139.68,38.043],[139.682,38.05],[139.69,38.052],[139.693,38.057],[139.687,38.066],[139.692,38.071],[139.686,38.077],[139.682,38.075],[139.672,38.077],[139.675,38.092],[139.683,38.108],[139.692,38.113],[139.688,38.135],[139.692,38.145],[139.691,38.155],[139.685,38.159],[139.679,38.161],[139.669,38.158],[139.655,38.168],[139.645,38.165],[139.637,38.166],[139.615,38.164],[139.611,38.167],[139.601,38.166],[139.587,38.17],[139.579,38.165],[139.577,38.161],[139.561,38.157],[139.556,38.149],[139.546,38.148],[139.538,38.151],[139.529,38.149],[139.521,38.142],[139.511,38.143],[139.504,38.135],[139.514,38.127],[139.504,38.124],[139.502,38.116],[139.512,38.109],[139.511,38.1],[139.506,38.1],[139.501,38.092],[139.495,38.09],[139.49,38.085]]]]}}]}