{"type":"FeatureCollection","features":[{"type":"Feature","properties":{"name":"富山市","code":"16201"},"geometry":{"type":"MultiPolygon","coordinates":[[[[137.316,36.759],[137.295,36.757],[137.243,36.766],[137.228,36.762],[137.205,36.759],[137.195,36.761],[137.18,36.758],[137.179,36.748],[137.167,36.743],[137.151,36.741],[137.146,36.724],[137.132,36.725],[137.119,36.711],[137.125,36.695],[137.122,36.686],[137.108,36.681],[137.1,36.684],[137.087,36.659],[137.08,36.664],[137.073,36.649],[137.064,36.657],[137.052,36.646],[137.065,36.638],[137.056,36.63],[137.054,36.621],[137.054,36.6],[137.04,36.58],[137.041,36.57],[137.036,36.541],[137.033,36.533],[137.035,36.514],[137.028,36.506],[137.05,36.503],[137.055,36.478],[137.06,36.471],[137.064,36.452],[137.055,36.437],[137.062,36.427],[137.056,36.412],[137.058,36.398],[137.055,36.393],[137.047,36.372],[137.058,36.372],[137.079,36.384],[137.095,36.384],[137.096,36.399],[137.102,36.399],[137.112,36.415],[137.124,36.422],[137.142,36.443],[137.155,36.449],[137.16,36.456],[137.176,36.451],[137.191,36.455],[137.195,36.447],[137.213,36.43],[137.213,36.438],[137.222,36.444],[137.231,36.444],[137.248,36.462],[137.256,36.451],[137.264,36.458],[137.278,36.465],[137.298,36.458],[137.307,36.464],[137.317,36.461],[137.318,36.451],[137.314,36.442],[137.305,36.436],[137.313,36.425],[137.32,36.424],[137.339,36.434],[137.35,36.433],[137.358,36.436],[137.361,36.45],[137.389,36.457],[137.395,36.456],[137.395,36.436],[137.41,36.425],[137.436,36.42],[137.442,36.414],[137.453,36.416],[137.461,36.412],[137.474,36.425],[137.491,36.424],[137.497,36.426],[137.512,36.423],[137.513,36.416],[137.52,36.406],[137.53,36.403],[137.541,36.391],[137.56,36.387],[137.578,36.393],[137.592,36.39],[137.605,36.403],[137.604,36.409],[137.609,36.418],[137.623,36.424],[137.633,36.425],[137.638,36.431],[137.64,36.446],[137.645,36.455],[137.655,36.459],[137.657,36.47],[137.651,36.48],[137.652,36.488],[137.666,36.493],[137.669,36.509],[137.705,36.518],[137.704,36.527],[137.692,36.52],[137.672,36.527],[137.656,36.52],[137.647,36.525],[137.6,36.548],[137.591,36.554],[137.571,36.556],[137.543,36.546],[137.537,36.549],[137.522,36.545],[137.511,36.547],[137.509,36.553],[137.488,36.565],[137.474,36.566],[137.457,36.573],[137.437,36.585],[137.419,36.584],[137.405,36.579],[137.373,36.572],[137.36,36.571],[137.334,36.579],[137.319,36.592],[137.318,36.599],[137.288,36.635],[137.283,36.652],[137.283,36.673],[137.278,36.695],[137.291,36.698],[137.293,36.704],[137.306,36.713],[137.317,36.712],[137.321,36.727],[137.337,36.724],[137.335,36.734],[137.339,36.739],[137.316,36.759]]]]}},{"type":"Feature","properties":{"name":"高岡市","code":"16202"},"geometry":{"type":"MultiPolygon","coordinates":[[[[137.068,36.794],[137.068,36.801],[137.057,36.802],[137.044,36.814],[137.017,36.829],[137.012,36.824],[137.013,36.816],[137.0,36.81],[137.006,36.803],[137.018,36.797],[137.013,36.79],[136.997,36.796],[136.986,36.794],[136.959,36.782],[136.949,36.782],[136.927,36.77],[136.909,36.775],[136.899,36.774],[136.887,36.778],[136.884,36.785],[136.873,36.782],[136.851,36.787],[136.843,36.781],[136.851,36.768],[136.849,36.759],[136.839,36.745],[136.833,36.743],[136.842,36.736],[136.858,36.733],[136.877,36.717],[136.886,36.716],[136.891,36.699],[136.904,36.703],[136.914,36.687],[136.924,36.685],[136.933,36.686],[136.95,36.68],[136.957,36.67],[136.956,36.661],[136.965,36.66],[136.978,36.671],[136.99,36.669],[136.987,36.657],[137.008,36.659],[137.012,36.672],[137.042,36.658],[137.047,36.66],[137.043,36.673],[137.035,36.679],[137.039,36.69],[137.011,36.699],[137.04,36.731],[137.051,36.755],[137.049,36.764],[137.054,36.772],[137.079,36.762],[137.092,36.763],[137.104,36.77],[137.092,36.772],[137.078,36.774],[137.074,36.781],[137.059,36.785],[137.068,36.794]]]]}},{"type":"Feature","properties":{"name":"魚津市","code":"16204"},"geometry":{"type":"MultiPolygon","coordinates":[[[[137.59,36.681],[137.586,36.69],[137.587,36.699],[137.595,36.703],[137.61,36.719],[137.608,36.73],[137.599,36.731],[137.59,36.739],[137.583,36.753],[137.563,36.766],[137.544,36.77],[137.533,36.782],[137.521,36.778],[137.506,36.787],[137.507,36.796],[137.5,36.803],[137.506,36.815],[137.506,36.824],[137.487,36.831],[137.458,36.837],[137.452,36.841],[137.43,36.849],[137.423,36.855],[137.41,36.861],[137.411,36.848],[137.4,36.837],[137.393,36.819],[137.393,36.807],[137.382,36.8],[137.396,36.786],[137.402,36.774],[137.415,36.757],[137.426,36.747],[137.435,36.732],[137.448,36.714],[137.457,36.702],[137.47,36.704],[137.482,36.724],[137.499,36.721],[137.511,36.706],[137.508,36.699],[137.509,36.686],[137.517,36.679],[137.526,36.681],[137.553,36.674],[137.562,36.676],[137.58,36.673],[137.59,36.681]]]]}},{"type":"Feature","properties":{"name":"氷見市","code":"16205"},"geometry":{"type":"MultiPolygon","coordinates":[[[[137.017,36.829],[137.007,36.837],[136.991,36.854],[136.985,36.869],[136.985,36.877],[136.993,36.879],[137.003,36.89],[137.018,36.911],[137.025,36.914],[137.033,36.924],[137.027,36.939],[137.048,36.956],[137.045,36.964],[137.038,36.967],[137.004,36.961],[136.997,36.967],[136.987,36.967],[136.981,36.951],[136.974,36.944],[136.954,36.956],[136.928,36.948],[136.915,36.93],[136.896,36.925],[136.879,36.906],[136.878,36.899],[136.886,36.885],[136.883,36.877],[136.871,36.863],[136.862,36.86],[136.863,36.843],[136.856,36.84],[136.86,36.829],[136.849,36.813],[136.854,36.795],[136.851,36.787],[136.873,36.782],[136.884,36.785],[136.887,36.778],[136.899,36.774],[136.909,36.775],[136.927,36.77],[136.949,36.782],[136.959,36.782],[136.986,36.794],[136.997,36.796],[137.013,36.79],[137.018,36.797],[137.006,36.803],[137.0,36.81],[137.013,36.816],[137.012,36.824],[137.017,36.829]]]]}},{"type":"Feature","properties":{"name":"滑川市","code":"16206"},"geometry":{"type":"MultiPolygon","coordinates":[[[[137.339,36.739],[137.366,36.725],[137.383,36.724],[137.391,36.718],[137.405,36.724],[137.419,36.721],[137.426,36.728],[137.437,36.719],[137.433,36.707],[137.441,36.705],[137.448,36.714],[137.435,36.732],[137.426,36.747],[137.415,36.757],[137.402,36.774],[137.396,36.786],[137.382,36.8],[137.369,36.794],[137.35,36.782],[137.334,36.763],[137.316,36.759],[137.339,36.739]]]]}},{"type":"Feature","properties":{"name":"黒部市","code":"16207"},"geometry":{"type":"MultiPolygon","coordinates":[[[[137.59,36.681],[137.614,36.655],[137.62,36.655],[137.627,36.64],[137.644,36.639],[137.647,36.635],[137.675,36.636],[137.685,36.645],[137.692,36.643],[137.717,36.627],[137.728,36.623],[137.747,36.625],[137.751,36.627],[137.756,36.647],[137.754,36.658],[137.762,36.667],[137.758,36.676],[137.76,36.686],[137.75,36.705],[137.753,36.719],[137.751,36.727],[137.759,36.741],[137.754,36.754],[137.747,36.767],[137.647,36.836],[137.644,36.851],[137.632,36.851],[137.619,36.864],[137.611,36.866],[137.595,36.853],[137.589,36.852],[137.586,36.864],[137.573,36.869],[137.561,36.876],[137.551,36.876],[137.542,36.868],[137.534,36.874],[137.524,36.875],[137.5,36.891],[137.484,36.897],[137.453,36.904],[137.439,36.912],[137.426,36.922],[137.41,36.899],[137.419,36.881],[137.417,36.868],[137.41,36.861],[137.423,36.855],[137.43,36.849],[137.452,36.841],[137.458,36.837],[137.487,36.831],[137.506,36.824],[137.506,36.815],[137.5,36.803],[137.507,36.796],[137.506,36.787],[137.521,36.778],[137.533,36.782],[137.544,36.77],[137.563,36.766],[137.583,36.753],[137.59,36.739],[137.599,36.731],[137.608,36.73],[137.61,36.719],[137.595,36.703],[137.587,36.699],[137.586,36.69],[137.59,36.681]]]]}},{"type":"Feature","properties":{"name":"砺波市","code":"16208"},"geometry":{"type":"MultiPolygon","coordinates":[[[[137.052,36.646],[137.053,36.652],[137.047,36.66],[137.042,36.658],[137.012,36.672],[137.008,36.659],[136.987,36.657],[136.99,36.669],[136.978,36.671],[136.965,36.66],[136.956,36.661],[136.957,36.67],[136.95,36.68],[136.933,36.686],[136.924,36.685],[136.934,36.673],[136.92,36.674],[136.914,36.665],[136.918,36.656],[136.913,36.651],[136.92,36.639],[136.907,36.627],[136.906,36.623],[136.923,36.618],[136.924,36.612],[136.945,36.605],[136.957,36.598],[136.97,36.585],[136.978,36.569],[136.99,36.555],[137.004,36.55],[137.003,36.544],[137.036,36.541],[137.041,36.57],[137.04,36.58],[137.054,36.6],[137.054,36.621],[137.056,36.63],[137.065,36.638],[137.052,36.646]]]]}},{"type":"Feature","properties":{"name":"小矢部市","code":"16209"},"geometry":{"type":"MultiPolygon","coordinates":[[[[136.833,36.743],[136.822,36.74],[136.82,36.731],[136.8,36.73],[136.79,36.717],[136.799,36.71],[136.813,36.703],[136.811,36.685],[136.823,36.681],[136.814,36.659],[136.8,36.645],[136.8,36.636],[136.784,36.627],[136.783,36.615],[136.79,36.605],[136.8,36.609],[136.801,36.617],[136.812,36.616],[136.81,36.604],[136.824,36.6],[136.844,36.586],[136.851,36.587],[136.852,36.597],[136.866,36.605],[136.9,36.602],[136.909,36.615],[136.908,36.621],[136.904,36.624],[136.907,36.627],[136.92,36.639],[136.913,36.651],[136.918,36.656],[136.914,36.665],[136.92,36.674],[136.934,36.673],[136.924,36.685],[136.914,36.687],[136.904,36.703],[136.891,36.699],[136.886,36.716],[136.877,36.717],[136.858,36.733],[136.842,36.736],[136.833,36.743]]]]}},{"type":"Feature","properties":{"name":"南砺市","code":"16210"},"geometry":{"type":"MultiPolygon","coordinates":[[[[137.036,36.541],[137.003,36.544],[137.004,36.55],[136.99,36.555],[136.978,36.569],[136.97,36.585],[136.957,36.598],[136.945,36.605],[136.924,36.612],[136.923,36.618],[136.909,36.621],[136.907,36.627],[136.904,36.624],[136.908,36.621],[136.909,36.615],[136.9,36.602],[136.866,36.605],[136.852,36.597],[136.851,36.587],[136.844,36.586],[136.824,36.6],[136.81,36.604],[136.812,36.616],[136.801,36.617],[136.8,36.609],[136.79,36.605],[136.788,36.593],[136.795,36.583],[136.791,36.57],[136.802,36.569],[136.817,36.553],[136.813,36.538],[136.795,36.511],[136.795,36.496],[136.803,36.485],[136.796,36.475],[136.798,36.462],[136.789,36.455],[136.795,36.443],[136.778,36.431],[136.769,36.431],[136.771,36.414],[136.779,36.414],[136.795,36.401],[136.801,36.369],[136.807,36.363],[136.806,36.355],[136.787,36.348],[136.785,36.344],[136.789,36.325],[136.788,36.312],[136.795,36.303],[136.827,36.303],[136.842,36.333],[136.837,36.347],[136.844,36.351],[136.852,36.348],[136.865,36.35],[136.869,36.364],[136.876,36.361],[136.877,36.347],[136.89,36.346],[136.907,36.361],[136.923,36.355],[136.932,36.348],[136.94,36.349],[136.955,36.339],[136.964,36.319],[136.971,36.316],[136.965,36.292],[136.958,36.278],[136.976,36.276],[136.99,36.287],[137.003,36.287],[137.021,36.309],[137.018,36.316],[137.038,36.317],[137.052,36.33],[137.049,36.346],[137.062,36.366],[137.058,36.372],[137.047,36.372],[137.055,36.393],[137.058,36.398],[137.056,36.412],[137.062,36.427],[137.055,36.437],[137.064,36.452],[137.06,36.471],[137.055,36.478],[137.05,36.503],[137.028,36.506],[137.035,36.514],[137.033,36.533],[137.036,36.541]]]]}},{"type":"Feature","properties":{"name":"射水市","code":"16211"},"geometry":{"type":"MultiPolygon","coordinates":[[[[137.18,36.758],[137.156,36.763],[137.136,36.771],[137.137,36.775],[137.122,36.779],[137.118,36.767],[137.104,36.77],[137.092,36.763],[137.079,36.762],[137.054,36.772],[137.049,36.764],[137.051,36.755],[137.04,36.731],[137.011,36.699],[137.039,36.69],[137.035,36.679],[137.043,36.673],[137.047,36.66],[137.053,36.652],[137.052,36.646],[137.064,36.657],[137.073,36.649],[137.08,36.664],[137.087,36.659],[137.1,36.684],[137.108,36.681],[137.122,36.686],[137.125,36.695],[137.119,36.711],[137.132,36.725],[137.146,36.724],[137.151,36.741],[137.167,36.743],[137.179,36.748],[137.18,36.758]]],[[[137.094,36.775],[137.109,36.773],[137.108,36.779],[137.086,36.783],[137.068,36.794],[137.059,36.785],[137.074,36.781],[137.078,36.774],[137.092,36.772],[137.094,36.775]]]]}},{"type":"Feature","properties":{"name":"中新川郡舟橋村","code":"16321"},"geometry":{"type":"MultiPolygon","coordinates":[[[[137.293,36.704],[137.3,36.697],[137.297,36.688],[137.306,36.687],[137.317,36.704],[137.317,36.712],[137.306,36.713],[137.293,36.704]]]]}},{"type":"Feature","properties":{"name":"中新川郡上市町","code":"16322"},"geometry":{"type":"MultiPolygon","coordinates":[[[[137.317,36.712],[137.317,36.704],[137.328,36.705],[137.343,36.683],[137.352,36.682],[137.369,36.657],[137.378,36.657],[137.389,36.643],[137.413,36.628],[137.428,36.625],[137.438,36.616],[137.442,36.605],[137.458,36.602],[137.475,36.609],[137.487,36.611],[137.501,36.607],[137.502,36.6],[137.519,36.601],[137.531,36.608],[137.541,36.607],[137.555,36.596],[137.573,36.599],[137.584,36.593],[137.595,36.592],[137.61,36.599],[137.608,36.607],[137.614,36.612],[137.615,36.621],[137.623,36.63],[137.627,36.64],[137.62,36.655],[137.614,36.655],[137.59,36.681],[137.58,36.673],[137.562,36.676],[137.553,36.674],[137.526,36.681],[137.517,36.679],[137.509,36.686],[137.508,36.699],[137.511,36.706],[137.499,36.721],[137.482,36.724],[137.47,36.704],[137.457,36.702],[137.448,36.714],[137.441,36.705],[137.433,36.707],[137.437,36.719],[137.426,36.728],[137.419,36.721],[137.405,36.724],[137.391,36.718],[137.383,36.724],[137.366,36.725],[137.339,36.739],[137.335,36.734],[137.337,36.724],[137.321,36.727],[137.317,36.712]]]]}},{"type":"Feature","properties":{"name":"中新川郡立山町","code":"16323"},"geometry":{"type":"MultiPolygon","coordinates":[[[[137.704,36.527],[137.704,36.537],[137.685,36.538],[137.689,36.554],[137.688,36.562],[137.713,36.577],[137.725,36.587],[137.748,36.587],[137.753,36.594],[137.744,36.613],[137.747,36.625],[137.728,36.623],[137.717,36.627],[137.692,36.643],[137.685,36.645],[137.675,36.636],[137.647,36.635],[137.644,36.639],[137.627,36.64],[137.623,36.63],[137.615,36.621],[137.614,36.612],[137.608,36.607],[137.61,36.599],[137.595,36.592],[137.584,36.593],[137.573,36.599],[137.555,36.596],[137.541,36.607],[137.531,36.608],[137.519,36.601],[137.502,36.6],[137.501,36.607],[137.487,36.611],[137.475,36.609],[137.458,36.602],[137.442,36.605],[137.438,36.616],[137.428,36.625],[137.413,36.628],[137.389,36.643],[137.378,36.657],[137.369,36.657],[137.352,36.682],[137.343,36.683],[137.328,36.705],[137.317,36.704],[137.306,36.687],[137.297,36.688],[137.3,36.697],[137.293,36.704],[137.291,36.698],[137.278,36.695],[137.283,36.673],[137.283,36.652],[137.288,36.635],[137.318,36.599],[137.319,36.592],[137.334,36.579],[137.36,36.571],[137.373,36.572],[137.405,36.579],[137.419,36.584],[137.437,36.585],[137.457,36.573],[137.474,36.566],[137.488,36.565],[137.509,36.553],[137.511,36.547],[137.522,36.545],[137.537,36.549],[137.543,36.546],[137.571,36.556],[137.591,36.554],[137.6,36.548],[137.647,36.525],[137.656,36.52],[137.672,36.527],[137.692,36.52],[137.704,36.527]]]]}},{"type":"Feature","properties":{"name":"下新川郡入善町","code":"16342"},"geometry":{"type":"MultiPolygon","coordinates":[[[[137.611,36.866],[137.592,36.888],[137.583,36.881],[137.567,36.883],[137.555,36.893],[137.559,36.911],[137.532,36.909],[137.527,36.926],[137.531,36.941],[137.54,36.946],[137.543,36.961],[137.51,36.959],[137.491,36.954],[137.46,36.938],[137.436,36.931],[137.426,36.922],[137.439,36.912],[137.453,36.904],[137.484,36.897],[137.5,36.891],[137.524,36.875],[137.534,36.874],[137.542,36.868],[137.551,36.876],[137.561,36.876],[137.573,36.869],[137.586,36.864],[137.589,36.852],[137.595,36.853],[137.611,36.866]]]]}},{"type":"Feature","properties":{"name":"下新川郡朝日町","code":"16343"},"geometry":{"type":"MultiPolygon","coordinates":[[[[137.754,36.754],[137.763,36.768],[137.75,36.78],[137.754,36.797],[137.745,36.815],[137.732,36.824],[137.734,36.831],[137.733,36.845],[137.735,36.855],[137.732,36.874],[137.725,36.878],[137.713,36.894],[137.713,36.904],[137.718,36.908],[137.72,36.927],[137.713,36.935],[137.711,36.944],[137.687,36.943],[137.666,36.954],[137.652,36.969],[137.635,36.98],[137.612,36.976],[137.59,36.975],[137.575,36.964],[137.543,36.961],[137.54,36.946],[137.531,36.941],[137.527,36.926],[137.532,36.909],[137.559,36.911],[137.555,36.893],[137.567,36.883],[137.583,36.881],[137.592,36.888],[137.611,36.866],[137.619,36.864],[137.632,36.851],[137.644,36.851],[137.647,36.836],[137.747,36.767],[137.754,36.754]]]]}}]}