{"type":"FeatureCollection","features":[{"type":"Feature","properties":{"name":"金沢市","code":"17201"},"geometry":{"type":"MultiPolygon","coordinates":[[[[136.786,36.63],[136.78,36.63],[136.778,36.634],[136.773,36.635],[136.768,36.633],[136.755,36.639],[136.753,36.635],[136.743,36.639],[136.735,36.642],[136.726,36.644],[136.715,36.647],[136.71,36.647],[136.703,36.652],[136.69,36.66],[136.697,36.668],[136.686,36.674],[136.667,36.652],[136.654,36.644],[136.633,36.626],[136.624,36.633],[136.618,36.639],[136.613,36.639],[136.604,36.628],[136.609,36.625],[136.607,36.622],[136.6,36.621],[136.594,36.614],[136.586,36.609],[136.588,36.606],[136.585,36.598],[136.565,36.577],[136.557,36.568],[136.57,36.562],[136.577,36.563],[136.58,36.552],[136.591,36.548],[136.592,36.545],[136.595,36.553],[136.601,36.555],[136.605,36.54],[136.611,36.541],[136.612,36.546],[136.617,36.547],[136.622,36.545],[136.625,36.537],[136.622,36.534],[136.63,36.533],[136.628,36.525],[136.62,36.526],[136.615,36.523],[136.615,36.51],[136.613,36.504],[136.613,36.497],[136.62,36.496],[136.63,36.49],[136.633,36.485],[136.644,36.484],[136.636,36.475],[136.641,36.47],[136.647,36.468],[136.645,36.463],[136.65,36.455],[136.654,36.452],[136.65,36.449],[136.649,36.445],[136.65,36.44],[136.657,36.44],[136.658,36.436],[136.657,36.426],[136.661,36.418],[136.665,36.417],[136.665,36.412],[136.662,36.406],[136.666,36.403],[136.673,36.403],[136.676,36.399],[136.683,36.397],[136.69,36.39],[136.706,36.392],[136.71,36.391],[136.71,36.381],[136.716,36.377],[136.716,36.372],[136.721,36.369],[136.728,36.369],[136.742,36.362],[136.748,36.355],[136.756,36.349],[136.759,36.35],[136.77,36.346],[136.771,36.34],[136.778,36.338],[136.784,36.342],[136.787,36.348],[136.795,36.35],[136.806,36.355],[136.808,36.359],[136.807,36.363],[136.801,36.369],[136.8,36.381],[136.798,36.384],[136.795,36.401],[136.779,36.414],[136.771,36.414],[136.772,36.42],[136.769,36.423],[136.769,36.431],[136.774,36.433],[136.778,36.431],[136.786,36.438],[136.795,36.443],[136.789,36.449],[136.789,36.455],[136.798,36.462],[136.795,36.464],[136.798,36.469],[136.796,36.475],[136.8,36.483],[136.803,36.49],[136.799,36.49],[136.795,36.496],[136.797,36.502],[136.795,36.511],[136.804,36.523],[136.808,36.531],[136.813,36.538],[136.817,36.548],[136.817,36.553],[136.812,36.561],[136.808,36.562],[136.802,36.569],[136.793,36.568],[136.794,36.577],[136.795,36.583],[136.794,36.59],[136.788,36.593],[136.788,36.602],[136.786,36.609],[136.783,36.615],[136.784,36.627]]]]}},{"type":"Feature","properties":{"name":"七尾市","code":"17202"},"geometry":{"type":"MultiPolygon","coordinates":[[[[137.038,37.168],[137.033,37.166],[137.026,37.158],[137.024,37.145],[137.02,37.142],[137.014,37.141],[137.008,37.141],[137.008,37.137],[137.001,37.135],[137.001,37.138],[136.994,37.139],[136.989,37.142],[136.989,37.147],[136.986,37.151],[136.98,37.147],[136.973,37.153],[136.969,37.155],[136.967,37.148],[136.963,37.147],[136.962,37.143],[136.955,37.143],[136.944,37.141],[136.945,37.145],[136.94,37.146],[136.94,37.141],[136.931,37.138],[136.932,37.134],[136.923,37.13],[136.923,37.142],[136.925,37.145],[136.917,37.149],[136.917,37.153],[136.907,37.151],[136.902,37.152],[136.904,37.145],[136.902,37.141],[136.907,37.138],[136.906,37.134],[136.91,37.132],[136.915,37.134],[136.918,37.132],[136.919,37.126],[136.923,37.124],[136.931,37.123],[136.935,37.12],[136.944,37.106],[136.946,37.099],[136.951,37.097],[136.957,37.101],[136.966,37.105],[136.969,37.099],[136.976,37.097],[136.978,37.104],[136.988,37.113],[136.994,37.118],[137.005,37.117],[137.014,37.112],[137.018,37.113],[137.023,37.112],[137.026,37.116],[137.038,37.118],[137.05,37.123],[137.05,37.129],[137.045,37.131],[137.041,37.138],[137.043,37.144],[137.053,37.151],[137.05,37.153],[137.049,37.158],[137.041,37.168],[137.038,37.168]]],[[[136.889,37.169],[136.884,37.17],[136.883,37.174],[136.872,37.179],[136.863,37.176],[136.856,37.175],[136.851,37.184],[136.851,37.196],[136.847,37.198],[136.837,37.199],[136.831,37.201],[136.822,37.198],[136.815,37.194],[136.809,37.194],[136.804,37.189],[136.801,37.183],[136.8,37.174],[136.797,37.167],[136.789,37.159],[136.785,37.156],[136.786,37.151],[136.781,37.144],[136.782,37.137],[136.786,37.134],[136.785,37.127],[136.779,37.125],[136.776,37.119],[136.782,37.11],[136.786,37.108],[136.786,37.103],[136.789,37.098],[136.798,37.093],[136.804,37.092],[136.81,37.085],[136.811,37.079],[136.816,37.081],[136.828,37.076],[136.838,37.071],[136.837,37.066],[136.832,37.062],[136.842,37.062],[136.844,37.055],[136.85,37.053],[136.858,37.047],[136.86,37.04],[136.856,37.037],[136.853,37.029],[136.857,37.027],[136.858,37.023],[136.862,37.019],[136.868,37.019],[136.882,37.016],[136.888,37.017],[136.896,37.014],[136.914,37.015],[136.918,37.017],[136.925,37.003],[136.928,36.996],[136.938,36.993],[136.943,36.994],[136.953,36.987],[136.956,36.983],[136.949,36.977],[136.961,36.972],[136.969,36.972],[136.977,36.977],[136.986,36.965],[136.997,36.967],[137.004,36.961],[137.021,36.964],[137.027,36.962],[137.038,36.967],[137.045,36.964],[137.052,36.962],[137.057,36.968],[137.05,36.976],[137.051,36.98],[137.049,36.987],[137.053,36.99],[137.053,36.995],[137.047,37.003],[137.046,37.011],[137.051,37.02],[137.051,37.024],[137.048,37.029],[137.046,37.038],[137.049,37.043],[137.047,37.048],[137.05,37.053],[137.049,37.06],[137.053,37.063],[137.054,37.075],[137.05,37.082],[137.051,37.088],[137.053,37.092],[137.049,37.101],[137.054,37.106],[137.042,37.107],[137.034,37.103],[137.029,37.103],[137.021,37.101],[137.02,37.097],[137.013,37.09],[137.01,37.081],[137.012,37.077],[137.007,37.077],[137.002,37.066],[137.007,37.063],[137.005,37.057],[137.0,37.055],[136.996,37.06],[136.988,37.056],[136.99,37.052],[136.984,37.048],[136.976,37.053],[136.976,37.048],[136.967,37.051],[136.956,37.057],[136.963,37.067],[136.94,37.068],[136.936,37.072],[136.935,37.079],[136.941,37.081],[136.938,37.086],[136.932,37.087],[136.928,37.086],[136.917,37.091],[136.907,37.089],[136.904,37.083],[136.906,37.079],[136.902,37.074],[136.897,37.072],[136.89,37.074],[136.888,37.068],[136.874,37.07],[136.866,37.074],[136.86,37.075],[136.86,37.08],[136.863,37.084],[136.872,37.088],[136.869,37.09],[136.866,37.097],[136.868,37.111],[136.874,37.114],[136.88,37.11],[136.884,37.114],[136.89,37.11],[136.896,37.128],[136.899,37.131],[136.9,37.137],[136.893,37.139],[136.891,37.144],[136.887,37.144],[136.885,37.14],[136.875,37.141],[136.878,37.151],[136.883,37.159],[136.885,37.165],[136.89,37.166],[136.889,37.169]]]]}},{"type":"Feature","properties":{"name":"小松市","code":"17203"},"geometry":{"type":"MultiPolygon","coordinates":[[[[136.578,36.394],[136.575,36.397],[136.566,36.399],[136.559,36.394],[136.552,36.401],[136.552,36.407],[136.541,36.409],[136.541,36.415],[136.534,36.42],[136.526,36.429],[136.523,36.429],[136.518,36.426],[136.509,36.425],[136.494,36.421],[136.489,36.425],[136.488,36.416],[136.482,36.416],[136.484,36.424],[136.479,36.425],[136.484,36.434],[136.487,36.435],[136.488,36.441],[136.483,36.44],[136.481,36.443],[136.474,36.442],[136.473,36.436],[136.444,36.435],[136.431,36.427],[136.426,36.43],[136.418,36.423],[136.414,36.417],[136.404,36.409],[136.389,36.396],[136.372,36.383],[136.381,36.377],[136.385,36.369],[136.39,36.368],[136.394,36.364],[136.387,36.354],[136.397,36.344],[136.401,36.34],[136.409,36.34],[136.412,36.339],[136.415,36.333],[136.417,36.323],[136.409,36.318],[136.403,36.314],[136.415,36.305],[136.413,36.3],[136.415,36.296],[136.416,36.29],[136.412,36.285],[136.416,36.282],[136.417,36.278],[136.421,36.276],[136.42,36.268],[136.43,36.264],[136.448,36.265],[136.454,36.264],[136.461,36.265],[136.467,36.256],[136.476,36.253],[136.474,36.243],[136.478,36.236],[136.485,36.236],[136.483,36.229],[136.485,36.224],[136.485,36.216],[136.491,36.207],[136.49,36.193],[136.491,36.188],[136.498,36.185],[136.497,36.17],[136.496,36.165],[136.492,36.158],[136.497,36.15],[136.503,36.15],[136.506,36.147],[136.512,36.146],[136.522,36.151],[136.527,36.148],[136.538,36.15],[136.541,36.154],[136.545,36.153],[136.552,36.155],[136.55,36.163],[136.557,36.176],[136.557,36.184],[136.562,36.193],[136.566,36.196],[136.567,36.204],[136.583,36.215],[136.587,36.214],[136.594,36.216],[136.599,36.23],[136.598,36.237],[136.6,36.242],[136.604,36.246],[136.606,36.257],[136.612,36.26],[136.609,36.263],[136.603,36.262],[136.599,36.264],[136.594,36.274],[136.589,36.276],[136.581,36.281],[136.572,36.284],[136.563,36.284],[136.557,36.28],[136.55,36.283],[136.549,36.287],[136.555,36.294],[136.549,36.301],[136.555,36.307],[136.552,36.309],[136.551,36.319],[136.559,36.327],[136.558,36.331],[136.56,36.334],[136.565,36.333],[136.569,36.334],[136.579,36.342],[136.581,36.357],[136.577,36.361],[136.58,36.366],[136.581,36.37],[136.587,36.373],[136.578,36.394]]]]}},{"type":"Feature","properties":{"name":"輪島市","code":"17204"},"geometry":{"type":"MultiPolygon","coordinates":[[[[137.132,37.403],[137.14,37.408],[137.153,37.409],[137.156,37.414],[137.162,37.419],[137.17,37.422],[137.167,37.427],[137.159,37.429],[137.151,37.43],[137.142,37.432],[137.132,37.437],[137.129,37.44],[137.127,37.449],[137.133,37.454],[137.127,37.459],[137.119,37.459],[137.107,37.454],[137.097,37.454],[137.091,37.463],[137.086,37.466],[137.082,37.464],[137.073,37.456],[137.058,37.45],[137.048,37.449],[137.045,37.444],[137.029,37.433],[137.024,37.432],[137.017,37.433],[137.004,37.429],[136.986,37.421],[136.977,37.417],[136.974,37.413],[136.967,37.413],[136.955,37.408],[136.941,37.401],[136.924,37.395],[136.914,37.395],[136.907,37.398],[136.903,37.397],[136.899,37.401],[136.902,37.405],[136.896,37.407],[136.894,37.402],[136.89,37.401],[136.88,37.406],[136.868,37.407],[136.848,37.402],[136.83,37.39],[136.812,37.387],[136.806,37.382],[136.803,37.377],[136.794,37.377],[136.776,37.368],[136.773,37.366],[136.756,37.365],[136.753,37.354],[136.756,37.35],[136.753,37.346],[136.745,37.343],[136.737,37.344],[136.74,37.341],[136.735,37.335],[136.725,37.328],[136.722,37.32],[136.725,37.317],[136.724,37.31],[136.728,37.305],[136.725,37.295],[136.732,37.293],[136.735,37.288],[136.734,37.279],[136.727,37.265],[136.721,37.256],[136.712,37.248],[136.707,37.249],[136.703,37.246],[136.7,37.238],[136.705,37.231],[136.701,37.223],[136.696,37.22],[136.705,37.22],[136.709,37.223],[136.712,37.222],[136.716,37.218],[136.714,37.213],[136.711,37.209],[136.719,37.206],[136.725,37.207],[136.732,37.204],[136.736,37.198],[136.746,37.192],[136.754,37.197],[136.764,37.198],[136.766,37.201],[136.772,37.204],[136.78,37.213],[136.786,37.218],[136.792,37.22],[136.788,37.226],[136.795,37.226],[136.797,37.232],[136.802,37.234],[136.803,37.242],[136.807,37.242],[136.806,37.247],[136.812,37.249],[136.808,37.255],[136.815,37.259],[136.817,37.267],[136.821,37.26],[136.83,37.253],[136.827,37.248],[136.834,37.248],[136.836,37.243],[136.842,37.247],[136.844,37.25],[136.85,37.252],[136.853,37.258],[136.86,37.261],[136.869,37.269],[136.873,37.276],[136.877,37.277],[136.893,37.272],[136.897,37.277],[136.903,37.28],[136.918,37.282],[136.928,37.282],[136.933,37.28],[136.939,37.283],[136.943,37.288],[136.955,37.29],[136.957,37.295],[136.967,37.294],[136.967,37.3],[136.971,37.303],[136.963,37.308],[136.964,37.312],[136.97,37.316],[136.971,37.322],[136.978,37.323],[136.979,37.33],[136.971,37.34],[136.976,37.343],[136.979,37.35],[136.976,37.352],[136.975,37.356],[136.97,37.361],[136.972,37.368],[136.968,37.37],[136.97,37.378],[136.975,37.378],[136.98,37.383],[136.989,37.385],[136.992,37.389],[136.996,37.391],[137.001,37.396],[137.006,37.393],[137.019,37.394],[137.026,37.39],[137.033,37.392],[137.037,37.387],[137.043,37.386],[137.056,37.379],[137.064,37.387],[137.063,37.393],[137.072,37.395],[137.082,37.393],[137.085,37.387],[137.094,37.39],[137.098,37.387],[137.105,37.388],[137.104,37.395],[137.11,37.397],[137.116,37.397],[137.118,37.402],[137.123,37.4],[137.132,37.403]]],[[[136.922,37.855],[136.916,37.853],[136.924,37.852],[136.922,37.855]]]]}},{"type":"Feature","properties":{"name":"珠洲市","code":"17205"},"geometry":{"type":"MultiPolygon","coordinates":[[[[137.132,37.403],[137.134,37.397],[137.133,37.39],[137.137,37.386],[137.142,37.385],[137.147,37.378],[137.147,37.373],[137.154,37.363],[137.151,37.359],[137.154,37.355],[137.162,37.356],[137.18,37.362],[137.187,37.362],[137.2,37.366],[137.208,37.366],[137.217,37.369],[137.229,37.369],[137.236,37.373],[137.239,37.373],[137.237,37.385],[137.238,37.39],[137.24,37.394],[137.245,37.397],[137.244,37.407],[137.252,37.426],[137.257,37.431],[137.274,37.439],[137.287,37.442],[137.299,37.443],[137.311,37.438],[137.332,37.439],[137.349,37.443],[137.36,37.451],[137.357,37.465],[137.347,37.473],[137.34,37.483],[137.34,37.487],[137.344,37.494],[137.351,37.502],[137.343,37.511],[137.346,37.515],[137.342,37.517],[137.329,37.519],[137.326,37.529],[137.313,37.527],[137.304,37.528],[137.299,37.526],[137.288,37.53],[137.282,37.527],[137.278,37.529],[137.275,37.533],[137.266,37.528],[137.257,37.529],[137.251,37.525],[137.246,37.526],[137.245,37.52],[137.236,37.52],[137.233,37.517],[137.227,37.517],[137.216,37.509],[137.21,37.506],[137.202,37.506],[137.18,37.5],[137.173,37.503],[137.164,37.502],[137.15,37.499],[137.144,37.499],[137.131,37.494],[137.123,37.492],[137.117,37.487],[137.112,37.487],[137.107,37.484],[137.105,37.48],[137.099,37.478],[137.095,37.479],[137.092,37.475],[137.086,37.466],[137.091,37.463],[137.097,37.454],[137.107,37.454],[137.119,37.459],[137.127,37.459],[137.133,37.454],[137.127,37.449],[137.129,37.44],[137.132,37.437],[137.141,37.434],[137.151,37.43],[137.159,37.429],[137.167,37.427],[137.17,37.422],[137.162,37.419],[137.156,37.414],[137.153,37.409],[137.14,37.408],[137.132,37.403]]]]}},{"type":"Feature","properties":{"name":"加賀市","code":"17206"},"geometry":{"type":"MultiPolygon","coordinates":[[[[136.372,36.383],[136.345,36.365],[136.337,36.36],[136.322,36.354],[136.314,36.353],[136.308,36.353],[136.3,36.352],[136.292,36.346],[136.289,36.337],[136.282,36.332],[136.278,36.326],[136.268,36.312],[136.258,36.304],[136.249,36.3],[136.244,36.295],[136.249,36.292],[136.259,36.289],[136.256,36.28],[136.26,36.278],[136.262,36.273],[136.268,36.269],[136.275,36.266],[136.289,36.26],[136.295,36.261],[136.302,36.258],[136.305,36.25],[136.308,36.247],[136.315,36.246],[136.318,36.241],[136.317,36.235],[136.323,36.232],[136.327,36.232],[136.332,36.23],[136.329,36.224],[136.331,36.218],[136.328,36.21],[136.33,36.202],[136.337,36.191],[136.336,36.185],[136.344,36.173],[136.355,36.169],[136.358,36.165],[136.366,36.166],[136.369,36.17],[136.374,36.17],[136.38,36.168],[136.391,36.168],[136.398,36.171],[136.405,36.17],[136.409,36.172],[136.413,36.167],[136.412,36.16],[136.414,36.157],[136.424,36.155],[136.427,36.149],[136.432,36.143],[136.438,36.142],[136.441,36.137],[136.449,36.141],[136.457,36.136],[136.464,36.138],[136.47,36.145],[136.474,36.147],[136.477,36.151],[136.483,36.157],[136.488,36.159],[136.492,36.158],[136.496,36.165],[136.497,36.17],[136.498,36.185],[136.491,36.188],[136.49,36.193],[136.491,36.207],[136.485,36.216],[136.485,36.224],[136.483,36.229],[136.485,36.236],[136.478,36.236],[136.474,36.243],[136.476,36.253],[136.467,36.256],[136.461,36.265],[136.454,36.264],[136.448,36.265],[136.43,36.264],[136.42,36.268],[136.421,36.276],[136.417,36.278],[136.416,36.282],[136.412,36.285],[136.416,36.29],[136.415,36.296],[136.413,36.3],[136.415,36.305],[136.404,36.311],[136.409,36.318],[136.417,36.323],[136.415,36.333],[136.412,36.339],[136.409,36.34],[136.401,36.34],[136.397,36.344],[136.387,36.354],[136.394,36.364],[136.39,36.368],[136.385,36.369],[136.381,36.377],[136.375,36.383]]]]}},{"type":"Feature","properties":{"name":"羽咋市","code":"17207"},"geometry":{"type":"MultiPolygon","coordinates":[[[[136.826,36.949],[136.818,36.943],[136.808,36.941],[136.801,36.948],[136.795,36.948],[136.797,36.952],[136.795,36.958],[136.802,36.963],[136.793,36.966],[136.789,36.962],[136.791,36.958],[136.794,36.958],[136.796,36.952],[136.794,36.946],[136.783,36.955],[136.784,36.959],[136.777,36.965],[136.768,36.964],[136.766,36.957],[136.759,36.95],[136.762,36.945],[136.758,36.94],[136.751,36.935],[136.75,36.927],[136.754,36.924],[136.757,36.924],[136.764,36.921],[136.767,36.914],[136.767,36.903],[136.763,36.883],[136.758,36.866],[136.777,36.867],[136.784,36.865],[136.784,36.873],[136.791,36.874],[136.792,36.882],[136.799,36.891],[136.801,36.888],[136.814,36.888],[136.819,36.889],[136.826,36.888],[136.829,36.881],[136.834,36.877],[136.833,36.873],[136.836,36.871],[136.844,36.872],[136.848,36.873],[136.858,36.873],[136.863,36.871],[136.868,36.871],[136.873,36.868],[136.883,36.877],[136.882,36.881],[136.886,36.885],[136.881,36.888],[136.879,36.893],[136.878,36.899],[136.879,36.906],[136.883,36.909],[136.886,36.914],[136.879,36.913],[136.877,36.921],[136.874,36.928],[136.867,36.932],[136.865,36.936],[136.853,36.938],[136.854,36.946],[136.842,36.942],[136.829,36.943],[136.826,36.949]]]]}},{"type":"Feature","properties":{"name":"かほく市","code":"17209"},"geometry":{"type":"MultiPolygon","coordinates":[[[[136.817,36.767],[136.81,36.773],[136.803,36.773],[136.79,36.775],[136.79,36.779],[136.785,36.778],[136.781,36.78],[136.779,36.785],[136.762,36.786],[136.755,36.784],[136.75,36.785],[136.749,36.792],[136.742,36.792],[136.734,36.789],[136.724,36.79],[136.699,36.747],[136.683,36.721],[136.675,36.709],[136.669,36.701],[136.682,36.696],[136.687,36.694],[136.682,36.688],[136.693,36.682],[136.696,36.695],[136.701,36.694],[136.701,36.699],[136.71,36.7],[136.722,36.701],[136.73,36.699],[136.735,36.702],[136.738,36.71],[136.744,36.712],[136.745,36.716],[136.752,36.723],[136.756,36.728],[136.766,36.739],[136.762,36.743],[136.762,36.748],[136.764,36.754],[136.77,36.758],[136.783,36.754],[136.794,36.761],[136.803,36.763],[136.817,36.765]]]]}},{"type":"Feature","properties":{"name":"白山市","code":"17210"},"geometry":{"type":"MultiPolygon","coordinates":[[[[136.613,36.497],[136.608,36.499],[136.598,36.498],[136.598,36.503],[136.592,36.502],[136.589,36.51],[136.593,36.514],[136.595,36.525],[136.591,36.527],[136.59,36.532],[136.586,36.531],[136.585,36.537],[136.592,36.537],[136.594,36.541],[136.592,36.545],[136.591,36.548],[136.58,36.552],[136.577,36.563],[136.57,36.562],[136.557,36.568],[136.552,36.563],[136.532,36.542],[136.524,36.536],[136.514,36.522],[136.493,36.501],[136.487,36.498],[136.479,36.49],[136.472,36.481],[136.465,36.472],[136.475,36.466],[136.481,36.468],[136.489,36.48],[136.493,36.482],[136.507,36.478],[136.519,36.478],[136.525,36.474],[136.532,36.472],[136.538,36.476],[136.541,36.476],[136.543,36.482],[136.554,36.479],[136.565,36.474],[136.58,36.468],[136.59,36.469],[136.594,36.467],[136.601,36.458],[136.612,36.456],[136.62,36.45],[136.622,36.443],[136.632,36.438],[136.63,36.431],[136.626,36.43],[136.623,36.426],[136.621,36.417],[136.612,36.406],[136.606,36.405],[136.603,36.402],[136.601,36.395],[136.593,36.392],[136.591,36.389],[136.583,36.395],[136.578,36.394],[136.588,36.376],[136.581,36.37],[136.58,36.366],[136.577,36.361],[136.581,36.357],[136.579,36.342],[136.569,36.334],[136.565,36.333],[136.56,36.334],[136.558,36.331],[136.559,36.327],[136.549,36.321],[136.552,36.309],[136.555,36.307],[136.549,36.301],[136.555,36.296],[136.549,36.287],[136.55,36.283],[136.556,36.283],[136.563,36.284],[136.572,36.284],[136.581,36.281],[136.588,36.279],[136.594,36.274],[136.599,36.264],[136.603,36.262],[136.609,36.263],[136.612,36.26],[136.606,36.257],[136.602,36.249],[136.6,36.242],[136.598,36.237],[136.599,36.23],[136.594,36.216],[136.587,36.214],[136.583,36.215],[136.567,36.204],[136.566,36.196],[136.562,36.193],[136.557,36.184],[136.556,36.178],[136.55,36.163],[136.552,36.155],[136.56,36.153],[136.563,36.146],[136.576,36.142],[136.582,36.136],[136.585,36.136],[136.59,36.131],[136.595,36.132],[136.603,36.128],[136.604,36.122],[136.612,36.117],[136.611,36.113],[136.615,36.108],[136.622,36.106],[136.632,36.099],[136.642,36.098],[136.646,36.095],[136.651,36.092],[136.653,36.086],[136.657,36.085],[136.655,36.078],[136.658,36.074],[136.659,36.069],[136.662,36.068],[136.674,36.067],[136.679,36.071],[136.696,36.074],[136.699,36.074],[136.707,36.08],[136.715,36.082],[136.725,36.082],[136.732,36.08],[136.739,36.08],[136.745,36.085],[136.755,36.087],[136.754,36.09],[136.756,36.095],[136.756,36.099],[136.765,36.106],[136.771,36.116],[136.772,36.126],[136.779,36.13],[136.781,36.141],[136.776,36.144],[136.775,36.148],[136.772,36.155],[136.766,36.161],[136.768,36.164],[136.774,36.164],[136.777,36.166],[136.786,36.166],[136.793,36.171],[136.798,36.173],[136.8,36.177],[136.799,36.181],[136.803,36.188],[136.811,36.196],[136.819,36.201],[136.821,36.211],[136.832,36.218],[136.832,36.224],[136.836,36.227],[136.844,36.237],[136.848,36.246],[136.852,36.248],[136.85,36.252],[136.845,36.253],[136.844,36.258],[136.834,36.265],[136.815,36.266],[136.814,36.27],[136.806,36.276],[136.806,36.284],[136.801,36.29],[136.795,36.292],[136.792,36.299],[136.788,36.312],[136.791,36.316],[136.789,36.325],[136.784,36.329],[136.787,36.333],[136.784,36.342],[136.778,36.338],[136.771,36.34],[136.77,36.346],[136.759,36.35],[136.756,36.349],[136.748,36.355],[136.742,36.362],[136.728,36.369],[136.721,36.369],[136.716,36.372],[136.716,36.377],[136.711,36.378],[136.71,36.391],[136.706,36.392],[136.69,36.39],[136.683,36.397],[136.676,36.399],[136.673,36.403],[136.666,36.403],[136.662,36.406],[136.665,36.412],[136.665,36.417],[136.661,36.418],[136.657,36.426],[136.658,36.436],[136.657,36.44],[136.65,36.44],[136.649,36.445],[136.65,36.449],[136.654,36.452],[136.65,36.455],[136.648,36.461],[136.647,36.468],[136.641,36.47],[136.636,36.475],[136.644,36.484],[136.633,36.485],[136.63,36.49],[136.62,36.496],[136.613,36.497]]]]}},{"type":"Feature","properties":{"name":"能美市","code":"17211"},"geometry":{"type":"MultiPolygon","coordinates":[[[[136.578,36.394],[136.583,36.395],[136.591,36.389],[136.593,36.392],[136.601,36.395],[136.603,36.402],[136.606,36.405],[136.612,36.406],[136.621,36.417],[136.623,36.426],[136.626,36.43],[136.63,36.431],[136.632,36.438],[136.622,36.443],[136.62,36.45],[136.612,36.456],[136.601,36.458],[136.581,36.46],[136.549,36.461],[136.524,36.462],[136.524,36.466],[136.519,36.468],[136.511,36.467],[136.493,36.461],[136.489,36.462],[136.481,36.468],[136.475,36.466],[136.465,36.472],[136.449,36.454],[136.444,36.449],[136.436,36.44],[136.426,36.43],[136.431,36.427],[136.444,36.435],[136.473,36.436],[136.474,36.442],[136.481,36.443],[136.483,36.44],[136.488,36.441],[136.487,36.435],[136.484,36.434],[136.479,36.425],[136.484,36.424],[136.482,36.416],[136.488,36.416],[136.489,36.425],[136.494,36.421],[136.508,36.423],[136.518,36.426],[136.523,36.429],[136.526,36.429],[136.534,36.42],[136.541,36.415],[136.541,36.409],[136.552,36.407],[136.552,36.401],[136.559,36.394],[136.566,36.399],[136.575,36.397],[136.578,36.394]]]]}},{"type":"Feature","properties":{"name":"野々市市","code":"17212"},"geometry":{"type":"MultiPolygon","coordinates":[[[[136.592,36.545],[136.594,36.541],[136.592,36.537],[136.585,36.537],[136.586,36.531],[136.59,36.532],[136.591,36.527],[136.595,36.525],[136.593,36.514],[136.589,36.51],[136.592,36.502],[136.598,36.503],[136.598,36.498],[136.608,36.499],[136.613,36.497],[136.613,36.504],[136.615,36.51],[136.615,36.523],[136.62,36.526],[136.628,36.525],[136.631,36.531],[136.622,36.534],[136.625,36.537],[136.622,36.545],[136.617,36.547],[136.612,36.546],[136.611,36.541],[136.605,36.54],[136.601,36.555],[136.595,36.553],[136.595,36.546]]]]}},{"type":"Feature","properties":{"name":"能美郡川北町","code":"17324"},"geometry":{"type":"MultiPolygon","coordinates":[[[[136.481,36.468],[136.489,36.462],[136.493,36.461],[136.511,36.467],[136.519,36.468],[136.524,36.466],[136.524,36.462],[136.549,36.461],[136.581,36.46],[136.601,36.458],[136.594,36.467],[136.59,36.469],[136.58,36.468],[136.565,36.474],[136.554,36.479],[136.543,36.482],[136.541,36.476],[136.538,36.476],[136.532,36.472],[136.525,36.474],[136.519,36.478],[136.507,36.478],[136.493,36.482],[136.489,36.48],[136.481,36.468]]]]}},{"type":"Feature","properties":{"name":"河北郡津幡町","code":"17361"},"geometry":{"type":"MultiPolygon","coordinates":[[[[136.786,36.63],[136.794,36.631],[136.8,36.636],[136.8,36.645],[136.808,36.648],[136.807,36.653],[136.811,36.659],[136.819,36.668],[136.824,36.67],[136.821,36.675],[136.823,36.681],[136.818,36.685],[136.811,36.685],[136.811,36.693],[136.814,36.699],[136.813,36.703],[136.808,36.705],[136.804,36.709],[136.799,36.71],[136.793,36.716],[136.79,36.717],[136.794,36.722],[136.794,36.727],[136.8,36.73],[136.807,36.728],[136.82,36.731],[136.822,36.74],[136.825,36.742],[136.833,36.742],[136.839,36.745],[136.845,36.756],[136.834,36.763],[136.833,36.773],[136.831,36.78],[136.824,36.773],[136.817,36.767],[136.803,36.763],[136.794,36.761],[136.783,36.754],[136.77,36.758],[136.767,36.754],[136.762,36.748],[136.762,36.743],[136.766,36.739],[136.756,36.728],[136.752,36.723],[136.743,36.718],[136.744,36.712],[136.738,36.71],[136.735,36.702],[136.73,36.699],[136.722,36.701],[136.71,36.7],[136.701,36.699],[136.701,36.694],[136.696,36.695],[136.695,36.685],[136.686,36.674],[136.697,36.668],[136.69,36.66],[136.703,36.652],[136.71,36.647],[136.715,36.647],[136.726,36.644],[136.735,36.642],[136.743,36.639],[136.753,36.635],[136.755,36.639],[136.768,36.633],[136.773,36.635],[136.778,36.634],[136.78,36.63],[136.786,36.63]]]]}},{"type":"Feature","properties":{"name":"河北郡内灘町","code":"17365"},"geometry":{"type":"MultiPolygon","coordinates":[[[[136.686,36.674],[136.693,36.682],[136.682,36.688],[136.687,36.694],[136.682,36.696],[136.669,36.701],[136.664,36.692],[136.638,36.658],[136.626,36.645],[136.618,36.639],[136.624,36.633],[136.632,36.628],[136.654,36.644],[136.667,36.652],[136.686,36.674]]]]}},{"type":"Feature","properties":{"name":"羽咋郡志賀町","code":"17384"},"geometry":{"type":"MultiPolygon","coordinates":[[[[136.822,37.198],[136.823,37.201],[136.819,37.208],[136.825,37.212],[136.826,37.217],[136.821,37.219],[136.821,37.226],[136.815,37.227],[136.808,37.225],[136.801,37.219],[136.792,37.22],[136.786,37.218],[136.78,37.213],[136.772,37.204],[136.766,37.201],[136.764,37.198],[136.754,37.197],[136.746,37.192],[136.736,37.198],[136.732,37.204],[136.725,37.207],[136.719,37.206],[136.711,37.209],[136.714,37.213],[136.716,37.218],[136.712,37.222],[136.709,37.223],[136.705,37.22],[136.696,37.22],[136.694,37.215],[136.688,37.214],[136.68,37.207],[136.678,37.2],[136.682,37.196],[136.679,37.192],[136.675,37.184],[136.677,37.176],[136.673,37.17],[136.677,37.166],[136.673,37.155],[136.669,37.147],[136.674,37.139],[136.678,37.138],[136.685,37.141],[136.687,37.138],[136.695,37.139],[136.698,37.146],[136.702,37.149],[136.711,37.148],[136.719,37.144],[136.727,37.135],[136.727,37.12],[136.726,37.116],[136.727,37.106],[136.729,37.097],[136.727,37.093],[136.721,37.086],[136.726,37.086],[136.718,37.08],[136.719,37.072],[136.722,37.068],[136.722,37.058],[136.727,37.051],[136.734,37.05],[136.734,37.042],[136.739,37.039],[136.739,37.033],[136.747,37.029],[136.742,37.017],[136.743,37.012],[136.751,37.011],[136.753,37.007],[136.762,37.005],[136.769,36.999],[136.77,36.993],[136.767,36.986],[136.77,36.981],[136.768,36.964],[136.777,36.965],[136.784,36.959],[136.783,36.955],[136.791,36.946],[136.796,36.952],[136.794,36.958],[136.791,36.958],[136.789,36.962],[136.793,36.966],[136.801,36.965],[136.795,36.958],[136.797,36.952],[136.795,36.948],[136.801,36.948],[136.808,36.943],[136.818,36.943],[136.826,36.949],[136.833,36.951],[136.842,36.959],[136.851,36.964],[136.844,36.978],[136.842,36.988],[136.843,36.995],[136.849,37.004],[136.851,37.024],[136.853,37.029],[136.856,37.037],[136.86,37.04],[136.858,37.047],[136.85,37.053],[136.844,37.055],[136.842,37.062],[136.834,37.059],[136.837,37.066],[136.838,37.071],[136.828,37.076],[136.819,37.079],[136.811,37.079],[136.81,37.085],[136.804,37.092],[136.798,37.093],[136.789,37.098],[136.786,37.103],[136.786,37.108],[136.782,37.11],[136.776,37.119],[136.779,37.125],[136.785,37.127],[136.786,37.134],[136.782,37.137],[136.781,37.144],[136.786,37.151],[136.785,37.156],[136.789,37.159],[136.797,37.167],[136.8,37.174],[136.801,37.183],[136.804,37.189],[136.809,37.194],[136.815,37.194],[136.822,37.198]]]]}},{"type":"Feature","properties":{"name":"羽咋郡宝達志水町","code":"17386"},"geometry":{"type":"MultiPolygon","coordinates":[[[[136.758,36.866],[136.753,36.849],[136.744,36.827],[136.735,36.81],[136.724,36.79],[136.734,36.789],[136.742,36.792],[136.749,36.792],[136.75,36.785],[136.755,36.784],[136.762,36.786],[136.777,36.787],[136.781,36.78],[136.785,36.778],[136.79,36.779],[136.79,36.775],[136.803,36.773],[136.81,36.773],[136.817,36.767],[136.824,36.773],[136.828,36.779],[136.833,36.773],[136.834,36.763],[136.845,36.756],[136.849,36.759],[136.851,36.768],[136.849,36.776],[136.843,36.781],[136.85,36.787],[136.854,36.795],[136.85,36.802],[136.849,36.813],[136.86,36.829],[136.856,36.84],[136.863,36.843],[136.862,36.848],[136.867,36.851],[136.861,36.855],[136.862,36.86],[136.871,36.863],[136.873,36.868],[136.868,36.871],[136.863,36.871],[136.858,36.873],[136.848,36.873],[136.844,36.872],[136.836,36.871],[136.833,36.873],[136.834,36.877],[136.829,36.881],[136.826,36.888],[136.819,36.889],[136.814,36.888],[136.801,36.888],[136.799,36.891],[136.792,36.882],[136.791,36.874],[136.784,36.873],[136.786,36.868],[136.777,36.867],[136.758,36.866]]]]}},{"type":"Feature","properties":{"name":"鹿島郡中能登町","code":"17407"},"geometry":{"type":"MultiPolygon","coordinates":[[[[136.853,37.029],[136.851,37.024],[136.849,37.004],[136.843,36.995],[136.842,36.988],[136.844,36.978],[136.851,36.964],[136.842,36.959],[136.833,36.951],[136.826,36.949],[136.829,36.943],[136.842,36.942],[136.854,36.946],[136.853,36.938],[136.865,36.936],[136.867,36.932],[136.874,36.928],[136.877,36.921],[136.877,36.916],[136.886,36.914],[136.892,36.918],[136.896,36.925],[136.906,36.926],[136.915,36.93],[136.922,36.937],[136.927,36.944],[136.928,36.948],[136.932,36.95],[136.938,36.951],[136.949,36.956],[136.954,36.956],[136.963,36.949],[136.971,36.947],[136.974,36.944],[136.981,36.951],[136.986,36.965],[136.977,36.977],[136.969,36.972],[136.961,36.972],[136.949,36.977],[136.956,36.983],[136.953,36.987],[136.943,36.994],[136.938,36.993],[136.928,36.996],[136.925,37.003],[136.918,37.017],[136.914,37.015],[136.896,37.014],[136.888,37.017],[136.882,37.016],[136.868,37.019],[136.862,37.019],[136.858,37.023],[136.857,37.027],[136.853,37.029]]]]}},{"type":"Feature","properties":{"name":"鳳珠郡穴水町","code":"17461"},"geometry":{"type":"MultiPolygon","coordinates":[[[[136.889,37.169],[136.896,37.175],[136.897,37.178],[136.904,37.185],[136.906,37.191],[136.912,37.194],[136.91,37.199],[136.914,37.2],[136.921,37.205],[136.926,37.202],[136.93,37.206],[136.923,37.21],[136.92,37.215],[136.908,37.22],[136.917,37.227],[136.917,37.223],[136.923,37.22],[136.927,37.222],[136.934,37.223],[136.924,37.228],[136.937,37.23],[136.938,37.226],[136.945,37.227],[136.954,37.235],[136.96,37.237],[136.966,37.232],[136.959,37.23],[136.951,37.222],[136.959,37.213],[136.96,37.208],[136.963,37.205],[136.971,37.201],[136.981,37.204],[136.991,37.2],[136.998,37.193],[137.0,37.19],[137.003,37.189],[137.006,37.184],[137.012,37.185],[137.019,37.189],[137.026,37.188],[137.029,37.195],[137.029,37.202],[137.025,37.204],[137.035,37.207],[137.043,37.207],[137.052,37.211],[137.057,37.208],[137.06,37.213],[137.069,37.218],[137.067,37.223],[137.068,37.232],[137.074,37.241],[137.078,37.246],[137.083,37.248],[137.077,37.25],[137.075,37.253],[137.063,37.256],[137.061,37.26],[137.051,37.261],[137.048,37.253],[137.042,37.249],[137.032,37.252],[137.017,37.25],[137.012,37.258],[137.012,37.265],[137.005,37.264],[137.004,37.27],[136.999,37.268],[136.994,37.273],[136.995,37.277],[136.993,37.284],[136.999,37.289],[136.994,37.293],[136.987,37.295],[136.99,37.299],[136.995,37.301],[136.992,37.305],[136.985,37.305],[136.98,37.301],[136.967,37.294],[136.957,37.295],[136.955,37.29],[136.943,37.288],[136.939,37.283],[136.933,37.28],[136.928,37.282],[136.918,37.282],[136.903,37.28],[136.897,37.277],[136.893,37.272],[136.877,37.277],[136.873,37.276],[136.869,37.269],[136.86,37.261],[136.853,37.258],[136.85,37.252],[136.844,37.25],[136.842,37.247],[136.836,37.243],[136.834,37.248],[136.827,37.248],[136.83,37.253],[136.821,37.26],[136.817,37.267],[136.815,37.259],[136.808,37.255],[136.812,37.249],[136.806,37.247],[136.807,37.242],[136.803,37.242],[136.802,37.234],[136.797,37.232],[136.795,37.226],[136.788,37.226],[136.792,37.22],[136.801,37.219],[136.808,37.225],[136.815,37.227],[136.821,37.226],[136.821,37.219],[136.826,37.217],[136.825,37.212],[136.819,37.208],[136.823,37.201],[136.822,37.198],[136.831,37.201],[136.837,37.199],[136.847,37.198],[136.851,37.196],[136.851,37.184],[136.856,37.175],[136.863,37.176],[136.872,37.179],[136.883,37.174],[136.884,37.17],[136.889,37.169]]]]}},{"type":"Feature","properties":{"name":"鳳珠郡能登町","code":"17463"},"geometry":{"type":"MultiPolygon","coordinates":[[[[136.967,37.294],[136.98,37.301],[136.985,37.305],[136.992,37.305],[136.995,37.301],[136.99,37.299],[136.987,37.295],[136.994,37.293],[136.999,37.289],[136.993,37.284],[136.995,37.277],[136.994,37.273],[136.999,37.268],[137.004,37.27],[137.005,37.264],[137.012,37.265],[137.012,37.258],[137.017,37.25],[137.032,37.252],[137.042,37.249],[137.048,37.253],[137.051,37.261],[137.061,37.26],[137.063,37.256],[137.075,37.253],[137.077,37.25],[137.083,37.248],[137.091,37.259],[137.094,37.264],[137.095,37.271],[137.099,37.279],[137.107,37.281],[137.116,37.289],[137.127,37.291],[137.137,37.295],[137.144,37.299],[137.15,37.296],[137.153,37.298],[137.153,37.303],[137.163,37.301],[137.169,37.302],[137.176,37.301],[137.184,37.299],[137.195,37.298],[137.198,37.3],[137.209,37.302],[137.206,37.296],[137.214,37.296],[137.222,37.297],[137.228,37.296],[137.229,37.299],[137.233,37.3],[137.235,37.303],[137.231,37.309],[137.235,37.309],[137.239,37.304],[137.247,37.307],[137.251,37.318],[137.259,37.321],[137.264,37.325],[137.262,37.331],[137.268,37.337],[137.266,37.341],[137.259,37.338],[137.253,37.34],[137.255,37.344],[137.26,37.344],[137.262,37.35],[137.267,37.353],[137.261,37.355],[137.254,37.353],[137.249,37.354],[137.243,37.363],[137.243,37.366],[137.239,37.373],[137.236,37.373],[137.229,37.369],[137.217,37.369],[137.208,37.366],[137.2,37.366],[137.187,37.362],[137.18,37.362],[137.164,37.358],[137.154,37.355],[137.151,37.359],[137.154,37.363],[137.147,37.373],[137.147,37.378],[137.142,37.385],[137.137,37.386],[137.133,37.39],[137.134,37.397],[137.132,37.403],[137.123,37.4],[137.118,37.402],[137.116,37.397],[137.11,37.397],[137.104,37.395],[137.105,37.388],[137.098,37.387],[137.094,37.39],[137.085,37.387],[137.082,37.393],[137.072,37.395],[137.063,37.393],[137.064,37.387],[137.056,37.379],[137.044,37.384],[137.037,37.387],[137.033,37.392],[137.026,37.39],[137.019,37.394],[137.006,37.393],[137.001,37.396],[136.996,37.391],[136.992,37.389],[136.989,37.385],[136.98,37.383],[136.975,37.378],[136.97,37.378],[136.968,37.37],[136.972,37.368],[136.97,37.361],[136.975,37.356],[136.976,37.352],[136.979,37.35],[136.975,37.346],[136.971,37.34],[136.979,37.33],[136.978,37.323],[136.971,37.322],[136.97,37.316],[136.964,37.312],[136.963,37.308],[136.971,37.303],[136.967,37.3],[136.967,37.294]]]]}}]}