{"type":"FeatureCollection","features":[{"type":"Feature","properties":{"name":"福井市","code":"18201"},"geometry":{"type":"MultiPolygon","coordinates":[[[[136.27,36.104],[136.264,36.105],[136.257,36.105],[136.254,36.107],[136.255,36.113],[136.254,36.124],[136.246,36.118],[136.234,36.119],[136.231,36.121],[136.217,36.121],[136.21,36.12],[136.198,36.122],[136.194,36.124],[136.192,36.13],[136.188,36.13],[136.181,36.133],[136.178,36.134],[136.175,36.139],[136.168,36.143],[136.164,36.149],[136.162,36.159],[136.157,36.164],[136.152,36.167],[136.148,36.163],[136.138,36.163],[136.138,36.17],[136.131,36.164],[136.13,36.159],[136.125,36.158],[136.126,36.163],[136.119,36.166],[136.107,36.169],[136.1,36.173],[136.09,36.161],[136.095,36.158],[136.093,36.153],[136.085,36.145],[136.077,36.138],[136.062,36.13],[136.055,36.128],[136.054,36.121],[136.049,36.117],[136.049,36.11],[136.041,36.105],[136.036,36.102],[136.032,36.097],[136.031,36.093],[136.03,36.086],[136.024,36.076],[136.021,36.071],[136.019,36.057],[136.016,36.053],[136.017,36.05],[136.012,36.047],[136.01,36.043],[136.009,36.037],[136.011,36.033],[136.005,36.03],[135.998,36.021],[135.992,36.015],[135.986,36.009],[135.979,36.005],[135.975,36.005],[135.972,36.001],[135.968,36.001],[135.964,35.998],[135.97,35.992],[135.986,35.988],[135.991,35.983],[135.996,35.983],[136.002,35.986],[136.007,35.986],[136.004,35.991],[136.002,35.997],[136.004,36.0],[136.003,36.005],[136.006,36.01],[136.012,36.014],[136.016,36.011],[136.023,36.006],[136.027,35.997],[136.031,36.0],[136.048,36.004],[136.048,36.007],[136.055,36.015],[136.057,36.027],[136.064,36.028],[136.072,36.028],[136.072,36.024],[136.075,36.021],[136.082,36.019],[136.081,36.014],[136.087,36.016],[136.092,36.013],[136.097,36.009],[136.097,36.006],[136.11,36.002],[136.118,36.003],[136.121,36.001],[136.128,36.004],[136.135,35.997],[136.136,35.994],[136.141,35.992],[136.155,35.992],[136.159,35.994],[136.161,35.997],[136.166,35.996],[136.176,36.0],[136.181,35.999],[136.18,35.994],[136.189,35.991],[136.195,35.991],[136.206,35.986],[136.204,35.975],[136.206,35.971],[136.21,35.977],[136.215,35.98],[136.219,35.985],[136.22,35.988],[136.224,35.99],[136.232,35.991],[136.239,35.983],[136.255,35.979],[136.259,35.98],[136.267,35.978],[136.271,35.978],[136.275,35.972],[136.283,35.972],[136.29,35.974],[136.3,35.969],[136.304,35.964],[136.312,35.966],[136.317,35.964],[136.318,35.958],[136.323,35.957],[136.323,35.952],[136.333,35.952],[136.336,35.951],[136.335,35.947],[136.332,35.943],[136.334,35.939],[136.334,35.929],[136.339,35.93],[136.341,35.933],[136.346,35.931],[136.35,35.934],[136.35,35.939],[136.352,35.942],[136.358,35.948],[136.367,35.948],[136.373,35.949],[136.384,35.951],[136.389,35.952],[136.4,35.948],[136.407,35.949],[136.417,35.943],[136.423,35.939],[136.429,35.938],[136.436,35.936],[136.44,35.932],[136.439,35.928],[136.452,35.921],[136.461,35.921],[136.467,35.922],[136.464,35.926],[136.456,35.929],[136.455,35.932],[136.464,35.933],[136.461,35.939],[136.462,35.945],[136.465,35.951],[136.462,35.953],[136.456,35.955],[136.455,35.959],[136.456,35.969],[136.452,35.974],[136.452,35.979],[136.449,35.986],[136.453,35.987],[136.456,35.992],[136.452,35.997],[136.455,36.001],[136.453,36.006],[136.449,36.01],[136.458,36.016],[136.453,36.018],[136.445,36.022],[136.441,36.032],[136.432,36.043],[136.426,36.04],[136.413,36.042],[136.407,36.046],[136.39,36.048],[136.384,36.047],[136.379,36.043],[136.367,36.034],[136.36,36.034],[136.351,36.037],[136.346,36.04],[136.341,36.053],[136.335,36.053],[136.329,36.048],[136.32,36.048],[136.319,36.042],[136.315,36.041],[136.297,36.046],[136.297,36.05],[136.293,36.05],[136.291,36.053],[136.286,36.056],[136.286,36.062],[136.285,36.069],[136.282,36.074],[136.285,36.076],[136.289,36.076],[136.292,36.079],[136.292,36.083],[136.287,36.083],[136.28,36.093],[136.288,36.095],[136.288,36.098],[136.281,36.099],[136.281,36.104],[136.277,36.103],[136.27,36.104]]]]}},{"type":"Feature","properties":{"name":"敦賀市","code":"18202"},"geometry":{"type":"MultiPolygon","coordinates":[[[[136.15,35.698],[136.147,35.699],[136.149,35.706],[136.149,35.711],[136.143,35.716],[136.132,35.723],[136.133,35.73],[136.133,35.737],[136.13,35.741],[136.127,35.742],[136.124,35.748],[136.119,35.752],[136.118,35.758],[136.113,35.765],[136.098,35.765],[136.101,35.758],[136.101,35.753],[136.1,35.747],[136.095,35.742],[136.088,35.741],[136.086,35.738],[136.096,35.737],[136.096,35.729],[136.099,35.726],[136.095,35.72],[136.091,35.717],[136.092,35.711],[136.087,35.707],[136.079,35.704],[136.082,35.699],[136.081,35.689],[136.086,35.685],[136.083,35.681],[136.076,35.68],[136.074,35.667],[136.067,35.666],[136.063,35.668],[136.062,35.664],[136.068,35.664],[136.072,35.661],[136.056,35.657],[136.048,35.657],[136.043,35.66],[136.046,35.663],[136.042,35.667],[136.038,35.672],[136.036,35.676],[136.027,35.679],[136.025,35.683],[136.032,35.692],[136.036,35.694],[136.04,35.692],[136.044,35.691],[136.044,35.698],[136.041,35.699],[136.042,35.706],[136.038,35.71],[136.04,35.713],[136.036,35.717],[136.036,35.721],[136.038,35.725],[136.036,35.73],[136.028,35.737],[136.028,35.741],[136.022,35.745],[136.024,35.75],[136.029,35.745],[136.036,35.742],[136.03,35.753],[136.026,35.755],[136.023,35.76],[136.02,35.764],[136.009,35.755],[136.005,35.756],[136.001,35.75],[135.995,35.749],[135.985,35.74],[135.984,35.736],[135.981,35.733],[135.976,35.733],[135.968,35.735],[135.965,35.73],[135.968,35.725],[135.981,35.724],[135.993,35.727],[136.005,35.73],[136.013,35.725],[136.014,35.717],[136.01,35.708],[136.01,35.701],[136.013,35.697],[136.011,35.693],[136.013,35.684],[136.009,35.678],[136.009,35.671],[136.014,35.667],[135.998,35.652],[136.001,35.647],[136.006,35.636],[136.009,35.632],[136.006,35.623],[136.007,35.618],[136.006,35.614],[136.009,35.609],[136.008,35.606],[136.007,35.597],[136.009,35.586],[136.019,35.587],[136.026,35.586],[136.026,35.581],[136.03,35.569],[136.023,35.561],[136.023,35.555],[136.025,35.551],[136.024,35.546],[136.028,35.543],[136.027,35.529],[136.041,35.532],[136.046,35.53],[136.048,35.535],[136.061,35.532],[136.062,35.528],[136.069,35.526],[136.077,35.531],[136.077,35.534],[136.083,35.541],[136.09,35.538],[136.094,35.537],[136.097,35.534],[136.104,35.53],[136.107,35.53],[136.106,35.539],[136.109,35.545],[136.109,35.55],[136.105,35.555],[136.11,35.559],[136.111,35.563],[136.109,35.567],[136.113,35.573],[136.112,35.58],[136.117,35.579],[136.122,35.576],[136.133,35.575],[136.139,35.576],[136.143,35.571],[136.15,35.571],[136.158,35.571],[136.163,35.571],[136.167,35.565],[136.17,35.571],[136.166,35.583],[136.172,35.588],[136.177,35.595],[136.174,35.604],[136.171,35.609],[136.17,35.612],[136.167,35.619],[136.163,35.624],[136.16,35.635],[136.157,35.641],[136.152,35.648],[136.15,35.655],[136.15,35.659],[136.148,35.663],[136.137,35.665],[136.134,35.67],[136.14,35.678],[136.143,35.683],[136.148,35.687],[136.15,35.691],[136.15,35.698]]]]}},{"type":"Feature","properties":{"name":"小浜市","code":"18204"},"geometry":{"type":"MultiPolygon","coordinates":[[[[135.815,35.572],[135.81,35.571],[135.803,35.568],[135.805,35.564],[135.809,35.565],[135.813,35.563],[135.812,35.559],[135.816,35.557],[135.819,35.557],[135.825,35.553],[135.826,35.547],[135.827,35.544],[135.831,35.542],[135.834,35.536],[135.827,35.533],[135.822,35.534],[135.813,35.536],[135.816,35.533],[135.815,35.53],[135.812,35.528],[135.806,35.528],[135.806,35.532],[135.796,35.526],[135.795,35.531],[135.788,35.531],[135.786,35.537],[135.79,35.54],[135.785,35.543],[135.78,35.55],[135.773,35.55],[135.766,35.557],[135.764,35.553],[135.771,35.547],[135.77,35.543],[135.764,35.545],[135.759,35.543],[135.754,35.546],[135.75,35.556],[135.751,35.566],[135.745,35.564],[135.741,35.568],[135.736,35.571],[135.729,35.569],[135.72,35.569],[135.715,35.57],[135.712,35.567],[135.711,35.564],[135.708,35.564],[135.704,35.558],[135.695,35.552],[135.69,35.549],[135.689,35.545],[135.694,35.543],[135.703,35.544],[135.708,35.542],[135.713,35.543],[135.717,35.541],[135.719,35.536],[135.717,35.525],[135.718,35.52],[135.723,35.522],[135.727,35.522],[135.732,35.525],[135.737,35.535],[135.743,35.537],[135.751,35.536],[135.758,35.539],[135.763,35.538],[135.765,35.534],[135.752,35.532],[135.751,35.517],[135.749,35.514],[135.741,35.503],[135.741,35.499],[135.737,35.494],[135.734,35.493],[135.731,35.495],[135.727,35.492],[135.72,35.491],[135.72,35.485],[135.714,35.483],[135.711,35.485],[135.708,35.49],[135.702,35.489],[135.7,35.493],[135.696,35.491],[135.692,35.488],[135.675,35.488],[135.665,35.49],[135.663,35.494],[135.658,35.485],[135.654,35.48],[135.648,35.478],[135.645,35.479],[135.645,35.475],[135.648,35.465],[135.643,35.463],[135.641,35.459],[135.647,35.453],[135.639,35.447],[135.636,35.447],[135.632,35.445],[135.624,35.445],[135.616,35.44],[135.611,35.441],[135.607,35.44],[135.599,35.435],[135.593,35.435],[135.589,35.433],[135.598,35.425],[135.599,35.419],[135.604,35.416],[135.61,35.417],[135.615,35.414],[135.619,35.417],[135.621,35.422],[135.627,35.421],[135.632,35.427],[135.641,35.424],[135.644,35.417],[135.654,35.416],[135.666,35.41],[135.673,35.418],[135.682,35.419],[135.685,35.415],[135.693,35.41],[135.702,35.409],[135.709,35.409],[135.713,35.409],[135.719,35.415],[135.728,35.414],[135.73,35.419],[135.736,35.416],[135.739,35.417],[135.744,35.415],[135.756,35.412],[135.76,35.41],[135.764,35.405],[135.768,35.404],[135.77,35.397],[135.774,35.394],[135.777,35.394],[135.786,35.391],[135.791,35.387],[135.795,35.387],[135.799,35.385],[135.808,35.385],[135.81,35.392],[135.808,35.395],[135.811,35.403],[135.811,35.409],[135.813,35.413],[135.819,35.413],[135.827,35.415],[135.832,35.412],[135.836,35.412],[135.844,35.413],[135.85,35.411],[135.853,35.412],[135.854,35.415],[135.859,35.426],[135.859,35.432],[135.852,35.438],[135.849,35.442],[135.841,35.441],[135.836,35.443],[135.829,35.448],[135.82,35.451],[135.815,35.457],[135.816,35.462],[135.81,35.466],[135.812,35.474],[135.802,35.48],[135.799,35.483],[135.797,35.49],[135.806,35.491],[135.812,35.489],[135.818,35.484],[135.823,35.48],[135.835,35.483],[135.843,35.484],[135.842,35.496],[135.845,35.502],[135.842,35.507],[135.841,35.513],[135.838,35.516],[135.832,35.523],[135.842,35.531],[135.85,35.537],[135.851,35.541],[135.844,35.549],[135.839,35.55],[135.835,35.554],[135.827,35.558],[135.822,35.56],[135.819,35.566],[135.814,35.567],[135.815,35.572]]]]}},{"type":"Feature","properties":{"name":"大野市","code":"18205"},"geometry":{"type":"MultiPolygon","coordinates":[[[[136.461,35.921],[136.456,35.914],[136.451,35.913],[136.447,35.91],[136.439,35.909],[136.438,35.901],[136.433,35.896],[136.433,35.889],[136.436,35.886],[136.44,35.878],[136.433,35.872],[136.435,35.867],[136.428,35.859],[136.43,35.855],[136.436,35.85],[136.432,35.847],[136.428,35.841],[136.424,35.834],[136.427,35.823],[136.423,35.821],[136.423,35.813],[136.426,35.81],[136.433,35.807],[136.431,35.803],[136.431,35.798],[136.428,35.795],[136.423,35.793],[136.42,35.787],[136.416,35.782],[136.424,35.779],[136.431,35.775],[136.439,35.774],[136.446,35.773],[136.452,35.777],[136.459,35.779],[136.468,35.773],[136.475,35.773],[136.485,35.775],[136.497,35.766],[136.497,35.761],[136.503,35.751],[136.508,35.757],[136.512,35.759],[136.514,35.762],[136.514,35.767],[136.512,35.772],[136.513,35.775],[136.518,35.779],[136.52,35.783],[136.525,35.788],[136.531,35.784],[136.545,35.779],[136.551,35.781],[136.556,35.781],[136.562,35.779],[136.566,35.78],[136.572,35.778],[136.577,35.782],[136.58,35.782],[136.586,35.784],[136.585,35.788],[136.586,35.792],[136.59,35.796],[136.595,35.795],[136.599,35.799],[136.607,35.792],[136.611,35.789],[136.623,35.788],[136.628,35.791],[136.626,35.795],[136.632,35.796],[136.638,35.797],[136.641,35.803],[136.645,35.807],[136.653,35.799],[136.653,35.791],[136.654,35.786],[136.658,35.783],[136.666,35.785],[136.672,35.791],[136.678,35.792],[136.681,35.79],[136.69,35.789],[136.694,35.791],[136.7,35.794],[136.705,35.791],[136.71,35.792],[136.717,35.796],[136.721,35.8],[136.725,35.808],[136.732,35.807],[136.741,35.801],[136.745,35.804],[136.754,35.809],[136.764,35.811],[136.772,35.807],[136.774,35.8],[136.783,35.798],[136.789,35.799],[136.793,35.807],[136.796,35.809],[136.798,35.821],[136.797,35.828],[136.799,35.831],[136.8,35.837],[136.802,35.844],[136.806,35.843],[136.815,35.843],[136.825,35.845],[136.831,35.852],[136.832,35.857],[136.83,35.866],[136.826,35.87],[136.826,35.875],[136.82,35.879],[136.823,35.886],[136.824,35.893],[136.817,35.905],[136.814,35.911],[136.806,35.913],[136.799,35.92],[136.792,35.921],[136.787,35.922],[136.784,35.928],[136.787,35.934],[136.793,35.941],[136.793,35.946],[136.789,35.949],[136.785,35.949],[136.777,35.951],[136.772,35.95],[136.758,35.956],[136.753,35.956],[136.749,35.964],[136.751,35.967],[136.752,35.973],[136.753,35.978],[136.752,35.987],[136.75,35.991],[136.741,35.992],[136.727,35.996],[136.729,36.001],[136.729,36.009],[136.732,36.013],[136.731,36.018],[136.734,36.021],[136.733,36.027],[136.736,36.032],[136.735,36.042],[136.735,36.048],[136.741,36.054],[136.744,36.06],[136.753,36.062],[136.759,36.067],[136.764,36.068],[136.764,36.074],[136.76,36.081],[136.754,36.086],[136.745,36.085],[136.739,36.08],[136.732,36.08],[136.725,36.082],[136.715,36.082],[136.707,36.08],[136.699,36.074],[136.696,36.074],[136.679,36.071],[136.674,36.067],[136.662,36.068],[136.659,36.07],[136.65,36.067],[136.646,36.064],[136.638,36.062],[136.632,36.053],[136.626,36.052],[136.622,36.046],[136.614,36.044],[136.61,36.039],[136.599,36.038],[136.588,36.033],[136.579,36.024],[136.571,36.022],[136.569,36.018],[136.568,36.011],[136.562,36.009],[136.552,36.012],[136.544,36.007],[136.534,36.014],[136.523,36.018],[136.518,36.021],[136.517,36.018],[136.503,36.019],[136.497,36.023],[136.479,36.026],[136.475,36.029],[136.471,36.028],[136.467,36.019],[136.463,36.017],[136.458,36.016],[136.451,36.012],[136.453,36.006],[136.455,36.001],[136.452,35.997],[136.456,35.992],[136.453,35.987],[136.449,35.986],[136.449,35.982],[136.452,35.974],[136.456,35.969],[136.455,35.959],[136.456,35.955],[136.462,35.953],[136.465,35.951],[136.462,35.945],[136.461,35.939],[136.464,35.933],[136.455,35.932],[136.456,35.929],[136.464,35.926],[136.467,35.922],[136.461,35.921]]]]}},{"type":"Feature","properties":{"name":"勝山市","code":"18206"},"geometry":{"type":"MultiPolygon","coordinates":[[[[136.458,36.016],[136.463,36.017],[136.467,36.019],[136.471,36.028],[136.475,36.029],[136.479,36.026],[136.497,36.025],[136.503,36.019],[136.517,36.018],[136.518,36.021],[136.523,36.018],[136.534,36.014],[136.544,36.007],[136.55,36.01],[136.56,36.01],[136.568,36.011],[136.569,36.018],[136.571,36.022],[136.579,36.024],[136.586,36.031],[136.599,36.038],[136.61,36.039],[136.614,36.044],[136.622,36.046],[136.626,36.052],[136.632,36.053],[136.638,36.062],[136.646,36.064],[136.65,36.067],[136.659,36.07],[136.658,36.074],[136.655,36.078],[136.657,36.085],[136.653,36.086],[136.651,36.092],[136.646,36.095],[136.642,36.098],[136.632,36.099],[136.627,36.104],[136.622,36.106],[136.615,36.108],[136.611,36.113],[136.612,36.117],[136.604,36.122],[136.603,36.128],[136.595,36.132],[136.59,36.131],[136.585,36.136],[136.582,36.136],[136.576,36.142],[136.563,36.146],[136.56,36.153],[136.555,36.153],[136.552,36.155],[136.545,36.153],[136.541,36.154],[136.538,36.15],[136.527,36.148],[136.522,36.151],[136.512,36.146],[136.506,36.147],[136.503,36.15],[136.497,36.15],[136.492,36.158],[136.488,36.159],[136.483,36.157],[136.477,36.151],[136.474,36.147],[136.47,36.145],[136.465,36.141],[136.457,36.136],[136.449,36.141],[136.44,36.137],[136.435,36.134],[136.429,36.132],[136.425,36.134],[136.407,36.128],[136.402,36.128],[136.399,36.125],[136.393,36.125],[136.391,36.116],[136.397,36.114],[136.398,36.109],[136.404,36.099],[136.399,36.096],[136.396,36.092],[136.388,36.091],[136.388,36.088],[136.409,36.081],[136.429,36.076],[136.438,36.075],[136.439,36.069],[136.436,36.062],[136.433,36.059],[136.433,36.054],[136.435,36.05],[136.432,36.043],[136.441,36.032],[136.445,36.022],[136.453,36.018],[136.458,36.016]]]]}},{"type":"Feature","properties":{"name":"鯖江市","code":"18207"},"geometry":{"type":"MultiPolygon","coordinates":[[[[136.155,35.992],[136.156,35.987],[136.154,35.982],[136.149,35.98],[136.147,35.976],[136.141,35.97],[136.139,35.964],[136.136,35.959],[136.133,35.957],[136.129,35.949],[136.125,35.946],[136.125,35.941],[136.133,35.933],[136.139,35.935],[136.15,35.936],[136.161,35.936],[136.161,35.94],[136.167,35.94],[136.169,35.936],[136.175,35.937],[136.178,35.93],[136.2,35.931],[136.209,35.93],[136.217,35.929],[136.218,35.933],[136.225,35.931],[136.226,35.938],[136.232,35.941],[136.236,35.945],[136.24,35.945],[136.241,35.948],[136.249,35.948],[136.25,35.941],[136.256,35.943],[136.261,35.941],[136.267,35.941],[136.272,35.942],[136.276,35.941],[136.282,35.942],[136.289,35.945],[136.297,35.943],[136.304,35.943],[136.309,35.943],[136.314,35.937],[136.32,35.936],[136.325,35.93],[136.334,35.929],[136.334,35.939],[136.332,35.943],[136.335,35.947],[136.336,35.951],[136.333,35.952],[136.323,35.952],[136.323,35.957],[136.318,35.958],[136.317,35.964],[136.312,35.966],[136.304,35.964],[136.3,35.969],[136.29,35.974],[136.285,35.974],[136.275,35.972],[136.271,35.978],[136.267,35.978],[136.259,35.98],[136.255,35.979],[136.239,35.983],[136.232,35.991],[136.226,35.99],[136.22,35.988],[136.219,35.985],[136.215,35.983],[136.21,35.977],[136.206,35.971],[136.204,35.975],[136.206,35.986],[136.195,35.991],[136.189,35.991],[136.18,35.994],[136.181,35.999],[136.176,36.0],[136.168,35.998],[136.161,35.997],[136.159,35.994],[136.155,35.992]]]]}},{"type":"Feature","properties":{"name":"あわら市","code":"18208"},"geometry":{"type":"MultiPolygon","coordinates":[[[[136.329,36.202],[136.328,36.21],[136.33,36.213],[136.331,36.218],[136.329,36.224],[136.332,36.23],[136.327,36.232],[136.323,36.232],[136.317,36.235],[136.315,36.238],[136.315,36.246],[136.308,36.247],[136.305,36.25],[136.302,36.258],[136.295,36.261],[136.289,36.26],[136.285,36.262],[136.282,36.266],[136.275,36.266],[136.269,36.266],[136.262,36.273],[136.26,36.278],[136.256,36.28],[136.257,36.287],[136.249,36.292],[136.244,36.295],[136.241,36.291],[136.23,36.284],[136.217,36.276],[136.197,36.265],[136.183,36.258],[136.183,36.252],[136.189,36.25],[136.195,36.251],[136.201,36.246],[136.194,36.241],[136.196,36.236],[136.189,36.234],[136.188,36.23],[136.184,36.233],[136.181,36.231],[136.185,36.228],[136.182,36.224],[136.175,36.222],[136.175,36.219],[136.17,36.216],[136.167,36.213],[136.175,36.211],[136.173,36.199],[136.176,36.198],[136.18,36.193],[136.19,36.193],[136.195,36.189],[136.216,36.192],[136.223,36.195],[136.229,36.197],[136.23,36.194],[136.236,36.193],[136.235,36.19],[136.237,36.184],[136.252,36.185],[136.257,36.184],[136.258,36.18],[136.262,36.178],[136.277,36.178],[136.285,36.175],[136.297,36.179],[136.305,36.185],[136.306,36.188],[136.311,36.19],[136.317,36.193],[136.321,36.199],[136.324,36.199],[136.329,36.202]]]]}},{"type":"Feature","properties":{"name":"越前市","code":"18209"},"geometry":{"type":"MultiPolygon","coordinates":[[[[136.135,35.933],[136.132,35.927],[136.129,35.925],[136.128,35.919],[136.117,35.915],[136.117,35.911],[136.11,35.913],[136.106,35.911],[136.103,35.912],[136.096,35.91],[136.093,35.912],[136.093,35.916],[136.09,35.918],[136.088,35.923],[136.079,35.926],[136.074,35.923],[136.074,35.919],[136.07,35.918],[136.065,35.918],[136.057,35.919],[136.048,35.917],[136.044,35.913],[136.044,35.906],[136.037,35.904],[136.028,35.9],[136.023,35.896],[136.021,35.889],[136.02,35.879],[136.022,35.874],[136.033,35.871],[136.041,35.867],[136.043,35.862],[136.049,35.86],[136.056,35.86],[136.054,35.856],[136.055,35.85],[136.069,35.848],[136.077,35.85],[136.083,35.844],[136.092,35.844],[136.1,35.844],[136.107,35.843],[136.115,35.847],[136.121,35.844],[136.126,35.843],[136.129,35.832],[136.132,35.828],[136.13,35.825],[136.134,35.816],[136.135,35.81],[136.139,35.808],[136.143,35.812],[136.153,35.817],[136.154,35.821],[136.158,35.826],[136.159,35.834],[136.166,35.837],[136.174,35.843],[136.175,35.85],[136.178,35.854],[136.182,35.857],[136.191,35.858],[136.196,35.858],[136.203,35.859],[136.209,35.857],[136.213,35.858],[136.218,35.856],[136.224,35.856],[136.231,35.853],[136.234,35.85],[136.244,35.845],[136.249,35.846],[136.252,35.842],[136.256,35.842],[136.261,35.845],[136.266,35.849],[136.273,35.861],[136.28,35.866],[136.286,35.865],[136.294,35.867],[136.3,35.873],[136.303,35.874],[136.306,35.878],[136.308,35.885],[136.312,35.887],[136.312,35.893],[136.309,35.895],[136.312,35.904],[136.315,35.908],[136.314,35.913],[136.31,35.914],[136.311,35.918],[136.32,35.921],[136.324,35.92],[136.329,35.921],[136.334,35.925],[136.334,35.929],[136.325,35.93],[136.32,35.936],[136.314,35.937],[136.309,35.943],[136.304,35.943],[136.299,35.944],[136.289,35.945],[136.282,35.942],[136.276,35.941],[136.272,35.942],[136.267,35.941],[136.261,35.941],[136.256,35.943],[136.25,35.941],[136.249,35.948],[136.241,35.948],[136.24,35.945],[136.236,35.945],[136.232,35.941],[136.226,35.938],[136.226,35.933],[136.218,35.933],[136.217,35.929],[136.209,35.93],[136.201,35.929],[136.178,35.93],[136.175,35.937],[136.169,35.936],[136.167,35.94],[136.161,35.94],[136.161,35.936],[136.15,35.936],[136.14,35.938],[136.135,35.933]]]]}},{"type":"Feature","properties":{"name":"坂井市","code":"18210"},"geometry":{"type":"MultiPolygon","coordinates":[[[[136.27,36.104],[136.276,36.109],[136.281,36.113],[136.28,36.121],[136.285,36.12],[136.284,36.111],[136.29,36.116],[136.299,36.112],[136.296,36.107],[136.306,36.104],[136.315,36.104],[136.323,36.103],[136.324,36.107],[136.333,36.11],[136.339,36.111],[136.344,36.111],[136.355,36.117],[136.36,36.125],[136.372,36.13],[136.376,36.126],[136.385,36.127],[136.393,36.125],[136.399,36.125],[136.402,36.128],[136.407,36.128],[136.425,36.134],[136.429,36.132],[136.435,36.134],[136.44,36.135],[136.438,36.142],[136.432,36.143],[136.427,36.149],[136.424,36.155],[136.414,36.157],[136.412,36.16],[136.413,36.167],[136.409,36.172],[136.405,36.17],[136.398,36.171],[136.391,36.168],[136.38,36.168],[136.374,36.17],[136.369,36.17],[136.366,36.166],[136.358,36.165],[136.355,36.169],[136.351,36.169],[136.344,36.173],[136.338,36.184],[136.337,36.191],[136.336,36.195],[136.331,36.201],[136.324,36.199],[136.321,36.199],[136.317,36.193],[136.311,36.19],[136.306,36.188],[136.305,36.185],[136.297,36.179],[136.285,36.175],[136.277,36.178],[136.262,36.178],[136.258,36.18],[136.257,36.184],[136.252,36.185],[136.237,36.184],[136.235,36.19],[136.236,36.193],[136.23,36.194],[136.229,36.197],[136.223,36.197],[136.216,36.192],[136.197,36.191],[136.19,36.19],[136.18,36.193],[136.176,36.198],[136.173,36.199],[136.175,36.211],[136.167,36.213],[136.17,36.216],[136.175,36.219],[136.175,36.222],[136.182,36.224],[136.185,36.228],[136.181,36.231],[136.184,36.233],[136.188,36.23],[136.189,36.234],[136.194,36.234],[136.194,36.241],[136.198,36.245],[136.195,36.251],[136.192,36.252],[136.183,36.252],[136.185,36.255],[136.172,36.253],[136.162,36.25],[136.158,36.25],[136.154,36.253],[136.148,36.254],[136.141,36.253],[136.136,36.25],[136.126,36.251],[136.123,36.25],[136.131,36.242],[136.125,36.238],[136.133,36.228],[136.135,36.221],[136.13,36.219],[136.132,36.214],[136.127,36.209],[136.122,36.201],[136.127,36.199],[136.131,36.205],[136.127,36.194],[136.128,36.19],[136.121,36.19],[136.114,36.193],[136.1,36.173],[136.107,36.169],[136.119,36.166],[136.126,36.163],[136.125,36.158],[136.13,36.159],[136.131,36.164],[136.135,36.17],[136.138,36.163],[136.148,36.163],[136.152,36.167],[136.157,36.164],[136.162,36.159],[136.164,36.149],[136.168,36.143],[136.175,36.139],[136.178,36.134],[136.181,36.133],[136.188,36.13],[136.192,36.13],[136.194,36.126],[136.198,36.122],[136.21,36.12],[136.217,36.121],[136.231,36.121],[136.234,36.119],[136.243,36.121],[136.254,36.124],[136.255,36.113],[136.254,36.107],[136.257,36.105],[136.264,36.105],[136.27,36.104]]]]}},{"type":"Feature","properties":{"name":"吉田郡永平寺町","code":"18322"},"geometry":{"type":"MultiPolygon","coordinates":[[[[136.432,36.043],[136.435,36.05],[136.433,36.054],[136.433,36.059],[136.436,36.062],[136.439,36.069],[136.438,36.075],[136.429,36.076],[136.409,36.081],[136.388,36.088],[136.388,36.091],[136.396,36.092],[136.399,36.096],[136.404,36.099],[136.398,36.109],[136.397,36.114],[136.391,36.116],[136.393,36.125],[136.385,36.127],[136.376,36.126],[136.372,36.13],[136.36,36.127],[136.355,36.117],[136.346,36.114],[136.339,36.111],[136.336,36.112],[136.324,36.107],[136.323,36.103],[136.318,36.102],[136.306,36.104],[136.296,36.107],[136.299,36.112],[136.292,36.113],[136.284,36.111],[136.285,36.12],[136.28,36.121],[136.281,36.113],[136.276,36.111],[136.27,36.104],[136.277,36.103],[136.281,36.104],[136.281,36.099],[136.288,36.098],[136.288,36.095],[136.282,36.094],[136.287,36.083],[136.292,36.083],[136.292,36.079],[136.289,36.076],[136.285,36.076],[136.282,36.074],[136.285,36.069],[136.284,36.063],[136.286,36.056],[136.291,36.053],[136.293,36.05],[136.297,36.05],[136.297,36.046],[136.315,36.041],[136.319,36.042],[136.32,36.048],[136.329,36.048],[136.335,36.053],[136.341,36.053],[136.346,36.043],[136.351,36.037],[136.358,36.036],[136.367,36.034],[136.379,36.043],[136.384,36.047],[136.39,36.048],[136.407,36.046],[136.413,36.042],[136.426,36.04],[136.432,36.043]]]]}},{"type":"Feature","properties":{"name":"今立郡池田町","code":"18382"},"geometry":{"type":"MultiPolygon","coordinates":[[[[136.334,35.929],[136.334,35.925],[136.329,35.921],[136.324,35.92],[136.32,35.921],[136.314,35.92],[136.31,35.914],[136.314,35.913],[136.315,35.908],[136.312,35.904],[136.309,35.895],[136.312,35.893],[136.312,35.887],[136.308,35.885],[136.305,35.88],[136.303,35.874],[136.3,35.873],[136.294,35.867],[136.288,35.867],[136.28,35.866],[136.273,35.861],[136.266,35.849],[136.261,35.845],[136.256,35.842],[136.26,35.838],[136.26,35.831],[136.258,35.825],[136.268,35.822],[136.273,35.824],[136.28,35.823],[136.286,35.82],[136.295,35.825],[136.302,35.829],[136.308,35.824],[136.313,35.822],[136.315,35.817],[136.319,35.818],[136.325,35.824],[136.331,35.82],[136.334,35.822],[136.34,35.823],[136.345,35.819],[136.349,35.813],[136.346,35.807],[136.351,35.805],[136.354,35.801],[136.351,35.796],[136.354,35.788],[136.364,35.788],[136.377,35.795],[136.389,35.792],[136.39,35.788],[136.396,35.788],[136.4,35.789],[136.402,35.786],[136.409,35.78],[136.416,35.782],[136.42,35.787],[136.423,35.793],[136.428,35.795],[136.431,35.798],[136.431,35.803],[136.433,35.807],[136.426,35.81],[136.423,35.813],[136.423,35.821],[136.427,35.823],[136.423,35.833],[136.429,35.839],[136.432,35.847],[136.436,35.85],[136.43,35.855],[136.428,35.859],[136.435,35.867],[136.433,35.872],[136.44,35.878],[136.439,35.886],[136.433,35.889],[136.433,35.896],[136.438,35.901],[136.439,35.909],[136.447,35.91],[136.451,35.913],[136.456,35.914],[136.461,35.919],[136.452,35.921],[136.439,35.928],[136.44,35.932],[136.436,35.936],[136.429,35.938],[136.423,35.939],[136.417,35.943],[136.407,35.949],[136.4,35.948],[136.389,35.952],[136.384,35.951],[136.375,35.952],[136.367,35.948],[136.358,35.948],[136.352,35.942],[136.35,35.939],[136.35,35.934],[136.346,35.931],[136.341,35.933],[136.339,35.93],[136.334,35.929]]]]}},{"type":"Feature","properties":{"name":"南条郡南越前町","code":"18404"},"geometry":{"type":"MultiPolygon","coordinates":[[[[136.15,35.698],[136.157,35.7],[136.161,35.698],[136.166,35.697],[136.167,35.702],[136.172,35.702],[136.175,35.704],[136.178,35.702],[136.185,35.704],[136.193,35.701],[136.199,35.69],[136.204,35.687],[136.208,35.688],[136.212,35.682],[136.219,35.684],[136.224,35.681],[136.228,35.68],[136.231,35.683],[136.234,35.682],[136.245,35.674],[136.25,35.676],[136.257,35.671],[136.264,35.671],[136.269,35.669],[136.281,35.661],[136.29,35.666],[136.289,35.672],[136.296,35.676],[136.299,35.679],[136.294,35.681],[136.292,35.684],[136.292,35.69],[136.298,35.692],[136.305,35.702],[136.311,35.706],[136.31,35.711],[136.323,35.716],[136.321,35.723],[136.324,35.725],[136.327,35.732],[136.324,35.74],[136.325,35.745],[136.32,35.747],[136.318,35.751],[136.32,35.759],[136.322,35.765],[136.328,35.775],[136.333,35.776],[136.347,35.776],[136.348,35.78],[136.356,35.784],[136.354,35.788],[136.351,35.796],[136.354,35.801],[136.351,35.805],[136.346,35.807],[136.349,35.813],[136.345,35.819],[136.34,35.823],[136.334,35.822],[136.331,35.82],[136.325,35.824],[136.319,35.818],[136.315,35.817],[136.313,35.822],[136.308,35.824],[136.302,35.829],[136.295,35.825],[136.286,35.82],[136.28,35.823],[136.275,35.822],[136.268,35.822],[136.258,35.825],[136.26,35.831],[136.26,35.838],[136.256,35.842],[136.252,35.842],[136.249,35.846],[136.244,35.845],[136.234,35.85],[136.231,35.853],[136.224,35.856],[136.218,35.856],[136.213,35.858],[136.209,35.857],[136.203,35.859],[136.196,35.858],[136.191,35.858],[136.182,35.857],[136.178,35.854],[136.175,35.85],[136.174,35.843],[136.166,35.837],[136.159,35.834],[136.158,35.826],[136.154,35.821],[136.153,35.817],[136.143,35.812],[136.139,35.808],[136.135,35.81],[136.134,35.816],[136.13,35.825],[136.132,35.828],[136.129,35.832],[136.126,35.843],[136.121,35.844],[136.115,35.847],[136.107,35.843],[136.103,35.842],[136.092,35.844],[136.085,35.843],[136.077,35.85],[136.069,35.848],[136.055,35.85],[136.054,35.856],[136.056,35.86],[136.049,35.86],[136.043,35.862],[136.041,35.867],[136.033,35.871],[136.022,35.874],[136.02,35.879],[136.011,35.872],[136.021,35.865],[136.03,35.857],[136.039,35.851],[136.046,35.843],[136.054,35.835],[136.062,35.83],[136.07,35.825],[136.076,35.812],[136.084,35.801],[136.088,35.798],[136.09,35.791],[136.1,35.779],[136.099,35.772],[136.097,35.767],[136.113,35.765],[136.118,35.758],[136.119,35.752],[136.124,35.748],[136.127,35.742],[136.13,35.741],[136.133,35.737],[136.133,35.73],[136.134,35.725],[136.143,35.716],[136.149,35.711],[136.149,35.706],[136.147,35.699],[136.15,35.698]]]]}},{"type":"Feature","properties":{"name":"丹生郡越前町","code":"18423"},"geometry":{"type":"MultiPolygon","coordinates":[[[[135.964,35.998],[135.965,35.992],[135.961,35.99],[135.962,35.987],[135.958,35.982],[135.961,35.978],[135.962,35.972],[135.967,35.97],[135.97,35.962],[135.981,35.954],[135.987,35.949],[135.986,35.944],[135.994,35.939],[135.997,35.936],[135.998,35.923],[135.995,35.912],[135.998,35.903],[135.995,35.898],[135.995,35.892],[135.998,35.884],[136.011,35.872],[136.019,35.877],[136.019,35.888],[136.02,35.894],[136.026,35.903],[136.037,35.904],[136.042,35.904],[136.044,35.913],[136.048,35.917],[136.054,35.918],[136.062,35.917],[136.07,35.918],[136.074,35.919],[136.074,35.923],[136.079,35.926],[136.088,35.923],[136.09,35.918],[136.093,35.916],[136.093,35.912],[136.096,35.91],[136.103,35.912],[136.106,35.911],[136.11,35.913],[136.117,35.911],[136.117,35.915],[136.126,35.916],[136.129,35.925],[136.132,35.927],[136.135,35.933],[136.127,35.94],[136.125,35.946],[136.129,35.949],[136.133,35.957],[136.136,35.959],[136.139,35.964],[136.138,35.97],[136.147,35.976],[136.149,35.98],[136.154,35.982],[136.156,35.987],[136.155,35.992],[136.141,35.992],[136.136,35.994],[136.135,35.997],[136.128,36.004],[136.121,36.001],[136.118,36.003],[136.11,36.002],[136.097,36.006],[136.097,36.009],[136.093,36.01],[136.087,36.016],[136.081,36.014],[136.082,36.019],[136.075,36.021],[136.072,36.024],[136.072,36.028],[136.067,36.026],[136.057,36.027],[136.055,36.015],[136.048,36.007],[136.048,36.004],[136.033,35.997],[136.027,35.997],[136.023,36.006],[136.018,36.009],[136.012,36.014],[136.006,36.01],[136.003,36.005],[136.004,36.0],[136.002,35.997],[136.004,35.991],[136.007,35.986],[136.002,35.986],[135.996,35.983],[135.991,35.983],[135.985,35.985],[135.97,35.992],[135.964,35.998]]]]}},{"type":"Feature","properties":{"name":"三方郡美浜町","code":"18442"},"geometry":{"type":"MultiPolygon","coordinates":[[[[135.965,35.73],[135.959,35.727],[135.954,35.723],[135.959,35.717],[135.959,35.711],[135.96,35.702],[135.967,35.702],[135.966,35.711],[135.971,35.712],[135.973,35.709],[135.971,35.704],[135.975,35.698],[135.976,35.69],[135.973,35.678],[135.968,35.674],[135.969,35.669],[135.967,35.66],[135.963,35.657],[135.971,35.656],[135.975,35.655],[135.976,35.651],[135.986,35.643],[135.985,35.636],[135.981,35.63],[135.974,35.625],[135.968,35.622],[135.962,35.622],[135.955,35.629],[135.955,35.633],[135.95,35.634],[135.951,35.629],[135.945,35.624],[135.94,35.616],[135.934,35.613],[135.926,35.61],[135.914,35.609],[135.908,35.616],[135.908,35.624],[135.899,35.624],[135.894,35.62],[135.896,35.616],[135.891,35.612],[135.885,35.618],[135.88,35.616],[135.877,35.61],[135.87,35.608],[135.865,35.61],[135.859,35.611],[135.857,35.618],[135.859,35.623],[135.856,35.625],[135.849,35.623],[135.844,35.627],[135.846,35.635],[135.839,35.638],[135.834,35.637],[135.828,35.639],[135.823,35.644],[135.815,35.642],[135.821,35.641],[135.83,35.637],[135.834,35.634],[135.838,35.635],[135.84,35.627],[135.848,35.618],[135.856,35.608],[135.861,35.607],[135.865,35.603],[135.871,35.601],[135.874,35.604],[135.874,35.607],[135.879,35.609],[135.885,35.599],[135.889,35.598],[135.902,35.603],[135.901,35.6],[135.906,35.6],[135.909,35.594],[135.908,35.59],[135.915,35.585],[135.917,35.581],[135.921,35.579],[135.932,35.58],[135.936,35.578],[135.94,35.574],[135.942,35.568],[135.943,35.562],[135.946,35.555],[135.945,35.551],[135.95,35.546],[135.953,35.541],[135.954,35.534],[135.954,35.526],[135.947,35.52],[135.952,35.511],[135.952,35.506],[135.958,35.506],[135.963,35.501],[135.967,35.503],[135.973,35.5],[135.981,35.487],[135.99,35.493],[135.993,35.492],[136.007,35.492],[136.012,35.498],[136.012,35.505],[136.015,35.509],[136.016,35.512],[136.02,35.512],[136.024,35.519],[136.029,35.523],[136.026,35.527],[136.028,35.543],[136.024,35.546],[136.025,35.551],[136.023,35.555],[136.023,35.561],[136.03,35.569],[136.029,35.579],[136.026,35.586],[136.019,35.587],[136.012,35.585],[136.004,35.596],[136.008,35.606],[136.009,35.609],[136.006,35.614],[136.007,35.618],[136.006,35.623],[136.009,35.632],[136.006,35.636],[136.004,35.646],[135.998,35.652],[136.013,35.665],[136.009,35.671],[136.01,35.676],[136.013,35.684],[136.011,35.693],[136.013,35.697],[136.01,35.701],[136.012,35.708],[136.014,35.717],[136.013,35.725],[136.005,35.73],[135.995,35.726],[135.981,35.724],[135.968,35.725],[135.965,35.73]]]]}},{"type":"Feature","properties":{"name":"大飯郡高浜町","code":"18481"},"geometry":{"type":"MultiPolygon","coordinates":[[[[135.603,35.514],[135.592,35.502],[135.588,35.5],[135.581,35.498],[135.577,35.5],[135.575,35.493],[135.564,35.49],[135.556,35.491],[135.552,35.494],[135.546,35.494],[135.543,35.491],[135.536,35.489],[135.519,35.494],[135.514,35.497],[135.514,35.501],[135.511,35.501],[135.507,35.506],[135.51,35.509],[135.513,35.516],[135.514,35.521],[135.517,35.526],[135.514,35.536],[135.516,35.54],[135.518,35.546],[135.518,35.55],[135.504,35.549],[135.502,35.553],[135.499,35.548],[135.502,35.543],[135.507,35.539],[135.506,35.533],[135.503,35.533],[135.503,35.525],[135.497,35.525],[135.492,35.524],[135.494,35.528],[135.489,35.529],[135.488,35.523],[135.481,35.522],[135.478,35.526],[135.482,35.53],[135.484,35.534],[135.47,35.53],[135.475,35.538],[135.478,35.542],[135.48,35.547],[135.479,35.551],[135.484,35.554],[135.474,35.554],[135.467,35.552],[135.46,35.548],[135.46,35.543],[135.454,35.537],[135.45,35.527],[135.45,35.521],[135.46,35.514],[135.464,35.513],[135.467,35.509],[135.473,35.508],[135.476,35.505],[135.473,35.501],[135.476,35.49],[135.471,35.489],[135.47,35.485],[135.462,35.479],[135.459,35.473],[135.458,35.469],[135.463,35.462],[135.469,35.458],[135.47,35.454],[135.481,35.448],[135.486,35.449],[135.493,35.451],[135.51,35.461],[135.516,35.463],[135.521,35.461],[135.525,35.456],[135.536,35.46],[135.544,35.46],[135.553,35.461],[135.557,35.46],[135.561,35.462],[135.563,35.465],[135.58,35.469],[135.586,35.467],[135.592,35.469],[135.601,35.473],[135.604,35.48],[135.605,35.484],[135.598,35.488],[135.592,35.49],[135.584,35.491],[135.592,35.495],[135.597,35.492],[135.606,35.49],[135.604,35.494],[135.604,35.498],[135.607,35.498],[135.608,35.503],[135.611,35.506],[135.609,35.51],[135.603,35.514]]]]}},{"type":"Feature","properties":{"name":"大飯郡おおい町","code":"18483"},"geometry":{"type":"MultiPolygon","coordinates":[[[[135.645,35.479],[135.639,35.48],[135.632,35.482],[135.626,35.481],[135.621,35.486],[135.605,35.484],[135.604,35.48],[135.6,35.476],[135.595,35.468],[135.586,35.467],[135.58,35.469],[135.563,35.465],[135.561,35.462],[135.557,35.46],[135.553,35.461],[135.546,35.459],[135.536,35.46],[135.525,35.456],[135.521,35.461],[135.516,35.463],[135.51,35.461],[135.495,35.45],[135.486,35.449],[135.491,35.439],[135.498,35.438],[135.5,35.433],[135.495,35.429],[135.501,35.423],[135.502,35.42],[135.506,35.421],[135.51,35.424],[135.516,35.422],[135.521,35.423],[135.527,35.418],[135.528,35.412],[135.53,35.408],[135.525,35.403],[135.528,35.398],[135.532,35.393],[135.527,35.385],[135.528,35.38],[135.537,35.377],[135.55,35.377],[135.559,35.376],[135.566,35.377],[135.572,35.374],[135.58,35.375],[135.584,35.37],[135.588,35.368],[135.594,35.37],[135.6,35.371],[135.607,35.371],[135.612,35.369],[135.615,35.371],[135.623,35.37],[135.628,35.367],[135.637,35.364],[135.642,35.367],[135.652,35.36],[135.659,35.358],[135.668,35.357],[135.674,35.353],[135.677,35.35],[135.685,35.347],[135.69,35.348],[135.701,35.344],[135.711,35.348],[135.713,35.353],[135.719,35.355],[135.725,35.352],[135.731,35.351],[135.736,35.351],[135.741,35.354],[135.74,35.358],[135.744,35.359],[135.751,35.357],[135.755,35.354],[135.76,35.354],[135.764,35.357],[135.769,35.356],[135.77,35.36],[135.778,35.366],[135.779,35.374],[135.784,35.377],[135.79,35.378],[135.791,35.387],[135.786,35.391],[135.78,35.392],[135.774,35.394],[135.77,35.397],[135.77,35.401],[135.764,35.405],[135.76,35.41],[135.756,35.412],[135.744,35.415],[135.739,35.417],[135.736,35.416],[135.73,35.419],[135.728,35.414],[135.719,35.415],[135.715,35.412],[135.709,35.409],[135.705,35.411],[135.693,35.41],[135.685,35.415],[135.682,35.419],[135.673,35.418],[135.666,35.41],[135.654,35.416],[135.646,35.417],[135.641,35.424],[135.632,35.427],[135.63,35.423],[135.621,35.422],[135.619,35.417],[135.615,35.414],[135.61,35.417],[135.604,35.416],[135.599,35.419],[135.598,35.425],[135.589,35.43],[135.593,35.435],[135.599,35.435],[135.607,35.44],[135.611,35.441],[135.616,35.44],[135.624,35.445],[135.632,35.445],[135.636,35.447],[135.639,35.447],[135.647,35.45],[135.642,35.456],[135.643,35.463],[135.648,35.465],[135.645,35.475],[135.645,35.479]]],[[[135.606,35.49],[135.61,35.492],[135.616,35.492],[135.624,35.491],[135.629,35.492],[135.63,35.496],[135.636,35.504],[135.642,35.507],[135.637,35.512],[135.64,35.517],[135.635,35.519],[135.644,35.526],[135.655,35.531],[135.661,35.529],[135.662,35.526],[135.666,35.523],[135.666,35.534],[135.662,35.533],[135.661,35.539],[135.665,35.541],[135.657,35.545],[135.652,35.545],[135.643,35.542],[135.637,35.537],[135.633,35.538],[135.63,35.534],[135.627,35.533],[135.62,35.527],[135.621,35.521],[135.613,35.519],[135.607,35.517],[135.603,35.514],[135.609,35.51],[135.611,35.506],[135.608,35.503],[135.607,35.498],[135.604,35.498],[135.604,35.494],[135.606,35.49]]]]}},{"type":"Feature","properties":{"name":"三方上中郡若狭町","code":"18501"},"geometry":{"type":"MultiPolygon","coordinates":[[[[135.805,35.639],[135.803,35.633],[135.806,35.631],[135.805,35.639]]],[[[135.853,35.412],[135.854,35.401],[135.86,35.395],[135.865,35.394],[135.876,35.397],[135.88,35.401],[135.891,35.403],[135.894,35.411],[135.893,35.42],[135.901,35.426],[135.903,35.429],[135.908,35.43],[135.914,35.432],[135.915,35.438],[135.912,35.449],[135.916,35.456],[135.915,35.459],[135.917,35.467],[135.916,35.471],[135.922,35.476],[135.924,35.482],[135.922,35.486],[135.925,35.49],[135.93,35.492],[135.933,35.502],[135.938,35.511],[135.94,35.521],[135.947,35.52],[135.954,35.526],[135.954,35.534],[135.953,35.541],[135.95,35.546],[135.945,35.551],[135.946,35.555],[135.943,35.562],[135.944,35.565],[135.94,35.574],[135.936,35.578],[135.932,35.58],[135.921,35.579],[135.917,35.581],[135.915,35.585],[135.908,35.59],[135.909,35.594],[135.906,35.6],[135.901,35.6],[135.902,35.603],[135.889,35.598],[135.885,35.599],[135.881,35.607],[135.874,35.607],[135.874,35.604],[135.871,35.601],[135.865,35.603],[135.861,35.607],[135.856,35.608],[135.848,35.615],[135.84,35.627],[135.841,35.633],[135.834,35.634],[135.83,35.637],[135.821,35.641],[135.815,35.642],[135.813,35.635],[135.822,35.638],[135.828,35.635],[135.833,35.631],[135.824,35.631],[135.829,35.624],[135.839,35.62],[135.839,35.616],[135.835,35.615],[135.83,35.612],[135.827,35.608],[135.834,35.605],[135.839,35.607],[135.843,35.608],[135.846,35.601],[135.854,35.603],[135.856,35.592],[135.855,35.587],[135.857,35.582],[135.848,35.578],[135.85,35.574],[135.843,35.571],[135.84,35.563],[135.835,35.562],[135.828,35.564],[135.828,35.569],[135.823,35.57],[135.821,35.574],[135.815,35.572],[135.814,35.567],[135.819,35.566],[135.822,35.56],[135.827,35.558],[135.835,35.554],[135.839,35.55],[135.844,35.549],[135.851,35.541],[135.85,35.537],[135.843,35.534],[135.832,35.523],[135.838,35.516],[135.841,35.513],[135.842,35.507],[135.845,35.502],[135.842,35.496],[135.845,35.487],[135.837,35.482],[135.823,35.48],[135.818,35.484],[135.812,35.489],[135.806,35.491],[135.797,35.49],[135.799,35.485],[135.802,35.48],[135.812,35.476],[135.81,35.466],[135.816,35.462],[135.815,35.457],[135.82,35.451],[135.829,35.448],[135.836,35.443],[135.841,35.441],[135.849,35.442],[135.852,35.438],[135.859,35.432],[135.86,35.429],[135.857,35.417],[135.853,35.412]]]]}}]}