{"type":"FeatureCollection","features":[{"type":"Feature","properties":{"name":"甲府市","code":"19201"},"geometry":{"type":"MultiPolygon","coordinates":[[[[138.661,35.874],[138.643,35.875],[138.634,35.87],[138.628,35.873],[138.622,35.87],[138.621,35.862],[138.609,35.86],[138.604,35.848],[138.594,35.848],[138.59,35.844],[138.585,35.831],[138.58,35.828],[138.556,35.828],[138.556,35.812],[138.549,35.807],[138.548,35.8],[138.55,35.792],[138.547,35.788],[138.54,35.773],[138.543,35.76],[138.555,35.759],[138.554,35.749],[138.561,35.747],[138.565,35.74],[138.561,35.733],[138.549,35.726],[138.543,35.713],[138.535,35.714],[138.525,35.707],[138.526,35.696],[138.536,35.68],[138.537,35.674],[138.531,35.664],[138.539,35.647],[138.543,35.651],[138.553,35.644],[138.547,35.639],[138.551,35.631],[138.548,35.622],[138.554,35.617],[138.554,35.609],[138.559,35.605],[138.563,35.591],[138.56,35.583],[138.569,35.579],[138.576,35.572],[138.576,35.568],[138.584,35.558],[138.584,35.552],[138.597,35.546],[138.59,35.537],[138.589,35.529],[138.595,35.519],[138.596,35.512],[138.602,35.505],[138.621,35.502],[138.637,35.513],[138.65,35.516],[138.65,35.521],[138.642,35.526],[138.64,35.534],[138.632,35.535],[138.626,35.544],[138.617,35.548],[138.624,35.557],[138.617,35.575],[138.605,35.578],[138.589,35.589],[138.589,35.594],[138.609,35.604],[138.608,35.617],[138.599,35.618],[138.598,35.634],[138.61,35.641],[138.632,35.65],[138.628,35.659],[138.626,35.669],[138.622,35.67],[138.61,35.691],[138.62,35.692],[138.624,35.699],[138.617,35.712],[138.612,35.718],[138.594,35.728],[138.595,35.751],[138.606,35.76],[138.617,35.781],[138.613,35.79],[138.63,35.804],[138.637,35.813],[138.631,35.815],[138.639,35.846],[138.636,35.852],[138.661,35.874]]]]}},{"type":"Feature","properties":{"name":"富士吉田市","code":"19202"},"geometry":{"type":"MultiPolygon","coordinates":[[[[138.818,35.532],[138.806,35.533],[138.802,35.525],[138.794,35.52],[138.781,35.503],[138.779,35.492],[138.771,35.493],[138.77,35.482],[138.763,35.471],[138.758,35.451],[138.75,35.442],[138.728,35.422],[138.733,35.394],[138.73,35.369],[138.731,35.363],[138.799,35.377],[138.816,35.376],[138.822,35.374],[138.834,35.384],[138.851,35.39],[138.862,35.39],[138.864,35.393],[138.829,35.412],[138.834,35.429],[138.809,35.439],[138.81,35.451],[138.806,35.456],[138.813,35.462],[138.817,35.476],[138.831,35.469],[138.846,35.471],[138.866,35.485],[138.864,35.493],[138.857,35.499],[138.856,35.505],[138.84,35.501],[138.833,35.511],[138.837,35.52],[138.834,35.526],[138.822,35.528],[138.818,35.532]]]]}},{"type":"Feature","properties":{"name":"都留市","code":"19204"},"geometry":{"type":"MultiPolygon","coordinates":[[[[138.866,35.485],[138.877,35.486],[138.882,35.479],[138.884,35.471],[138.894,35.454],[138.901,35.45],[138.908,35.45],[138.924,35.458],[138.929,35.474],[138.929,35.484],[138.94,35.494],[138.948,35.495],[138.967,35.505],[138.971,35.509],[138.974,35.521],[138.98,35.52],[138.998,35.524],[139.004,35.529],[139.006,35.539],[139.012,35.543],[139.024,35.544],[139.027,35.55],[139.018,35.554],[139.018,35.562],[139.007,35.572],[139.005,35.579],[138.997,35.581],[138.991,35.578],[138.974,35.575],[138.968,35.571],[138.957,35.569],[138.951,35.574],[138.95,35.592],[138.943,35.596],[138.94,35.605],[138.93,35.601],[138.914,35.59],[138.904,35.588],[138.898,35.582],[138.863,35.574],[138.838,35.584],[138.818,35.581],[138.811,35.576],[138.799,35.572],[138.801,35.558],[138.81,35.551],[138.833,35.548],[138.838,35.55],[138.847,35.545],[138.853,35.539],[138.865,35.532],[138.855,35.527],[138.853,35.523],[138.856,35.505],[138.857,35.499],[138.864,35.493],[138.866,35.485]]]]}},{"type":"Feature","properties":{"name":"山梨市","code":"19205"},"geometry":{"type":"MultiPolygon","coordinates":[[[[138.617,35.712],[138.648,35.688],[138.642,35.685],[138.656,35.678],[138.672,35.674],[138.666,35.663],[138.679,35.661],[138.708,35.663],[138.707,35.67],[138.7,35.675],[138.716,35.686],[138.71,35.695],[138.713,35.708],[138.702,35.712],[138.712,35.728],[138.711,35.734],[138.721,35.742],[138.723,35.753],[138.742,35.764],[138.745,35.777],[138.739,35.784],[138.741,35.789],[138.774,35.789],[138.787,35.787],[138.784,35.794],[138.786,35.808],[138.785,35.825],[138.79,35.835],[138.803,35.841],[138.804,35.852],[138.814,35.862],[138.808,35.87],[138.797,35.872],[138.789,35.893],[138.777,35.9],[138.766,35.899],[138.758,35.902],[138.749,35.902],[138.729,35.909],[138.708,35.91],[138.692,35.896],[138.686,35.894],[138.683,35.881],[138.676,35.87],[138.661,35.874],[138.636,35.852],[138.639,35.846],[138.631,35.815],[138.637,35.813],[138.63,35.804],[138.613,35.79],[138.617,35.781],[138.606,35.76],[138.595,35.751],[138.594,35.728],[138.612,35.718],[138.617,35.712]]]]}},{"type":"Feature","properties":{"name":"大月市","code":"19206"},"geometry":{"type":"MultiPolygon","coordinates":[[[[139.005,35.579],[139.02,35.584],[139.026,35.581],[139.04,35.584],[139.066,35.586],[139.064,35.616],[139.06,35.617],[139.044,35.612],[139.025,35.617],[139.021,35.633],[139.014,35.637],[139.025,35.654],[139.02,35.667],[139.0,35.67],[138.993,35.676],[138.995,35.682],[138.983,35.689],[138.978,35.7],[138.968,35.705],[138.972,35.712],[138.966,35.721],[138.946,35.729],[138.943,35.734],[138.924,35.741],[138.916,35.739],[138.907,35.742],[138.887,35.74],[138.882,35.736],[138.868,35.734],[138.86,35.73],[138.855,35.715],[138.855,35.702],[138.86,35.689],[138.853,35.682],[138.847,35.673],[138.85,35.661],[138.851,35.649],[138.835,35.636],[138.83,35.629],[138.82,35.63],[138.815,35.622],[138.804,35.623],[138.794,35.617],[138.781,35.616],[138.779,35.61],[138.767,35.605],[138.774,35.593],[138.773,35.587],[138.785,35.586],[138.787,35.575],[138.793,35.57],[138.799,35.572],[138.811,35.576],[138.818,35.581],[138.838,35.584],[138.863,35.574],[138.898,35.582],[138.904,35.588],[138.914,35.59],[138.93,35.601],[138.94,35.605],[138.943,35.596],[138.95,35.592],[138.951,35.574],[138.957,35.569],[138.968,35.571],[138.974,35.575],[138.991,35.578],[138.997,35.581],[139.005,35.579]]]]}},{"type":"Feature","properties":{"name":"韮崎市","code":"19207"},"geometry":{"type":"MultiPolygon","coordinates":[[[[138.5,35.77],[138.489,35.767],[138.488,35.762],[138.477,35.753],[138.458,35.747],[138.449,35.736],[138.435,35.753],[138.427,35.768],[138.418,35.774],[138.41,35.767],[138.403,35.766],[138.4,35.773],[138.374,35.769],[138.366,35.765],[138.375,35.754],[138.352,35.746],[138.335,35.728],[138.333,35.721],[138.319,35.711],[138.312,35.71],[138.3,35.713],[138.309,35.699],[138.315,35.688],[138.316,35.681],[138.322,35.676],[138.337,35.672],[138.354,35.676],[138.357,35.684],[138.372,35.684],[138.398,35.672],[138.409,35.674],[138.422,35.665],[138.431,35.663],[138.447,35.666],[138.469,35.673],[138.48,35.673],[138.487,35.677],[138.481,35.679],[138.472,35.69],[138.465,35.703],[138.474,35.719],[138.489,35.714],[138.496,35.721],[138.502,35.722],[138.512,35.732],[138.511,35.739],[138.518,35.754],[138.52,35.767],[138.514,35.771],[138.5,35.77]]]]}},{"type":"Feature","properties":{"name":"南アルプス市","code":"19208"},"geometry":{"type":"MultiPolygon","coordinates":[[[[138.297,35.71],[138.288,35.71],[138.265,35.722],[138.263,35.727],[138.242,35.732],[138.234,35.738],[138.234,35.746],[138.23,35.753],[138.197,35.727],[138.182,35.718],[138.181,35.711],[138.191,35.702],[138.194,35.695],[138.193,35.672],[138.205,35.664],[138.208,35.656],[138.219,35.644],[138.228,35.646],[138.241,35.65],[138.255,35.646],[138.278,35.644],[138.285,35.646],[138.311,35.644],[138.316,35.636],[138.311,35.632],[138.315,35.625],[138.313,35.614],[138.309,35.607],[138.314,35.602],[138.328,35.61],[138.336,35.604],[138.339,35.591],[138.349,35.59],[138.369,35.586],[138.378,35.595],[138.383,35.591],[138.402,35.59],[138.408,35.594],[138.421,35.588],[138.422,35.582],[138.438,35.578],[138.451,35.581],[138.466,35.578],[138.475,35.573],[138.479,35.564],[138.496,35.573],[138.5,35.583],[138.505,35.586],[138.51,35.599],[138.507,35.612],[138.507,35.623],[138.511,35.623],[138.51,35.633],[138.506,35.633],[138.503,35.653],[138.498,35.671],[138.487,35.677],[138.48,35.673],[138.469,35.673],[138.447,35.666],[138.431,35.663],[138.422,35.665],[138.409,35.674],[138.398,35.672],[138.372,35.684],[138.357,35.684],[138.354,35.676],[138.337,35.672],[138.322,35.676],[138.316,35.681],[138.315,35.688],[138.309,35.699],[138.297,35.71]]]]}},{"type":"Feature","properties":{"name":"北杜市","code":"19209"},"geometry":{"type":"MultiPolygon","coordinates":[[[[138.622,35.87],[138.611,35.874],[138.607,35.878],[138.607,35.9],[138.612,35.909],[138.603,35.91],[138.592,35.918],[138.581,35.917],[138.577,35.911],[138.564,35.917],[138.554,35.919],[138.545,35.915],[138.529,35.915],[138.521,35.919],[138.506,35.919],[138.503,35.912],[138.495,35.911],[138.495,35.902],[138.49,35.896],[138.482,35.899],[138.472,35.896],[138.46,35.904],[138.454,35.903],[138.444,35.918],[138.448,35.929],[138.454,35.938],[138.451,35.945],[138.443,35.951],[138.424,35.959],[138.391,35.966],[138.382,35.971],[138.37,35.971],[138.362,35.963],[138.36,35.951],[138.352,35.948],[138.345,35.941],[138.342,35.926],[138.332,35.914],[138.324,35.902],[138.308,35.887],[138.293,35.867],[138.284,35.859],[138.273,35.865],[138.264,35.876],[138.249,35.886],[138.238,35.882],[138.233,35.876],[138.227,35.857],[138.213,35.837],[138.207,35.832],[138.203,35.823],[138.206,35.816],[138.188,35.8],[138.185,35.791],[138.191,35.784],[138.205,35.783],[138.225,35.766],[138.232,35.764],[138.237,35.758],[138.23,35.753],[138.234,35.746],[138.234,35.738],[138.242,35.732],[138.263,35.727],[138.265,35.722],[138.288,35.71],[138.297,35.71],[138.312,35.71],[138.319,35.711],[138.333,35.721],[138.335,35.728],[138.352,35.746],[138.375,35.754],[138.366,35.765],[138.374,35.769],[138.4,35.773],[138.403,35.766],[138.41,35.767],[138.418,35.774],[138.427,35.768],[138.435,35.753],[138.449,35.736],[138.458,35.747],[138.477,35.753],[138.488,35.762],[138.489,35.767],[138.5,35.77],[138.511,35.784],[138.514,35.798],[138.529,35.807],[138.538,35.802],[138.548,35.8],[138.549,35.807],[138.556,35.812],[138.556,35.828],[138.58,35.828],[138.585,35.831],[138.59,35.844],[138.594,35.848],[138.604,35.848],[138.609,35.86],[138.621,35.862],[138.622,35.87]]]]}},{"type":"Feature","properties":{"name":"甲斐市","code":"19210"},"geometry":{"type":"MultiPolygon","coordinates":[[[[138.548,35.8],[138.538,35.802],[138.529,35.807],[138.514,35.798],[138.511,35.784],[138.5,35.77],[138.514,35.771],[138.52,35.767],[138.518,35.754],[138.511,35.739],[138.512,35.732],[138.502,35.722],[138.496,35.721],[138.489,35.714],[138.474,35.719],[138.465,35.703],[138.472,35.69],[138.481,35.679],[138.487,35.677],[138.498,35.671],[138.503,35.653],[138.506,35.633],[138.51,35.633],[138.529,35.629],[138.528,35.638],[138.539,35.647],[138.531,35.664],[138.537,35.674],[138.536,35.68],[138.526,35.696],[138.525,35.707],[138.535,35.714],[138.543,35.713],[138.549,35.726],[138.561,35.733],[138.565,35.74],[138.561,35.747],[138.554,35.749],[138.555,35.759],[138.543,35.76],[138.54,35.773],[138.547,35.788],[138.55,35.792],[138.548,35.8]]]]}},{"type":"Feature","properties":{"name":"笛吹市","code":"19211"},"geometry":{"type":"MultiPolygon","coordinates":[[[[138.65,35.516],[138.677,35.52],[138.684,35.528],[138.694,35.534],[138.727,35.543],[138.732,35.547],[138.754,35.554],[138.765,35.559],[138.783,35.559],[138.792,35.561],[138.793,35.57],[138.787,35.575],[138.785,35.586],[138.773,35.587],[138.774,35.593],[138.767,35.605],[138.767,35.619],[138.756,35.62],[138.74,35.631],[138.738,35.636],[138.724,35.639],[138.718,35.648],[138.713,35.645],[138.713,35.663],[138.708,35.663],[138.679,35.661],[138.666,35.663],[138.672,35.674],[138.656,35.678],[138.642,35.685],[138.648,35.688],[138.617,35.712],[138.624,35.699],[138.62,35.692],[138.61,35.691],[138.622,35.67],[138.626,35.669],[138.628,35.659],[138.632,35.65],[138.61,35.641],[138.598,35.634],[138.599,35.618],[138.608,35.617],[138.609,35.604],[138.589,35.594],[138.589,35.589],[138.605,35.578],[138.617,35.575],[138.624,35.557],[138.617,35.548],[138.626,35.544],[138.632,35.535],[138.64,35.534],[138.642,35.526],[138.65,35.521],[138.65,35.516]]]]}},{"type":"Feature","properties":{"name":"上野原市","code":"19212"},"geometry":{"type":"MultiPolygon","coordinates":[[[[139.024,35.544],[139.057,35.547],[139.065,35.545],[139.078,35.549],[139.089,35.544],[139.112,35.55],[139.128,35.563],[139.128,35.581],[139.121,35.587],[139.129,35.595],[139.133,35.606],[139.128,35.613],[139.134,35.616],[139.123,35.624],[139.124,35.634],[139.127,35.642],[139.117,35.655],[139.131,35.672],[139.127,35.677],[139.106,35.691],[139.092,35.691],[139.082,35.696],[139.072,35.695],[139.039,35.711],[139.023,35.722],[139.012,35.739],[138.992,35.717],[138.972,35.712],[138.968,35.705],[138.978,35.7],[138.983,35.689],[138.995,35.682],[138.993,35.676],[139.0,35.67],[139.02,35.667],[139.025,35.654],[139.014,35.637],[139.021,35.633],[139.025,35.617],[139.044,35.612],[139.06,35.617],[139.064,35.616],[139.066,35.586],[139.04,35.584],[139.026,35.581],[139.02,35.584],[139.005,35.579],[139.007,35.572],[139.018,35.562],[139.018,35.554],[139.027,35.55],[139.024,35.544]]]]}},{"type":"Feature","properties":{"name":"甲州市","code":"19213"},"geometry":{"type":"MultiPolygon","coordinates":[[[[138.708,35.663],[138.713,35.663],[138.713,35.645],[138.718,35.648],[138.724,35.639],[138.738,35.636],[138.74,35.631],[138.756,35.62],[138.767,35.619],[138.767,35.605],[138.779,35.61],[138.781,35.616],[138.794,35.617],[138.804,35.623],[138.815,35.622],[138.82,35.63],[138.83,35.629],[138.835,35.636],[138.851,35.649],[138.85,35.661],[138.847,35.673],[138.853,35.682],[138.86,35.689],[138.855,35.702],[138.855,35.715],[138.86,35.73],[138.854,35.733],[138.852,35.741],[138.845,35.749],[138.828,35.755],[138.82,35.765],[138.817,35.777],[138.863,35.779],[138.868,35.783],[138.863,35.804],[138.857,35.807],[138.86,35.816],[138.851,35.824],[138.852,35.828],[138.861,35.832],[138.865,35.841],[138.862,35.847],[138.863,35.859],[138.857,35.865],[138.845,35.867],[138.832,35.862],[138.829,35.866],[138.814,35.862],[138.804,35.852],[138.803,35.841],[138.79,35.835],[138.785,35.825],[138.786,35.808],[138.784,35.794],[138.787,35.787],[138.774,35.789],[138.741,35.789],[138.739,35.784],[138.745,35.777],[138.742,35.764],[138.723,35.753],[138.721,35.742],[138.711,35.734],[138.712,35.728],[138.702,35.712],[138.713,35.708],[138.71,35.695],[138.716,35.686],[138.7,35.675],[138.707,35.67],[138.708,35.663]]]]}},{"type":"Feature","properties":{"name":"中央市","code":"19214"},"geometry":{"type":"MultiPolygon","coordinates":[[[[138.554,35.617],[138.544,35.619],[138.533,35.617],[138.532,35.61],[138.52,35.61],[138.516,35.623],[138.511,35.623],[138.507,35.623],[138.507,35.612],[138.51,35.599],[138.505,35.586],[138.5,35.583],[138.496,35.573],[138.525,35.577],[138.534,35.582],[138.543,35.577],[138.538,35.555],[138.559,35.547],[138.573,35.546],[138.574,35.55],[138.584,35.552],[138.584,35.558],[138.576,35.568],[138.576,35.572],[138.569,35.579],[138.56,35.583],[138.563,35.591],[138.559,35.605],[138.554,35.609],[138.554,35.617]]]]}},{"type":"Feature","properties":{"name":"西八代郡市川三郷町","code":"19346"},"geometry":{"type":"MultiPolygon","coordinates":[[[[138.584,35.552],[138.574,35.55],[138.573,35.546],[138.559,35.547],[138.538,35.555],[138.543,35.577],[138.534,35.582],[138.525,35.577],[138.496,35.573],[138.479,35.564],[138.475,35.553],[138.466,35.543],[138.465,35.536],[138.453,35.536],[138.452,35.524],[138.466,35.52],[138.468,35.512],[138.463,35.507],[138.447,35.499],[138.454,35.492],[138.455,35.486],[138.447,35.478],[138.448,35.468],[138.462,35.478],[138.464,35.484],[138.478,35.485],[138.499,35.499],[138.495,35.504],[138.505,35.51],[138.524,35.509],[138.526,35.515],[138.536,35.519],[138.557,35.515],[138.568,35.517],[138.595,35.519],[138.589,35.529],[138.59,35.537],[138.597,35.546],[138.584,35.552]]]]}},{"type":"Feature","properties":{"name":"南巨摩郡早川町","code":"19364"},"geometry":{"type":"MultiPolygon","coordinates":[[[[138.228,35.646],[138.232,35.64],[138.228,35.627],[138.236,35.622],[138.236,35.606],[138.241,35.605],[138.244,35.592],[138.239,35.587],[138.24,35.576],[138.245,35.569],[138.244,35.563],[138.252,35.556],[138.259,35.553],[138.26,35.543],[138.257,35.531],[138.263,35.527],[138.269,35.514],[138.26,35.506],[138.258,35.476],[138.253,35.466],[138.246,35.463],[138.244,35.454],[138.248,35.447],[138.255,35.445],[138.259,35.431],[138.258,35.407],[138.246,35.4],[138.246,35.391],[138.24,35.388],[138.232,35.371],[138.251,35.364],[138.251,35.358],[138.257,35.339],[138.249,35.332],[138.258,35.316],[138.27,35.314],[138.276,35.307],[138.285,35.304],[138.296,35.317],[138.303,35.317],[138.324,35.327],[138.336,35.326],[138.343,35.341],[138.343,35.35],[138.351,35.359],[138.372,35.349],[138.387,35.356],[138.394,35.365],[138.395,35.375],[138.393,35.388],[138.404,35.396],[138.417,35.398],[138.422,35.416],[138.41,35.422],[138.408,35.427],[138.397,35.434],[138.395,35.439],[138.38,35.449],[138.379,35.467],[138.384,35.478],[138.377,35.486],[138.37,35.488],[138.368,35.499],[138.361,35.504],[138.358,35.517],[138.354,35.522],[138.355,35.548],[138.332,35.552],[138.326,35.549],[138.325,35.561],[138.333,35.579],[138.349,35.59],[138.339,35.591],[138.336,35.604],[138.328,35.61],[138.314,35.602],[138.309,35.607],[138.313,35.614],[138.315,35.625],[138.311,35.632],[138.316,35.636],[138.311,35.644],[138.285,35.646],[138.278,35.644],[138.255,35.646],[138.241,35.65],[138.228,35.646]]]]}},{"type":"Feature","properties":{"name":"南巨摩郡身延町","code":"19365"},"geometry":{"type":"MultiPolygon","coordinates":[[[[138.595,35.519],[138.568,35.517],[138.557,35.515],[138.536,35.519],[138.526,35.515],[138.524,35.509],[138.505,35.51],[138.495,35.504],[138.499,35.499],[138.478,35.485],[138.464,35.484],[138.462,35.478],[138.448,35.468],[138.447,35.478],[138.455,35.486],[138.454,35.492],[138.447,35.499],[138.443,35.494],[138.428,35.5],[138.416,35.497],[138.404,35.489],[138.397,35.488],[138.393,35.482],[138.384,35.478],[138.379,35.467],[138.38,35.449],[138.395,35.439],[138.397,35.434],[138.408,35.427],[138.41,35.422],[138.422,35.416],[138.417,35.398],[138.404,35.396],[138.393,35.388],[138.395,35.375],[138.394,35.365],[138.387,35.356],[138.372,35.349],[138.351,35.359],[138.343,35.35],[138.343,35.341],[138.336,35.326],[138.343,35.318],[138.35,35.315],[138.358,35.318],[138.371,35.305],[138.372,35.299],[138.384,35.296],[138.405,35.3],[138.414,35.31],[138.42,35.308],[138.429,35.314],[138.45,35.316],[138.453,35.308],[138.475,35.309],[138.48,35.313],[138.482,35.323],[138.479,35.338],[138.482,35.345],[138.493,35.351],[138.496,35.359],[138.508,35.362],[138.508,35.368],[138.52,35.378],[138.528,35.379],[138.536,35.39],[138.531,35.402],[138.532,35.409],[138.546,35.417],[138.556,35.426],[138.559,35.434],[138.577,35.441],[138.582,35.446],[138.583,35.474],[138.596,35.483],[138.595,35.496],[138.602,35.505],[138.596,35.512],[138.595,35.519]]]]}},{"type":"Feature","properties":{"name":"南巨摩郡南部町","code":"19366"},"geometry":{"type":"MultiPolygon","coordinates":[[[[138.372,35.299],[138.367,35.29],[138.367,35.27],[138.378,35.254],[138.386,35.246],[138.392,35.225],[138.391,35.22],[138.394,35.208],[138.4,35.2],[138.408,35.203],[138.419,35.198],[138.431,35.18],[138.457,35.178],[138.461,35.179],[138.484,35.174],[138.491,35.168],[138.501,35.177],[138.506,35.186],[138.512,35.189],[138.517,35.199],[138.528,35.198],[138.533,35.201],[138.527,35.217],[138.532,35.223],[138.527,35.233],[138.521,35.255],[138.514,35.262],[138.52,35.271],[138.522,35.283],[138.516,35.296],[138.512,35.314],[138.525,35.322],[138.535,35.331],[138.535,35.341],[138.531,35.346],[138.531,35.376],[138.52,35.378],[138.508,35.368],[138.508,35.362],[138.496,35.359],[138.493,35.351],[138.482,35.345],[138.479,35.338],[138.482,35.323],[138.48,35.313],[138.475,35.309],[138.453,35.308],[138.45,35.316],[138.429,35.314],[138.42,35.308],[138.414,35.31],[138.405,35.3],[138.384,35.296],[138.372,35.299]]]]}},{"type":"Feature","properties":{"name":"南巨摩郡富士川町","code":"19368"},"geometry":{"type":"MultiPolygon","coordinates":[[[[138.349,35.59],[138.333,35.579],[138.325,35.561],[138.326,35.549],[138.332,35.552],[138.355,35.548],[138.354,35.522],[138.358,35.517],[138.361,35.504],[138.368,35.499],[138.37,35.488],[138.377,35.486],[138.384,35.478],[138.393,35.482],[138.397,35.488],[138.404,35.489],[138.416,35.497],[138.428,35.5],[138.443,35.494],[138.447,35.499],[138.463,35.507],[138.468,35.512],[138.466,35.52],[138.452,35.524],[138.453,35.536],[138.465,35.536],[138.466,35.543],[138.475,35.553],[138.479,35.564],[138.475,35.573],[138.466,35.578],[138.451,35.581],[138.438,35.578],[138.422,35.582],[138.421,35.588],[138.408,35.594],[138.402,35.59],[138.383,35.591],[138.378,35.595],[138.369,35.586],[138.349,35.59]]]]}},{"type":"Feature","properties":{"name":"中巨摩郡昭和町","code":"19384"},"geometry":{"type":"MultiPolygon","coordinates":[[[[138.539,35.647],[138.528,35.638],[138.529,35.629],[138.51,35.633],[138.511,35.623],[138.516,35.623],[138.52,35.61],[138.532,35.61],[138.533,35.617],[138.544,35.619],[138.554,35.617],[138.548,35.622],[138.551,35.631],[138.547,35.639],[138.553,35.644],[138.543,35.651],[138.539,35.647]]]]}},{"type":"Feature","properties":{"name":"南都留郡道志村","code":"19422"},"geometry":{"type":"MultiPolygon","coordinates":[[[[138.924,35.458],[138.937,35.449],[138.959,35.462],[138.979,35.464],[138.989,35.474],[139.008,35.475],[139.015,35.48],[139.028,35.481],[139.031,35.489],[139.037,35.491],[139.044,35.499],[139.046,35.51],[139.06,35.507],[139.069,35.511],[139.086,35.512],[139.094,35.522],[139.104,35.527],[139.114,35.538],[139.112,35.55],[139.089,35.544],[139.078,35.549],[139.065,35.545],[139.057,35.547],[139.026,35.543],[139.012,35.543],[139.006,35.539],[139.004,35.529],[138.998,35.524],[138.98,35.52],[138.974,35.521],[138.971,35.509],[138.967,35.505],[138.948,35.495],[138.94,35.494],[138.929,35.484],[138.929,35.474],[138.924,35.458]]]]}},{"type":"Feature","properties":{"name":"南都留郡西桂町","code":"19423"},"geometry":{"type":"MultiPolygon","coordinates":[[[[138.856,35.505],[138.853,35.523],[138.855,35.527],[138.865,35.532],[138.853,35.539],[138.847,35.545],[138.838,35.55],[138.833,35.548],[138.81,35.551],[138.803,35.546],[138.806,35.533],[138.818,35.532],[138.822,35.528],[138.834,35.526],[138.837,35.52],[138.833,35.511],[138.84,35.501],[138.856,35.505]]]]}},{"type":"Feature","properties":{"name":"南都留郡忍野村","code":"19424"},"geometry":{"type":"MultiPolygon","coordinates":[[[[138.806,35.456],[138.834,35.44],[138.847,35.446],[138.85,35.457],[138.865,35.45],[138.858,35.443],[138.864,35.437],[138.893,35.443],[138.901,35.45],[138.894,35.454],[138.884,35.471],[138.882,35.479],[138.877,35.486],[138.866,35.485],[138.846,35.471],[138.831,35.469],[138.817,35.476],[138.813,35.462],[138.806,35.456]]]]}},{"type":"Feature","properties":{"name":"南都留郡山中湖村","code":"19425"},"geometry":{"type":"MultiPolygon","coordinates":[[[[138.862,35.39],[138.873,35.382],[138.879,35.386],[138.888,35.386],[138.903,35.396],[138.916,35.401],[138.918,35.411],[138.926,35.415],[138.931,35.426],[138.927,35.438],[138.937,35.449],[138.924,35.458],[138.908,35.45],[138.901,35.45],[138.893,35.443],[138.864,35.437],[138.858,35.443],[138.865,35.45],[138.85,35.457],[138.847,35.446],[138.834,35.44],[138.806,35.456],[138.81,35.451],[138.809,35.439],[138.834,35.429],[138.829,35.412],[138.864,35.393],[138.862,35.39]]]]}},{"type":"Feature","properties":{"name":"南都留郡鳴沢村","code":"19429"},"geometry":{"type":"MultiPolygon","coordinates":[[[[138.75,35.442],[138.745,35.458],[138.732,35.463],[138.723,35.464],[138.726,35.476],[138.731,35.488],[138.717,35.495],[138.707,35.494],[138.694,35.488],[138.673,35.484],[138.665,35.478],[138.655,35.45],[138.659,35.443],[138.659,35.432],[138.664,35.421],[138.652,35.417],[138.644,35.401],[138.639,35.398],[138.663,35.398],[138.671,35.393],[138.681,35.358],[138.699,35.36],[138.7,35.363],[138.725,35.365],[138.731,35.363],[138.73,35.369],[138.733,35.394],[138.728,35.422],[138.75,35.442]]]]}},{"type":"Feature","properties":{"name":"南都留郡富士河口湖町","code":"19430"},"geometry":{"type":"MultiPolygon","coordinates":[[[[138.602,35.505],[138.595,35.496],[138.596,35.483],[138.583,35.474],[138.584,35.448],[138.589,35.437],[138.598,35.432],[138.609,35.393],[138.639,35.398],[138.644,35.401],[138.652,35.417],[138.664,35.421],[138.659,35.432],[138.659,35.443],[138.655,35.45],[138.665,35.478],[138.673,35.484],[138.694,35.488],[138.707,35.494],[138.717,35.495],[138.731,35.488],[138.726,35.476],[138.723,35.464],[138.732,35.463],[138.745,35.458],[138.75,35.442],[138.758,35.451],[138.763,35.471],[138.77,35.482],[138.771,35.493],[138.779,35.492],[138.781,35.503],[138.794,35.52],[138.802,35.525],[138.806,35.533],[138.803,35.546],[138.81,35.551],[138.801,35.558],[138.799,35.572],[138.793,35.57],[138.792,35.561],[138.783,35.559],[138.765,35.559],[138.754,35.554],[138.732,35.547],[138.727,35.543],[138.694,35.534],[138.684,35.528],[138.677,35.52],[138.65,35.516],[138.637,35.513],[138.621,35.502],[138.602,35.505]]]]}},{"type":"Feature","properties":{"name":"北都留郡小菅村","code":"19442"},"geometry":{"type":"MultiPolygon","coordinates":[[[[138.972,35.712],[138.992,35.717],[139.012,35.739],[139.005,35.75],[138.992,35.756],[138.984,35.769],[138.965,35.769],[138.95,35.77],[138.933,35.78],[138.92,35.77],[138.896,35.764],[138.891,35.767],[138.876,35.762],[138.875,35.755],[138.859,35.742],[138.852,35.741],[138.854,35.733],[138.86,35.73],[138.868,35.734],[138.882,35.736],[138.887,35.74],[138.907,35.742],[138.916,35.739],[138.924,35.741],[138.943,35.734],[138.946,35.729],[138.966,35.721],[138.972,35.712]]]]}},{"type":"Feature","properties":{"name":"北都留郡丹波山村","code":"19443"},"geometry":{"type":"MultiPolygon","coordinates":[[[[138.852,35.741],[138.859,35.742],[138.875,35.755],[138.876,35.762],[138.891,35.767],[138.896,35.764],[138.92,35.77],[138.933,35.78],[138.95,35.77],[138.965,35.769],[138.984,35.769],[138.986,35.782],[138.977,35.789],[138.97,35.805],[138.969,35.831],[138.962,35.83],[138.947,35.843],[138.945,35.854],[138.926,35.849],[138.911,35.853],[138.899,35.847],[138.892,35.84],[138.886,35.847],[138.88,35.847],[138.869,35.857],[138.863,35.859],[138.862,35.847],[138.865,35.841],[138.861,35.832],[138.852,35.828],[138.851,35.824],[138.86,35.816],[138.857,35.807],[138.863,35.804],[138.868,35.783],[138.863,35.779],[138.817,35.777],[138.82,35.765],[138.828,35.755],[138.845,35.749],[138.852,35.741]]]]}}]}