{"type":"FeatureCollection","features":[{"type":"Feature","properties":{"name":"長野市","code":"20201"},"geometry":{"type":"MultiPolygon","coordinates":[[[[138.14,36.748],[138.129,36.753],[138.122,36.762],[138.12,36.774],[138.125,36.783],[138.098,36.78],[138.095,36.801],[138.1,36.816],[138.089,36.83],[138.089,36.836],[138.081,36.83],[138.068,36.804],[138.052,36.8],[138.052,36.807],[138.034,36.809],[138.029,36.817],[138.017,36.819],[138.003,36.826],[137.989,36.812],[137.968,36.781],[137.968,36.771],[137.953,36.755],[137.953,36.748],[137.942,36.736],[137.934,36.725],[137.923,36.7],[137.915,36.694],[137.917,36.682],[137.91,36.662],[137.92,36.657],[137.945,36.672],[137.959,36.672],[138.004,36.66],[138.011,36.655],[138.0,36.639],[137.998,36.623],[138.003,36.614],[138.002,36.601],[137.986,36.597],[137.981,36.601],[137.963,36.604],[137.953,36.595],[137.942,36.595],[137.926,36.559],[137.918,36.55],[137.919,36.538],[137.94,36.517],[137.95,36.524],[137.967,36.517],[137.964,36.506],[137.956,36.501],[137.953,36.485],[137.951,36.48],[137.959,36.468],[137.977,36.461],[138.006,36.48],[138.039,36.488],[138.03,36.491],[138.035,36.511],[138.044,36.52],[138.046,36.54],[138.066,36.54],[138.081,36.544],[138.102,36.54],[138.115,36.542],[138.128,36.551],[138.133,36.558],[138.168,36.559],[138.171,36.549],[138.187,36.543],[138.199,36.523],[138.2,36.511],[138.22,36.508],[138.229,36.514],[138.239,36.509],[138.25,36.516],[138.266,36.513],[138.277,36.535],[138.294,36.532],[138.311,36.55],[138.311,36.559],[138.318,36.567],[138.307,36.573],[138.305,36.599],[138.289,36.613],[138.288,36.621],[138.268,36.637],[138.257,36.64],[138.283,36.688],[138.283,36.703],[138.29,36.715],[138.302,36.715],[138.311,36.721],[138.305,36.746],[138.294,36.746],[138.28,36.742],[138.262,36.742],[138.261,36.728],[138.252,36.719],[138.231,36.721],[138.216,36.709],[138.195,36.713],[138.179,36.722],[138.173,36.728],[138.14,36.74],[138.14,36.748]]]]}},{"type":"Feature","properties":{"name":"松本市","code":"20202"},"geometry":{"type":"MultiPolygon","coordinates":[[[[138.079,36.372],[138.072,36.371],[138.052,36.379],[138.048,36.377],[138.02,36.376],[137.999,36.371],[137.992,36.377],[137.98,36.376],[137.969,36.364],[137.956,36.359],[137.953,36.344],[137.958,36.341],[137.948,36.324],[137.958,36.317],[137.969,36.318],[137.978,36.305],[137.972,36.299],[137.956,36.294],[137.945,36.288],[137.93,36.26],[137.918,36.246],[137.885,36.243],[137.866,36.237],[137.847,36.239],[137.833,36.246],[137.794,36.241],[137.789,36.25],[137.798,36.26],[137.797,36.276],[137.788,36.284],[137.782,36.276],[137.745,36.275],[137.74,36.282],[137.726,36.288],[137.721,36.305],[137.728,36.321],[137.727,36.342],[137.701,36.365],[137.688,36.356],[137.681,36.338],[137.659,36.337],[137.646,36.341],[137.651,36.327],[137.647,36.296],[137.648,36.289],[137.629,36.278],[137.615,36.263],[137.606,36.249],[137.596,36.243],[137.583,36.22],[137.573,36.218],[137.575,36.204],[137.581,36.195],[137.595,36.19],[137.591,36.178],[137.591,36.164],[137.568,36.153],[137.555,36.138],[137.56,36.13],[137.551,36.11],[137.572,36.089],[137.593,36.081],[137.608,36.078],[137.614,36.06],[137.598,36.043],[137.599,36.026],[137.613,36.018],[137.633,36.027],[137.654,36.019],[137.668,36.01],[137.682,36.017],[137.704,36.01],[137.72,36.026],[137.723,36.034],[137.737,36.048],[137.736,36.07],[137.755,36.087],[137.764,36.088],[137.778,36.099],[137.794,36.13],[137.811,36.145],[137.83,36.16],[137.84,36.161],[137.846,36.17],[137.875,36.187],[137.89,36.19],[137.898,36.188],[137.901,36.175],[137.885,36.147],[137.892,36.141],[137.894,36.131],[137.924,36.164],[137.941,36.152],[137.947,36.17],[137.967,36.17],[137.969,36.15],[137.979,36.158],[137.999,36.153],[138.042,36.148],[138.046,36.161],[138.054,36.168],[138.078,36.157],[138.088,36.157],[138.104,36.164],[138.128,36.166],[138.131,36.177],[138.126,36.184],[138.126,36.201],[138.129,36.212],[138.12,36.219],[138.107,36.226],[138.102,36.237],[138.079,36.251],[138.083,36.262],[138.073,36.273],[138.072,36.287],[138.081,36.312],[138.072,36.322],[138.067,36.345],[138.078,36.361],[138.079,36.372]]]]}},{"type":"Feature","properties":{"name":"上田市","code":"20203"},"geometry":{"type":"MultiPolygon","coordinates":[[[[138.2,36.511],[138.202,36.501],[138.22,36.49],[138.231,36.48],[138.229,36.465],[138.241,36.457],[138.25,36.444],[138.249,36.433],[138.216,36.429],[138.211,36.426],[138.181,36.421],[138.166,36.417],[138.14,36.434],[138.129,36.438],[138.122,36.437],[138.114,36.434],[138.117,36.421],[138.115,36.404],[138.151,36.392],[138.149,36.383],[138.154,36.37],[138.144,36.354],[138.129,36.347],[138.131,36.335],[138.115,36.322],[138.108,36.328],[138.081,36.312],[138.072,36.287],[138.073,36.273],[138.083,36.262],[138.079,36.251],[138.102,36.237],[138.107,36.226],[138.12,36.219],[138.128,36.23],[138.155,36.224],[138.163,36.217],[138.175,36.219],[138.187,36.225],[138.221,36.224],[138.233,36.239],[138.234,36.247],[138.246,36.251],[138.244,36.278],[138.255,36.294],[138.263,36.297],[138.283,36.287],[138.283,36.307],[138.292,36.323],[138.299,36.319],[138.309,36.323],[138.319,36.334],[138.323,36.356],[138.311,36.359],[138.299,36.368],[138.297,36.38],[138.309,36.381],[138.327,36.395],[138.329,36.4],[138.345,36.407],[138.347,36.421],[138.358,36.431],[138.401,36.435],[138.403,36.452],[138.4,36.461],[138.401,36.481],[138.397,36.491],[138.406,36.507],[138.404,36.522],[138.414,36.533],[138.412,36.541],[138.382,36.555],[138.356,36.549],[138.352,36.541],[138.334,36.537],[138.324,36.546],[138.311,36.55],[138.294,36.532],[138.277,36.535],[138.266,36.513],[138.25,36.516],[138.239,36.509],[138.229,36.514],[138.22,36.508],[138.2,36.511]]]]}},{"type":"Feature","properties":{"name":"岡谷市","code":"20204"},"geometry":{"type":"MultiPolygon","coordinates":[[[[138.042,36.148],[138.042,36.14],[138.03,36.114],[138.029,36.086],[138.017,36.079],[138.013,36.07],[138.016,36.062],[138.007,36.053],[138.0,36.041],[137.997,36.023],[137.992,36.016],[138.019,36.011],[138.037,36.012],[138.052,36.021],[138.068,36.018],[138.079,36.029],[138.086,36.05],[138.075,36.061],[138.075,36.074],[138.069,36.096],[138.076,36.129],[138.084,36.125],[138.094,36.128],[138.098,36.138],[138.082,36.147],[138.088,36.157],[138.078,36.157],[138.054,36.168],[138.046,36.161],[138.042,36.148]]]]}},{"type":"Feature","properties":{"name":"飯田市","code":"20205"},"geometry":{"type":"MultiPolygon","coordinates":[[[[137.824,35.616],[137.817,35.637],[137.809,35.644],[137.801,35.656],[137.777,35.632],[137.76,35.628],[137.753,35.62],[137.737,35.613],[137.73,35.613],[137.715,35.599],[137.72,35.586],[137.698,35.576],[137.691,35.562],[137.694,35.554],[137.704,35.553],[137.718,35.521],[137.741,35.515],[137.741,35.501],[137.729,35.496],[137.731,35.486],[137.745,35.462],[137.753,35.456],[137.763,35.46],[137.76,35.44],[137.771,35.421],[137.797,35.427],[137.816,35.421],[137.839,35.409],[137.85,35.407],[137.867,35.397],[137.871,35.388],[137.887,35.386],[137.891,35.373],[137.914,35.357],[137.926,35.361],[137.924,35.345],[137.896,35.322],[137.885,35.324],[137.868,35.321],[137.853,35.324],[137.843,35.316],[137.86,35.311],[137.863,35.296],[137.879,35.294],[137.9,35.281],[137.896,35.273],[137.895,35.258],[137.919,35.254],[137.925,35.26],[137.929,35.275],[137.944,35.276],[137.952,35.283],[137.967,35.284],[137.973,35.293],[137.982,35.292],[137.992,35.302],[138.006,35.304],[138.019,35.301],[138.028,35.312],[138.026,35.32],[138.039,35.326],[138.037,35.333],[138.051,35.335],[138.061,35.347],[138.071,35.347],[138.087,35.338],[138.096,35.34],[138.1,35.354],[138.115,35.365],[138.129,35.365],[138.141,35.369],[138.153,35.398],[138.144,35.406],[138.135,35.408],[138.14,35.423],[138.122,35.429],[138.124,35.436],[138.12,35.455],[138.107,35.473],[138.095,35.475],[138.083,35.486],[138.07,35.481],[138.049,35.463],[138.039,35.458],[138.03,35.47],[138.02,35.475],[138.002,35.489],[137.991,35.493],[137.988,35.487],[137.988,35.481],[137.962,35.448],[137.964,35.442],[137.947,35.427],[137.94,35.433],[137.918,35.439],[137.913,35.445],[137.915,35.459],[137.887,35.468],[137.877,35.478],[137.883,35.497],[137.863,35.499],[137.863,35.512],[137.878,35.53],[137.867,35.534],[137.846,35.55],[137.834,35.551],[137.832,35.558],[137.819,35.567],[137.817,35.582],[137.824,35.594],[137.816,35.601],[137.824,35.616]]]]}},{"type":"Feature","properties":{"name":"諏訪市","code":"20206"},"geometry":{"type":"MultiPolygon","coordinates":[[[[138.037,36.012],[138.037,36.002],[138.045,36.0],[138.048,35.974],[138.046,35.965],[138.035,35.962],[138.044,35.954],[138.059,35.946],[138.074,35.95],[138.08,35.961],[138.087,35.96],[138.113,35.975],[138.116,35.986],[138.137,36.003],[138.135,36.01],[138.157,36.015],[138.159,36.028],[138.156,36.038],[138.173,36.056],[138.18,36.089],[138.191,36.091],[138.2,36.108],[138.19,36.116],[138.191,36.123],[138.166,36.123],[138.171,36.115],[138.171,36.103],[138.139,36.1],[138.138,36.088],[138.125,36.088],[138.129,36.077],[138.113,36.062],[138.086,36.05],[138.079,36.029],[138.068,36.018],[138.052,36.021],[138.037,36.012]]]]}},{"type":"Feature","properties":{"name":"須坂市","code":"20207"},"geometry":{"type":"MultiPolygon","coordinates":[[[[138.311,36.55],[138.324,36.546],[138.334,36.537],[138.352,36.541],[138.356,36.549],[138.382,36.555],[138.412,36.541],[138.429,36.556],[138.428,36.569],[138.42,36.577],[138.429,36.598],[138.442,36.611],[138.413,36.624],[138.411,36.628],[138.394,36.633],[138.388,36.644],[138.37,36.644],[138.346,36.648],[138.338,36.662],[138.331,36.682],[138.316,36.688],[138.283,36.688],[138.257,36.64],[138.268,36.637],[138.288,36.621],[138.289,36.613],[138.305,36.599],[138.307,36.573],[138.318,36.567],[138.311,36.559],[138.311,36.55]]]]}},{"type":"Feature","properties":{"name":"小諸市","code":"20208"},"geometry":{"type":"MultiPolygon","coordinates":[[[[138.507,36.414],[138.492,36.413],[138.489,36.401],[138.478,36.404],[138.46,36.405],[138.458,36.412],[138.444,36.398],[138.438,36.385],[138.412,36.371],[138.398,36.372],[138.385,36.36],[138.381,36.334],[138.367,36.333],[138.363,36.326],[138.373,36.317],[138.38,36.303],[138.386,36.298],[138.393,36.294],[138.407,36.297],[138.418,36.29],[138.417,36.282],[138.446,36.28],[138.469,36.294],[138.485,36.298],[138.477,36.31],[138.483,36.315],[138.48,36.334],[138.486,36.351],[138.462,36.355],[138.482,36.388],[138.493,36.392],[138.497,36.409],[138.507,36.414]]]]}},{"type":"Feature","properties":{"name":"伊那市","code":"20209"},"geometry":{"type":"MultiPolygon","coordinates":[[[[138.087,35.96],[138.091,35.948],[138.082,35.932],[138.064,35.915],[138.055,35.919],[138.047,35.916],[138.032,35.895],[137.989,35.878],[137.984,35.863],[137.973,35.854],[137.955,35.865],[137.947,35.85],[137.93,35.855],[137.914,35.856],[137.906,35.862],[137.94,35.864],[137.949,35.867],[137.953,35.876],[137.933,35.881],[137.939,35.894],[137.95,35.898],[137.927,35.906],[137.922,35.9],[137.909,35.897],[137.887,35.902],[137.877,35.888],[137.876,35.879],[137.887,35.866],[137.877,35.864],[137.866,35.871],[137.856,35.868],[137.847,35.858],[137.847,35.837],[137.837,35.823],[137.824,35.813],[137.828,35.806],[137.862,35.806],[137.868,35.804],[137.881,35.785],[137.924,35.779],[137.947,35.771],[137.96,35.778],[137.972,35.77],[137.98,35.781],[138.002,35.779],[138.023,35.772],[138.029,35.772],[138.045,35.761],[138.043,35.755],[138.052,35.74],[138.062,35.734],[138.064,35.708],[138.061,35.704],[138.077,35.694],[138.079,35.679],[138.086,35.673],[138.092,35.655],[138.102,35.647],[138.105,35.627],[138.101,35.615],[138.111,35.6],[138.126,35.593],[138.131,35.581],[138.146,35.576],[138.152,35.571],[138.162,35.581],[138.173,35.582],[138.184,35.573],[138.196,35.595],[138.206,35.608],[138.202,35.618],[138.203,35.632],[138.219,35.645],[138.208,35.656],[138.205,35.664],[138.193,35.672],[138.194,35.695],[138.181,35.711],[138.182,35.718],[138.197,35.727],[138.219,35.746],[138.237,35.758],[138.205,35.783],[138.198,35.782],[138.177,35.786],[138.172,35.801],[138.176,35.823],[138.181,35.833],[138.177,35.845],[138.189,35.858],[138.178,35.867],[138.181,35.889],[138.174,35.891],[138.169,35.917],[138.161,35.933],[138.147,35.943],[138.151,35.954],[138.125,35.971],[138.113,35.975],[138.087,35.96]]]]}},{"type":"Feature","properties":{"name":"駒ヶ根市","code":"20210"},"geometry":{"type":"MultiPolygon","coordinates":[[[[137.96,35.778],[137.959,35.761],[137.964,35.75],[137.911,35.75],[137.875,35.748],[137.86,35.748],[137.857,35.76],[137.847,35.76],[137.809,35.781],[137.814,35.753],[137.804,35.742],[137.805,35.726],[137.817,35.717],[137.825,35.712],[137.851,35.703],[137.858,35.705],[137.879,35.694],[137.912,35.706],[137.934,35.701],[137.952,35.7],[137.955,35.692],[137.978,35.685],[137.986,35.676],[137.998,35.68],[138.013,35.673],[138.027,35.675],[138.035,35.667],[138.044,35.675],[138.043,35.691],[138.047,35.699],[138.061,35.704],[138.064,35.708],[138.062,35.734],[138.052,35.74],[138.043,35.755],[138.045,35.761],[138.029,35.772],[138.023,35.772],[138.002,35.779],[137.98,35.781],[137.972,35.77],[137.96,35.778]]]]}},{"type":"Feature","properties":{"name":"中野市","code":"20211"},"geometry":{"type":"MultiPolygon","coordinates":[[[[138.311,36.721],[138.331,36.725],[138.344,36.716],[138.341,36.707],[138.348,36.697],[138.356,36.695],[138.368,36.704],[138.395,36.696],[138.406,36.699],[138.392,36.721],[138.394,36.735],[138.389,36.74],[138.398,36.762],[138.387,36.774],[138.405,36.791],[138.404,36.799],[138.395,36.81],[138.398,36.827],[138.384,36.828],[138.364,36.838],[138.354,36.823],[138.359,36.809],[138.354,36.804],[138.325,36.806],[138.318,36.818],[138.308,36.818],[138.301,36.832],[138.294,36.839],[138.276,36.837],[138.281,36.817],[138.28,36.792],[138.3,36.788],[138.3,36.774],[138.304,36.764],[138.294,36.746],[138.305,36.746],[138.311,36.721]]]]}},{"type":"Feature","properties":{"name":"大町市","code":"20212"},"geometry":{"type":"MultiPolygon","coordinates":[[[[137.942,36.595],[137.928,36.6],[137.928,36.606],[137.914,36.619],[137.919,36.635],[137.909,36.649],[137.896,36.64],[137.883,36.639],[137.868,36.633],[137.868,36.62],[137.837,36.622],[137.834,36.614],[137.823,36.614],[137.824,36.624],[137.817,36.635],[137.804,36.642],[137.799,36.649],[137.769,36.657],[137.761,36.665],[137.751,36.627],[137.744,36.613],[137.753,36.594],[137.748,36.587],[137.725,36.587],[137.713,36.577],[137.688,36.562],[137.689,36.554],[137.685,36.538],[137.709,36.533],[137.703,36.525],[137.705,36.518],[137.669,36.509],[137.666,36.493],[137.652,36.488],[137.651,36.48],[137.657,36.47],[137.655,36.459],[137.645,36.455],[137.64,36.446],[137.633,36.425],[137.609,36.418],[137.605,36.403],[137.592,36.39],[137.587,36.39],[137.587,36.372],[137.619,36.364],[137.635,36.343],[137.646,36.341],[137.659,36.337],[137.681,36.338],[137.688,36.356],[137.701,36.365],[137.709,36.377],[137.706,36.385],[137.715,36.398],[137.711,36.411],[137.727,36.425],[137.747,36.418],[137.754,36.411],[137.78,36.414],[137.793,36.421],[137.807,36.424],[137.808,36.439],[137.804,36.447],[137.816,36.452],[137.82,36.442],[137.844,36.446],[137.856,36.437],[137.869,36.441],[137.877,36.439],[137.893,36.449],[137.887,36.474],[137.898,36.476],[137.926,36.471],[137.947,36.489],[137.953,36.485],[137.956,36.501],[137.964,36.506],[137.967,36.517],[137.95,36.524],[137.94,36.517],[137.919,36.538],[137.918,36.55],[137.926,36.559],[137.942,36.595]]]]}},{"type":"Feature","properties":{"name":"飯山市","code":"20213"},"geometry":{"type":"MultiPolygon","coordinates":[[[[138.384,36.828],[138.391,36.838],[138.384,36.851],[138.396,36.853],[138.407,36.875],[138.422,36.872],[138.446,36.875],[138.462,36.883],[138.441,36.897],[138.437,36.907],[138.429,36.909],[138.426,36.922],[138.418,36.931],[138.422,36.946],[138.434,36.948],[138.432,36.955],[138.442,36.959],[138.462,36.977],[138.485,36.977],[138.494,36.98],[138.491,36.987],[138.496,36.998],[138.511,37.007],[138.518,37.017],[138.52,37.028],[138.501,37.025],[138.492,37.02],[138.468,37.018],[138.455,37.02],[138.431,37.006],[138.412,37.002],[138.394,36.995],[138.379,36.98],[138.364,36.953],[138.365,36.944],[138.358,36.934],[138.343,36.921],[138.329,36.927],[138.318,36.925],[138.296,36.911],[138.29,36.897],[138.299,36.887],[138.289,36.868],[138.296,36.858],[138.288,36.846],[138.275,36.841],[138.276,36.837],[138.294,36.839],[138.301,36.832],[138.308,36.818],[138.318,36.818],[138.325,36.806],[138.354,36.804],[138.359,36.809],[138.354,36.823],[138.364,36.838],[138.384,36.828]]]]}},{"type":"Feature","properties":{"name":"茅野市","code":"20214"},"geometry":{"type":"MultiPolygon","coordinates":[[[[138.113,35.975],[138.125,35.971],[138.151,35.954],[138.147,35.943],[138.161,35.933],[138.169,35.917],[138.185,35.94],[138.19,35.935],[138.201,35.94],[138.219,35.941],[138.2,35.954],[138.194,35.953],[138.18,35.968],[138.183,35.975],[138.213,35.976],[138.214,35.985],[138.231,35.985],[138.247,35.981],[138.309,35.976],[138.319,35.973],[138.349,35.974],[138.37,35.971],[138.375,35.983],[138.372,35.995],[138.365,36.003],[138.362,36.017],[138.353,36.047],[138.346,36.061],[138.334,36.069],[138.334,36.085],[138.328,36.091],[138.326,36.108],[138.321,36.112],[138.302,36.111],[138.287,36.09],[138.275,36.086],[138.267,36.091],[138.247,36.095],[138.248,36.101],[138.235,36.11],[138.217,36.105],[138.2,36.108],[138.191,36.091],[138.18,36.089],[138.173,36.056],[138.156,36.038],[138.159,36.028],[138.157,36.015],[138.135,36.01],[138.137,36.003],[138.116,35.986],[138.113,35.975]]]]}},{"type":"Feature","properties":{"name":"塩尻市","code":"20215"},"geometry":{"type":"MultiPolygon","coordinates":[[[[137.894,36.131],[137.9,36.124],[137.872,36.1],[137.871,36.094],[137.859,36.088],[137.852,36.076],[137.841,36.072],[137.839,36.065],[137.827,36.055],[137.815,36.054],[137.81,36.038],[137.808,36.016],[137.809,35.998],[137.805,35.98],[137.807,35.973],[137.795,35.96],[137.802,35.936],[137.801,35.926],[137.807,35.915],[137.805,35.899],[137.815,35.888],[137.816,35.879],[137.807,35.87],[137.804,35.85],[137.81,35.848],[137.809,35.831],[137.816,35.829],[137.824,35.813],[137.837,35.823],[137.847,35.837],[137.847,35.858],[137.856,35.868],[137.857,35.877],[137.847,35.89],[137.851,35.906],[137.858,35.912],[137.852,35.924],[137.835,35.928],[137.829,35.938],[137.831,35.948],[137.846,35.958],[137.851,35.968],[137.861,35.971],[137.871,35.982],[137.881,36.002],[137.889,36.005],[137.905,36.018],[137.899,36.025],[137.906,36.035],[137.915,36.035],[137.927,36.042],[137.928,36.049],[137.938,36.053],[137.939,36.062],[137.95,36.064],[137.95,36.055],[137.959,36.054],[137.98,36.044],[138.001,36.055],[138.007,36.053],[138.016,36.062],[138.013,36.07],[138.017,36.079],[138.029,36.086],[138.03,36.114],[138.042,36.14],[138.042,36.148],[137.999,36.153],[137.979,36.158],[137.969,36.15],[137.967,36.17],[137.947,36.17],[137.941,36.152],[137.924,36.164],[137.894,36.131]]]]}},{"type":"Feature","properties":{"name":"佐久市","code":"20217"},"geometry":{"type":"MultiPolygon","coordinates":[[[[138.386,36.298],[138.379,36.291],[138.368,36.3],[138.342,36.292],[138.338,36.273],[138.339,36.262],[138.331,36.254],[138.315,36.245],[138.304,36.233],[138.295,36.207],[138.282,36.178],[138.28,36.165],[138.283,36.15],[138.302,36.127],[138.302,36.111],[138.321,36.112],[138.326,36.108],[138.343,36.122],[138.354,36.12],[138.379,36.139],[138.397,36.146],[138.409,36.155],[138.419,36.156],[138.433,36.167],[138.449,36.165],[138.472,36.169],[138.484,36.179],[138.497,36.168],[138.528,36.168],[138.564,36.171],[138.577,36.168],[138.581,36.176],[138.595,36.166],[138.637,36.175],[138.623,36.197],[138.636,36.207],[138.633,36.216],[138.622,36.215],[138.612,36.229],[138.612,36.241],[138.602,36.25],[138.606,36.267],[138.6,36.278],[138.58,36.282],[138.558,36.28],[138.542,36.286],[138.525,36.283],[138.514,36.298],[138.501,36.296],[138.497,36.303],[138.485,36.303],[138.483,36.315],[138.477,36.31],[138.485,36.298],[138.469,36.294],[138.446,36.28],[138.417,36.282],[138.418,36.29],[138.407,36.297],[138.393,36.294],[138.386,36.298]]]]}},{"type":"Feature","properties":{"name":"千曲市","code":"20218"},"geometry":{"type":"MultiPolygon","coordinates":[[[[138.039,36.488],[138.046,36.495],[138.073,36.49],[138.076,36.48],[138.085,36.475],[138.102,36.468],[138.106,36.459],[138.118,36.449],[138.122,36.437],[138.129,36.438],[138.135,36.447],[138.161,36.456],[138.169,36.464],[138.176,36.486],[138.2,36.495],[138.202,36.501],[138.2,36.511],[138.199,36.523],[138.187,36.543],[138.171,36.549],[138.168,36.559],[138.133,36.558],[138.128,36.551],[138.115,36.542],[138.102,36.54],[138.081,36.544],[138.066,36.54],[138.046,36.54],[138.044,36.52],[138.035,36.511],[138.03,36.491],[138.039,36.488]]]]}},{"type":"Feature","properties":{"name":"東御市","code":"20219"},"geometry":{"type":"MultiPolygon","coordinates":[[[[138.299,36.319],[138.295,36.309],[138.324,36.307],[138.331,36.321],[138.341,36.316],[138.337,36.307],[138.342,36.292],[138.368,36.3],[138.379,36.291],[138.386,36.298],[138.38,36.303],[138.373,36.317],[138.363,36.326],[138.367,36.333],[138.381,36.334],[138.385,36.36],[138.398,36.372],[138.412,36.371],[138.438,36.385],[138.444,36.398],[138.458,36.412],[138.457,36.42],[138.442,36.423],[138.401,36.435],[138.358,36.431],[138.347,36.421],[138.345,36.407],[138.329,36.4],[138.327,36.395],[138.309,36.381],[138.297,36.38],[138.299,36.368],[138.311,36.359],[138.323,36.356],[138.319,36.334],[138.309,36.323],[138.299,36.319]]]]}},{"type":"Feature","properties":{"name":"安曇野市","code":"20220"},"geometry":{"type":"MultiPolygon","coordinates":[[[[137.992,36.377],[137.973,36.404],[137.957,36.395],[137.95,36.384],[137.935,36.385],[137.926,36.392],[137.929,36.403],[137.925,36.412],[137.913,36.407],[137.902,36.39],[137.908,36.371],[137.888,36.364],[137.872,36.379],[137.853,36.394],[137.836,36.383],[137.825,36.391],[137.8,36.395],[137.791,36.392],[137.775,36.397],[137.77,36.392],[137.755,36.402],[137.754,36.411],[137.747,36.418],[137.727,36.425],[137.711,36.411],[137.715,36.398],[137.706,36.385],[137.709,36.377],[137.701,36.365],[137.727,36.342],[137.728,36.321],[137.721,36.305],[137.726,36.288],[137.74,36.282],[137.745,36.275],[137.782,36.276],[137.788,36.284],[137.797,36.276],[137.798,36.26],[137.789,36.25],[137.794,36.241],[137.833,36.246],[137.847,36.239],[137.866,36.237],[137.885,36.243],[137.918,36.246],[137.93,36.26],[137.945,36.288],[137.956,36.294],[137.972,36.299],[137.978,36.305],[137.969,36.318],[137.958,36.317],[137.948,36.324],[137.958,36.341],[137.953,36.344],[137.956,36.359],[137.969,36.364],[137.98,36.376],[137.992,36.377]]]]}},{"type":"Feature","properties":{"name":"南佐久郡小海町","code":"20303"},"geometry":{"type":"MultiPolygon","coordinates":[[[[138.362,36.017],[138.386,36.017],[138.407,36.024],[138.445,36.024],[138.465,36.042],[138.468,36.053],[138.479,36.049],[138.491,36.038],[138.492,36.048],[138.505,36.06],[138.516,36.073],[138.525,36.071],[138.543,36.076],[138.561,36.075],[138.572,36.084],[138.583,36.087],[138.582,36.097],[138.564,36.101],[138.545,36.113],[138.531,36.109],[138.511,36.113],[138.505,36.103],[138.493,36.107],[138.482,36.106],[138.472,36.123],[138.467,36.124],[138.454,36.106],[138.443,36.102],[138.425,36.086],[138.409,36.079],[138.402,36.072],[138.381,36.064],[138.366,36.067],[138.367,36.054],[138.353,36.047],[138.362,36.017]]]]}},{"type":"Feature","properties":{"name":"南佐久郡川上村","code":"20304"},"geometry":{"type":"MultiPolygon","coordinates":[[[[138.689,35.992],[138.659,35.993],[138.647,35.987],[138.628,35.989],[138.624,35.993],[138.601,35.991],[138.592,35.995],[138.567,35.992],[138.558,35.995],[138.539,35.991],[138.534,35.985],[138.523,35.986],[138.517,35.977],[138.507,35.989],[138.5,35.986],[138.507,35.968],[138.486,35.958],[138.49,35.926],[138.498,35.911],[138.506,35.919],[138.521,35.919],[138.529,35.915],[138.545,35.915],[138.554,35.919],[138.577,35.911],[138.592,35.918],[138.603,35.91],[138.607,35.9],[138.607,35.878],[138.611,35.874],[138.634,35.87],[138.656,35.876],[138.676,35.87],[138.686,35.894],[138.708,35.91],[138.724,35.908],[138.739,35.929],[138.739,35.939],[138.731,35.945],[138.726,35.958],[138.711,35.971],[138.713,35.985],[138.689,35.992]]]]}},{"type":"Feature","properties":{"name":"南佐久郡南牧村","code":"20305"},"geometry":{"type":"MultiPolygon","coordinates":[[[[138.37,35.971],[138.424,35.959],[138.443,35.951],[138.454,35.938],[138.444,35.918],[138.454,35.903],[138.472,35.896],[138.49,35.896],[138.498,35.911],[138.49,35.926],[138.486,35.958],[138.507,35.968],[138.5,35.986],[138.507,35.989],[138.517,35.977],[138.523,35.986],[138.534,35.985],[138.539,35.991],[138.558,35.995],[138.554,36.006],[138.535,36.018],[138.511,36.024],[138.502,36.03],[138.503,36.039],[138.491,36.038],[138.479,36.049],[138.468,36.053],[138.465,36.042],[138.445,36.024],[138.407,36.024],[138.386,36.017],[138.362,36.017],[138.365,36.003],[138.372,35.995],[138.375,35.983],[138.37,35.971]]]]}},{"type":"Feature","properties":{"name":"南佐久郡南相木村","code":"20306"},"geometry":{"type":"MultiPolygon","coordinates":[[[[138.491,36.038],[138.503,36.039],[138.502,36.03],[138.511,36.024],[138.535,36.018],[138.554,36.006],[138.558,35.995],[138.567,35.992],[138.592,35.995],[138.601,35.991],[138.624,35.993],[138.628,35.989],[138.647,35.987],[138.659,35.993],[138.689,35.992],[138.68,36.012],[138.662,36.012],[138.631,36.028],[138.589,36.034],[138.564,36.04],[138.561,36.046],[138.544,36.046],[138.53,36.055],[138.505,36.06],[138.492,36.048],[138.491,36.038]]]]}},{"type":"Feature","properties":{"name":"南佐久郡北相木村","code":"20307"},"geometry":{"type":"MultiPolygon","coordinates":[[[[138.505,36.06],[138.53,36.055],[138.544,36.046],[138.561,36.046],[138.564,36.04],[138.589,36.034],[138.631,36.028],[138.644,36.05],[138.643,36.069],[138.63,36.086],[138.631,36.091],[138.626,36.095],[138.6,36.098],[138.582,36.097],[138.583,36.087],[138.572,36.084],[138.561,36.075],[138.543,36.076],[138.525,36.071],[138.516,36.073],[138.505,36.06]]]]}},{"type":"Feature","properties":{"name":"南佐久郡佐久穂町","code":"20309"},"geometry":{"type":"MultiPolygon","coordinates":[[[[138.353,36.047],[138.367,36.054],[138.366,36.067],[138.381,36.064],[138.402,36.072],[138.409,36.079],[138.425,36.086],[138.443,36.102],[138.454,36.106],[138.467,36.124],[138.472,36.123],[138.482,36.106],[138.493,36.107],[138.505,36.103],[138.511,36.113],[138.531,36.109],[138.545,36.113],[138.564,36.101],[138.582,36.097],[138.6,36.098],[138.626,36.095],[138.631,36.091],[138.645,36.099],[138.646,36.11],[138.634,36.134],[138.622,36.132],[138.601,36.136],[138.593,36.153],[138.577,36.168],[138.564,36.171],[138.528,36.168],[138.497,36.168],[138.484,36.179],[138.472,36.169],[138.449,36.165],[138.433,36.167],[138.419,36.156],[138.409,36.155],[138.397,36.146],[138.379,36.139],[138.354,36.12],[138.343,36.122],[138.326,36.108],[138.328,36.091],[138.334,36.085],[138.334,36.069],[138.346,36.061],[138.353,36.047]]]]}},{"type":"Feature","properties":{"name":"北佐久郡軽井沢町","code":"20321"},"geometry":{"type":"MultiPolygon","coordinates":[[[[138.6,36.278],[138.613,36.286],[138.631,36.288],[138.645,36.295],[138.654,36.303],[138.648,36.314],[138.653,36.324],[138.65,36.352],[138.657,36.369],[138.65,36.379],[138.652,36.395],[138.647,36.411],[138.637,36.417],[138.627,36.416],[138.608,36.423],[138.59,36.424],[138.573,36.419],[138.555,36.418],[138.541,36.403],[138.52,36.407],[138.508,36.395],[138.514,36.37],[138.515,36.357],[138.523,36.343],[138.52,36.331],[138.54,36.327],[138.552,36.328],[138.552,36.311],[138.575,36.293],[138.58,36.282],[138.6,36.278]]]]}},{"type":"Feature","properties":{"name":"北佐久郡御代田町","code":"20323"},"geometry":{"type":"MultiPolygon","coordinates":[[[[138.483,36.315],[138.485,36.303],[138.497,36.303],[138.501,36.296],[138.514,36.298],[138.525,36.283],[138.542,36.286],[138.558,36.28],[138.58,36.282],[138.575,36.293],[138.552,36.311],[138.552,36.328],[138.54,36.327],[138.52,36.331],[138.523,36.343],[138.515,36.357],[138.514,36.37],[138.508,36.395],[138.52,36.407],[138.507,36.414],[138.497,36.409],[138.493,36.392],[138.482,36.388],[138.462,36.355],[138.486,36.351],[138.48,36.334],[138.483,36.315]]]]}},{"type":"Feature","properties":{"name":"北佐久郡立科町","code":"20324"},"geometry":{"type":"MultiPolygon","coordinates":[[[[138.283,36.287],[138.288,36.267],[138.288,36.258],[138.299,36.246],[138.283,36.22],[138.283,36.185],[138.277,36.164],[138.276,36.151],[138.261,36.132],[138.235,36.11],[138.248,36.101],[138.247,36.095],[138.267,36.091],[138.275,36.086],[138.287,36.09],[138.302,36.111],[138.302,36.127],[138.283,36.15],[138.28,36.165],[138.282,36.178],[138.295,36.207],[138.304,36.233],[138.315,36.245],[138.331,36.254],[138.339,36.262],[138.338,36.273],[138.342,36.292],[138.337,36.307],[138.341,36.316],[138.331,36.321],[138.324,36.307],[138.295,36.309],[138.299,36.319],[138.292,36.323],[138.283,36.307],[138.283,36.287]]]]}},{"type":"Feature","properties":{"name":"小県郡青木村","code":"20349"},"geometry":{"type":"MultiPolygon","coordinates":[[[[138.081,36.312],[138.108,36.328],[138.115,36.322],[138.131,36.335],[138.129,36.347],[138.144,36.354],[138.154,36.37],[138.149,36.383],[138.151,36.392],[138.115,36.404],[138.097,36.407],[138.072,36.405],[138.064,36.399],[138.073,36.379],[138.079,36.372],[138.078,36.361],[138.067,36.345],[138.072,36.322],[138.081,36.312]]]]}},{"type":"Feature","properties":{"name":"小県郡長和町","code":"20350"},"geometry":{"type":"MultiPolygon","coordinates":[[[[138.128,36.166],[138.134,36.163],[138.135,36.148],[138.147,36.144],[138.155,36.13],[138.166,36.123],[138.191,36.123],[138.19,36.116],[138.2,36.108],[138.217,36.105],[138.235,36.11],[138.261,36.132],[138.276,36.151],[138.277,36.164],[138.283,36.185],[138.283,36.22],[138.299,36.246],[138.288,36.258],[138.288,36.267],[138.283,36.287],[138.263,36.297],[138.255,36.294],[138.244,36.278],[138.246,36.251],[138.234,36.247],[138.233,36.239],[138.221,36.224],[138.187,36.225],[138.175,36.219],[138.163,36.217],[138.155,36.224],[138.128,36.23],[138.12,36.219],[138.129,36.212],[138.126,36.201],[138.126,36.184],[138.131,36.177],[138.128,36.166]]]]}},{"type":"Feature","properties":{"name":"諏訪郡下諏訪町","code":"20361"},"geometry":{"type":"MultiPolygon","coordinates":[[[[138.088,36.157],[138.082,36.147],[138.098,36.138],[138.094,36.128],[138.084,36.125],[138.076,36.129],[138.069,36.096],[138.075,36.074],[138.075,36.061],[138.086,36.05],[138.113,36.062],[138.129,36.077],[138.125,36.088],[138.138,36.088],[138.139,36.1],[138.171,36.103],[138.171,36.115],[138.166,36.123],[138.155,36.13],[138.147,36.144],[138.135,36.148],[138.134,36.163],[138.128,36.166],[138.104,36.164],[138.088,36.157]]]]}},{"type":"Feature","properties":{"name":"諏訪郡富士見町","code":"20362"},"geometry":{"type":"MultiPolygon","coordinates":[[[[138.198,35.782],[138.185,35.791],[138.188,35.8],[138.206,35.816],[138.203,35.823],[138.227,35.857],[138.233,35.876],[138.249,35.886],[138.264,35.876],[138.273,35.865],[138.284,35.859],[138.293,35.867],[138.308,35.887],[138.324,35.902],[138.342,35.926],[138.345,35.941],[138.36,35.951],[138.36,35.957],[138.322,35.963],[138.307,35.966],[138.289,35.963],[138.271,35.95],[138.252,35.946],[138.233,35.931],[138.219,35.941],[138.201,35.94],[138.19,35.935],[138.185,35.94],[138.169,35.917],[138.174,35.891],[138.181,35.889],[138.178,35.867],[138.189,35.858],[138.177,35.845],[138.181,35.833],[138.176,35.823],[138.172,35.801],[138.177,35.786],[138.198,35.782]]]]}},{"type":"Feature","properties":{"name":"諏訪郡原村","code":"20363"},"geometry":{"type":"MultiPolygon","coordinates":[[[[138.219,35.941],[138.233,35.931],[138.252,35.946],[138.271,35.95],[138.289,35.963],[138.307,35.966],[138.322,35.963],[138.36,35.957],[138.37,35.971],[138.349,35.974],[138.319,35.973],[138.309,35.976],[138.247,35.981],[138.231,35.985],[138.214,35.985],[138.213,35.976],[138.183,35.975],[138.18,35.968],[138.194,35.953],[138.2,35.954],[138.219,35.941]]]]}},{"type":"Feature","properties":{"name":"上伊那郡辰野町","code":"20382"},"geometry":{"type":"MultiPolygon","coordinates":[[[[138.007,36.053],[138.001,36.055],[137.98,36.044],[137.959,36.054],[137.95,36.055],[137.95,36.064],[137.939,36.062],[137.938,36.053],[137.928,36.049],[137.927,36.042],[137.915,36.035],[137.906,36.035],[137.899,36.025],[137.905,36.018],[137.889,36.005],[137.881,36.002],[137.871,35.982],[137.861,35.971],[137.851,35.968],[137.846,35.958],[137.831,35.948],[137.829,35.938],[137.835,35.928],[137.852,35.924],[137.858,35.912],[137.877,35.913],[137.879,35.922],[137.887,35.926],[137.898,35.933],[137.91,35.934],[137.941,35.956],[137.969,35.942],[137.993,35.951],[138.003,35.951],[138.017,35.944],[138.032,35.956],[138.035,35.962],[138.046,35.965],[138.048,35.974],[138.045,36.0],[138.037,36.002],[138.037,36.012],[138.019,36.011],[137.992,36.016],[137.997,36.023],[138.0,36.041],[138.007,36.053]]]]}},{"type":"Feature","properties":{"name":"上伊那郡箕輪町","code":"20383"},"geometry":{"type":"MultiPolygon","coordinates":[[[[138.035,35.962],[138.032,35.956],[138.017,35.944],[138.003,35.951],[137.993,35.951],[137.969,35.942],[137.941,35.956],[137.91,35.934],[137.898,35.933],[137.887,35.926],[137.923,35.905],[137.927,35.906],[137.95,35.898],[137.987,35.895],[137.989,35.878],[138.032,35.895],[138.047,35.916],[138.055,35.919],[138.064,35.915],[138.082,35.932],[138.091,35.948],[138.087,35.96],[138.08,35.961],[138.074,35.95],[138.059,35.946],[138.044,35.954],[138.035,35.962]]]]}},{"type":"Feature","properties":{"name":"上伊那郡飯島町","code":"20384"},"geometry":{"type":"MultiPolygon","coordinates":[[[[137.809,35.644],[137.821,35.644],[137.831,35.639],[137.843,35.652],[137.865,35.648],[137.868,35.64],[137.887,35.636],[137.899,35.64],[137.915,35.643],[137.925,35.659],[137.937,35.653],[137.945,35.654],[137.954,35.674],[137.966,35.668],[137.973,35.685],[137.978,35.685],[137.955,35.692],[137.952,35.7],[137.934,35.701],[137.912,35.706],[137.879,35.694],[137.858,35.705],[137.851,35.703],[137.825,35.712],[137.817,35.717],[137.812,35.702],[137.814,35.692],[137.803,35.681],[137.805,35.674],[137.801,35.656],[137.809,35.644]]]]}},{"type":"Feature","properties":{"name":"上伊那郡南箕輪村","code":"20385"},"geometry":{"type":"MultiPolygon","coordinates":[[[[137.989,35.878],[137.987,35.895],[137.95,35.898],[137.939,35.894],[137.933,35.881],[137.953,35.876],[137.949,35.867],[137.94,35.864],[137.906,35.862],[137.914,35.856],[137.93,35.855],[137.947,35.85],[137.955,35.865],[137.973,35.854],[137.984,35.863],[137.989,35.878]]],[[[137.927,35.906],[137.923,35.905],[137.887,35.926],[137.879,35.922],[137.877,35.913],[137.858,35.912],[137.851,35.906],[137.847,35.89],[137.857,35.877],[137.856,35.868],[137.866,35.871],[137.877,35.864],[137.887,35.866],[137.876,35.879],[137.877,35.888],[137.887,35.902],[137.909,35.897],[137.922,35.9],[137.927,35.906]]]]}},{"type":"Feature","properties":{"name":"上伊那郡中川村","code":"20386"},"geometry":{"type":"MultiPolygon","coordinates":[[[[137.978,35.685],[137.973,35.685],[137.966,35.668],[137.954,35.674],[137.945,35.654],[137.937,35.653],[137.925,35.659],[137.915,35.643],[137.899,35.64],[137.905,35.64],[137.905,35.624],[137.933,35.602],[137.941,35.609],[137.961,35.602],[137.971,35.607],[137.989,35.61],[138.002,35.597],[138.023,35.614],[138.038,35.637],[138.035,35.667],[138.027,35.675],[138.013,35.673],[137.998,35.68],[137.986,35.676],[137.978,35.685]]]]}},{"type":"Feature","properties":{"name":"上伊那郡宮田村","code":"20388"},"geometry":{"type":"MultiPolygon","coordinates":[[[[137.828,35.806],[137.825,35.801],[137.805,35.79],[137.809,35.781],[137.847,35.76],[137.857,35.76],[137.86,35.748],[137.875,35.748],[137.911,35.75],[137.964,35.75],[137.959,35.761],[137.96,35.778],[137.947,35.771],[137.924,35.779],[137.881,35.785],[137.868,35.804],[137.862,35.806],[137.828,35.806]]]]}},{"type":"Feature","properties":{"name":"下伊那郡松川町","code":"20402"},"geometry":{"type":"MultiPolygon","coordinates":[[[[137.824,35.616],[137.835,35.605],[137.873,35.6],[137.901,35.586],[137.906,35.579],[137.918,35.574],[137.925,35.578],[137.94,35.569],[137.958,35.572],[137.976,35.58],[137.993,35.564],[138.01,35.555],[138.013,35.548],[138.018,35.561],[138.005,35.57],[137.993,35.585],[138.002,35.597],[137.989,35.61],[137.971,35.607],[137.961,35.602],[137.941,35.609],[137.933,35.602],[137.905,35.624],[137.905,35.64],[137.899,35.64],[137.887,35.636],[137.868,35.64],[137.865,35.648],[137.843,35.652],[137.831,35.639],[137.821,35.644],[137.809,35.644],[137.817,35.637],[137.824,35.616]]]]}},{"type":"Feature","properties":{"name":"下伊那郡高森町","code":"20403"},"geometry":{"type":"MultiPolygon","coordinates":[[[[137.878,35.53],[137.888,35.543],[137.896,35.564],[137.904,35.572],[137.918,35.574],[137.906,35.579],[137.901,35.586],[137.873,35.6],[137.835,35.605],[137.824,35.616],[137.816,35.601],[137.824,35.594],[137.817,35.582],[137.819,35.567],[137.832,35.558],[137.834,35.551],[137.846,35.55],[137.867,35.534],[137.878,35.53]]]]}},{"type":"Feature","properties":{"name":"下伊那郡阿南町","code":"20404"},"geometry":{"type":"MultiPolygon","coordinates":[[[[137.842,35.312],[137.833,35.327],[137.844,35.344],[137.833,35.35],[137.83,35.361],[137.81,35.38],[137.809,35.392],[137.801,35.379],[137.785,35.367],[137.778,35.354],[137.771,35.349],[137.755,35.357],[137.744,35.37],[137.736,35.36],[137.723,35.36],[137.719,35.351],[137.707,35.345],[137.688,35.342],[137.687,35.322],[137.676,35.313],[137.675,35.307],[137.696,35.302],[137.703,35.297],[137.727,35.298],[137.735,35.287],[137.732,35.27],[137.728,35.268],[137.725,35.243],[137.715,35.231],[137.708,35.232],[137.712,35.229],[137.722,35.231],[137.731,35.237],[137.749,35.241],[137.757,35.251],[137.768,35.253],[137.772,35.272],[137.797,35.294],[137.802,35.29],[137.817,35.3],[137.839,35.306],[137.842,35.312]]]]}},{"type":"Feature","properties":{"name":"下伊那郡阿智村","code":"20407"},"geometry":{"type":"MultiPolygon","coordinates":[[[[137.694,35.554],[137.688,35.551],[137.684,35.536],[137.675,35.532],[137.654,35.532],[137.644,35.521],[137.644,35.511],[137.632,35.509],[137.625,35.501],[137.63,35.477],[137.628,35.467],[137.618,35.468],[137.593,35.447],[137.615,35.431],[137.622,35.412],[137.632,35.411],[137.634,35.399],[137.641,35.391],[137.643,35.37],[137.653,35.359],[137.678,35.343],[137.688,35.342],[137.707,35.345],[137.719,35.351],[137.723,35.36],[137.736,35.36],[137.744,35.37],[137.737,35.384],[137.736,35.397],[137.759,35.408],[137.771,35.421],[137.76,35.44],[137.763,35.46],[137.753,35.456],[137.745,35.462],[137.731,35.486],[137.729,35.496],[137.741,35.501],[137.741,35.515],[137.718,35.521],[137.704,35.553],[137.694,35.554]]]]}},{"type":"Feature","properties":{"name":"下伊那郡平谷村","code":"20409"},"geometry":{"type":"MultiPolygon","coordinates":[[[[137.688,35.342],[137.678,35.343],[137.653,35.359],[137.643,35.37],[137.641,35.391],[137.634,35.399],[137.618,35.392],[137.591,35.394],[137.578,35.39],[137.598,35.379],[137.598,35.366],[137.603,35.354],[137.602,35.331],[137.591,35.33],[137.588,35.324],[137.575,35.317],[137.591,35.312],[137.604,35.313],[137.632,35.3],[137.627,35.294],[137.625,35.265],[137.634,35.265],[137.645,35.272],[137.659,35.266],[137.659,35.276],[137.667,35.281],[137.666,35.289],[137.675,35.307],[137.676,35.313],[137.687,35.322],[137.688,35.342]]]]}},{"type":"Feature","properties":{"name":"下伊那郡根羽村","code":"20410"},"geometry":{"type":"MultiPolygon","coordinates":[[[[137.575,35.317],[137.56,35.31],[137.558,35.295],[137.571,35.283],[137.556,35.272],[137.557,35.265],[137.548,35.26],[137.546,35.252],[137.55,35.243],[137.563,35.235],[137.579,35.219],[137.578,35.199],[137.591,35.199],[137.603,35.206],[137.627,35.212],[137.645,35.209],[137.654,35.218],[137.654,35.227],[137.664,35.228],[137.671,35.242],[137.659,35.266],[137.645,35.272],[137.634,35.265],[137.625,35.265],[137.627,35.294],[137.632,35.3],[137.604,35.313],[137.591,35.312],[137.575,35.317]]]]}},{"type":"Feature","properties":{"name":"下伊那郡下條村","code":"20411"},"geometry":{"type":"MultiPolygon","coordinates":[[[[137.771,35.421],[137.759,35.408],[137.736,35.397],[137.737,35.384],[137.744,35.37],[137.755,35.357],[137.771,35.349],[137.778,35.354],[137.785,35.367],[137.801,35.379],[137.809,35.392],[137.807,35.401],[137.816,35.408],[137.816,35.421],[137.797,35.427],[137.771,35.421]]]]}},{"type":"Feature","properties":{"name":"下伊那郡売木村","code":"20412"},"geometry":{"type":"MultiPolygon","coordinates":[[[[137.675,35.307],[137.666,35.289],[137.667,35.281],[137.659,35.276],[137.659,35.266],[137.671,35.242],[137.664,35.228],[137.681,35.235],[137.708,35.232],[137.715,35.231],[137.725,35.243],[137.728,35.268],[137.732,35.27],[137.735,35.287],[137.727,35.298],[137.703,35.297],[137.696,35.302],[137.675,35.307]]]]}},{"type":"Feature","properties":{"name":"下伊那郡天龍村","code":"20413"},"geometry":{"type":"MultiPolygon","coordinates":[[[[137.843,35.316],[137.842,35.312],[137.839,35.306],[137.817,35.3],[137.802,35.29],[137.797,35.294],[137.772,35.272],[137.768,35.253],[137.757,35.251],[137.749,35.241],[137.731,35.237],[137.722,35.231],[137.722,35.222],[137.743,35.219],[137.768,35.218],[137.768,35.207],[137.8,35.206],[137.822,35.216],[137.834,35.214],[137.845,35.221],[137.859,35.223],[137.873,35.219],[137.885,35.236],[137.882,35.248],[137.895,35.258],[137.896,35.273],[137.9,35.281],[137.879,35.294],[137.863,35.296],[137.86,35.311],[137.843,35.316]]]]}},{"type":"Feature","properties":{"name":"下伊那郡泰阜村","code":"20414"},"geometry":{"type":"MultiPolygon","coordinates":[[[[137.816,35.421],[137.816,35.408],[137.807,35.401],[137.809,35.392],[137.81,35.38],[137.83,35.361],[137.833,35.35],[137.844,35.344],[137.833,35.327],[137.842,35.312],[137.843,35.316],[137.853,35.324],[137.868,35.321],[137.885,35.324],[137.896,35.322],[137.924,35.345],[137.926,35.361],[137.914,35.357],[137.891,35.373],[137.887,35.386],[137.871,35.388],[137.867,35.397],[137.85,35.407],[137.839,35.409],[137.816,35.421]]]]}},{"type":"Feature","properties":{"name":"下伊那郡喬木村","code":"20415"},"geometry":{"type":"MultiPolygon","coordinates":[[[[137.988,35.487],[137.976,35.494],[137.962,35.51],[137.953,35.506],[137.934,35.51],[137.916,35.505],[137.893,35.525],[137.878,35.53],[137.863,35.512],[137.863,35.499],[137.883,35.497],[137.877,35.478],[137.887,35.468],[137.915,35.459],[137.913,35.445],[137.918,35.439],[137.94,35.433],[137.947,35.427],[137.964,35.442],[137.962,35.448],[137.988,35.481],[137.988,35.487]]]]}},{"type":"Feature","properties":{"name":"下伊那郡豊丘村","code":"20416"},"geometry":{"type":"MultiPolygon","coordinates":[[[[137.991,35.493],[138.013,35.548],[138.01,35.555],[137.993,35.564],[137.976,35.58],[137.958,35.572],[137.94,35.569],[137.925,35.578],[137.918,35.574],[137.904,35.572],[137.896,35.564],[137.888,35.543],[137.878,35.53],[137.893,35.525],[137.916,35.505],[137.934,35.51],[137.953,35.506],[137.962,35.51],[137.976,35.494],[137.988,35.487],[137.991,35.493]]]]}},{"type":"Feature","properties":{"name":"下伊那郡大鹿村","code":"20417"},"geometry":{"type":"MultiPolygon","coordinates":[[[[138.12,35.455],[138.132,35.453],[138.141,35.459],[138.157,35.46],[138.158,35.494],[138.14,35.5],[138.146,35.519],[138.138,35.522],[138.159,35.545],[138.146,35.557],[138.152,35.571],[138.146,35.576],[138.131,35.581],[138.126,35.593],[138.111,35.6],[138.101,35.615],[138.105,35.627],[138.102,35.647],[138.092,35.655],[138.086,35.673],[138.079,35.679],[138.077,35.694],[138.061,35.704],[138.047,35.699],[138.043,35.691],[138.044,35.675],[138.035,35.667],[138.038,35.637],[138.023,35.614],[138.002,35.597],[137.993,35.585],[138.005,35.57],[138.018,35.561],[138.013,35.548],[137.991,35.493],[138.002,35.489],[138.02,35.475],[138.03,35.47],[138.039,35.458],[138.049,35.463],[138.07,35.481],[138.083,35.486],[138.095,35.475],[138.107,35.473],[138.12,35.455]]]]}},{"type":"Feature","properties":{"name":"木曽郡上松町","code":"20422"},"geometry":{"type":"MultiPolygon","coordinates":[[[[137.809,35.781],[137.805,35.79],[137.797,35.789],[137.786,35.796],[137.77,35.812],[137.75,35.813],[137.733,35.823],[137.697,35.82],[137.685,35.812],[137.67,35.798],[137.658,35.79],[137.651,35.795],[137.638,35.793],[137.625,35.797],[137.622,35.791],[137.609,35.788],[137.6,35.794],[137.59,35.788],[137.599,35.77],[137.572,35.761],[137.565,35.751],[137.533,35.754],[137.543,35.73],[137.553,35.726],[137.575,35.738],[137.588,35.735],[137.587,35.723],[137.593,35.71],[137.601,35.706],[137.619,35.707],[137.645,35.713],[137.651,35.725],[137.642,35.73],[137.654,35.75],[137.672,35.748],[137.683,35.744],[137.691,35.727],[137.727,35.717],[137.736,35.712],[137.753,35.724],[137.752,35.734],[137.775,35.759],[137.787,35.76],[137.809,35.78]]]]}},{"type":"Feature","properties":{"name":"木曽郡南木曽町","code":"20423"},"geometry":{"type":"MultiPolygon","coordinates":[[[[137.73,35.613],[137.727,35.621],[137.701,35.63],[137.692,35.645],[137.668,35.66],[137.661,35.659],[137.649,35.648],[137.63,35.645],[137.613,35.655],[137.608,35.668],[137.587,35.677],[137.566,35.678],[137.554,35.687],[137.535,35.691],[137.522,35.689],[137.509,35.682],[137.535,35.666],[137.545,35.651],[137.538,35.638],[137.528,35.636],[137.523,35.619],[137.514,35.608],[137.538,35.585],[137.546,35.587],[137.565,35.585],[137.57,35.58],[137.565,35.566],[137.571,35.563],[137.575,35.545],[137.602,35.531],[137.607,35.534],[137.632,35.509],[137.644,35.511],[137.644,35.521],[137.654,35.532],[137.675,35.532],[137.684,35.536],[137.688,35.551],[137.694,35.554],[137.691,35.562],[137.698,35.576],[137.72,35.586],[137.715,35.599],[137.73,35.613]]]]}},{"type":"Feature","properties":{"name":"木曽郡木祖村","code":"20425"},"geometry":{"type":"MultiPolygon","coordinates":[[[[137.704,36.01],[137.698,35.996],[137.701,35.987],[137.696,35.969],[137.712,35.956],[137.72,35.942],[137.733,35.934],[137.753,35.915],[137.755,35.908],[137.768,35.904],[137.778,35.916],[137.801,35.926],[137.802,35.936],[137.795,35.96],[137.807,35.973],[137.805,35.98],[137.809,35.998],[137.808,36.016],[137.81,36.038],[137.815,36.054],[137.807,36.055],[137.797,36.078],[137.782,36.073],[137.755,36.087],[137.736,36.07],[137.737,36.048],[137.723,36.034],[137.72,36.026],[137.704,36.01]]]]}},{"type":"Feature","properties":{"name":"木曽郡王滝村","code":"20429"},"geometry":{"type":"MultiPolygon","coordinates":[[[[137.625,35.797],[137.608,35.795],[137.606,35.803],[137.609,35.83],[137.596,35.814],[137.588,35.819],[137.578,35.834],[137.573,35.853],[137.546,35.861],[137.525,35.87],[137.505,35.872],[137.5,35.879],[137.476,35.894],[137.459,35.889],[137.449,35.893],[137.438,35.905],[137.414,35.901],[137.381,35.892],[137.367,35.877],[137.368,35.861],[137.357,35.843],[137.336,35.844],[137.332,35.841],[137.326,35.812],[137.336,35.799],[137.354,35.801],[137.363,35.798],[137.381,35.801],[137.392,35.799],[137.4,35.775],[137.411,35.777],[137.424,35.774],[137.44,35.759],[137.46,35.761],[137.465,35.756],[137.466,35.744],[137.471,35.736],[137.485,35.725],[137.488,35.716],[137.532,35.709],[137.554,35.719],[137.553,35.726],[137.543,35.73],[137.533,35.754],[137.565,35.751],[137.572,35.761],[137.599,35.77],[137.59,35.788],[137.6,35.794],[137.609,35.788],[137.622,35.791],[137.625,35.797]]]]}},{"type":"Feature","properties":{"name":"木曽郡大桑村","code":"20430"},"geometry":{"type":"MultiPolygon","coordinates":[[[[137.801,35.656],[137.805,35.674],[137.803,35.681],[137.814,35.692],[137.812,35.702],[137.817,35.717],[137.805,35.726],[137.804,35.742],[137.814,35.753],[137.809,35.78],[137.787,35.76],[137.775,35.759],[137.752,35.734],[137.753,35.724],[137.736,35.712],[137.727,35.717],[137.691,35.727],[137.683,35.744],[137.672,35.748],[137.654,35.75],[137.642,35.73],[137.651,35.725],[137.645,35.713],[137.619,35.707],[137.601,35.706],[137.593,35.71],[137.587,35.723],[137.588,35.735],[137.575,35.738],[137.553,35.726],[137.554,35.719],[137.532,35.709],[137.488,35.716],[137.486,35.705],[137.499,35.696],[137.497,35.688],[137.509,35.682],[137.522,35.689],[137.535,35.691],[137.554,35.687],[137.566,35.678],[137.587,35.677],[137.608,35.668],[137.613,35.655],[137.63,35.645],[137.649,35.648],[137.661,35.659],[137.668,35.66],[137.692,35.645],[137.701,35.63],[137.727,35.621],[137.73,35.613],[137.737,35.613],[137.753,35.62],[137.76,35.628],[137.777,35.632],[137.801,35.656]]]]}},{"type":"Feature","properties":{"name":"木曽郡木曽町","code":"20432"},"geometry":{"type":"MultiPolygon","coordinates":[[[[137.599,36.026],[137.59,36.007],[137.575,35.996],[137.543,35.983],[137.544,35.972],[137.533,35.962],[137.519,35.94],[137.506,35.941],[137.498,35.929],[137.484,35.916],[137.482,35.901],[137.476,35.894],[137.5,35.879],[137.505,35.872],[137.525,35.87],[137.546,35.861],[137.573,35.853],[137.578,35.834],[137.588,35.819],[137.596,35.814],[137.609,35.83],[137.606,35.803],[137.608,35.795],[137.625,35.797],[137.638,35.793],[137.651,35.795],[137.658,35.79],[137.67,35.798],[137.685,35.812],[137.697,35.82],[137.733,35.823],[137.75,35.813],[137.77,35.812],[137.786,35.796],[137.797,35.789],[137.805,35.79],[137.825,35.801],[137.828,35.806],[137.824,35.813],[137.816,35.829],[137.809,35.831],[137.81,35.848],[137.804,35.85],[137.807,35.87],[137.816,35.879],[137.815,35.888],[137.805,35.899],[137.807,35.915],[137.801,35.926],[137.778,35.916],[137.768,35.904],[137.755,35.908],[137.753,35.915],[137.733,35.934],[137.72,35.942],[137.712,35.956],[137.696,35.969],[137.701,35.987],[137.698,35.996],[137.704,36.01],[137.682,36.017],[137.668,36.01],[137.654,36.019],[137.633,36.027],[137.613,36.018],[137.599,36.026]]]]}},{"type":"Feature","properties":{"name":"東筑摩郡麻績村","code":"20446"},"geometry":{"type":"MultiPolygon","coordinates":[[[[137.977,36.461],[137.994,36.462],[138.01,36.452],[138.012,36.437],[138.042,36.429],[138.054,36.42],[138.056,36.433],[138.05,36.446],[138.054,36.455],[138.085,36.475],[138.076,36.48],[138.073,36.49],[138.046,36.495],[138.039,36.488],[138.006,36.48],[137.977,36.461]]]]}},{"type":"Feature","properties":{"name":"東筑摩郡生坂村","code":"20448"},"geometry":{"type":"MultiPolygon","coordinates":[[[[137.953,36.485],[137.947,36.489],[137.926,36.471],[137.933,36.461],[137.929,36.45],[137.905,36.439],[137.913,36.423],[137.925,36.412],[137.929,36.403],[137.926,36.392],[137.935,36.385],[137.95,36.384],[137.957,36.395],[137.973,36.404],[137.969,36.416],[137.961,36.422],[137.977,36.461],[137.959,36.468],[137.951,36.48],[137.953,36.485]]]]}},{"type":"Feature","properties":{"name":"東筑摩郡山形村","code":"20450"},"geometry":{"type":"MultiPolygon","coordinates":[[[[137.811,36.145],[137.823,36.145],[137.832,36.135],[137.853,36.139],[137.877,36.149],[137.885,36.147],[137.901,36.175],[137.898,36.188],[137.89,36.19],[137.875,36.187],[137.846,36.17],[137.84,36.161],[137.83,36.16],[137.811,36.145]]]]}},{"type":"Feature","properties":{"name":"東筑摩郡朝日村","code":"20451"},"geometry":{"type":"MultiPolygon","coordinates":[[[[137.885,36.147],[137.877,36.149],[137.853,36.139],[137.832,36.135],[137.823,36.145],[137.811,36.145],[137.794,36.13],[137.778,36.099],[137.764,36.088],[137.755,36.087],[137.782,36.073],[137.797,36.078],[137.807,36.055],[137.815,36.054],[137.827,36.055],[137.839,36.065],[137.841,36.072],[137.852,36.076],[137.859,36.088],[137.871,36.094],[137.872,36.1],[137.9,36.124],[137.894,36.131],[137.892,36.141],[137.885,36.147]]]]}},{"type":"Feature","properties":{"name":"東筑摩郡筑北村","code":"20452"},"geometry":{"type":"MultiPolygon","coordinates":[[[[138.079,36.372],[138.073,36.379],[138.064,36.399],[138.072,36.405],[138.097,36.407],[138.115,36.404],[138.117,36.421],[138.114,36.434],[138.122,36.437],[138.118,36.449],[138.106,36.459],[138.102,36.468],[138.085,36.475],[138.054,36.455],[138.05,36.446],[138.056,36.433],[138.054,36.42],[138.042,36.429],[138.012,36.437],[138.01,36.452],[137.994,36.462],[137.977,36.461],[137.961,36.422],[137.969,36.416],[137.973,36.404],[137.992,36.377],[137.999,36.371],[138.02,36.376],[138.048,36.377],[138.052,36.379],[138.072,36.371],[138.079,36.372]]]]}},{"type":"Feature","properties":{"name":"北安曇郡池田町","code":"20481"},"geometry":{"type":"MultiPolygon","coordinates":[[[[137.869,36.441],[137.875,36.392],[137.872,36.379],[137.888,36.364],[137.908,36.371],[137.902,36.39],[137.913,36.407],[137.925,36.412],[137.913,36.423],[137.905,36.439],[137.929,36.45],[137.933,36.461],[137.926,36.471],[137.898,36.476],[137.887,36.474],[137.893,36.449],[137.877,36.439],[137.869,36.441]]]]}},{"type":"Feature","properties":{"name":"北安曇郡松川村","code":"20482"},"geometry":{"type":"MultiPolygon","coordinates":[[[[137.754,36.411],[137.755,36.402],[137.77,36.392],[137.775,36.397],[137.791,36.392],[137.8,36.395],[137.825,36.391],[137.836,36.383],[137.853,36.394],[137.872,36.379],[137.875,36.392],[137.869,36.441],[137.856,36.437],[137.844,36.446],[137.82,36.442],[137.816,36.452],[137.804,36.447],[137.808,36.439],[137.807,36.424],[137.793,36.421],[137.78,36.414],[137.754,36.411]]]]}},{"type":"Feature","properties":{"name":"北安曇郡白馬村","code":"20485"},"geometry":{"type":"MultiPolygon","coordinates":[[[[137.942,36.736],[137.906,36.739],[137.886,36.731],[137.883,36.737],[137.862,36.743],[137.849,36.744],[137.824,36.754],[137.819,36.759],[137.765,36.768],[137.752,36.751],[137.759,36.741],[137.751,36.727],[137.75,36.705],[137.76,36.686],[137.761,36.665],[137.769,36.657],[137.799,36.649],[137.804,36.642],[137.817,36.635],[137.824,36.624],[137.823,36.614],[137.834,36.614],[137.837,36.622],[137.868,36.62],[137.868,36.633],[137.883,36.639],[137.896,36.64],[137.909,36.649],[137.91,36.662],[137.917,36.682],[137.915,36.694],[137.923,36.7],[137.934,36.725],[137.942,36.736]]]]}},{"type":"Feature","properties":{"name":"北安曇郡小谷村","code":"20486"},"geometry":{"type":"MultiPolygon","coordinates":[[[[138.003,36.826],[138.02,36.842],[138.017,36.86],[138.032,36.878],[138.031,36.891],[138.016,36.893],[138.014,36.904],[137.992,36.911],[137.97,36.911],[137.962,36.902],[137.947,36.913],[137.932,36.914],[137.92,36.92],[137.893,36.91],[137.875,36.916],[137.863,36.913],[137.871,36.903],[137.862,36.891],[137.868,36.878],[137.878,36.873],[137.856,36.85],[137.857,36.844],[137.845,36.835],[137.831,36.818],[137.831,36.808],[137.82,36.798],[137.793,36.787],[137.791,36.779],[137.765,36.768],[137.819,36.759],[137.824,36.754],[137.849,36.744],[137.862,36.743],[137.883,36.737],[137.886,36.731],[137.906,36.739],[137.942,36.736],[137.953,36.748],[137.953,36.755],[137.968,36.771],[137.968,36.781],[137.989,36.812],[138.003,36.826]]]]}},{"type":"Feature","properties":{"name":"埴科郡坂城町","code":"20521"},"geometry":{"type":"MultiPolygon","coordinates":[[[[138.202,36.501],[138.2,36.495],[138.176,36.486],[138.169,36.464],[138.161,36.456],[138.135,36.447],[138.129,36.438],[138.14,36.434],[138.166,36.417],[138.181,36.421],[138.211,36.426],[138.216,36.429],[138.249,36.433],[138.25,36.444],[138.241,36.457],[138.229,36.465],[138.231,36.48],[138.22,36.49],[138.202,36.501]]]]}},{"type":"Feature","properties":{"name":"上高井郡小布施町","code":"20541"},"geometry":{"type":"MultiPolygon","coordinates":[[[[138.283,36.688],[138.316,36.688],[138.331,36.682],[138.341,36.686],[138.348,36.697],[138.341,36.707],[138.344,36.716],[138.331,36.725],[138.311,36.721],[138.302,36.715],[138.29,36.715],[138.283,36.703],[138.283,36.688]]]]}},{"type":"Feature","properties":{"name":"上高井郡高山村","code":"20543"},"geometry":{"type":"MultiPolygon","coordinates":[[[[138.442,36.611],[138.455,36.614],[138.461,36.626],[138.459,36.635],[138.473,36.644],[138.49,36.641],[138.508,36.648],[138.525,36.651],[138.534,36.666],[138.514,36.668],[138.499,36.675],[138.472,36.677],[138.469,36.686],[138.429,36.696],[138.406,36.699],[138.395,36.696],[138.368,36.704],[138.356,36.695],[138.348,36.697],[138.341,36.686],[138.331,36.682],[138.338,36.662],[138.346,36.648],[138.37,36.644],[138.388,36.644],[138.394,36.633],[138.411,36.628],[138.413,36.624],[138.442,36.611]]]]}},{"type":"Feature","properties":{"name":"下高井郡山ノ内町","code":"20561"},"geometry":{"type":"MultiPolygon","coordinates":[[[[138.406,36.699],[138.429,36.696],[138.469,36.686],[138.472,36.677],[138.499,36.675],[138.514,36.668],[138.534,36.666],[138.518,36.677],[138.52,36.692],[138.544,36.704],[138.575,36.707],[138.583,36.701],[138.594,36.714],[138.611,36.707],[138.622,36.72],[138.642,36.724],[138.637,36.744],[138.627,36.754],[138.627,36.771],[138.635,36.786],[138.625,36.798],[138.619,36.81],[138.609,36.813],[138.576,36.81],[138.55,36.824],[138.542,36.824],[138.534,36.816],[138.529,36.802],[138.519,36.806],[138.511,36.8],[138.49,36.795],[138.486,36.805],[138.444,36.813],[138.432,36.82],[138.418,36.803],[138.404,36.799],[138.405,36.791],[138.387,36.774],[138.398,36.762],[138.389,36.74],[138.394,36.735],[138.392,36.721],[138.406,36.699]]]]}},{"type":"Feature","properties":{"name":"下高井郡木島平村","code":"20562"},"geometry":{"type":"MultiPolygon","coordinates":[[[[138.404,36.799],[138.418,36.803],[138.432,36.82],[138.444,36.813],[138.486,36.805],[138.49,36.795],[138.511,36.8],[138.519,36.806],[138.529,36.802],[138.534,36.816],[138.542,36.824],[138.55,36.824],[138.541,36.836],[138.557,36.852],[138.524,36.859],[138.51,36.854],[138.496,36.857],[138.501,36.876],[138.494,36.886],[138.487,36.895],[138.471,36.882],[138.462,36.883],[138.446,36.875],[138.422,36.872],[138.407,36.875],[138.396,36.853],[138.384,36.851],[138.391,36.838],[138.384,36.828],[138.398,36.827],[138.395,36.81],[138.404,36.799]]]]}},{"type":"Feature","properties":{"name":"下高井郡野沢温泉村","code":"20563"},"geometry":{"type":"MultiPolygon","coordinates":[[[[138.462,36.883],[138.471,36.882],[138.487,36.895],[138.494,36.886],[138.501,36.889],[138.514,36.909],[138.497,36.925],[138.483,36.924],[138.483,36.938],[138.492,36.949],[138.499,36.965],[138.517,36.975],[138.518,36.985],[138.499,36.978],[138.494,36.98],[138.485,36.977],[138.462,36.977],[138.442,36.959],[138.432,36.955],[138.434,36.948],[138.422,36.946],[138.418,36.931],[138.426,36.922],[138.429,36.909],[138.437,36.907],[138.441,36.897],[138.462,36.883]]]]}},{"type":"Feature","properties":{"name":"上水内郡信濃町","code":"20583"},"geometry":{"type":"MultiPolygon","coordinates":[[[[138.14,36.748],[138.172,36.747],[138.2,36.76],[138.212,36.759],[138.213,36.767],[138.223,36.779],[138.252,36.79],[138.251,36.798],[138.259,36.806],[138.273,36.809],[138.28,36.818],[138.262,36.822],[138.276,36.837],[138.275,36.841],[138.271,36.844],[138.268,36.86],[138.249,36.865],[138.229,36.864],[138.213,36.868],[138.196,36.854],[138.178,36.852],[138.163,36.844],[138.132,36.851],[138.115,36.85],[138.089,36.836],[138.089,36.83],[138.1,36.816],[138.095,36.801],[138.098,36.78],[138.125,36.783],[138.12,36.774],[138.122,36.762],[138.129,36.753],[138.14,36.748]]]]}},{"type":"Feature","properties":{"name":"上水内郡小川村","code":"20588"},"geometry":{"type":"MultiPolygon","coordinates":[[[[137.91,36.662],[137.909,36.649],[137.919,36.635],[137.914,36.619],[137.928,36.606],[137.928,36.6],[137.942,36.595],[137.953,36.595],[137.963,36.604],[137.981,36.601],[137.986,36.597],[138.002,36.601],[138.003,36.614],[137.998,36.623],[138.0,36.639],[138.011,36.655],[138.004,36.66],[137.959,36.672],[137.945,36.672],[137.92,36.657],[137.91,36.662]]]]}},{"type":"Feature","properties":{"name":"上水内郡飯綱町","code":"20590"},"geometry":{"type":"MultiPolygon","coordinates":[[[[138.294,36.746],[138.304,36.764],[138.3,36.774],[138.3,36.788],[138.28,36.792],[138.281,36.817],[138.276,36.837],[138.262,36.822],[138.28,36.818],[138.273,36.809],[138.259,36.806],[138.251,36.798],[138.252,36.79],[138.223,36.779],[138.213,36.767],[138.212,36.759],[138.2,36.76],[138.172,36.747],[138.14,36.748],[138.14,36.74],[138.173,36.728],[138.179,36.722],[138.195,36.713],[138.216,36.709],[138.231,36.721],[138.252,36.719],[138.261,36.728],[138.262,36.742],[138.28,36.742],[138.294,36.746]]]]}},{"type":"Feature","properties":{"name":"下水内郡栄村","code":"20602"},"geometry":{"type":"MultiPolygon","coordinates":[[[[138.494,36.98],[138.499,36.978],[138.518,36.985],[138.517,36.975],[138.499,36.965],[138.492,36.949],[138.483,36.938],[138.483,36.924],[138.497,36.925],[138.514,36.909],[138.501,36.889],[138.494,36.886],[138.501,36.876],[138.496,36.857],[138.51,36.854],[138.524,36.859],[138.557,36.852],[138.541,36.836],[138.55,36.824],[138.576,36.81],[138.609,36.813],[138.619,36.81],[138.625,36.798],[138.635,36.786],[138.627,36.771],[138.627,36.754],[138.637,36.744],[138.642,36.724],[138.649,36.727],[138.675,36.731],[138.696,36.739],[138.688,36.766],[138.67,36.774],[138.672,36.784],[138.684,36.788],[138.696,36.809],[138.681,36.824],[138.69,36.832],[138.693,36.855],[138.676,36.867],[138.657,36.868],[138.651,36.874],[138.623,36.885],[138.618,36.892],[138.621,36.904],[138.613,36.909],[138.596,36.907],[138.589,36.915],[138.592,36.925],[138.585,36.932],[138.588,36.977],[138.586,36.987],[138.576,36.997],[138.566,37.021],[138.553,37.024],[138.537,37.021],[138.52,37.028],[138.518,37.017],[138.511,37.007],[138.496,36.998],[138.491,36.987],[138.494,36.98]]]]}}]}