{"type":"FeatureCollection","features":[{"type":"Feature","properties":{"name":"岐阜市","code":"21201"},"geometry":{"type":"MultiPolygon","coordinates":[[[[136.815,35.532],[136.812,35.513],[136.8,35.485],[136.778,35.49],[136.747,35.51],[136.737,35.508],[136.718,35.521],[136.697,35.543],[136.683,35.538],[136.69,35.526],[136.683,35.516],[136.697,35.509],[136.692,35.498],[136.698,35.483],[136.683,35.475],[136.698,35.463],[136.698,35.447],[136.699,35.422],[136.693,35.412],[136.706,35.39],[136.691,35.367],[136.688,35.352],[136.711,35.351],[136.729,35.357],[136.745,35.364],[136.763,35.379],[136.769,35.393],[136.786,35.4],[136.804,35.387],[136.813,35.387],[136.818,35.419],[136.823,35.427],[136.86,35.434],[136.882,35.445],[136.885,35.457],[136.851,35.469],[136.838,35.463],[136.844,35.5],[136.84,35.512],[136.826,35.531],[136.815,35.532]]]]}},{"type":"Feature","properties":{"name":"大垣市","code":"21202"},"geometry":{"type":"MultiPolygon","coordinates":[[[[136.502,35.357],[136.481,35.358],[136.466,35.344],[136.455,35.325],[136.455,35.314],[136.43,35.3],[136.42,35.287],[136.403,35.3],[136.391,35.29],[136.396,35.281],[136.389,35.25],[136.38,35.241],[136.412,35.218],[136.431,35.229],[136.441,35.217],[136.466,35.237],[136.483,35.24],[136.506,35.235],[136.514,35.25],[136.528,35.258],[136.519,35.293],[136.522,35.301],[136.507,35.322],[136.521,35.333],[136.536,35.333],[136.523,35.348],[136.511,35.346],[136.502,35.357]]],[[[136.691,35.367],[136.673,35.367],[136.673,35.347],[136.689,35.346],[136.688,35.352],[136.691,35.367]]],[[[136.585,35.408],[136.563,35.411],[136.549,35.407],[136.546,35.378],[136.561,35.37],[136.561,35.344],[136.578,35.341],[136.594,35.319],[136.597,35.301],[136.61,35.294],[136.639,35.313],[136.638,35.333],[136.652,35.339],[136.658,35.351],[136.653,35.381],[136.641,35.388],[136.622,35.393],[136.611,35.405],[136.6,35.393],[136.585,35.408]]]]}},{"type":"Feature","properties":{"name":"高山市","code":"21203"},"geometry":{"type":"MultiPolygon","coordinates":[[[[137.483,35.914],[137.506,35.941],[137.519,35.94],[137.533,35.962],[137.544,35.972],[137.543,35.983],[137.575,35.996],[137.59,36.007],[137.6,36.029],[137.598,36.043],[137.614,36.06],[137.608,36.078],[137.572,36.089],[137.551,36.11],[137.56,36.13],[137.555,36.138],[137.568,36.153],[137.591,36.164],[137.595,36.19],[137.581,36.195],[137.573,36.218],[137.583,36.22],[137.596,36.243],[137.606,36.249],[137.629,36.278],[137.648,36.289],[137.651,36.327],[137.619,36.364],[137.587,36.372],[137.587,36.39],[137.56,36.387],[137.54,36.393],[137.523,36.382],[137.498,36.383],[137.484,36.371],[137.474,36.376],[137.447,36.368],[137.422,36.37],[137.418,36.351],[137.404,36.344],[137.359,36.346],[137.36,36.329],[137.37,36.319],[137.364,36.297],[137.336,36.299],[137.329,36.289],[137.277,36.286],[137.263,36.268],[137.239,36.255],[137.22,36.257],[137.213,36.242],[137.196,36.231],[137.177,36.212],[137.16,36.214],[137.153,36.2],[137.142,36.201],[137.121,36.183],[137.106,36.203],[137.106,36.217],[137.084,36.215],[137.07,36.198],[137.029,36.197],[137.024,36.19],[136.964,36.195],[136.951,36.209],[136.943,36.17],[136.937,36.163],[136.938,36.143],[136.954,36.124],[136.933,36.112],[136.925,36.094],[136.897,36.105],[136.87,36.102],[136.857,36.105],[136.844,36.098],[136.818,36.093],[136.807,36.105],[136.789,36.098],[136.765,36.106],[136.754,36.09],[136.764,36.068],[136.777,36.053],[136.795,36.052],[136.812,36.015],[136.845,36.008],[136.875,36.016],[136.896,36.028],[136.904,36.018],[136.931,36.006],[136.932,35.998],[136.951,35.98],[136.959,35.979],[136.973,35.938],[136.972,35.925],[136.983,35.918],[137.008,35.951],[137.024,35.961],[137.04,35.954],[137.049,35.96],[137.069,35.939],[137.07,35.917],[137.079,35.913],[137.102,35.926],[137.112,35.931],[137.121,35.948],[137.107,35.956],[137.121,35.985],[137.131,35.996],[137.148,36.004],[137.159,36.021],[137.184,36.037],[137.209,36.026],[137.234,36.022],[137.246,35.997],[137.261,35.987],[137.295,35.986],[137.345,36.002],[137.356,35.976],[137.369,35.97],[137.368,35.945],[137.38,35.948],[137.406,35.969],[137.423,35.971],[137.441,35.959],[137.446,35.941],[137.473,35.918],[137.483,35.914]]]]}},{"type":"Feature","properties":{"name":"多治見市","code":"21204"},"geometry":{"type":"MultiPolygon","coordinates":[[[[137.145,35.377],[137.124,35.384],[137.113,35.369],[137.079,35.374],[137.076,35.385],[137.063,35.392],[137.048,35.365],[137.046,35.34],[137.062,35.339],[137.073,35.326],[137.064,35.321],[137.081,35.292],[137.099,35.293],[137.101,35.302],[137.132,35.294],[137.146,35.28],[137.165,35.282],[137.176,35.27],[137.186,35.277],[137.177,35.304],[137.146,35.35],[137.159,35.356],[137.145,35.377]]]]}},{"type":"Feature","properties":{"name":"関市","code":"21205"},"geometry":{"type":"MultiPolygon","coordinates":[[[[136.882,35.445],[136.905,35.446],[136.942,35.427],[136.949,35.429],[136.96,35.447],[136.963,35.468],[136.947,35.499],[136.949,35.507],[136.992,35.508],[136.993,35.518],[137.016,35.537],[137.044,35.55],[137.071,35.571],[137.053,35.593],[137.064,35.623],[137.091,35.631],[137.099,35.679],[137.051,35.694],[137.048,35.681],[137.054,35.663],[137.048,35.65],[137.024,35.642],[137.013,35.653],[136.98,35.642],[136.986,35.619],[136.979,35.615],[136.979,35.601],[136.967,35.583],[136.967,35.572],[136.956,35.562],[136.96,35.55],[136.945,35.546],[136.931,35.528],[136.921,35.523],[136.902,35.527],[136.894,35.51],[136.862,35.524],[136.854,35.546],[136.839,35.562],[136.848,35.571],[136.842,35.593],[136.853,35.611],[136.856,35.635],[136.87,35.637],[136.88,35.652],[136.86,35.671],[136.855,35.684],[136.84,35.701],[136.853,35.724],[136.855,35.746],[136.833,35.754],[136.84,35.777],[136.828,35.776],[136.807,35.785],[136.795,35.785],[136.789,35.799],[136.754,35.809],[136.741,35.801],[136.725,35.808],[136.71,35.792],[136.672,35.791],[136.666,35.785],[136.683,35.772],[136.686,35.76],[136.681,35.735],[136.696,35.717],[136.714,35.719],[136.73,35.711],[136.721,35.694],[136.74,35.684],[136.768,35.683],[136.772,35.667],[136.805,35.655],[136.806,35.609],[136.789,35.594],[136.794,35.571],[136.804,35.573],[136.821,35.56],[136.809,35.548],[136.815,35.532],[136.826,35.531],[136.84,35.512],[136.844,35.5],[136.838,35.463],[136.851,35.469],[136.885,35.457],[136.882,35.445]]]]}},{"type":"Feature","properties":{"name":"中津川市","code":"21206"},"geometry":{"type":"MultiPolygon","coordinates":[[[[137.575,35.4],[137.591,35.394],[137.618,35.392],[137.634,35.399],[137.622,35.412],[137.615,35.431],[137.593,35.447],[137.63,35.477],[137.625,35.501],[137.632,35.509],[137.607,35.534],[137.602,35.531],[137.575,35.545],[137.57,35.58],[137.565,35.585],[137.538,35.585],[137.514,35.608],[137.528,35.636],[137.545,35.651],[137.535,35.666],[137.497,35.688],[137.486,35.705],[137.485,35.725],[137.466,35.744],[137.46,35.761],[137.44,35.759],[137.424,35.774],[137.4,35.775],[137.392,35.799],[137.36,35.796],[137.334,35.764],[137.329,35.741],[137.331,35.711],[137.344,35.696],[137.354,35.695],[137.373,35.672],[137.406,35.661],[137.401,35.646],[137.413,35.626],[137.393,35.608],[137.388,35.595],[137.399,35.573],[137.386,35.562],[137.369,35.567],[137.348,35.563],[137.342,35.548],[137.351,35.532],[137.348,35.513],[137.369,35.504],[137.392,35.508],[137.393,35.481],[137.419,35.48],[137.433,35.472],[137.462,35.44],[137.498,35.441],[137.493,35.43],[137.462,35.427],[137.435,35.416],[137.443,35.397],[137.467,35.37],[137.493,35.363],[137.51,35.374],[137.539,35.378],[137.575,35.4]]]]}},{"type":"Feature","properties":{"name":"美濃市","code":"21207"},"geometry":{"type":"MultiPolygon","coordinates":[[[[136.979,35.615],[136.953,35.615],[136.943,35.599],[136.925,35.601],[136.912,35.623],[136.904,35.628],[136.898,35.645],[136.88,35.652],[136.87,35.637],[136.856,35.635],[136.853,35.611],[136.842,35.593],[136.848,35.571],[136.839,35.562],[136.854,35.546],[136.862,35.524],[136.894,35.51],[136.902,35.527],[136.921,35.523],[136.931,35.528],[136.945,35.546],[136.96,35.55],[136.956,35.562],[136.967,35.572],[136.967,35.583],[136.979,35.601],[136.979,35.615]]]]}},{"type":"Feature","properties":{"name":"瑞浪市","code":"21208"},"geometry":{"type":"MultiPolygon","coordinates":[[[[137.251,35.464],[137.234,35.458],[137.229,35.473],[137.203,35.47],[137.198,35.438],[137.206,35.425],[137.192,35.411],[137.194,35.404],[137.217,35.394],[137.223,35.369],[137.219,35.358],[137.243,35.339],[137.245,35.331],[137.281,35.319],[137.276,35.291],[137.308,35.291],[137.328,35.295],[137.338,35.314],[137.335,35.333],[137.298,35.33],[137.302,35.339],[137.334,35.376],[137.345,35.395],[137.341,35.405],[137.351,35.42],[137.334,35.428],[137.332,35.441],[137.312,35.442],[137.3,35.451],[137.273,35.452],[137.263,35.464],[137.251,35.464]]]]}},{"type":"Feature","properties":{"name":"羽島市","code":"21209"},"geometry":{"type":"MultiPolygon","coordinates":[[[[136.688,35.352],[136.689,35.346],[136.685,35.328],[136.669,35.318],[136.665,35.307],[136.672,35.292],[136.677,35.278],[136.657,35.258],[136.678,35.241],[136.696,35.259],[136.706,35.278],[136.728,35.3],[136.754,35.345],[136.733,35.349],[136.729,35.357],[136.711,35.351],[136.688,35.352]]]]}},{"type":"Feature","properties":{"name":"恵那市","code":"21210"},"geometry":{"type":"MultiPolygon","coordinates":[[[[137.342,35.548],[137.323,35.535],[137.269,35.527],[137.287,35.508],[137.271,35.496],[137.251,35.464],[137.263,35.464],[137.273,35.452],[137.3,35.451],[137.312,35.442],[137.332,35.441],[137.334,35.428],[137.351,35.42],[137.341,35.405],[137.345,35.395],[137.334,35.376],[137.302,35.339],[137.298,35.33],[137.335,35.333],[137.338,35.314],[137.328,35.295],[137.308,35.291],[137.345,35.274],[137.344,35.258],[137.362,35.261],[137.385,35.259],[137.388,35.24],[137.417,35.24],[137.425,35.227],[137.462,35.241],[137.477,35.253],[137.497,35.259],[137.514,35.27],[137.521,35.284],[137.543,35.281],[137.562,35.288],[137.56,35.31],[137.602,35.331],[137.603,35.354],[137.598,35.379],[137.578,35.39],[137.575,35.4],[137.539,35.378],[137.51,35.374],[137.493,35.363],[137.467,35.37],[137.443,35.397],[137.435,35.416],[137.462,35.427],[137.493,35.43],[137.498,35.441],[137.462,35.44],[137.433,35.472],[137.419,35.48],[137.393,35.481],[137.392,35.508],[137.369,35.504],[137.348,35.513],[137.351,35.532],[137.342,35.548]]]]}},{"type":"Feature","properties":{"name":"美濃加茂市","code":"21211"},"geometry":{"type":"MultiPolygon","coordinates":[[[[136.992,35.508],[137.012,35.487],[136.984,35.471],[136.963,35.468],[136.96,35.447],[136.975,35.452],[137.001,35.44],[137.007,35.43],[137.052,35.445],[137.072,35.44],[137.083,35.448],[137.087,35.469],[137.053,35.479],[137.037,35.495],[137.051,35.508],[137.064,35.528],[137.068,35.548],[137.058,35.551],[137.044,35.55],[137.016,35.537],[136.993,35.518],[136.992,35.508]]]]}},{"type":"Feature","properties":{"name":"土岐市","code":"21212"},"geometry":{"type":"MultiPolygon","coordinates":[[[[137.176,35.27],[137.184,35.254],[137.2,35.251],[137.211,35.26],[137.225,35.256],[137.25,35.269],[137.263,35.285],[137.276,35.291],[137.281,35.319],[137.245,35.331],[137.243,35.339],[137.219,35.358],[137.223,35.369],[137.217,35.394],[137.194,35.404],[137.179,35.392],[137.16,35.398],[137.145,35.377],[137.159,35.356],[137.146,35.35],[137.177,35.304],[137.186,35.277],[137.176,35.27]]]]}},{"type":"Feature","properties":{"name":"各務原市","code":"21213"},"geometry":{"type":"MultiPolygon","coordinates":[[[[136.813,35.387],[136.819,35.381],[136.794,35.366],[136.804,35.36],[136.834,35.356],[136.886,35.378],[136.922,35.379],[136.962,35.4],[136.961,35.415],[136.949,35.429],[136.942,35.427],[136.905,35.446],[136.882,35.445],[136.86,35.434],[136.823,35.427],[136.818,35.419],[136.813,35.387]]]]}},{"type":"Feature","properties":{"name":"可児市","code":"21214"},"geometry":{"type":"MultiPolygon","coordinates":[[[[137.145,35.377],[137.16,35.398],[137.132,35.415],[137.105,35.418],[137.107,35.431],[137.072,35.44],[137.052,35.445],[137.007,35.43],[136.993,35.424],[136.979,35.406],[136.987,35.402],[137.002,35.381],[137.028,35.375],[137.048,35.365],[137.063,35.392],[137.076,35.385],[137.079,35.374],[137.113,35.369],[137.124,35.384],[137.145,35.377]]],[[[137.083,35.448],[137.1,35.447],[137.113,35.458],[137.104,35.465],[137.083,35.449]]]]}},{"type":"Feature","properties":{"name":"山県市","code":"21215"},"geometry":{"type":"MultiPolygon","coordinates":[[[[136.815,35.532],[136.809,35.548],[136.821,35.56],[136.804,35.573],[136.794,35.571],[136.789,35.594],[136.806,35.609],[136.805,35.655],[136.772,35.667],[136.768,35.683],[136.74,35.684],[136.721,35.694],[136.73,35.711],[136.714,35.719],[136.696,35.717],[136.695,35.691],[136.689,35.661],[136.675,35.655],[136.677,35.638],[136.665,35.626],[136.669,35.61],[136.663,35.602],[136.683,35.576],[136.685,35.559],[136.697,35.543],[136.718,35.521],[136.737,35.508],[136.747,35.51],[136.778,35.49],[136.8,35.485],[136.812,35.513],[136.815,35.532]]]]}},{"type":"Feature","properties":{"name":"瑞穂市","code":"21216"},"geometry":{"type":"MultiPolygon","coordinates":[[[[136.693,35.412],[136.681,35.419],[136.645,35.423],[136.633,35.429],[136.64,35.404],[136.641,35.388],[136.653,35.381],[136.673,35.367],[136.691,35.367],[136.706,35.39],[136.693,35.412]]]]}},{"type":"Feature","properties":{"name":"飛騨市","code":"21217"},"geometry":{"type":"MultiPolygon","coordinates":[[[[137.54,36.393],[137.52,36.406],[137.512,36.423],[137.474,36.425],[137.461,36.412],[137.41,36.425],[137.395,36.436],[137.395,36.456],[137.361,36.45],[137.358,36.436],[137.339,36.434],[137.32,36.424],[137.314,36.442],[137.317,36.461],[137.298,36.458],[137.278,36.465],[137.256,36.451],[137.248,36.462],[137.231,36.444],[137.213,36.438],[137.195,36.447],[137.16,36.456],[137.142,36.443],[137.124,36.422],[137.112,36.415],[137.095,36.384],[137.079,36.384],[137.049,36.346],[137.052,36.33],[137.021,36.309],[137.003,36.287],[136.99,36.287],[136.975,36.274],[136.966,36.266],[136.952,36.237],[136.958,36.23],[136.951,36.209],[136.964,36.195],[137.024,36.19],[137.029,36.197],[137.07,36.198],[137.084,36.215],[137.106,36.217],[137.106,36.203],[137.121,36.183],[137.142,36.201],[137.153,36.2],[137.16,36.214],[137.177,36.212],[137.196,36.231],[137.213,36.242],[137.22,36.257],[137.239,36.255],[137.263,36.268],[137.277,36.286],[137.329,36.289],[137.336,36.299],[137.364,36.297],[137.37,36.319],[137.36,36.329],[137.359,36.346],[137.404,36.344],[137.418,36.351],[137.422,36.37],[137.447,36.368],[137.474,36.376],[137.484,36.371],[137.498,36.383],[137.523,36.382],[137.54,36.393]]]]}},{"type":"Feature","properties":{"name":"本巣市","code":"21218"},"geometry":{"type":"MultiPolygon","coordinates":[[[[136.697,35.543],[136.685,35.559],[136.683,35.576],[136.663,35.602],[136.669,35.61],[136.665,35.626],[136.677,35.638],[136.675,35.655],[136.689,35.661],[136.695,35.691],[136.696,35.717],[136.681,35.735],[136.686,35.76],[136.683,35.772],[136.666,35.785],[136.653,35.799],[136.626,35.795],[136.611,35.789],[136.599,35.799],[136.572,35.778],[136.545,35.779],[136.525,35.788],[136.512,35.772],[136.514,35.762],[136.53,35.751],[136.535,35.731],[136.529,35.717],[136.537,35.698],[136.515,35.676],[136.536,35.645],[136.56,35.628],[136.56,35.601],[136.565,35.586],[136.585,35.578],[136.607,35.579],[136.628,35.571],[136.644,35.554],[136.633,35.548],[136.649,35.528],[136.64,35.523],[136.654,35.51],[136.66,35.494],[136.656,35.48],[136.633,35.429],[136.645,35.423],[136.681,35.419],[136.679,35.44],[136.698,35.447],[136.698,35.463],[136.683,35.475],[136.698,35.483],[136.692,35.498],[136.697,35.509],[136.683,35.516],[136.69,35.526],[136.683,35.538],[136.697,35.543]]]]}},{"type":"Feature","properties":{"name":"郡上市","code":"21219"},"geometry":{"type":"MultiPolygon","coordinates":[[[[136.764,36.068],[136.744,36.06],[136.735,36.048],[136.734,36.021],[136.727,35.996],[136.75,35.991],[136.753,35.956],[136.789,35.949],[136.793,35.941],[136.784,35.928],[136.814,35.911],[136.824,35.893],[136.82,35.879],[136.832,35.857],[136.825,35.845],[136.802,35.844],[136.796,35.809],[136.789,35.799],[136.795,35.785],[136.807,35.785],[136.828,35.776],[136.84,35.777],[136.833,35.754],[136.855,35.746],[136.853,35.724],[136.84,35.701],[136.855,35.684],[136.86,35.671],[136.88,35.652],[136.898,35.645],[136.904,35.628],[136.912,35.623],[136.925,35.601],[136.943,35.599],[136.953,35.615],[136.979,35.615],[136.986,35.619],[136.98,35.642],[137.013,35.653],[137.024,35.642],[137.048,35.65],[137.054,35.663],[137.048,35.681],[137.051,35.694],[137.067,35.704],[137.069,35.72],[137.097,35.726],[137.132,35.741],[137.132,35.769],[137.128,35.777],[137.13,35.804],[137.123,35.833],[137.129,35.846],[137.144,35.851],[137.165,35.847],[137.165,35.86],[137.14,35.883],[137.122,35.911],[137.108,35.914],[137.102,35.926],[137.079,35.913],[137.07,35.917],[137.069,35.939],[137.049,35.96],[137.04,35.954],[137.024,35.961],[137.008,35.951],[136.983,35.918],[136.972,35.925],[136.973,35.938],[136.959,35.979],[136.951,35.98],[136.932,35.998],[136.931,36.006],[136.904,36.018],[136.896,36.028],[136.875,36.016],[136.845,36.008],[136.812,36.015],[136.795,36.052],[136.777,36.053],[136.764,36.068]]]]}},{"type":"Feature","properties":{"name":"下呂市","code":"21220"},"geometry":{"type":"MultiPolygon","coordinates":[[[[137.102,35.926],[137.108,35.914],[137.122,35.911],[137.14,35.883],[137.165,35.86],[137.165,35.847],[137.144,35.851],[137.129,35.846],[137.123,35.833],[137.13,35.804],[137.128,35.777],[137.132,35.769],[137.132,35.741],[137.097,35.726],[137.069,35.72],[137.067,35.704],[137.051,35.694],[137.099,35.679],[137.091,35.631],[137.112,35.621],[137.141,35.625],[137.146,35.631],[137.17,35.637],[137.198,35.657],[137.193,35.668],[137.218,35.682],[137.243,35.675],[137.25,35.69],[137.268,35.698],[137.285,35.691],[137.302,35.702],[137.331,35.711],[137.329,35.741],[137.334,35.764],[137.36,35.796],[137.336,35.799],[137.326,35.812],[137.332,35.841],[137.357,35.843],[137.368,35.861],[137.367,35.877],[137.381,35.892],[137.438,35.905],[137.459,35.889],[137.475,35.894],[137.483,35.914],[137.473,35.918],[137.446,35.941],[137.441,35.959],[137.423,35.971],[137.406,35.969],[137.38,35.948],[137.368,35.945],[137.369,35.97],[137.356,35.976],[137.345,36.002],[137.295,35.986],[137.261,35.987],[137.246,35.997],[137.234,36.022],[137.209,36.026],[137.184,36.037],[137.159,36.021],[137.148,36.004],[137.131,35.996],[137.121,35.985],[137.107,35.956],[137.121,35.948],[137.112,35.931],[137.102,35.926]]]]}},{"type":"Feature","properties":{"name":"海津市","code":"21221"},"geometry":{"type":"MultiPolygon","coordinates":[[[[136.672,35.292],[136.652,35.287],[136.651,35.271],[136.629,35.265],[136.625,35.253],[136.606,35.228],[136.592,35.248],[136.57,35.261],[136.553,35.261],[136.536,35.25],[136.55,35.232],[136.562,35.206],[136.585,35.194],[136.613,35.159],[136.616,35.15],[136.646,35.148],[136.656,35.161],[136.674,35.153],[136.672,35.189],[136.683,35.2],[136.678,35.241],[136.657,35.258],[136.677,35.278],[136.672,35.292]]]]}},{"type":"Feature","properties":{"name":"羽島郡岐南町","code":"21302"},"geometry":{"type":"MultiPolygon","coordinates":[[[[136.763,35.379],[136.778,35.382],[136.799,35.376],[136.819,35.381],[136.813,35.387],[136.804,35.387],[136.786,35.4],[136.769,35.393],[136.763,35.379]]]]}},{"type":"Feature","properties":{"name":"羽島郡笠松町","code":"21303"},"geometry":{"type":"MultiPolygon","coordinates":[[[[136.729,35.357],[136.733,35.349],[136.754,35.345],[136.759,35.357],[136.775,35.37],[136.794,35.366],[136.819,35.381],[136.799,35.376],[136.778,35.382],[136.763,35.379],[136.745,35.364],[136.729,35.357]]]]}},{"type":"Feature","properties":{"name":"養老郡養老町","code":"21341"},"geometry":{"type":"MultiPolygon","coordinates":[[[[136.528,35.258],[136.536,35.25],[136.553,35.261],[136.57,35.261],[136.592,35.248],[136.606,35.228],[136.625,35.253],[136.608,35.263],[136.61,35.294],[136.597,35.301],[136.594,35.319],[136.578,35.341],[136.561,35.344],[136.554,35.335],[136.536,35.333],[136.521,35.333],[136.507,35.322],[136.522,35.301],[136.519,35.293],[136.528,35.258]]]]}},{"type":"Feature","properties":{"name":"不破郡垂井町","code":"21361"},"geometry":{"type":"MultiPolygon","coordinates":[[[[136.536,35.333],[136.554,35.335],[136.561,35.344],[136.561,35.37],[136.546,35.378],[136.549,35.407],[136.523,35.421],[136.517,35.438],[136.497,35.434],[136.489,35.423],[136.471,35.415],[136.464,35.395],[136.502,35.357],[136.511,35.346],[136.523,35.348],[136.536,35.333]]]]}},{"type":"Feature","properties":{"name":"不破郡関ケ原町","code":"21362"},"geometry":{"type":"MultiPolygon","coordinates":[[[[136.502,35.357],[136.464,35.395],[136.444,35.389],[136.437,35.379],[136.412,35.37],[136.422,35.348],[136.411,35.328],[136.412,35.316],[136.403,35.3],[136.42,35.287],[136.43,35.3],[136.455,35.314],[136.455,35.325],[136.466,35.344],[136.481,35.358],[136.502,35.357]]]]}},{"type":"Feature","properties":{"name":"安八郡神戸町","code":"21381"},"geometry":{"type":"MultiPolygon","coordinates":[[[[136.641,35.388],[136.64,35.404],[136.619,35.424],[136.601,35.448],[136.585,35.43],[136.585,35.408],[136.6,35.393],[136.611,35.405],[136.622,35.393],[136.641,35.388]]]]}},{"type":"Feature","properties":{"name":"安八郡輪之内町","code":"21382"},"geometry":{"type":"MultiPolygon","coordinates":[[[[136.61,35.294],[136.608,35.263],[136.625,35.253],[136.629,35.265],[136.651,35.271],[136.652,35.287],[136.672,35.292],[136.665,35.307],[136.639,35.313],[136.61,35.294]]]]}},{"type":"Feature","properties":{"name":"安八郡安八町","code":"21383"},"geometry":{"type":"MultiPolygon","coordinates":[[[[136.673,35.367],[136.653,35.381],[136.658,35.351],[136.652,35.339],[136.638,35.333],[136.639,35.313],[136.665,35.307],[136.669,35.318],[136.685,35.328],[136.689,35.346],[136.673,35.347],[136.673,35.367]]]]}},{"type":"Feature","properties":{"name":"揖斐郡揖斐川町","code":"21401"},"geometry":{"type":"MultiPolygon","coordinates":[[[[136.514,35.762],[136.497,35.766],[136.485,35.775],[136.462,35.779],[136.431,35.775],[136.409,35.78],[136.4,35.789],[136.377,35.795],[136.348,35.78],[136.328,35.775],[136.318,35.751],[136.327,35.732],[136.292,35.684],[136.277,35.651],[136.289,35.621],[136.316,35.623],[136.324,35.617],[136.323,35.57],[136.316,35.556],[136.322,35.544],[136.337,35.55],[136.341,35.537],[136.357,35.54],[136.363,35.558],[136.374,35.559],[136.384,35.533],[136.4,35.53],[136.402,35.513],[136.388,35.497],[136.402,35.47],[136.42,35.466],[136.426,35.448],[136.412,35.419],[136.428,35.401],[136.444,35.389],[136.464,35.395],[136.471,35.415],[136.489,35.423],[136.497,35.434],[136.517,35.438],[136.526,35.463],[136.552,35.472],[136.57,35.472],[136.574,35.462],[136.593,35.46],[136.605,35.474],[136.593,35.487],[136.613,35.492],[136.636,35.505],[136.654,35.51],[136.64,35.523],[136.649,35.528],[136.633,35.548],[136.644,35.554],[136.628,35.571],[136.607,35.579],[136.585,35.578],[136.565,35.586],[136.56,35.601],[136.56,35.628],[136.536,35.645],[136.515,35.676],[136.537,35.698],[136.529,35.717],[136.535,35.731],[136.53,35.751],[136.514,35.762]]]]}},{"type":"Feature","properties":{"name":"揖斐郡大野町","code":"21403"},"geometry":{"type":"MultiPolygon","coordinates":[[[[136.633,35.429],[136.656,35.48],[136.66,35.494],[136.654,35.51],[136.636,35.505],[136.613,35.492],[136.593,35.487],[136.605,35.474],[136.593,35.46],[136.601,35.448],[136.619,35.424],[136.64,35.404],[136.633,35.429]]]]}},{"type":"Feature","properties":{"name":"揖斐郡池田町","code":"21404"},"geometry":{"type":"MultiPolygon","coordinates":[[[[136.585,35.408],[136.585,35.43],[136.601,35.448],[136.593,35.46],[136.574,35.462],[136.57,35.472],[136.552,35.472],[136.526,35.463],[136.517,35.438],[136.523,35.421],[136.549,35.407],[136.563,35.411],[136.585,35.408]]]]}},{"type":"Feature","properties":{"name":"本巣郡北方町","code":"21421"},"geometry":{"type":"MultiPolygon","coordinates":[[[[136.698,35.447],[136.679,35.44],[136.681,35.419],[136.693,35.412],[136.699,35.422],[136.698,35.447]]]]}},{"type":"Feature","properties":{"name":"加茂郡坂祝町","code":"21501"},"geometry":{"type":"MultiPolygon","coordinates":[[[[136.949,35.429],[136.961,35.415],[136.964,35.421],[136.993,35.424],[137.007,35.43],[137.001,35.44],[136.975,35.452],[136.96,35.447],[136.949,35.429]]]]}},{"type":"Feature","properties":{"name":"加茂郡富加町","code":"21502"},"geometry":{"type":"MultiPolygon","coordinates":[[[[136.963,35.468],[136.984,35.471],[137.012,35.487],[136.992,35.508],[136.949,35.507],[136.947,35.499],[136.963,35.468]]]]}},{"type":"Feature","properties":{"name":"加茂郡川辺町","code":"21503"},"geometry":{"type":"MultiPolygon","coordinates":[[[[137.087,35.469],[137.085,35.488],[137.102,35.489],[137.12,35.504],[137.123,35.516],[137.109,35.521],[137.106,35.543],[137.077,35.552],[137.058,35.551],[137.068,35.548],[137.064,35.528],[137.051,35.508],[137.037,35.495],[137.053,35.479],[137.087,35.469]]]]}},{"type":"Feature","properties":{"name":"加茂郡七宗町","code":"21504"},"geometry":{"type":"MultiPolygon","coordinates":[[[[137.044,35.55],[137.058,35.551],[137.077,35.552],[137.106,35.543],[137.109,35.521],[137.123,35.516],[137.134,35.521],[137.146,35.539],[137.167,35.541],[137.185,35.553],[137.174,35.574],[137.154,35.592],[137.142,35.595],[137.158,35.613],[137.141,35.625],[137.112,35.621],[137.091,35.631],[137.064,35.623],[137.053,35.593],[137.071,35.571],[137.044,35.55]]]]}},{"type":"Feature","properties":{"name":"加茂郡八百津町","code":"21505"},"geometry":{"type":"MultiPolygon","coordinates":[[[[137.251,35.464],[137.271,35.496],[137.287,35.508],[137.269,35.527],[137.255,35.531],[137.226,35.553],[137.206,35.546],[137.185,35.553],[137.167,35.541],[137.146,35.539],[137.134,35.521],[137.123,35.516],[137.12,35.504],[137.102,35.489],[137.085,35.488],[137.087,35.469],[137.083,35.449],[137.104,35.465],[137.113,35.458],[137.12,35.452],[137.159,35.453],[137.168,35.467],[137.193,35.474],[137.203,35.47],[137.229,35.473],[137.234,35.458],[137.251,35.464]]]]}},{"type":"Feature","properties":{"name":"加茂郡白川町","code":"21506"},"geometry":{"type":"MultiPolygon","coordinates":[[[[137.393,35.608],[137.359,35.618],[137.333,35.622],[137.318,35.611],[137.282,35.598],[137.263,35.61],[137.261,35.634],[137.288,35.648],[137.297,35.667],[137.314,35.674],[137.32,35.685],[137.344,35.696],[137.331,35.711],[137.302,35.702],[137.285,35.691],[137.268,35.698],[137.25,35.69],[137.243,35.675],[137.218,35.682],[137.193,35.668],[137.198,35.657],[137.17,35.637],[137.146,35.631],[137.141,35.625],[137.158,35.613],[137.142,35.595],[137.154,35.592],[137.174,35.574],[137.185,35.553],[137.206,35.546],[137.226,35.553],[137.255,35.531],[137.269,35.527],[137.323,35.535],[137.342,35.548],[137.348,35.563],[137.369,35.567],[137.386,35.562],[137.399,35.573],[137.388,35.595],[137.393,35.608]]]]}},{"type":"Feature","properties":{"name":"加茂郡東白川村","code":"21507"},"geometry":{"type":"MultiPolygon","coordinates":[[[[137.344,35.696],[137.32,35.685],[137.314,35.674],[137.297,35.667],[137.288,35.648],[137.261,35.634],[137.263,35.61],[137.282,35.598],[137.318,35.611],[137.333,35.622],[137.359,35.618],[137.393,35.608],[137.413,35.626],[137.401,35.646],[137.406,35.661],[137.373,35.672],[137.354,35.695],[137.344,35.696]]]]}},{"type":"Feature","properties":{"name":"可児郡御嵩町","code":"21521"},"geometry":{"type":"MultiPolygon","coordinates":[[[[137.203,35.47],[137.193,35.474],[137.168,35.467],[137.159,35.453],[137.12,35.452],[137.113,35.458],[137.1,35.447],[137.083,35.448],[137.072,35.44],[137.107,35.431],[137.105,35.418],[137.132,35.415],[137.16,35.398],[137.179,35.392],[137.194,35.404],[137.192,35.411],[137.206,35.425],[137.198,35.438],[137.203,35.47]]]]}},{"type":"Feature","properties":{"name":"大野郡白川村","code":"21604"},"geometry":{"type":"MultiPolygon","coordinates":[[[[136.951,36.209],[136.958,36.23],[136.952,36.237],[136.966,36.266],[136.975,36.274],[136.958,36.278],[136.971,36.316],[136.955,36.339],[136.907,36.361],[136.89,36.346],[136.865,36.35],[136.837,36.347],[136.842,36.333],[136.827,36.303],[136.792,36.299],[136.815,36.266],[136.834,36.265],[136.85,36.252],[136.844,36.237],[136.821,36.211],[136.799,36.181],[136.798,36.173],[136.766,36.161],[136.781,36.141],[136.765,36.106],[136.789,36.098],[136.807,36.105],[136.818,36.093],[136.844,36.098],[136.857,36.105],[136.87,36.102],[136.897,36.105],[136.925,36.094],[136.933,36.112],[136.954,36.124],[136.938,36.143],[136.937,36.163],[136.943,36.17],[136.951,36.209]]]]}}]}