{"type":"FeatureCollection","features":[{"type":"Feature","properties":{"name":"静岡市葵区","code":"22101"},"geometry":{"type":"MultiPolygon","coordinates":[[[[138.399,35.2],[138.397,35.205],[138.393,35.214],[138.391,35.22],[138.392,35.225],[138.391,35.229],[138.389,35.233],[138.388,35.237],[138.386,35.245],[138.383,35.25],[138.381,35.253],[138.377,35.256],[138.375,35.26],[138.374,35.263],[138.369,35.269],[138.369,35.277],[138.367,35.281],[138.368,35.286],[138.367,35.29],[138.369,35.296],[138.372,35.299],[138.371,35.305],[138.368,35.31],[138.359,35.313],[138.358,35.318],[138.353,35.317],[138.343,35.318],[138.34,35.322],[138.335,35.327],[138.328,35.328],[138.324,35.327],[138.319,35.324],[138.313,35.323],[138.311,35.32],[138.305,35.318],[138.296,35.317],[138.294,35.312],[138.29,35.309],[138.285,35.304],[138.282,35.305],[138.276,35.307],[138.27,35.314],[138.262,35.315],[138.258,35.316],[138.255,35.32],[138.255,35.324],[138.252,35.326],[138.252,35.329],[138.249,35.332],[138.253,35.334],[138.257,35.339],[138.254,35.345],[138.255,35.348],[138.254,35.353],[138.251,35.358],[138.251,35.364],[138.247,35.367],[138.243,35.366],[138.237,35.37],[138.232,35.371],[138.233,35.377],[138.234,35.38],[138.237,35.384],[138.24,35.388],[138.246,35.391],[138.247,35.395],[138.246,35.4],[138.251,35.403],[138.258,35.407],[138.258,35.412],[138.259,35.422],[138.259,35.431],[138.257,35.437],[138.255,35.441],[138.255,35.445],[138.248,35.447],[138.246,35.453],[138.244,35.459],[138.246,35.463],[138.253,35.466],[138.256,35.473],[138.258,35.476],[138.259,35.48],[138.259,35.485],[138.26,35.489],[138.259,35.493],[138.259,35.5],[138.26,35.506],[138.267,35.513],[138.265,35.52],[138.263,35.523],[138.263,35.527],[138.257,35.531],[138.258,35.535],[138.26,35.543],[138.26,35.546],[138.259,35.553],[138.252,35.556],[138.246,35.561],[138.245,35.569],[138.242,35.573],[138.24,35.576],[138.241,35.58],[138.239,35.583],[138.239,35.587],[138.244,35.592],[138.242,35.599],[138.241,35.605],[138.236,35.606],[138.236,35.613],[138.237,35.619],[138.236,35.622],[138.233,35.623],[138.229,35.625],[138.231,35.636],[138.232,35.64],[138.231,35.643],[138.219,35.645],[138.215,35.639],[138.211,35.635],[138.208,35.633],[138.203,35.632],[138.203,35.626],[138.203,35.619],[138.205,35.613],[138.206,35.608],[138.202,35.604],[138.2,35.6],[138.196,35.595],[138.195,35.592],[138.195,35.589],[138.192,35.585],[138.189,35.581],[138.189,35.577],[138.184,35.573],[138.178,35.575],[138.173,35.582],[138.167,35.583],[138.162,35.581],[138.16,35.576],[138.156,35.572],[138.152,35.571],[138.151,35.566],[138.149,35.563],[138.146,35.557],[138.151,35.553],[138.156,35.552],[138.156,35.548],[138.159,35.545],[138.155,35.539],[138.151,35.536],[138.148,35.535],[138.147,35.53],[138.143,35.527],[138.138,35.522],[138.146,35.519],[138.146,35.514],[138.144,35.51],[138.143,35.506],[138.14,35.501],[138.144,35.501],[138.149,35.5],[138.154,35.496],[138.158,35.494],[138.162,35.495],[138.163,35.491],[138.158,35.486],[138.159,35.483],[138.156,35.477],[138.157,35.473],[138.16,35.471],[138.16,35.468],[138.158,35.463],[138.157,35.46],[138.151,35.459],[138.148,35.46],[138.141,35.459],[138.135,35.454],[138.132,35.453],[138.122,35.456],[138.12,35.452],[138.119,35.446],[138.123,35.44],[138.124,35.436],[138.12,35.431],[138.129,35.427],[138.133,35.426],[138.137,35.424],[138.139,35.42],[138.139,35.416],[138.135,35.414],[138.135,35.408],[138.139,35.406],[138.144,35.406],[138.15,35.399],[138.153,35.395],[138.151,35.39],[138.148,35.388],[138.146,35.384],[138.144,35.376],[138.141,35.369],[138.135,35.367],[138.129,35.365],[138.124,35.368],[138.115,35.365],[138.11,35.361],[138.106,35.358],[138.1,35.354],[138.097,35.354],[138.094,35.35],[138.097,35.344],[138.096,35.34],[138.093,35.34],[138.087,35.338],[138.086,35.33],[138.083,35.327],[138.086,35.321],[138.089,35.318],[138.093,35.314],[138.097,35.312],[138.098,35.304],[138.114,35.301],[138.118,35.297],[138.127,35.293],[138.132,35.287],[138.135,35.286],[138.136,35.282],[138.136,35.276],[138.137,35.272],[138.138,35.267],[138.144,35.265],[138.146,35.261],[138.145,35.257],[138.153,35.257],[138.158,35.256],[138.162,35.256],[138.178,35.26],[138.178,35.256],[138.183,35.252],[138.187,35.249],[138.19,35.249],[138.194,35.249],[138.198,35.245],[138.203,35.24],[138.199,35.236],[138.202,35.231],[138.197,35.226],[138.19,35.219],[138.186,35.217],[138.185,35.214],[138.186,35.208],[138.188,35.204],[138.182,35.203],[138.183,35.198],[138.183,35.193],[138.188,35.196],[138.189,35.193],[138.193,35.19],[138.194,35.187],[138.199,35.189],[138.202,35.193],[138.199,35.197],[138.204,35.198],[138.206,35.203],[138.21,35.201],[138.211,35.204],[138.215,35.204],[138.224,35.199],[138.225,35.193],[138.231,35.188],[138.234,35.18],[138.238,35.177],[138.238,35.172],[138.236,35.167],[138.231,35.16],[138.228,35.158],[138.224,35.16],[138.221,35.159],[138.217,35.154],[138.212,35.149],[138.21,35.145],[138.201,35.144],[138.196,35.144],[138.189,35.14],[138.184,35.136],[138.184,35.129],[138.185,35.125],[138.188,35.12],[138.192,35.111],[138.19,35.106],[138.189,35.094],[138.199,35.088],[138.2,35.081],[138.204,35.078],[138.205,35.075],[138.208,35.072],[138.204,35.067],[138.202,35.064],[138.201,35.057],[138.199,35.05],[138.195,35.046],[138.197,35.04],[138.191,35.036],[138.194,35.031],[138.191,35.023],[138.189,35.015],[138.195,35.011],[138.198,35.01],[138.203,35.01],[138.209,35.009],[138.212,35.013],[138.215,35.016],[138.217,35.01],[138.215,35.004],[138.222,35.005],[138.227,35.007],[138.238,35.003],[138.241,35.0],[138.245,34.997],[138.247,34.994],[138.253,34.992],[138.259,34.993],[138.263,34.989],[138.265,34.981],[138.267,34.976],[138.272,34.973],[138.276,34.971],[138.284,34.968],[138.283,34.963],[138.286,34.959],[138.286,34.956],[138.287,34.951],[138.292,34.95],[138.304,34.954],[138.31,34.955],[138.313,34.96],[138.317,34.961],[138.325,34.962],[138.329,34.961],[138.332,34.961],[138.336,34.962],[138.341,34.962],[138.347,34.96],[138.351,34.966],[138.354,34.97],[138.358,34.97],[138.36,34.966],[138.371,34.957],[138.384,34.97],[138.396,34.975],[138.404,34.979],[138.416,34.986],[138.419,34.987],[138.421,34.99],[138.424,34.997],[138.428,35.001],[138.433,35.003],[138.437,35.006],[138.436,35.01],[138.432,35.009],[138.428,35.013],[138.429,35.016],[138.43,35.021],[138.432,35.024],[138.435,35.033],[138.433,35.037],[138.433,35.042],[138.433,35.052],[138.433,35.057],[138.431,35.061],[138.433,35.068],[138.436,35.077],[138.434,35.08],[138.428,35.084],[138.422,35.086],[138.419,35.091],[138.416,35.094],[138.412,35.093],[138.406,35.09],[138.401,35.092],[138.4,35.096],[138.398,35.1],[138.398,35.105],[138.399,35.112],[138.399,35.118],[138.397,35.122],[138.4,35.127],[138.396,35.135],[138.397,35.14],[138.397,35.143],[138.396,35.148],[138.398,35.151],[138.399,35.159],[138.403,35.163],[138.403,35.168],[138.401,35.172],[138.402,35.179],[138.401,35.183],[138.401,35.187],[138.399,35.192],[138.399,35.2]]]]}},{"type":"Feature","properties":{"name":"静岡市駿河区","code":"22102"},"geometry":{"type":"MultiPolygon","coordinates":[[[[138.292,34.95],[138.292,34.945],[138.295,34.941],[138.295,34.937],[138.299,34.935],[138.306,34.933],[138.31,34.934],[138.315,34.93],[138.316,34.927],[138.317,34.921],[138.322,34.919],[138.326,34.923],[138.33,34.918],[138.333,34.912],[138.336,34.91],[138.34,34.909],[138.344,34.907],[138.34,34.904],[138.343,34.901],[138.348,34.899],[138.35,34.903],[138.355,34.909],[138.355,34.912],[138.365,34.919],[138.369,34.925],[138.371,34.922],[138.382,34.926],[138.388,34.928],[138.395,34.929],[138.402,34.932],[138.407,34.937],[138.411,34.941],[138.416,34.943],[138.428,34.946],[138.438,34.949],[138.448,34.953],[138.454,34.954],[138.47,34.96],[138.475,34.962],[138.473,34.965],[138.472,34.972],[138.465,34.974],[138.459,34.974],[138.455,34.976],[138.454,34.985],[138.45,34.992],[138.448,34.996],[138.444,34.998],[138.439,34.995],[138.437,34.999],[138.437,35.002],[138.437,35.006],[138.433,35.003],[138.428,35.001],[138.424,34.997],[138.424,34.992],[138.419,34.987],[138.416,34.986],[138.404,34.979],[138.396,34.975],[138.385,34.969],[138.371,34.957],[138.363,34.963],[138.358,34.97],[138.354,34.97],[138.351,34.966],[138.348,34.963],[138.341,34.962],[138.336,34.962],[138.332,34.961],[138.329,34.961],[138.325,34.962],[138.317,34.961],[138.313,34.96],[138.31,34.955],[138.304,34.954],[138.294,34.951]]]]}},{"type":"Feature","properties":{"name":"静岡市清水区","code":"22103"},"geometry":{"type":"MultiPolygon","coordinates":[[[[138.437,35.006],[138.437,35.002],[138.437,34.999],[138.439,34.995],[138.444,34.998],[138.448,34.996],[138.45,34.992],[138.454,34.985],[138.455,34.976],[138.459,34.974],[138.463,34.971],[138.472,34.972],[138.473,34.965],[138.475,34.962],[138.478,34.963],[138.496,34.972],[138.508,34.978],[138.511,34.98],[138.513,34.983],[138.518,34.987],[138.521,34.99],[138.527,34.995],[138.527,34.999],[138.529,35.005],[138.533,35.01],[138.532,35.016],[138.529,35.017],[138.522,35.021],[138.516,35.021],[138.518,35.017],[138.519,35.013],[138.511,35.012],[138.505,35.013],[138.503,35.007],[138.506,35.004],[138.501,35.005],[138.511,34.996],[138.511,34.991],[138.508,34.987],[138.501,34.987],[138.502,34.992],[138.498,34.996],[138.498,35.01],[138.496,35.017],[138.491,35.019],[138.491,35.022],[138.495,35.022],[138.496,35.018],[138.499,35.027],[138.497,35.031],[138.497,35.035],[138.5,35.03],[138.5,35.036],[138.503,35.037],[138.506,35.031],[138.506,35.042],[138.511,35.035],[138.511,35.043],[138.515,35.038],[138.524,35.043],[138.519,35.048],[138.529,35.054],[138.534,35.056],[138.536,35.059],[138.539,35.063],[138.543,35.07],[138.547,35.077],[138.549,35.087],[138.552,35.093],[138.556,35.099],[138.559,35.102],[138.57,35.107],[138.575,35.111],[138.579,35.112],[138.586,35.112],[138.592,35.113],[138.601,35.115],[138.612,35.115],[138.618,35.115],[138.624,35.116],[138.632,35.115],[138.639,35.116],[138.632,35.129],[138.63,35.134],[138.618,35.132],[138.613,35.13],[138.607,35.132],[138.6,35.144],[138.596,35.143],[138.592,35.144],[138.581,35.143],[138.577,35.146],[138.572,35.149],[138.568,35.152],[138.565,35.151],[138.559,35.157],[138.552,35.154],[138.548,35.155],[138.539,35.152],[138.538,35.156],[138.536,35.161],[138.533,35.161],[138.529,35.165],[138.526,35.166],[138.526,35.171],[138.524,35.181],[138.52,35.183],[138.519,35.189],[138.52,35.194],[138.522,35.199],[138.517,35.199],[138.514,35.194],[138.512,35.189],[138.506,35.186],[138.501,35.177],[138.496,35.174],[138.491,35.168],[138.488,35.17],[138.484,35.174],[138.478,35.176],[138.472,35.176],[138.461,35.179],[138.457,35.178],[138.452,35.179],[138.441,35.179],[138.431,35.18],[138.427,35.183],[138.427,35.186],[138.425,35.19],[138.419,35.198],[138.416,35.199],[138.408,35.203],[138.403,35.201],[138.399,35.2],[138.399,35.195],[138.401,35.187],[138.401,35.183],[138.402,35.179],[138.401,35.172],[138.403,35.168],[138.403,35.163],[138.399,35.159],[138.398,35.151],[138.396,35.148],[138.397,35.143],[138.397,35.14],[138.396,35.135],[138.4,35.13],[138.397,35.122],[138.397,35.118],[138.4,35.113],[138.399,35.107],[138.398,35.1],[138.4,35.096],[138.401,35.092],[138.406,35.09],[138.412,35.093],[138.416,35.094],[138.419,35.091],[138.422,35.086],[138.428,35.084],[138.434,35.08],[138.436,35.077],[138.431,35.07],[138.433,35.063],[138.432,35.058],[138.433,35.052],[138.435,35.044],[138.433,35.037],[138.435,35.033],[138.432,35.024],[138.43,35.021],[138.429,35.016],[138.428,35.013],[138.432,35.009],[138.436,35.01],[138.437,35.006]]]]}},{"type":"Feature","properties":{"name":"浜松市中区","code":"22131"},"geometry":{"type":"MultiPolygon","coordinates":[[[[137.733,34.754],[137.721,34.762],[137.714,34.768],[137.703,34.78],[137.699,34.783],[137.692,34.78],[137.686,34.779],[137.682,34.776],[137.681,34.772],[137.684,34.772],[137.693,34.765],[137.689,34.762],[137.689,34.756],[137.702,34.749],[137.701,34.744],[137.699,34.74],[137.693,34.733],[137.689,34.732],[137.688,34.727],[137.689,34.722],[137.692,34.722],[137.697,34.72],[137.695,34.716],[137.69,34.705],[137.696,34.701],[137.701,34.701],[137.698,34.696],[137.701,34.697],[137.71,34.695],[137.716,34.693],[137.716,34.689],[137.715,34.684],[137.725,34.68],[137.732,34.682],[137.733,34.685],[137.732,34.691],[137.736,34.694],[137.74,34.693],[137.744,34.697],[137.752,34.693],[137.755,34.702],[137.759,34.701],[137.757,34.706],[137.754,34.707],[137.754,34.71],[137.751,34.717],[137.752,34.721],[137.751,34.724],[137.753,34.732],[137.753,34.741],[137.75,34.746],[137.744,34.747],[137.74,34.75],[137.737,34.748],[137.735,34.753]]]]}},{"type":"Feature","properties":{"name":"浜松市東区","code":"22132"},"geometry":{"type":"MultiPolygon","coordinates":[[[[137.757,34.706],[137.76,34.709],[137.765,34.709],[137.771,34.711],[137.778,34.716],[137.778,34.712],[137.787,34.713],[137.803,34.716],[137.803,34.719],[137.806,34.73],[137.813,34.748],[137.819,34.757],[137.823,34.775],[137.811,34.778],[137.811,34.785],[137.807,34.786],[137.803,34.786],[137.8,34.781],[137.8,34.778],[137.791,34.773],[137.786,34.775],[137.786,34.78],[137.781,34.778],[137.777,34.778],[137.775,34.783],[137.766,34.781],[137.764,34.776],[137.756,34.776],[137.748,34.78],[137.742,34.781],[137.738,34.78],[137.737,34.774],[137.734,34.768],[137.736,34.763],[137.733,34.758],[137.733,34.754],[137.737,34.748],[137.74,34.75],[137.744,34.747],[137.75,34.746],[137.753,34.741],[137.753,34.732],[137.751,34.724],[137.754,34.724],[137.751,34.717],[137.754,34.71],[137.754,34.707],[137.757,34.706]]]]}},{"type":"Feature","properties":{"name":"浜松市西区","code":"22133"},"geometry":{"type":"MultiPolygon","coordinates":[[[[137.699,34.783],[137.692,34.788],[137.687,34.786],[137.683,34.784],[137.68,34.788],[137.673,34.786],[137.669,34.784],[137.667,34.781],[137.658,34.779],[137.654,34.778],[137.649,34.778],[137.64,34.779],[137.636,34.778],[137.629,34.779],[137.625,34.778],[137.621,34.781],[137.611,34.777],[137.604,34.773],[137.594,34.771],[137.588,34.766],[137.58,34.756],[137.571,34.745],[137.566,34.74],[137.568,34.736],[137.57,34.731],[137.57,34.723],[137.572,34.72],[137.573,34.716],[137.576,34.708],[137.583,34.704],[137.588,34.701],[137.591,34.695],[137.599,34.692],[137.597,34.687],[137.598,34.678],[137.609,34.676],[137.623,34.676],[137.646,34.674],[137.657,34.672],[137.66,34.672],[137.677,34.67],[137.677,34.68],[137.676,34.685],[137.675,34.688],[137.672,34.692],[137.684,34.695],[137.687,34.693],[137.7,34.696],[137.701,34.701],[137.696,34.701],[137.69,34.702],[137.696,34.713],[137.697,34.717],[137.693,34.72],[137.689,34.722],[137.688,34.727],[137.689,34.732],[137.693,34.733],[137.699,34.74],[137.701,34.744],[137.702,34.749],[137.688,34.754],[137.689,34.762],[137.693,34.765],[137.686,34.769],[137.681,34.772],[137.682,34.776],[137.686,34.779],[137.692,34.78],[137.699,34.783]]]]}},{"type":"Feature","properties":{"name":"浜松市南区","code":"22134"},"geometry":{"type":"MultiPolygon","coordinates":[[[[137.7,34.696],[137.69,34.695],[137.684,34.695],[137.675,34.695],[137.675,34.688],[137.676,34.685],[137.677,34.68],[137.677,34.67],[137.687,34.668],[137.696,34.667],[137.715,34.664],[137.728,34.662],[137.744,34.659],[137.749,34.658],[137.752,34.655],[137.757,34.654],[137.764,34.653],[137.769,34.65],[137.777,34.648],[137.782,34.648],[137.792,34.648],[137.799,34.646],[137.79,34.65],[137.79,34.653],[137.787,34.656],[137.787,34.662],[137.787,34.666],[137.788,34.67],[137.79,34.674],[137.79,34.681],[137.793,34.685],[137.795,34.697],[137.8,34.698],[137.8,34.701],[137.803,34.716],[137.788,34.715],[137.778,34.712],[137.779,34.715],[137.77,34.712],[137.765,34.709],[137.76,34.709],[137.757,34.706],[137.761,34.703],[137.755,34.702],[137.754,34.693],[137.744,34.697],[137.743,34.693],[137.736,34.694],[137.732,34.691],[137.733,34.685],[137.732,34.682],[137.727,34.683],[137.715,34.684],[137.716,34.689],[137.716,34.693],[137.71,34.695],[137.701,34.697]]]]}},{"type":"Feature","properties":{"name":"浜松市北区","code":"22135"},"geometry":{"type":"MultiPolygon","coordinates":[[[[137.733,34.754],[137.733,34.758],[137.736,34.763],[137.734,34.768],[137.737,34.774],[137.737,34.78],[137.74,34.784],[137.737,34.789],[137.741,34.793],[137.743,34.797],[137.745,34.803],[137.748,34.807],[137.75,34.81],[137.753,34.814],[137.754,34.82],[137.758,34.827],[137.762,34.834],[137.759,34.837],[137.754,34.84],[137.749,34.842],[137.745,34.843],[137.738,34.842],[137.734,34.843],[137.731,34.846],[137.732,34.851],[137.738,34.854],[137.742,34.857],[137.742,34.862],[137.745,34.864],[137.745,34.87],[137.741,34.87],[137.742,34.877],[137.743,34.88],[137.744,34.886],[137.744,34.89],[137.746,34.894],[137.746,34.899],[137.738,34.899],[137.734,34.902],[137.73,34.903],[137.725,34.905],[137.718,34.907],[137.716,34.913],[137.718,34.918],[137.715,34.924],[137.715,34.927],[137.711,34.928],[137.706,34.932],[137.702,34.933],[137.701,34.938],[137.704,34.942],[137.706,34.945],[137.704,34.949],[137.706,34.956],[137.707,34.96],[137.704,34.968],[137.696,34.971],[137.694,34.968],[137.69,34.964],[137.69,34.957],[137.686,34.955],[137.68,34.952],[137.678,34.948],[137.675,34.945],[137.671,34.948],[137.663,34.947],[137.66,34.945],[137.656,34.94],[137.651,34.933],[137.653,34.925],[137.649,34.92],[137.647,34.916],[137.648,34.912],[137.646,34.908],[137.64,34.905],[137.641,34.9],[137.642,34.896],[137.641,34.893],[137.636,34.89],[137.634,34.885],[137.629,34.883],[137.621,34.879],[137.617,34.878],[137.613,34.875],[137.609,34.875],[137.598,34.873],[137.597,34.869],[137.596,34.864],[137.595,34.859],[137.59,34.853],[137.587,34.85],[137.583,34.85],[137.577,34.851],[137.574,34.85],[137.565,34.852],[137.559,34.851],[137.552,34.852],[137.544,34.845],[137.539,34.842],[137.534,34.844],[137.53,34.844],[137.524,34.841],[137.521,34.837],[137.51,34.834],[137.503,34.833],[137.5,34.831],[137.499,34.827],[137.502,34.823],[137.495,34.819],[137.494,34.815],[137.487,34.812],[137.49,34.806],[137.494,34.804],[137.493,34.797],[137.492,34.792],[137.493,34.787],[137.497,34.784],[137.502,34.779],[137.512,34.771],[137.517,34.772],[137.523,34.77],[137.531,34.771],[137.542,34.773],[137.548,34.769],[137.545,34.765],[137.545,34.762],[137.548,34.753],[137.551,34.749],[137.555,34.746],[137.566,34.741],[137.571,34.745],[137.58,34.756],[137.588,34.766],[137.594,34.771],[137.604,34.773],[137.611,34.777],[137.621,34.781],[137.625,34.778],[137.629,34.779],[137.636,34.778],[137.64,34.779],[137.649,34.778],[137.654,34.778],[137.658,34.779],[137.667,34.781],[137.669,34.784],[137.673,34.786],[137.68,34.788],[137.683,34.784],[137.687,34.786],[137.69,34.788],[137.699,34.783],[137.703,34.78],[137.714,34.768],[137.721,34.763],[137.733,34.754]]]]}},{"type":"Feature","properties":{"name":"浜松市浜北区","code":"22136"},"geometry":{"type":"MultiPolygon","coordinates":[[[[137.823,34.775],[137.827,34.782],[137.828,34.79],[137.825,34.794],[137.823,34.802],[137.827,34.821],[137.827,34.829],[137.826,34.841],[137.824,34.855],[137.815,34.856],[137.81,34.855],[137.811,34.847],[137.811,34.843],[137.809,34.84],[137.808,34.845],[137.806,34.848],[137.805,34.851],[137.801,34.855],[137.796,34.854],[137.793,34.857],[137.788,34.852],[137.782,34.849],[137.778,34.851],[137.773,34.854],[137.768,34.859],[137.767,34.864],[137.77,34.867],[137.765,34.873],[137.76,34.875],[137.756,34.877],[137.751,34.878],[137.75,34.882],[137.746,34.891],[137.746,34.894],[137.744,34.89],[137.744,34.886],[137.745,34.883],[137.742,34.877],[137.74,34.872],[137.745,34.87],[137.747,34.867],[137.742,34.862],[137.739,34.859],[137.738,34.854],[137.732,34.851],[137.731,34.846],[137.734,34.843],[137.738,34.842],[137.745,34.843],[137.749,34.842],[137.754,34.84],[137.759,34.837],[137.762,34.834],[137.758,34.827],[137.754,34.82],[137.753,34.814],[137.75,34.81],[137.748,34.807],[137.745,34.803],[137.744,34.799],[137.743,34.794],[137.74,34.791],[137.738,34.786],[137.738,34.78],[137.742,34.781],[137.748,34.78],[137.754,34.778],[137.764,34.776],[137.767,34.779],[137.775,34.783],[137.777,34.778],[137.781,34.778],[137.786,34.78],[137.786,34.775],[137.791,34.773],[137.8,34.778],[137.8,34.781],[137.803,34.786],[137.807,34.786],[137.811,34.785],[137.81,34.78],[137.823,34.775]]]]}},{"type":"Feature","properties":{"name":"浜松市天竜区","code":"22137"},"geometry":{"type":"MultiPolygon","coordinates":[[[[137.746,34.894],[137.746,34.891],[137.75,34.882],[137.751,34.878],[137.756,34.877],[137.758,34.874],[137.764,34.875],[137.769,34.869],[137.767,34.864],[137.769,34.861],[137.771,34.856],[137.778,34.851],[137.782,34.849],[137.788,34.852],[137.793,34.857],[137.796,34.854],[137.801,34.855],[137.803,34.852],[137.806,34.848],[137.808,34.845],[137.806,34.841],[137.811,34.843],[137.811,34.847],[137.81,34.855],[137.815,34.856],[137.823,34.856],[137.826,34.857],[137.836,34.862],[137.839,34.862],[137.843,34.866],[137.848,34.869],[137.852,34.868],[137.856,34.87],[137.855,34.875],[137.86,34.876],[137.867,34.878],[137.873,34.879],[137.877,34.879],[137.883,34.881],[137.889,34.881],[137.892,34.881],[137.898,34.882],[137.904,34.888],[137.906,34.891],[137.909,34.891],[137.914,34.892],[137.917,34.891],[137.92,34.893],[137.92,34.898],[137.919,34.902],[137.915,34.903],[137.907,34.907],[137.908,34.911],[137.903,34.917],[137.906,34.921],[137.908,34.925],[137.908,34.929],[137.912,34.929],[137.916,34.927],[137.926,34.935],[137.928,34.94],[137.933,34.943],[137.938,34.947],[137.943,34.946],[137.948,34.949],[137.955,34.947],[137.962,34.948],[137.965,34.955],[137.968,34.955],[137.971,34.959],[137.977,34.958],[137.981,34.958],[137.985,34.963],[137.98,34.966],[137.983,34.966],[137.99,34.965],[137.993,34.969],[137.997,34.968],[138.001,34.965],[138.004,34.967],[138.003,34.972],[138.01,34.976],[138.011,34.981],[138.015,34.984],[138.019,34.987],[138.023,34.988],[138.029,34.991],[138.031,34.995],[138.036,34.999],[138.033,35.004],[138.033,35.009],[138.026,35.013],[138.026,35.017],[138.021,35.019],[138.018,35.022],[138.013,35.023],[138.019,35.026],[138.024,35.025],[138.029,35.028],[138.032,35.031],[138.04,35.035],[138.043,35.036],[138.047,35.039],[138.048,35.043],[138.047,35.049],[138.043,35.053],[138.044,35.057],[138.043,35.06],[138.038,35.067],[138.045,35.073],[138.046,35.078],[138.044,35.084],[138.045,35.088],[138.048,35.093],[138.05,35.096],[138.054,35.102],[138.056,35.106],[138.054,35.11],[138.049,35.112],[138.045,35.114],[138.042,35.118],[138.036,35.125],[138.03,35.127],[138.026,35.128],[138.021,35.127],[138.018,35.128],[138.011,35.128],[138.007,35.135],[138.007,35.139],[138.006,35.143],[138.002,35.144],[138.002,35.152],[137.998,35.156],[138.0,35.16],[137.999,35.163],[138.001,35.167],[138.005,35.168],[138.005,35.173],[138.008,35.178],[138.016,35.187],[138.021,35.194],[138.028,35.196],[138.027,35.201],[138.036,35.211],[138.034,35.219],[138.035,35.225],[138.034,35.228],[138.03,35.231],[138.027,35.233],[138.02,35.237],[138.017,35.239],[138.012,35.242],[138.014,35.247],[138.014,35.25],[138.013,35.259],[138.008,35.26],[138.003,35.259],[138.001,35.264],[138.008,35.268],[138.011,35.272],[138.014,35.274],[138.012,35.277],[138.014,35.281],[138.013,35.286],[138.012,35.289],[138.014,35.292],[138.018,35.295],[138.019,35.301],[138.016,35.303],[138.006,35.304],[138.001,35.303],[137.998,35.303],[137.992,35.302],[137.984,35.296],[137.982,35.292],[137.973,35.293],[137.97,35.289],[137.967,35.284],[137.964,35.285],[137.96,35.283],[137.952,35.283],[137.947,35.28],[137.944,35.276],[137.939,35.276],[137.932,35.276],[137.928,35.27],[137.926,35.265],[137.925,35.26],[137.919,35.254],[137.913,35.253],[137.907,35.254],[137.899,35.256],[137.895,35.258],[137.894,35.254],[137.888,35.252],[137.884,35.25],[137.884,35.244],[137.883,35.24],[137.885,35.236],[137.882,35.231],[137.88,35.226],[137.877,35.222],[137.873,35.219],[137.865,35.222],[137.859,35.223],[137.854,35.222],[137.845,35.221],[137.841,35.216],[137.838,35.217],[137.838,35.212],[137.829,35.212],[137.831,35.205],[137.824,35.205],[137.82,35.197],[137.817,35.193],[137.817,35.188],[137.807,35.188],[137.804,35.185],[137.805,35.179],[137.81,35.175],[137.816,35.175],[137.825,35.168],[137.822,35.161],[137.824,35.156],[137.827,35.155],[137.829,35.152],[137.822,35.148],[137.818,35.15],[137.814,35.151],[137.812,35.148],[137.812,35.144],[137.815,35.14],[137.81,35.137],[137.808,35.133],[137.801,35.131],[137.799,35.135],[137.793,35.135],[137.792,35.129],[137.797,35.127],[137.799,35.124],[137.798,35.118],[137.801,35.107],[137.795,35.103],[137.793,35.096],[137.786,35.096],[137.78,35.098],[137.776,35.094],[137.775,35.087],[137.774,35.084],[137.776,35.078],[137.773,35.076],[137.768,35.072],[137.764,35.072],[137.762,35.069],[137.758,35.068],[137.755,35.065],[137.751,35.064],[137.745,35.06],[137.74,35.057],[137.736,35.051],[137.735,35.048],[137.731,35.045],[137.729,35.04],[137.723,35.039],[137.717,35.035],[137.717,35.027],[137.713,35.025],[137.711,35.021],[137.707,35.018],[137.703,35.007],[137.701,35.004],[137.702,34.998],[137.707,34.996],[137.705,34.992],[137.7,34.985],[137.702,34.98],[137.707,34.972],[137.704,34.97],[137.707,34.963],[137.709,34.957],[137.704,34.949],[137.706,34.945],[137.704,34.942],[137.701,34.938],[137.702,34.933],[137.706,34.932],[137.711,34.928],[137.715,34.927],[137.715,34.924],[137.718,34.918],[137.716,34.913],[137.716,34.909],[137.723,34.907],[137.73,34.903],[137.734,34.902],[137.738,34.899],[137.743,34.9],[137.746,34.894]]]]}},{"type":"Feature","properties":{"name":"沼津市","code":"22203"},"geometry":{"type":"MultiPolygon","coordinates":[[[[138.888,35.113],[138.887,35.127],[138.893,35.129],[138.891,35.135],[138.887,35.136],[138.882,35.142],[138.879,35.144],[138.875,35.142],[138.869,35.149],[138.865,35.152],[138.863,35.156],[138.863,35.16],[138.86,35.163],[138.86,35.167],[138.854,35.172],[138.851,35.175],[138.846,35.179],[138.839,35.184],[138.837,35.189],[138.832,35.199],[138.827,35.203],[138.824,35.205],[138.823,35.209],[138.818,35.211],[138.814,35.216],[138.812,35.219],[138.805,35.21],[138.802,35.21],[138.793,35.204],[138.788,35.199],[138.783,35.195],[138.772,35.189],[138.769,35.183],[138.768,35.174],[138.765,35.169],[138.769,35.167],[138.774,35.166],[138.778,35.166],[138.776,35.163],[138.774,35.158],[138.771,35.15],[138.769,35.143],[138.766,35.138],[138.762,35.141],[138.756,35.14],[138.755,35.136],[138.753,35.132],[138.769,35.128],[138.784,35.124],[138.794,35.121],[138.808,35.116],[138.818,35.112],[138.826,35.108],[138.834,35.104],[138.839,35.1],[138.845,35.095],[138.851,35.087],[138.856,35.079],[138.86,35.074],[138.868,35.074],[138.874,35.069],[138.876,35.066],[138.879,35.059],[138.883,35.055],[138.884,35.051],[138.887,35.047],[138.892,35.048],[138.892,35.052],[138.901,35.051],[138.904,35.048],[138.899,35.041],[138.892,35.031],[138.893,35.028],[138.898,35.025],[138.897,35.02],[138.892,35.017],[138.889,35.019],[138.885,35.019],[138.886,35.024],[138.883,35.025],[138.882,35.021],[138.878,35.021],[138.877,35.025],[138.874,35.025],[138.871,35.021],[138.863,35.021],[138.858,35.021],[138.854,35.019],[138.85,35.017],[138.844,35.014],[138.843,35.018],[138.839,35.017],[138.831,35.02],[138.829,35.024],[138.822,35.024],[138.814,35.023],[138.802,35.021],[138.798,35.024],[138.79,35.025],[138.785,35.027],[138.783,35.02],[138.78,35.018],[138.778,35.013],[138.779,35.007],[138.78,35.001],[138.775,34.997],[138.773,34.993],[138.772,34.987],[138.769,34.982],[138.774,34.979],[138.775,34.975],[138.777,34.971],[138.77,34.971],[138.762,34.972],[138.762,34.969],[138.763,34.963],[138.765,34.959],[138.766,34.952],[138.774,34.944],[138.776,34.939],[138.784,34.939],[138.79,34.94],[138.797,34.944],[138.805,34.948],[138.812,34.945],[138.816,34.949],[138.822,34.949],[138.829,34.948],[138.833,34.946],[138.838,34.944],[138.837,34.95],[138.839,34.953],[138.837,34.96],[138.839,34.963],[138.836,34.97],[138.837,34.973],[138.842,34.975],[138.848,34.976],[138.85,34.979],[138.857,34.984],[138.862,34.984],[138.865,34.986],[138.876,34.989],[138.879,34.992],[138.883,34.995],[138.884,34.998],[138.888,35.0],[138.89,35.004],[138.896,35.002],[138.899,35.006],[138.902,35.006],[138.908,35.008],[138.903,35.014],[138.906,35.017],[138.91,35.021],[138.912,35.026],[138.908,35.027],[138.903,35.032],[138.906,35.035],[138.91,35.036],[138.911,35.041],[138.908,35.049],[138.909,35.054],[138.906,35.059],[138.913,35.062],[138.916,35.069],[138.922,35.071],[138.923,35.076],[138.92,35.075],[138.914,35.077],[138.918,35.08],[138.915,35.083],[138.91,35.081],[138.907,35.083],[138.902,35.08],[138.894,35.077],[138.891,35.077],[138.888,35.084],[138.889,35.088],[138.886,35.092],[138.885,35.095],[138.884,35.1],[138.889,35.102],[138.889,35.105],[138.89,35.11]]]]}},{"type":"Feature","properties":{"name":"熱海市","code":"22205"},"geometry":{"type":"MultiPolygon","coordinates":[[[[139.17,35.043],[139.167,35.038],[139.172,35.037],[139.177,35.04],[139.173,35.042],[139.17,35.043]]],[[[139.099,35.031],[139.099,35.037],[139.1,35.045],[139.095,35.049],[139.089,35.048],[139.086,35.045],[139.083,35.046],[139.074,35.047],[139.069,35.053],[139.071,35.059],[139.075,35.061],[139.077,35.067],[139.08,35.069],[139.078,35.073],[139.074,35.079],[139.082,35.086],[139.08,35.092],[139.076,35.091],[139.077,35.098],[139.082,35.101],[139.087,35.107],[139.087,35.111],[139.097,35.117],[139.1,35.121],[139.104,35.126],[139.109,35.13],[139.11,35.135],[139.11,35.139],[139.109,35.142],[139.101,35.14],[139.093,35.141],[139.09,35.14],[139.084,35.141],[139.078,35.143],[139.073,35.145],[139.066,35.144],[139.06,35.146],[139.054,35.147],[139.049,35.15],[139.042,35.15],[139.037,35.15],[139.03,35.15],[139.034,35.145],[139.035,35.138],[139.039,35.137],[139.042,35.132],[139.041,35.128],[139.045,35.124],[139.041,35.121],[139.036,35.119],[139.036,35.114],[139.035,35.11],[139.036,35.105],[139.034,35.1],[139.032,35.094],[139.031,35.09],[139.034,35.085],[139.028,35.082],[139.029,35.077],[139.03,35.071],[139.032,35.067],[139.039,35.061],[139.038,35.058],[139.033,35.058],[139.032,35.053],[139.034,35.049],[139.034,35.046],[139.038,35.042],[139.037,35.038],[139.038,35.035],[139.043,35.033],[139.051,35.03],[139.058,35.029],[139.063,35.027],[139.066,35.027],[139.072,35.025],[139.076,35.027],[139.08,35.031],[139.083,35.03],[139.085,35.033],[139.091,35.037],[139.093,35.033],[139.099,35.031]]]]}},{"type":"Feature","properties":{"name":"三島市","code":"22206"},"geometry":{"type":"MultiPolygon","coordinates":[[[[138.923,35.076],[138.925,35.079],[138.935,35.088],[138.935,35.091],[138.945,35.09],[138.948,35.094],[138.95,35.097],[138.951,35.101],[138.953,35.106],[138.954,35.11],[138.956,35.113],[138.961,35.116],[138.967,35.122],[138.973,35.129],[138.974,35.133],[138.979,35.137],[138.982,35.139],[138.99,35.143],[138.99,35.146],[138.992,35.151],[138.997,35.152],[138.999,35.156],[139.003,35.161],[139.002,35.165],[139.003,35.169],[139.007,35.173],[139.009,35.176],[139.013,35.179],[139.014,35.182],[139.009,35.183],[139.003,35.188],[138.998,35.189],[138.994,35.186],[138.988,35.184],[138.985,35.181],[138.98,35.181],[138.974,35.18],[138.969,35.18],[138.964,35.18],[138.958,35.177],[138.953,35.174],[138.949,35.171],[138.946,35.171],[138.942,35.172],[138.939,35.172],[138.935,35.173],[138.93,35.171],[138.925,35.171],[138.921,35.169],[138.916,35.164],[138.913,35.16],[138.908,35.156],[138.906,35.152],[138.905,35.149],[138.907,35.144],[138.908,35.141],[138.91,35.135],[138.911,35.132],[138.91,35.128],[138.905,35.12],[138.905,35.114],[138.907,35.11],[138.91,35.105],[138.912,35.101],[138.913,35.098],[138.913,35.092],[138.91,35.088],[138.906,35.086],[138.91,35.081],[138.915,35.083],[138.919,35.081],[138.913,35.079],[138.92,35.075],[138.923,35.076]]]]}},{"type":"Feature","properties":{"name":"富士宮市","code":"22207"},"geometry":{"type":"MultiPolygon","coordinates":[[[[138.558,35.159],[138.559,35.163],[138.56,35.168],[138.559,35.174],[138.561,35.177],[138.558,35.185],[138.564,35.187],[138.564,35.191],[138.576,35.196],[138.588,35.195],[138.591,35.193],[138.594,35.189],[138.597,35.19],[138.602,35.193],[138.606,35.19],[138.608,35.184],[138.615,35.179],[138.621,35.183],[138.625,35.187],[138.628,35.191],[138.633,35.193],[138.634,35.19],[138.639,35.185],[138.645,35.185],[138.641,35.19],[138.64,35.194],[138.637,35.196],[138.633,35.204],[138.634,35.207],[138.638,35.211],[138.643,35.212],[138.648,35.217],[138.653,35.217],[138.652,35.211],[138.659,35.212],[138.664,35.21],[138.666,35.217],[138.665,35.221],[138.666,35.224],[138.664,35.23],[138.662,35.234],[138.659,35.241],[138.666,35.247],[138.67,35.248],[138.673,35.251],[138.678,35.257],[138.684,35.261],[138.692,35.265],[138.7,35.27],[138.703,35.27],[138.704,35.275],[138.712,35.278],[138.715,35.276],[138.719,35.28],[138.719,35.283],[138.716,35.284],[138.72,35.29],[138.724,35.289],[138.729,35.295],[138.727,35.301],[138.73,35.307],[138.732,35.313],[138.735,35.317],[138.74,35.323],[138.742,35.328],[138.74,35.337],[138.737,35.345],[138.736,35.352],[138.732,35.359],[138.731,35.363],[138.725,35.365],[138.719,35.365],[138.713,35.364],[138.7,35.363],[138.699,35.36],[138.694,35.359],[138.689,35.359],[138.681,35.358],[138.671,35.393],[138.663,35.398],[138.639,35.398],[138.623,35.395],[138.618,35.395],[138.614,35.394],[138.609,35.393],[138.601,35.419],[138.598,35.432],[138.592,35.436],[138.589,35.437],[138.583,35.443],[138.578,35.443],[138.57,35.439],[138.566,35.436],[138.559,35.434],[138.556,35.426],[138.553,35.423],[138.547,35.419],[138.538,35.414],[138.532,35.409],[138.531,35.402],[138.532,35.397],[138.536,35.39],[138.535,35.386],[138.528,35.379],[138.53,35.37],[138.53,35.364],[138.531,35.361],[138.531,35.354],[138.529,35.35],[138.531,35.346],[138.535,35.341],[138.535,35.331],[138.527,35.326],[138.525,35.322],[138.512,35.314],[138.513,35.308],[138.514,35.305],[138.517,35.298],[138.518,35.291],[138.522,35.283],[138.521,35.279],[138.52,35.275],[138.52,35.271],[138.515,35.267],[138.514,35.262],[138.517,35.259],[138.521,35.255],[138.521,35.251],[138.524,35.242],[138.527,35.233],[138.532,35.223],[138.527,35.217],[138.531,35.211],[138.532,35.208],[138.533,35.201],[138.528,35.198],[138.522,35.199],[138.52,35.194],[138.519,35.19],[138.52,35.183],[138.524,35.181],[138.526,35.171],[138.526,35.166],[138.529,35.165],[138.533,35.161],[138.536,35.161],[138.538,35.156],[138.539,35.152],[138.545,35.153],[138.552,35.154],[138.556,35.155],[138.558,35.159]]]]}},{"type":"Feature","properties":{"name":"伊東市","code":"22208"},"geometry":{"type":"MultiPolygon","coordinates":[[[[139.051,35.03],[139.047,35.028],[139.041,35.021],[139.047,35.013],[139.046,35.01],[139.041,35.005],[139.04,35.001],[139.039,34.997],[139.038,34.993],[139.042,34.99],[139.054,34.983],[139.057,34.985],[139.062,34.984],[139.067,34.985],[139.068,34.982],[139.069,34.978],[139.064,34.973],[139.06,34.972],[139.057,34.97],[139.053,34.968],[139.053,34.962],[139.057,34.962],[139.057,34.958],[139.055,34.953],[139.05,34.95],[139.046,34.944],[139.045,34.94],[139.045,34.933],[139.043,34.929],[139.048,34.925],[139.048,34.921],[139.051,34.916],[139.058,34.909],[139.054,34.908],[139.046,34.898],[139.042,34.894],[139.039,34.89],[139.036,34.887],[139.035,34.884],[139.042,34.878],[139.044,34.875],[139.049,34.873],[139.052,34.872],[139.055,34.87],[139.056,34.867],[139.062,34.865],[139.063,34.861],[139.066,34.86],[139.068,34.856],[139.074,34.852],[139.083,34.853],[139.087,34.858],[139.092,34.856],[139.098,34.858],[139.099,34.863],[139.104,34.87],[139.111,34.87],[139.118,34.872],[139.123,34.875],[139.13,34.878],[139.132,34.884],[139.135,34.888],[139.139,34.891],[139.14,34.894],[139.136,34.896],[139.133,34.896],[139.134,34.903],[139.139,34.907],[139.14,34.917],[139.14,34.921],[139.146,34.93],[139.146,34.934],[139.144,34.939],[139.145,34.943],[139.146,34.946],[139.147,34.954],[139.143,34.956],[139.139,34.953],[139.135,34.951],[139.13,34.955],[139.129,34.96],[139.128,34.964],[139.127,34.967],[139.119,34.973],[139.112,34.973],[139.106,34.97],[139.1,34.973],[139.095,34.978],[139.095,34.984],[139.094,34.989],[139.09,34.993],[139.085,34.998],[139.083,35.001],[139.084,35.005],[139.091,35.008],[139.096,35.007],[139.1,35.009],[139.098,35.014],[139.098,35.023],[139.099,35.026],[139.099,35.031],[139.093,35.033],[139.091,35.037],[139.085,35.033],[139.083,35.03],[139.08,35.031],[139.076,35.027],[139.072,35.025],[139.068,35.026],[139.063,35.027],[139.058,35.028],[139.051,35.03]]]]}},{"type":"Feature","properties":{"name":"島田市","code":"22209"},"geometry":{"type":"MultiPolygon","coordinates":[[[[138.199,35.05],[138.197,35.055],[138.189,35.06],[138.185,35.064],[138.178,35.061],[138.175,35.063],[138.172,35.061],[138.173,35.058],[138.172,35.053],[138.169,35.053],[138.165,35.053],[138.163,35.05],[138.158,35.05],[138.159,35.054],[138.161,35.058],[138.153,35.063],[138.15,35.061],[138.146,35.057],[138.147,35.051],[138.14,35.042],[138.138,35.039],[138.135,35.031],[138.129,35.029],[138.127,35.026],[138.129,35.021],[138.122,35.016],[138.123,35.013],[138.121,35.008],[138.121,35.005],[138.119,35.0],[138.116,34.999],[138.111,35.0],[138.108,34.996],[138.105,34.997],[138.103,34.991],[138.101,34.984],[138.102,34.979],[138.098,34.981],[138.095,34.978],[138.091,34.976],[138.089,34.972],[138.086,34.975],[138.084,34.981],[138.079,34.981],[138.076,34.981],[138.076,34.988],[138.076,34.991],[138.071,34.997],[138.067,34.997],[138.063,35.0],[138.059,35.0],[138.055,35.001],[138.049,34.999],[138.045,34.999],[138.036,34.999],[138.031,34.995],[138.029,34.991],[138.025,34.99],[138.019,34.987],[138.015,34.984],[138.011,34.981],[138.011,34.977],[138.01,34.974],[138.014,34.97],[138.012,34.963],[138.015,34.957],[138.014,34.952],[138.016,34.948],[138.015,34.943],[138.012,34.94],[138.018,34.939],[138.021,34.935],[138.026,34.937],[138.028,34.932],[138.036,34.932],[138.038,34.928],[138.043,34.925],[138.042,34.92],[138.043,34.917],[138.047,34.912],[138.052,34.908],[138.057,34.907],[138.056,34.904],[138.056,34.9],[138.056,34.895],[138.053,34.891],[138.052,34.887],[138.049,34.885],[138.046,34.882],[138.045,34.874],[138.046,34.868],[138.047,34.864],[138.048,34.859],[138.052,34.858],[138.055,34.859],[138.061,34.857],[138.066,34.858],[138.07,34.857],[138.069,34.853],[138.071,34.847],[138.07,34.844],[138.075,34.843],[138.079,34.843],[138.086,34.84],[138.093,34.84],[138.095,34.836],[138.099,34.832],[138.097,34.828],[138.098,34.821],[138.101,34.819],[138.102,34.813],[138.106,34.813],[138.11,34.811],[138.115,34.805],[138.117,34.801],[138.121,34.794],[138.13,34.801],[138.13,34.804],[138.134,34.807],[138.136,34.797],[138.139,34.794],[138.142,34.793],[138.146,34.792],[138.151,34.795],[138.155,34.798],[138.159,34.802],[138.162,34.801],[138.167,34.801],[138.172,34.8],[138.18,34.797],[138.184,34.799],[138.19,34.797],[138.193,34.797],[138.198,34.794],[138.204,34.793],[138.214,34.788],[138.22,34.787],[138.224,34.787],[138.232,34.786],[138.23,34.791],[138.237,34.791],[138.237,34.797],[138.234,34.801],[138.238,34.802],[138.245,34.8],[138.251,34.803],[138.245,34.809],[138.237,34.816],[138.224,34.823],[138.218,34.825],[138.22,34.828],[138.223,34.829],[138.229,34.83],[138.232,34.841],[138.228,34.839],[138.221,34.84],[138.216,34.839],[138.213,34.837],[138.221,34.844],[138.216,34.847],[138.212,34.85],[138.209,34.851],[138.211,34.86],[138.207,34.862],[138.205,34.865],[138.201,34.867],[138.199,34.873],[138.2,34.88],[138.197,34.883],[138.191,34.886],[138.19,34.889],[138.186,34.89],[138.182,34.892],[138.179,34.896],[138.174,34.895],[138.17,34.899],[138.166,34.899],[138.163,34.902],[138.164,34.906],[138.166,34.914],[138.158,34.917],[138.153,34.922],[138.153,34.925],[138.152,34.928],[138.157,34.934],[138.158,34.938],[138.16,34.941],[138.158,34.95],[138.162,34.953],[138.163,34.957],[138.161,34.965],[138.165,34.967],[138.165,34.973],[138.169,34.975],[138.174,34.976],[138.182,34.98],[138.181,34.989],[138.185,34.996],[138.19,35.0],[138.189,35.005],[138.185,35.01],[138.185,35.014],[138.189,35.015],[138.188,35.022],[138.192,35.028],[138.193,35.034],[138.197,35.04],[138.195,35.046],[138.199,35.05]]]]}},{"type":"Feature","properties":{"name":"富士市","code":"22210"},"geometry":{"type":"MultiPolygon","coordinates":[[[[138.639,35.116],[138.645,35.118],[138.65,35.12],[138.655,35.121],[138.662,35.124],[138.667,35.125],[138.674,35.128],[138.68,35.132],[138.687,35.133],[138.694,35.134],[138.698,35.134],[138.693,35.139],[138.685,35.144],[138.689,35.144],[138.696,35.145],[138.701,35.143],[138.696,35.14],[138.699,35.136],[138.703,35.136],[138.709,35.137],[138.718,35.136],[138.721,35.136],[138.732,35.134],[138.738,35.134],[138.753,35.132],[138.755,35.136],[138.756,35.14],[138.762,35.141],[138.766,35.138],[138.769,35.143],[138.772,35.149],[138.773,35.157],[138.776,35.163],[138.778,35.166],[138.774,35.166],[138.769,35.167],[138.763,35.167],[138.768,35.174],[138.77,35.18],[138.772,35.189],[138.781,35.196],[138.786,35.196],[138.791,35.202],[138.8,35.207],[138.805,35.21],[138.81,35.217],[138.812,35.221],[138.806,35.225],[138.803,35.227],[138.8,35.228],[138.796,35.228],[138.795,35.232],[138.794,35.238],[138.789,35.245],[138.789,35.25],[138.783,35.254],[138.778,35.261],[138.766,35.283],[138.759,35.297],[138.759,35.308],[138.749,35.331],[138.746,35.336],[138.742,35.34],[138.739,35.344],[138.737,35.352],[138.732,35.359],[138.734,35.353],[138.737,35.345],[138.74,35.337],[138.742,35.328],[138.74,35.323],[138.736,35.319],[138.732,35.313],[138.73,35.307],[138.729,35.303],[138.726,35.297],[138.724,35.289],[138.72,35.29],[138.716,35.284],[138.719,35.283],[138.719,35.28],[138.718,35.275],[138.712,35.278],[138.704,35.275],[138.703,35.27],[138.7,35.27],[138.693,35.267],[138.684,35.261],[138.68,35.258],[138.673,35.253],[138.67,35.248],[138.666,35.247],[138.659,35.241],[138.66,35.236],[138.664,35.23],[138.666,35.224],[138.665,35.221],[138.666,35.217],[138.664,35.21],[138.659,35.212],[138.654,35.209],[138.653,35.217],[138.648,35.217],[138.643,35.212],[138.641,35.208],[138.634,35.207],[138.633,35.204],[138.635,35.197],[138.641,35.195],[138.641,35.19],[138.645,35.185],[138.641,35.184],[138.637,35.188],[138.633,35.193],[138.628,35.191],[138.625,35.187],[138.622,35.186],[138.616,35.182],[138.61,35.182],[138.606,35.19],[138.602,35.193],[138.597,35.19],[138.594,35.189],[138.591,35.193],[138.588,35.195],[138.576,35.196],[138.567,35.191],[138.563,35.188],[138.558,35.185],[138.561,35.177],[138.559,35.174],[138.56,35.168],[138.559,35.163],[138.558,35.159],[138.564,35.153],[138.568,35.152],[138.572,35.149],[138.577,35.147],[138.581,35.143],[138.592,35.144],[138.596,35.143],[138.6,35.144],[138.605,35.134],[138.613,35.13],[138.617,35.129],[138.63,35.134],[138.632,35.129],[138.639,35.116]]]]}},{"type":"Feature","properties":{"name":"磐田市","code":"22211"},"geometry":{"type":"MultiPolygon","coordinates":[[[[137.803,34.716],[137.8,34.701],[137.8,34.698],[137.795,34.698],[137.793,34.685],[137.79,34.681],[137.79,34.674],[137.79,34.671],[137.787,34.666],[137.787,34.662],[137.787,34.656],[137.788,34.653],[137.797,34.648],[137.804,34.647],[137.814,34.648],[137.82,34.65],[137.828,34.653],[137.835,34.655],[137.853,34.658],[137.873,34.661],[137.895,34.664],[137.902,34.667],[137.907,34.666],[137.912,34.666],[137.908,34.676],[137.908,34.68],[137.912,34.683],[137.91,34.691],[137.906,34.69],[137.901,34.691],[137.898,34.695],[137.894,34.694],[137.896,34.698],[137.9,34.702],[137.897,34.706],[137.902,34.711],[137.903,34.718],[137.899,34.727],[137.899,34.732],[137.902,34.736],[137.898,34.745],[137.896,34.749],[137.891,34.746],[137.887,34.75],[137.886,34.754],[137.888,34.76],[137.886,34.766],[137.888,34.77],[137.887,34.774],[137.879,34.778],[137.869,34.778],[137.865,34.778],[137.86,34.787],[137.857,34.796],[137.856,34.801],[137.851,34.806],[137.85,34.81],[137.854,34.81],[137.858,34.814],[137.862,34.814],[137.869,34.817],[137.873,34.822],[137.874,34.827],[137.873,34.831],[137.876,34.833],[137.873,34.837],[137.876,34.839],[137.88,34.839],[137.884,34.845],[137.88,34.85],[137.879,34.854],[137.881,34.858],[137.884,34.858],[137.888,34.861],[137.892,34.866],[137.893,34.87],[137.897,34.875],[137.901,34.876],[137.904,34.88],[137.909,34.882],[137.91,34.885],[137.909,34.891],[137.906,34.891],[137.904,34.888],[137.898,34.884],[137.895,34.883],[137.889,34.881],[137.883,34.881],[137.877,34.879],[137.873,34.879],[137.867,34.878],[137.862,34.878],[137.855,34.875],[137.856,34.87],[137.852,34.868],[137.848,34.869],[137.844,34.868],[137.841,34.865],[137.836,34.862],[137.829,34.859],[137.823,34.856],[137.826,34.841],[137.827,34.829],[137.827,34.821],[137.823,34.802],[137.824,34.796],[137.828,34.79],[137.827,34.782],[137.823,34.775],[137.819,34.757],[137.813,34.748],[137.806,34.73],[137.803,34.719],[137.803,34.716]]]]}},{"type":"Feature","properties":{"name":"焼津市","code":"22212"},"geometry":{"type":"MultiPolygon","coordinates":[[[[138.319,34.92],[138.314,34.915],[138.32,34.915],[138.326,34.914],[138.326,34.908],[138.321,34.905],[138.313,34.906],[138.306,34.902],[138.303,34.898],[138.299,34.895],[138.293,34.897],[138.293,34.893],[138.298,34.891],[138.296,34.887],[138.291,34.88],[138.296,34.878],[138.294,34.875],[138.289,34.873],[138.282,34.874],[138.28,34.87],[138.276,34.864],[138.28,34.864],[138.278,34.856],[138.283,34.851],[138.282,34.845],[138.279,34.842],[138.275,34.839],[138.278,34.831],[138.284,34.828],[138.279,34.826],[138.274,34.821],[138.265,34.822],[138.258,34.825],[138.254,34.821],[138.25,34.819],[138.245,34.816],[138.241,34.818],[138.237,34.816],[138.245,34.809],[138.251,34.803],[138.26,34.795],[138.271,34.786],[138.294,34.767],[138.304,34.777],[138.3,34.776],[138.295,34.776],[138.289,34.781],[138.292,34.785],[138.295,34.779],[138.301,34.779],[138.303,34.784],[138.31,34.793],[138.32,34.805],[138.322,34.809],[138.326,34.813],[138.33,34.819],[138.334,34.824],[138.337,34.828],[138.338,34.832],[138.338,34.838],[138.337,34.841],[138.335,34.845],[138.332,34.848],[138.325,34.852],[138.326,34.856],[138.328,34.859],[138.328,34.867],[138.324,34.873],[138.328,34.874],[138.334,34.87],[138.331,34.874],[138.334,34.878],[138.338,34.881],[138.338,34.884],[138.34,34.889],[138.348,34.896],[138.343,34.901],[138.34,34.904],[138.344,34.907],[138.34,34.909],[138.336,34.91],[138.333,34.912],[138.33,34.915],[138.326,34.923],[138.322,34.919],[138.319,34.92]]]]}},{"type":"Feature","properties":{"name":"掛川市","code":"22213"},"geometry":{"type":"MultiPolygon","coordinates":[[[[138.042,34.92],[138.035,34.917],[138.033,34.913],[138.028,34.915],[138.023,34.913],[138.019,34.915],[138.014,34.913],[138.011,34.914],[138.011,34.908],[138.004,34.9],[137.997,34.897],[137.994,34.893],[137.99,34.887],[137.989,34.884],[137.983,34.878],[137.978,34.876],[137.975,34.873],[137.97,34.87],[137.969,34.867],[137.965,34.865],[137.962,34.861],[137.962,34.856],[137.959,34.855],[137.957,34.848],[137.958,34.843],[137.955,34.842],[137.954,34.837],[137.951,34.835],[137.947,34.831],[137.947,34.828],[137.946,34.824],[137.941,34.821],[137.941,34.816],[137.944,34.813],[137.943,34.803],[137.94,34.798],[137.938,34.79],[137.94,34.786],[137.944,34.784],[137.95,34.778],[137.952,34.773],[137.957,34.768],[137.962,34.766],[137.958,34.758],[137.959,34.755],[137.964,34.755],[137.968,34.751],[137.972,34.753],[137.978,34.746],[137.981,34.747],[137.985,34.745],[137.989,34.744],[137.992,34.747],[137.996,34.744],[138.001,34.745],[138.007,34.741],[138.01,34.737],[138.006,34.734],[137.999,34.731],[137.996,34.73],[137.989,34.727],[137.984,34.724],[137.979,34.723],[137.976,34.716],[137.983,34.717],[137.978,34.711],[137.985,34.711],[137.978,34.706],[137.973,34.705],[137.965,34.7],[137.964,34.692],[137.961,34.692],[137.956,34.69],[137.953,34.688],[137.956,34.684],[137.961,34.679],[137.965,34.679],[137.965,34.676],[137.968,34.67],[137.97,34.665],[137.976,34.664],[137.983,34.664],[137.99,34.662],[137.998,34.662],[138.008,34.66],[138.016,34.658],[138.025,34.656],[138.032,34.655],[138.046,34.652],[138.057,34.649],[138.062,34.647],[138.067,34.646],[138.078,34.642],[138.08,34.65],[138.081,34.657],[138.084,34.661],[138.085,34.669],[138.087,34.673],[138.084,34.677],[138.08,34.677],[138.078,34.681],[138.073,34.679],[138.072,34.683],[138.07,34.689],[138.067,34.695],[138.071,34.695],[138.075,34.7],[138.078,34.703],[138.073,34.704],[138.068,34.708],[138.067,34.712],[138.064,34.715],[138.058,34.719],[138.056,34.726],[138.053,34.731],[138.046,34.734],[138.051,34.736],[138.049,34.74],[138.056,34.741],[138.062,34.746],[138.061,34.752],[138.055,34.755],[138.056,34.759],[138.051,34.762],[138.053,34.767],[138.057,34.77],[138.063,34.77],[138.063,34.775],[138.067,34.775],[138.071,34.779],[138.077,34.781],[138.079,34.786],[138.085,34.794],[138.085,34.798],[138.089,34.803],[138.093,34.803],[138.098,34.805],[138.101,34.81],[138.102,34.817],[138.098,34.821],[138.098,34.826],[138.099,34.832],[138.095,34.836],[138.093,34.84],[138.088,34.842],[138.079,34.843],[138.075,34.843],[138.07,34.844],[138.071,34.847],[138.069,34.853],[138.07,34.857],[138.066,34.858],[138.061,34.857],[138.055,34.859],[138.052,34.858],[138.048,34.859],[138.048,34.862],[138.047,34.867],[138.045,34.874],[138.046,34.882],[138.049,34.885],[138.052,34.887],[138.053,34.891],[138.056,34.895],[138.056,34.9],[138.056,34.904],[138.057,34.907],[138.052,34.908],[138.05,34.911],[138.046,34.915],[138.042,34.92]]]]}},{"type":"Feature","properties":{"name":"藤枝市","code":"22214"},"geometry":{"type":"MultiPolygon","coordinates":[[[[138.189,35.015],[138.185,35.014],[138.185,35.01],[138.189,35.005],[138.19,35.0],[138.187,34.997],[138.181,34.989],[138.182,34.983],[138.176,34.979],[138.169,34.975],[138.165,34.973],[138.165,34.967],[138.161,34.965],[138.16,34.959],[138.162,34.953],[138.158,34.95],[138.16,34.941],[138.158,34.938],[138.157,34.934],[138.152,34.928],[138.153,34.925],[138.153,34.922],[138.158,34.917],[138.164,34.916],[138.167,34.909],[138.163,34.902],[138.166,34.899],[138.17,34.899],[138.174,34.895],[138.178,34.897],[138.182,34.892],[138.186,34.89],[138.19,34.889],[138.191,34.886],[138.195,34.882],[138.2,34.88],[138.199,34.873],[138.199,34.869],[138.202,34.865],[138.207,34.862],[138.211,34.86],[138.209,34.854],[138.212,34.85],[138.216,34.847],[138.22,34.846],[138.212,34.839],[138.216,34.839],[138.221,34.84],[138.225,34.839],[138.232,34.841],[138.23,34.833],[138.223,34.829],[138.22,34.828],[138.218,34.825],[138.224,34.823],[138.237,34.816],[138.241,34.818],[138.245,34.816],[138.249,34.819],[138.254,34.821],[138.258,34.825],[138.262,34.824],[138.274,34.821],[138.279,34.826],[138.284,34.828],[138.278,34.831],[138.275,34.839],[138.279,34.842],[138.284,34.843],[138.283,34.851],[138.279,34.854],[138.28,34.862],[138.276,34.864],[138.277,34.868],[138.282,34.874],[138.287,34.874],[138.294,34.875],[138.296,34.878],[138.291,34.88],[138.296,34.887],[138.298,34.891],[138.295,34.892],[138.293,34.897],[138.299,34.895],[138.303,34.898],[138.306,34.902],[138.312,34.907],[138.321,34.905],[138.326,34.908],[138.326,34.913],[138.322,34.914],[138.314,34.915],[138.318,34.917],[138.317,34.921],[138.316,34.927],[138.315,34.93],[138.31,34.934],[138.306,34.933],[138.299,34.935],[138.295,34.937],[138.295,34.941],[138.292,34.945],[138.292,34.95],[138.287,34.951],[138.287,34.955],[138.286,34.959],[138.283,34.963],[138.284,34.968],[138.276,34.971],[138.272,34.973],[138.268,34.973],[138.268,34.98],[138.263,34.989],[138.261,34.992],[138.254,34.991],[138.247,34.994],[138.245,34.997],[138.241,35.0],[138.238,35.003],[138.23,35.004],[138.224,35.006],[138.215,35.004],[138.217,35.01],[138.216,35.014],[138.211,35.014],[138.209,35.009],[138.203,35.01],[138.198,35.01],[138.195,35.011],[138.19,35.015]]]]}},{"type":"Feature","properties":{"name":"御殿場市","code":"22215"},"geometry":{"type":"MultiPolygon","coordinates":[[[[138.732,35.359],[138.737,35.352],[138.739,35.344],[138.742,35.34],[138.746,35.336],[138.749,35.331],[138.757,35.327],[138.759,35.324],[138.768,35.32],[138.774,35.315],[138.773,35.306],[138.776,35.302],[138.781,35.298],[138.785,35.297],[138.789,35.292],[138.794,35.291],[138.8,35.286],[138.796,35.277],[138.798,35.273],[138.805,35.269],[138.81,35.266],[138.817,35.265],[138.823,35.264],[138.828,35.265],[138.834,35.266],[138.838,35.267],[138.847,35.273],[138.853,35.276],[138.857,35.275],[138.867,35.279],[138.868,35.282],[138.875,35.28],[138.875,35.277],[138.874,35.273],[138.878,35.268],[138.882,35.264],[138.884,35.257],[138.885,35.254],[138.889,35.252],[138.893,35.251],[138.898,35.247],[138.896,35.237],[138.899,35.233],[138.903,35.229],[138.91,35.228],[138.915,35.221],[138.92,35.222],[138.925,35.221],[138.924,35.217],[138.929,35.22],[138.94,35.226],[138.953,35.23],[138.957,35.23],[138.964,35.229],[138.971,35.232],[138.976,35.236],[138.979,35.239],[138.976,35.244],[138.974,35.248],[138.976,35.252],[138.974,35.256],[138.976,35.26],[138.975,35.264],[138.979,35.268],[138.982,35.273],[138.986,35.278],[138.993,35.285],[138.99,35.29],[138.984,35.293],[138.978,35.298],[138.975,35.3],[138.973,35.305],[138.966,35.311],[138.964,35.314],[138.965,35.32],[138.971,35.324],[138.972,35.33],[138.966,35.33],[138.962,35.332],[138.952,35.334],[138.946,35.336],[138.942,35.339],[138.938,35.339],[138.933,35.339],[138.929,35.341],[138.92,35.344],[138.915,35.344],[138.911,35.347],[138.905,35.347],[138.9,35.345],[138.897,35.347],[138.892,35.346],[138.899,35.349],[138.902,35.35],[138.904,35.355],[138.9,35.354],[138.892,35.355],[138.888,35.358],[138.885,35.355],[138.888,35.351],[138.888,35.348],[138.886,35.342],[138.884,35.337],[138.884,35.333],[138.881,35.335],[138.878,35.335],[138.872,35.338],[138.869,35.341],[138.864,35.346],[138.859,35.346],[138.856,35.348],[138.848,35.349],[138.845,35.348],[138.837,35.348],[138.833,35.35],[138.828,35.35],[138.811,35.352],[138.801,35.352],[138.786,35.353],[138.776,35.354],[138.732,35.36]]]]}},{"type":"Feature","properties":{"name":"袋井市","code":"22216"},"geometry":{"type":"MultiPolygon","coordinates":[[[[137.912,34.666],[137.921,34.668],[137.925,34.668],[137.931,34.668],[137.95,34.667],[137.968,34.665],[137.968,34.67],[137.968,34.673],[137.965,34.679],[137.961,34.679],[137.958,34.682],[137.953,34.688],[137.956,34.69],[137.961,34.69],[137.964,34.692],[137.965,34.7],[137.97,34.702],[137.978,34.706],[137.985,34.709],[137.98,34.71],[137.983,34.715],[137.979,34.718],[137.979,34.723],[137.984,34.724],[137.989,34.727],[137.996,34.73],[137.999,34.731],[138.006,34.734],[138.01,34.737],[138.007,34.741],[138.002,34.742],[137.999,34.745],[137.992,34.747],[137.989,34.744],[137.985,34.745],[137.981,34.747],[137.978,34.746],[137.972,34.75],[137.968,34.751],[137.964,34.755],[137.959,34.755],[137.958,34.758],[137.963,34.764],[137.957,34.768],[137.952,34.773],[137.95,34.778],[137.944,34.784],[137.94,34.786],[137.938,34.79],[137.94,34.798],[137.943,34.803],[137.944,34.813],[137.941,34.816],[137.941,34.821],[137.935,34.821],[137.932,34.813],[137.93,34.808],[137.926,34.808],[137.922,34.802],[137.92,34.797],[137.916,34.797],[137.913,34.796],[137.908,34.793],[137.907,34.798],[137.902,34.796],[137.9,34.793],[137.897,34.788],[137.893,34.787],[137.889,34.786],[137.884,34.786],[137.887,34.788],[137.885,34.792],[137.891,34.801],[137.89,34.805],[137.891,34.808],[137.891,34.814],[137.886,34.815],[137.88,34.813],[137.874,34.818],[137.873,34.822],[137.869,34.817],[137.863,34.816],[137.858,34.814],[137.854,34.81],[137.85,34.81],[137.851,34.806],[137.853,34.801],[137.857,34.796],[137.858,34.79],[137.862,34.781],[137.869,34.778],[137.879,34.778],[137.884,34.775],[137.888,34.77],[137.888,34.766],[137.888,34.76],[137.888,34.757],[137.887,34.75],[137.891,34.746],[137.896,34.749],[137.898,34.745],[137.902,34.736],[137.899,34.732],[137.901,34.728],[137.903,34.718],[137.902,34.711],[137.897,34.706],[137.898,34.702],[137.896,34.698],[137.894,34.694],[137.898,34.695],[137.901,34.691],[137.906,34.69],[137.91,34.691],[137.912,34.686],[137.908,34.683],[137.907,34.677],[137.912,34.666]]]]}},{"type":"Feature","properties":{"name":"下田市","code":"22219"},"geometry":{"type":"MultiPolygon","coordinates":[[[[138.993,34.718],[138.988,34.717],[138.981,34.717],[138.977,34.721],[138.973,34.72],[138.965,34.723],[138.962,34.728],[138.965,34.732],[138.964,34.736],[138.959,34.743],[138.955,34.747],[138.952,34.747],[138.949,34.747],[138.946,34.752],[138.942,34.752],[138.942,34.758],[138.945,34.761],[138.946,34.765],[138.941,34.768],[138.937,34.767],[138.933,34.765],[138.929,34.767],[138.926,34.766],[138.923,34.771],[138.918,34.772],[138.914,34.77],[138.91,34.772],[138.907,34.772],[138.901,34.773],[138.896,34.774],[138.893,34.768],[138.892,34.764],[138.891,34.759],[138.888,34.753],[138.881,34.748],[138.878,34.742],[138.872,34.741],[138.869,34.742],[138.863,34.741],[138.859,34.737],[138.858,34.732],[138.854,34.728],[138.852,34.722],[138.846,34.715],[138.849,34.712],[138.851,34.708],[138.855,34.707],[138.862,34.705],[138.87,34.704],[138.873,34.705],[138.878,34.703],[138.887,34.701],[138.892,34.7],[138.894,34.696],[138.896,34.69],[138.892,34.689],[138.889,34.686],[138.884,34.682],[138.886,34.678],[138.885,34.675],[138.891,34.674],[138.894,34.674],[138.899,34.673],[138.902,34.672],[138.901,34.668],[138.899,34.662],[138.898,34.658],[138.897,34.655],[138.893,34.652],[138.893,34.648],[138.895,34.642],[138.9,34.642],[138.903,34.637],[138.903,34.633],[138.905,34.629],[138.909,34.634],[138.912,34.635],[138.914,34.641],[138.917,34.645],[138.916,34.648],[138.918,34.653],[138.924,34.655],[138.93,34.66],[138.938,34.662],[138.936,34.666],[138.94,34.668],[138.944,34.665],[138.948,34.666],[138.949,34.673],[138.953,34.674],[138.957,34.676],[138.96,34.676],[138.964,34.673],[138.959,34.67],[138.958,34.663],[138.956,34.655],[138.959,34.655],[138.964,34.654],[138.973,34.655],[138.977,34.653],[138.982,34.659],[138.985,34.662],[138.987,34.667],[138.981,34.667],[138.978,34.67],[138.973,34.674],[138.974,34.677],[138.977,34.676],[138.98,34.681],[138.977,34.685],[138.973,34.688],[138.973,34.691],[138.974,34.695],[138.977,34.704],[138.98,34.709],[138.984,34.713],[138.988,34.715],[138.993,34.718]]]]}},{"type":"Feature","properties":{"name":"裾野市","code":"22220"},"geometry":{"type":"MultiPolygon","coordinates":[[[[139.002,35.19],[138.998,35.194],[138.993,35.199],[138.988,35.201],[138.986,35.206],[138.988,35.209],[138.988,35.213],[138.982,35.218],[138.984,35.222],[138.981,35.228],[138.98,35.233],[138.976,35.236],[138.971,35.232],[138.964,35.229],[138.959,35.229],[138.953,35.23],[138.94,35.226],[138.93,35.223],[138.924,35.217],[138.925,35.221],[138.92,35.222],[138.917,35.22],[138.913,35.226],[138.905,35.227],[138.9,35.231],[138.897,35.235],[138.898,35.247],[138.893,35.251],[138.889,35.252],[138.885,35.254],[138.884,35.257],[138.881,35.262],[138.878,35.268],[138.874,35.273],[138.875,35.277],[138.875,35.28],[138.868,35.282],[138.867,35.279],[138.857,35.275],[138.853,35.276],[138.847,35.273],[138.84,35.269],[138.834,35.266],[138.828,35.265],[138.823,35.264],[138.817,35.265],[138.812,35.264],[138.807,35.267],[138.798,35.273],[138.796,35.277],[138.8,35.284],[138.796,35.291],[138.789,35.292],[138.785,35.297],[138.781,35.298],[138.776,35.302],[138.773,35.306],[138.774,35.315],[138.768,35.32],[138.762,35.323],[138.757,35.327],[138.752,35.331],[138.759,35.308],[138.759,35.297],[138.766,35.283],[138.778,35.261],[138.783,35.254],[138.787,35.253],[138.789,35.245],[138.792,35.239],[138.796,35.234],[138.796,35.228],[138.8,35.228],[138.803,35.227],[138.806,35.225],[138.811,35.223],[138.818,35.22],[138.825,35.215],[138.829,35.214],[138.831,35.211],[138.836,35.208],[138.841,35.206],[138.851,35.203],[138.855,35.2],[138.859,35.196],[138.863,35.195],[138.865,35.192],[138.87,35.186],[138.871,35.18],[138.88,35.176],[138.883,35.172],[138.887,35.171],[138.89,35.166],[138.894,35.165],[138.898,35.16],[138.902,35.159],[138.899,35.154],[138.904,35.15],[138.908,35.156],[138.913,35.16],[138.916,35.162],[138.92,35.166],[138.925,35.171],[138.93,35.171],[138.933,35.173],[138.939,35.172],[138.942,35.172],[138.946,35.171],[138.949,35.171],[138.953,35.174],[138.958,35.177],[138.964,35.18],[138.969,35.18],[138.974,35.18],[138.98,35.181],[138.985,35.181],[138.988,35.184],[138.994,35.186],[138.998,35.189],[139.002,35.19]]]]}},{"type":"Feature","properties":{"name":"湖西市","code":"22221"},"geometry":{"type":"MultiPolygon","coordinates":[[[[137.566,34.74],[137.555,34.746],[137.551,34.749],[137.548,34.753],[137.547,34.759],[137.545,34.765],[137.548,34.769],[137.542,34.773],[137.534,34.773],[137.525,34.768],[137.517,34.772],[137.512,34.771],[137.504,34.777],[137.497,34.783],[137.493,34.787],[137.489,34.784],[137.482,34.782],[137.479,34.779],[137.477,34.775],[137.479,34.771],[137.477,34.768],[137.478,34.76],[137.477,34.757],[137.475,34.751],[137.476,34.746],[137.481,34.741],[137.48,34.736],[137.481,34.731],[137.481,34.727],[137.483,34.72],[137.487,34.717],[137.49,34.711],[137.49,34.706],[137.492,34.702],[137.49,34.694],[137.488,34.687],[137.485,34.684],[137.486,34.68],[137.485,34.674],[137.489,34.674],[137.522,34.677],[137.544,34.679],[137.571,34.68],[137.582,34.68],[137.59,34.678],[137.595,34.678],[137.599,34.684],[137.599,34.691],[137.591,34.695],[137.588,34.699],[137.583,34.704],[137.576,34.708],[137.573,34.716],[137.572,34.72],[137.57,34.723],[137.57,34.731],[137.568,34.736],[137.566,34.74]]]]}},{"type":"Feature","properties":{"name":"伊豆市","code":"22222"},"geometry":{"type":"MultiPolygon","coordinates":[[[[138.776,34.939],[138.778,34.933],[138.778,34.928],[138.785,34.92],[138.786,34.916],[138.79,34.91],[138.789,34.906],[138.786,34.906],[138.781,34.901],[138.777,34.897],[138.773,34.895],[138.77,34.897],[138.766,34.896],[138.764,34.892],[138.757,34.885],[138.757,34.879],[138.758,34.87],[138.755,34.869],[138.758,34.863],[138.762,34.861],[138.766,34.862],[138.767,34.859],[138.774,34.861],[138.779,34.86],[138.774,34.867],[138.779,34.871],[138.784,34.872],[138.79,34.873],[138.795,34.874],[138.807,34.874],[138.812,34.874],[138.818,34.876],[138.822,34.881],[138.829,34.883],[138.833,34.882],[138.835,34.878],[138.835,34.872],[138.839,34.869],[138.84,34.865],[138.846,34.862],[138.852,34.861],[138.856,34.859],[138.86,34.856],[138.865,34.857],[138.87,34.849],[138.875,34.848],[138.878,34.849],[138.883,34.847],[138.888,34.844],[138.892,34.841],[138.893,34.835],[138.898,34.834],[138.905,34.834],[138.913,34.827],[138.919,34.828],[138.927,34.83],[138.934,34.83],[138.938,34.832],[138.944,34.83],[138.949,34.832],[138.956,34.835],[138.963,34.838],[138.966,34.842],[138.963,34.845],[138.961,34.85],[138.965,34.853],[138.969,34.853],[138.973,34.854],[138.978,34.858],[138.985,34.857],[138.989,34.86],[138.995,34.86],[139.0,34.863],[139.005,34.862],[139.01,34.862],[139.017,34.862],[139.021,34.86],[139.026,34.871],[139.034,34.877],[139.034,34.881],[139.036,34.887],[139.039,34.89],[139.042,34.894],[139.044,34.898],[139.053,34.905],[139.058,34.909],[139.051,34.916],[139.048,34.921],[139.048,34.925],[139.043,34.929],[139.045,34.933],[139.045,34.94],[139.046,34.944],[139.05,34.948],[139.055,34.953],[139.057,34.958],[139.057,34.962],[139.053,34.962],[139.054,34.967],[139.057,34.97],[139.06,34.972],[139.064,34.973],[139.069,34.978],[139.068,34.982],[139.067,34.985],[139.062,34.984],[139.057,34.985],[139.054,34.983],[139.044,34.988],[139.038,34.991],[139.039,34.994],[139.038,34.999],[139.041,35.005],[139.044,35.007],[139.047,35.013],[139.041,35.015],[139.037,35.015],[139.035,35.011],[139.03,35.008],[139.028,35.005],[139.023,35.004],[139.019,35.006],[139.019,35.01],[139.012,35.013],[139.006,35.01],[139.0,35.012],[138.994,35.012],[138.989,35.008],[138.984,35.004],[138.977,35.003],[138.972,35.003],[138.963,35.003],[138.96,35.001],[138.952,34.998],[138.949,34.996],[138.942,34.992],[138.938,34.989],[138.935,34.993],[138.933,34.997],[138.928,34.994],[138.925,35.001],[138.923,34.998],[138.92,34.995],[138.923,34.994],[138.919,34.991],[138.914,34.995],[138.909,34.997],[138.908,35.001],[138.91,35.008],[138.902,35.006],[138.899,35.006],[138.896,35.002],[138.89,35.004],[138.889,35.001],[138.884,34.998],[138.883,34.995],[138.879,34.992],[138.876,34.989],[138.865,34.986],[138.862,34.984],[138.857,34.984],[138.85,34.979],[138.848,34.976],[138.844,34.975],[138.837,34.973],[138.836,34.97],[138.839,34.963],[138.837,34.96],[138.839,34.955],[138.837,34.95],[138.838,34.944],[138.833,34.946],[138.829,34.946],[138.824,34.948],[138.819,34.948],[138.812,34.945],[138.805,34.948],[138.8,34.946],[138.791,34.942],[138.784,34.939],[138.776,34.939]]]]}},{"type":"Feature","properties":{"name":"御前崎市","code":"22223"},"geometry":{"type":"MultiPolygon","coordinates":[[[[138.209,34.622],[138.213,34.621],[138.219,34.618],[138.222,34.622],[138.219,34.627],[138.215,34.625],[138.209,34.622]]],[[[138.078,34.642],[138.086,34.64],[138.102,34.635],[138.115,34.63],[138.138,34.622],[138.146,34.618],[138.153,34.615],[138.158,34.615],[138.179,34.608],[138.188,34.603],[138.192,34.601],[138.199,34.601],[138.207,34.6],[138.216,34.598],[138.22,34.596],[138.227,34.595],[138.233,34.599],[138.234,34.605],[138.228,34.607],[138.227,34.611],[138.225,34.607],[138.222,34.607],[138.217,34.61],[138.22,34.614],[138.217,34.613],[138.209,34.621],[138.201,34.62],[138.195,34.619],[138.191,34.62],[138.188,34.623],[138.18,34.626],[138.176,34.623],[138.171,34.624],[138.17,34.628],[138.171,34.633],[138.168,34.635],[138.168,34.639],[138.169,34.644],[138.172,34.647],[138.175,34.651],[138.179,34.654],[138.181,34.657],[138.181,34.663],[138.183,34.669],[138.174,34.672],[138.17,34.674],[138.174,34.679],[138.173,34.682],[138.169,34.685],[138.163,34.691],[138.158,34.693],[138.146,34.698],[138.14,34.699],[138.135,34.7],[138.125,34.695],[138.122,34.69],[138.118,34.687],[138.112,34.684],[138.111,34.68],[138.109,34.677],[138.108,34.673],[138.105,34.67],[138.104,34.666],[138.103,34.661],[138.102,34.658],[138.097,34.659],[138.086,34.66],[138.081,34.657],[138.08,34.65],[138.078,34.642]]]]}},{"type":"Feature","properties":{"name":"菊川市","code":"22224"},"geometry":{"type":"MultiPolygon","coordinates":[[[[138.101,34.81],[138.098,34.805],[138.093,34.803],[138.089,34.803],[138.088,34.799],[138.085,34.794],[138.081,34.788],[138.076,34.784],[138.071,34.779],[138.067,34.775],[138.063,34.775],[138.063,34.77],[138.057,34.77],[138.053,34.767],[138.051,34.762],[138.056,34.759],[138.055,34.755],[138.059,34.753],[138.06,34.747],[138.056,34.741],[138.048,34.742],[138.052,34.737],[138.045,34.737],[138.053,34.731],[138.054,34.728],[138.058,34.719],[138.064,34.715],[138.067,34.712],[138.068,34.708],[138.073,34.704],[138.078,34.703],[138.075,34.7],[138.071,34.695],[138.067,34.695],[138.07,34.69],[138.072,34.686],[138.071,34.681],[138.078,34.681],[138.078,34.678],[138.084,34.677],[138.087,34.673],[138.085,34.669],[138.085,34.662],[138.097,34.659],[138.102,34.658],[138.103,34.661],[138.104,34.666],[138.104,34.669],[138.109,34.671],[138.111,34.674],[138.111,34.68],[138.112,34.684],[138.118,34.687],[138.122,34.69],[138.125,34.695],[138.135,34.7],[138.14,34.699],[138.146,34.698],[138.145,34.702],[138.144,34.707],[138.146,34.713],[138.143,34.719],[138.14,34.726],[138.14,34.733],[138.142,34.741],[138.139,34.745],[138.135,34.749],[138.132,34.751],[138.133,34.759],[138.135,34.764],[138.14,34.766],[138.142,34.774],[138.141,34.785],[138.139,34.794],[138.136,34.797],[138.134,34.807],[138.13,34.804],[138.13,34.801],[138.123,34.793],[138.116,34.799],[138.115,34.805],[138.11,34.811],[138.106,34.813],[138.101,34.81]]]]}},{"type":"Feature","properties":{"name":"伊豆の国市","code":"22225"},"geometry":{"type":"MultiPolygon","coordinates":[[[[138.908,35.008],[138.908,35.001],[138.909,34.997],[138.914,34.995],[138.916,34.991],[138.924,34.992],[138.92,34.995],[138.923,34.998],[138.925,35.001],[138.926,34.997],[138.932,34.997],[138.935,34.993],[138.938,34.989],[138.941,34.99],[138.946,34.994],[138.952,34.998],[138.959,34.999],[138.963,35.003],[138.971,35.003],[138.977,35.003],[138.984,35.004],[138.989,35.008],[138.993,35.011],[139.0,35.012],[139.006,35.01],[139.012,35.013],[139.016,35.012],[139.019,35.006],[139.023,35.004],[139.027,35.005],[139.03,35.008],[139.035,35.011],[139.037,35.015],[139.041,35.015],[139.047,35.013],[139.044,35.019],[139.047,35.028],[139.051,35.03],[139.043,35.033],[139.038,35.035],[139.037,35.038],[139.038,35.042],[139.034,35.046],[139.034,35.049],[139.032,35.053],[139.033,35.058],[139.038,35.058],[139.039,35.061],[139.034,35.067],[139.03,35.071],[139.031,35.074],[139.028,35.082],[139.019,35.079],[139.009,35.079],[139.004,35.08],[139.0,35.082],[138.996,35.081],[138.993,35.083],[138.988,35.082],[138.984,35.082],[138.979,35.079],[138.973,35.081],[138.967,35.079],[138.962,35.079],[138.946,35.072],[138.945,35.067],[138.941,35.067],[138.937,35.068],[138.936,35.061],[138.933,35.064],[138.927,35.063],[138.924,35.062],[138.913,35.062],[138.909,35.06],[138.909,35.054],[138.908,35.049],[138.911,35.041],[138.912,35.037],[138.906,35.035],[138.903,35.032],[138.908,35.027],[138.912,35.026],[138.91,35.021],[138.906,35.017],[138.903,35.014],[138.908,35.008]]]]}},{"type":"Feature","properties":{"name":"牧之原市","code":"22226"},"geometry":{"type":"MultiPolygon","coordinates":[[[[138.215,34.625],[138.211,34.63],[138.208,34.627],[138.209,34.622],[138.215,34.625]]],[[[138.139,34.794],[138.141,34.785],[138.142,34.774],[138.14,34.766],[138.135,34.764],[138.133,34.759],[138.132,34.751],[138.135,34.749],[138.139,34.745],[138.142,34.741],[138.141,34.734],[138.14,34.726],[138.143,34.721],[138.145,34.716],[138.144,34.707],[138.145,34.704],[138.146,34.698],[138.156,34.693],[138.163,34.691],[138.167,34.687],[138.173,34.682],[138.174,34.679],[138.173,34.675],[138.174,34.672],[138.183,34.669],[138.183,34.664],[138.183,34.66],[138.179,34.654],[138.175,34.652],[138.172,34.649],[138.169,34.644],[138.168,34.639],[138.168,34.635],[138.171,34.633],[138.17,34.628],[138.171,34.624],[138.176,34.623],[138.18,34.626],[138.188,34.623],[138.191,34.62],[138.195,34.619],[138.201,34.619],[138.207,34.62],[138.202,34.628],[138.199,34.631],[138.202,34.633],[138.198,34.633],[138.194,34.639],[138.193,34.645],[138.194,34.654],[138.195,34.665],[138.199,34.673],[138.202,34.678],[138.209,34.687],[138.211,34.694],[138.214,34.699],[138.213,34.703],[138.215,34.71],[138.218,34.715],[138.224,34.722],[138.229,34.727],[138.233,34.732],[138.24,34.737],[138.246,34.741],[138.242,34.745],[138.244,34.752],[138.247,34.755],[138.251,34.758],[138.25,34.761],[138.246,34.758],[138.241,34.763],[138.237,34.769],[138.236,34.772],[138.236,34.777],[138.231,34.778],[138.224,34.787],[138.22,34.787],[138.214,34.788],[138.204,34.793],[138.198,34.794],[138.193,34.797],[138.19,34.797],[138.184,34.799],[138.181,34.798],[138.172,34.8],[138.167,34.801],[138.162,34.801],[138.159,34.802],[138.155,34.798],[138.151,34.795],[138.146,34.792],[138.142,34.793],[138.139,34.794]]]]}},{"type":"Feature","properties":{"name":"賀茂郡東伊豆町","code":"22301"},"geometry":{"type":"MultiPolygon","coordinates":[[[[139.035,34.884],[139.032,34.88],[139.028,34.873],[139.022,34.863],[139.017,34.862],[139.01,34.862],[139.006,34.863],[139.0,34.863],[138.997,34.863],[138.989,34.86],[138.985,34.857],[138.981,34.857],[138.973,34.854],[138.969,34.853],[138.966,34.852],[138.961,34.85],[138.964,34.847],[138.966,34.842],[138.971,34.837],[138.975,34.836],[138.976,34.831],[138.976,34.827],[138.981,34.824],[138.985,34.819],[138.987,34.816],[138.991,34.809],[138.994,34.807],[139.0,34.803],[139.004,34.798],[139.008,34.796],[139.011,34.79],[139.013,34.786],[139.014,34.783],[139.016,34.779],[139.014,34.774],[139.018,34.77],[139.022,34.769],[139.026,34.764],[139.03,34.768],[139.037,34.766],[139.044,34.767],[139.049,34.769],[139.046,34.772],[139.042,34.771],[139.052,34.781],[139.058,34.785],[139.061,34.79],[139.062,34.795],[139.062,34.801],[139.065,34.806],[139.071,34.812],[139.072,34.815],[139.076,34.819],[139.079,34.824],[139.076,34.829],[139.076,34.832],[139.078,34.837],[139.077,34.842],[139.082,34.848],[139.083,34.853],[139.074,34.852],[139.068,34.856],[139.066,34.86],[139.063,34.861],[139.062,34.865],[139.056,34.867],[139.055,34.87],[139.052,34.872],[139.049,34.873],[139.044,34.875],[139.042,34.878],[139.035,34.884]]]]}},{"type":"Feature","properties":{"name":"賀茂郡南伊豆町","code":"22304"},"geometry":{"type":"MultiPolygon","coordinates":[[[[138.851,34.708],[138.845,34.709],[138.839,34.707],[138.835,34.706],[138.829,34.705],[138.824,34.704],[138.817,34.704],[138.813,34.702],[138.809,34.703],[138.8,34.705],[138.795,34.706],[138.795,34.711],[138.792,34.715],[138.785,34.714],[138.782,34.713],[138.777,34.716],[138.774,34.716],[138.771,34.712],[138.768,34.71],[138.764,34.709],[138.761,34.707],[138.758,34.707],[138.752,34.707],[138.742,34.702],[138.742,34.696],[138.739,34.691],[138.742,34.688],[138.746,34.688],[138.752,34.69],[138.756,34.692],[138.76,34.689],[138.766,34.686],[138.767,34.682],[138.77,34.682],[138.777,34.676],[138.777,34.669],[138.781,34.666],[138.786,34.669],[138.79,34.67],[138.79,34.666],[138.792,34.662],[138.787,34.661],[138.784,34.661],[138.78,34.659],[138.779,34.655],[138.775,34.654],[138.773,34.65],[138.774,34.646],[138.776,34.641],[138.782,34.639],[138.786,34.639],[138.79,34.637],[138.794,34.634],[138.794,34.628],[138.793,34.624],[138.798,34.623],[138.808,34.628],[138.814,34.623],[138.815,34.618],[138.815,34.615],[138.82,34.613],[138.824,34.616],[138.826,34.608],[138.83,34.606],[138.836,34.604],[138.84,34.604],[138.843,34.601],[138.846,34.605],[138.85,34.609],[138.849,34.613],[138.854,34.612],[138.86,34.616],[138.863,34.616],[138.865,34.619],[138.87,34.618],[138.874,34.62],[138.879,34.625],[138.884,34.624],[138.891,34.628],[138.888,34.63],[138.889,34.633],[138.893,34.635],[138.9,34.632],[138.905,34.629],[138.903,34.633],[138.903,34.637],[138.9,34.642],[138.895,34.642],[138.893,34.648],[138.893,34.652],[138.897,34.655],[138.898,34.658],[138.899,34.662],[138.901,34.668],[138.902,34.672],[138.899,34.673],[138.894,34.674],[138.891,34.674],[138.885,34.675],[138.886,34.678],[138.884,34.682],[138.889,34.686],[138.892,34.689],[138.896,34.69],[138.893,34.693],[138.892,34.698],[138.887,34.701],[138.878,34.703],[138.873,34.705],[138.87,34.704],[138.863,34.705],[138.856,34.704],[138.851,34.708]]]]}},{"type":"Feature","properties":{"name":"賀茂郡河津町","code":"22302"},"geometry":{"type":"MultiPolygon","coordinates":[[[[138.993,34.718],[138.992,34.726],[138.998,34.729],[138.997,34.732],[139.0,34.736],[138.998,34.742],[138.999,34.745],[139.005,34.751],[139.009,34.753],[139.014,34.752],[139.02,34.754],[139.023,34.757],[139.023,34.762],[139.022,34.769],[139.018,34.77],[139.014,34.774],[139.016,34.779],[139.014,34.783],[139.013,34.786],[139.013,34.789],[139.01,34.793],[139.004,34.796],[139.0,34.803],[138.995,34.805],[138.991,34.809],[138.987,34.814],[138.985,34.818],[138.982,34.821],[138.976,34.827],[138.976,34.831],[138.975,34.836],[138.971,34.837],[138.966,34.842],[138.963,34.838],[138.958,34.837],[138.949,34.832],[138.944,34.83],[138.938,34.832],[138.934,34.83],[138.927,34.83],[138.922,34.826],[138.913,34.827],[138.907,34.832],[138.898,34.834],[138.893,34.835],[138.888,34.831],[138.884,34.829],[138.885,34.826],[138.885,34.82],[138.884,34.815],[138.881,34.81],[138.882,34.807],[138.883,34.803],[138.882,34.799],[138.883,34.795],[138.878,34.792],[138.876,34.789],[138.876,34.784],[138.879,34.781],[138.885,34.776],[138.89,34.778],[138.896,34.774],[138.901,34.773],[138.904,34.774],[138.91,34.772],[138.914,34.77],[138.918,34.772],[138.923,34.771],[138.926,34.766],[138.929,34.767],[138.933,34.765],[138.937,34.767],[138.941,34.768],[138.945,34.766],[138.945,34.761],[138.942,34.758],[138.94,34.752],[138.946,34.752],[138.949,34.747],[138.952,34.747],[138.955,34.747],[138.959,34.745],[138.962,34.737],[138.965,34.732],[138.962,34.728],[138.965,34.723],[138.973,34.72],[138.977,34.721],[138.981,34.717],[138.988,34.717],[138.993,34.718]]]]}},{"type":"Feature","properties":{"name":"賀茂郡松崎町","code":"22305"},"geometry":{"type":"MultiPolygon","coordinates":[[[[138.896,34.774],[138.892,34.776],[138.885,34.776],[138.88,34.778],[138.876,34.782],[138.877,34.786],[138.866,34.788],[138.86,34.787],[138.855,34.786],[138.851,34.783],[138.85,34.787],[138.853,34.792],[138.852,34.795],[138.85,34.801],[138.845,34.8],[138.842,34.801],[138.836,34.8],[138.839,34.794],[138.84,34.789],[138.834,34.794],[138.824,34.784],[138.82,34.782],[138.817,34.782],[138.814,34.779],[138.809,34.776],[138.804,34.772],[138.799,34.77],[138.785,34.764],[138.777,34.764],[138.777,34.76],[138.776,34.754],[138.771,34.753],[138.764,34.751],[138.761,34.749],[138.759,34.746],[138.755,34.745],[138.761,34.742],[138.758,34.738],[138.756,34.733],[138.752,34.736],[138.747,34.733],[138.747,34.729],[138.74,34.727],[138.743,34.722],[138.743,34.718],[138.742,34.713],[138.74,34.705],[138.741,34.7],[138.75,34.705],[138.758,34.707],[138.761,34.707],[138.764,34.709],[138.768,34.71],[138.771,34.712],[138.774,34.716],[138.777,34.716],[138.78,34.713],[138.785,34.714],[138.792,34.715],[138.795,34.711],[138.795,34.706],[138.8,34.705],[138.806,34.703],[138.81,34.702],[138.817,34.704],[138.823,34.704],[138.829,34.705],[138.832,34.704],[138.838,34.706],[138.845,34.709],[138.851,34.708],[138.849,34.712],[138.846,34.715],[138.849,34.721],[138.854,34.728],[138.858,34.732],[138.858,34.736],[138.863,34.741],[138.867,34.74],[138.872,34.741],[138.876,34.741],[138.882,34.746],[138.888,34.751],[138.892,34.757],[138.893,34.763],[138.893,34.768],[138.897,34.772]]]]}},{"type":"Feature","properties":{"name":"賀茂郡西伊豆町","code":"22306"},"geometry":{"type":"MultiPolygon","coordinates":[[[[138.767,34.859],[138.774,34.857],[138.775,34.85],[138.772,34.847],[138.767,34.846],[138.76,34.842],[138.761,34.838],[138.763,34.832],[138.767,34.831],[138.766,34.824],[138.76,34.829],[138.755,34.826],[138.751,34.821],[138.752,34.817],[138.756,34.812],[138.762,34.813],[138.766,34.807],[138.761,34.806],[138.763,34.803],[138.757,34.802],[138.753,34.8],[138.756,34.799],[138.757,34.793],[138.76,34.791],[138.763,34.785],[138.765,34.782],[138.768,34.778],[138.768,34.775],[138.771,34.774],[138.763,34.771],[138.773,34.769],[138.776,34.766],[138.776,34.763],[138.785,34.764],[138.797,34.768],[138.804,34.772],[138.809,34.776],[138.814,34.779],[138.818,34.78],[138.824,34.784],[138.834,34.794],[138.837,34.791],[138.841,34.791],[138.839,34.797],[138.842,34.801],[138.845,34.8],[138.85,34.801],[138.852,34.795],[138.853,34.792],[138.85,34.787],[138.849,34.784],[138.855,34.786],[138.86,34.787],[138.864,34.787],[138.876,34.789],[138.878,34.792],[138.883,34.795],[138.882,34.799],[138.883,34.803],[138.883,34.806],[138.881,34.81],[138.882,34.814],[138.884,34.819],[138.884,34.823],[138.884,34.829],[138.888,34.831],[138.89,34.834],[138.892,34.841],[138.888,34.844],[138.886,34.848],[138.88,34.847],[138.875,34.848],[138.87,34.849],[138.867,34.854],[138.862,34.858],[138.857,34.857],[138.852,34.861],[138.846,34.862],[138.84,34.865],[138.839,34.869],[138.835,34.872],[138.835,34.878],[138.833,34.882],[138.829,34.883],[138.824,34.881],[138.82,34.878],[138.814,34.876],[138.807,34.874],[138.796,34.875],[138.79,34.873],[138.786,34.871],[138.779,34.871],[138.774,34.867],[138.779,34.862],[138.774,34.861],[138.768,34.86]]]]}},{"type":"Feature","properties":{"name":"田方郡函南町","code":"22325"},"geometry":{"type":"MultiPolygon","coordinates":[[[[138.913,35.062],[138.924,35.062],[138.927,35.063],[138.931,35.065],[138.936,35.061],[138.937,35.068],[138.941,35.069],[138.945,35.067],[138.943,35.071],[138.959,35.077],[138.967,35.079],[138.973,35.081],[138.979,35.079],[138.984,35.082],[138.988,35.082],[138.993,35.083],[138.996,35.081],[139.0,35.082],[139.004,35.08],[139.009,35.079],[139.018,35.079],[139.025,35.08],[139.033,35.084],[139.031,35.087],[139.032,35.094],[139.035,35.098],[139.037,35.103],[139.036,35.109],[139.036,35.114],[139.036,35.119],[139.039,35.119],[139.045,35.124],[139.041,35.128],[139.042,35.132],[139.039,35.137],[139.035,35.138],[139.033,35.143],[139.03,35.148],[139.028,35.155],[139.031,35.159],[139.026,35.161],[139.029,35.165],[139.029,35.17],[139.026,35.176],[139.022,35.18],[139.014,35.182],[139.013,35.179],[139.009,35.176],[139.007,35.173],[139.003,35.169],[139.002,35.165],[139.001,35.161],[139.001,35.158],[138.997,35.152],[138.994,35.153],[138.99,35.146],[138.99,35.143],[138.984,35.141],[138.981,35.137],[138.974,35.133],[138.973,35.129],[138.967,35.122],[138.962,35.118],[138.956,35.113],[138.954,35.11],[138.953,35.106],[138.951,35.101],[138.95,35.097],[138.948,35.094],[138.945,35.09],[138.938,35.091],[138.935,35.088],[138.928,35.08],[138.923,35.076],[138.922,35.071],[138.916,35.069],[138.914,35.065]]]]}},{"type":"Feature","properties":{"name":"駿東郡清水町","code":"22341"},"geometry":{"type":"MultiPolygon","coordinates":[[[[138.907,35.083],[138.91,35.087],[138.913,35.092],[138.915,35.096],[138.914,35.099],[138.912,35.105],[138.907,35.11],[138.905,35.114],[138.905,35.12],[138.9,35.116],[138.896,35.116],[138.888,35.115],[138.89,35.11],[138.887,35.108],[138.889,35.102],[138.884,35.1],[138.885,35.095],[138.886,35.092],[138.887,35.089],[138.888,35.084],[138.889,35.079],[138.894,35.077],[138.9,35.078],[138.907,35.082]]]]}},{"type":"Feature","properties":{"name":"駿東郡長泉町","code":"22342"},"geometry":{"type":"MultiPolygon","coordinates":[[[[138.888,35.113],[138.893,35.118],[138.9,35.116],[138.903,35.12],[138.907,35.127],[138.912,35.13],[138.91,35.135],[138.908,35.141],[138.907,35.144],[138.907,35.148],[138.904,35.15],[138.899,35.151],[138.902,35.159],[138.898,35.16],[138.895,35.162],[138.89,35.166],[138.887,35.171],[138.883,35.172],[138.88,35.176],[138.874,35.18],[138.87,35.186],[138.865,35.192],[138.863,35.195],[138.859,35.196],[138.856,35.198],[138.851,35.203],[138.841,35.206],[138.836,35.208],[138.831,35.211],[138.829,35.214],[138.825,35.215],[138.818,35.22],[138.812,35.221],[138.814,35.218],[138.818,35.211],[138.823,35.209],[138.824,35.205],[138.827,35.203],[138.832,35.201],[138.835,35.192],[138.839,35.184],[138.843,35.179],[138.848,35.176],[138.854,35.172],[138.86,35.167],[138.86,35.163],[138.863,35.16],[138.863,35.156],[138.865,35.152],[138.869,35.149],[138.875,35.142],[138.879,35.144],[138.882,35.142],[138.887,35.136],[138.891,35.135],[138.893,35.129],[138.887,35.127],[138.886,35.115]]]]}},{"type":"Feature","properties":{"name":"駿東郡小山町","code":"22344"},"geometry":{"type":"MultiPolygon","coordinates":[[[[138.732,35.36],[138.776,35.354],[138.786,35.353],[138.801,35.352],[138.811,35.352],[138.825,35.352],[138.833,35.35],[138.837,35.348],[138.842,35.349],[138.848,35.349],[138.856,35.348],[138.859,35.346],[138.864,35.346],[138.869,35.341],[138.872,35.338],[138.878,35.335],[138.881,35.335],[138.884,35.333],[138.884,35.337],[138.886,35.342],[138.888,35.348],[138.888,35.351],[138.885,35.355],[138.888,35.358],[138.892,35.355],[138.9,35.354],[138.904,35.355],[138.902,35.35],[138.899,35.349],[138.893,35.348],[138.897,35.347],[138.9,35.345],[138.905,35.347],[138.911,35.347],[138.915,35.346],[138.92,35.344],[138.926,35.342],[138.931,35.341],[138.938,35.339],[138.942,35.339],[138.945,35.338],[138.952,35.336],[138.96,35.334],[138.963,35.332],[138.972,35.33],[138.971,35.324],[138.967,35.321],[138.965,35.316],[138.966,35.311],[138.973,35.305],[138.975,35.3],[138.978,35.298],[138.983,35.296],[138.99,35.29],[138.991,35.286],[138.997,35.289],[139.003,35.289],[139.004,35.293],[139.006,35.298],[139.011,35.311],[139.01,35.314],[139.013,35.318],[139.015,35.321],[139.019,35.329],[139.016,35.333],[139.012,35.336],[139.01,35.342],[139.009,35.347],[139.008,35.35],[139.012,35.355],[139.009,35.359],[139.007,35.365],[139.005,35.374],[138.999,35.382],[139.001,35.392],[139.001,35.396],[139.002,35.399],[138.998,35.403],[138.994,35.403],[138.99,35.403],[138.984,35.402],[138.98,35.405],[138.972,35.405],[138.966,35.402],[138.963,35.401],[138.957,35.401],[138.951,35.402],[138.948,35.401],[138.938,35.399],[138.931,35.401],[138.926,35.4],[138.914,35.4],[138.903,35.396],[138.898,35.392],[138.893,35.39],[138.889,35.388],[138.883,35.386],[138.879,35.386],[138.873,35.382],[138.863,35.39],[138.856,35.388],[138.851,35.39],[138.847,35.389],[138.834,35.384],[138.829,35.378],[138.822,35.374],[138.816,35.376],[138.808,35.376],[138.799,35.377],[138.789,35.375],[138.747,35.366],[138.731,35.363]]]]}},{"type":"Feature","properties":{"name":"榛原郡吉田町","code":"22424"},"geometry":{"type":"MultiPolygon","coordinates":[[[[138.224,34.787],[138.231,34.778],[138.236,34.777],[138.236,34.772],[138.237,34.769],[138.241,34.763],[138.243,34.76],[138.25,34.761],[138.251,34.758],[138.247,34.755],[138.244,34.752],[138.242,34.745],[138.246,34.741],[138.256,34.747],[138.267,34.753],[138.269,34.757],[138.269,34.752],[138.278,34.758],[138.284,34.761],[138.289,34.762],[138.294,34.767],[138.271,34.786],[138.26,34.795],[138.251,34.803],[138.245,34.8],[138.238,34.802],[138.234,34.801],[138.237,34.797],[138.239,34.794],[138.231,34.792],[138.232,34.786],[138.226,34.786]]]]}},{"type":"Feature","properties":{"name":"榛原郡川根本町","code":"22429"},"geometry":{"type":"MultiPolygon","coordinates":[[[[138.087,35.338],[138.084,35.338],[138.081,35.34],[138.079,35.344],[138.074,35.345],[138.061,35.347],[138.055,35.344],[138.055,35.34],[138.051,35.335],[138.043,35.335],[138.038,35.334],[138.039,35.327],[138.034,35.325],[138.026,35.32],[138.026,35.316],[138.028,35.312],[138.024,35.307],[138.019,35.301],[138.018,35.295],[138.014,35.292],[138.012,35.289],[138.013,35.286],[138.014,35.281],[138.012,35.277],[138.014,35.274],[138.011,35.272],[138.008,35.268],[138.001,35.264],[138.003,35.259],[138.008,35.26],[138.013,35.259],[138.016,35.253],[138.014,35.247],[138.012,35.242],[138.017,35.239],[138.02,35.237],[138.027,35.233],[138.03,35.231],[138.034,35.228],[138.035,35.225],[138.033,35.221],[138.035,35.213],[138.027,35.201],[138.028,35.196],[138.021,35.194],[138.016,35.19],[138.011,35.18],[138.005,35.173],[138.005,35.168],[138.001,35.167],[137.999,35.163],[138.0,35.16],[137.998,35.156],[138.002,35.152],[137.999,35.146],[138.006,35.143],[138.007,35.139],[138.007,35.135],[138.011,35.129],[138.018,35.128],[138.021,35.127],[138.026,35.128],[138.03,35.127],[138.036,35.125],[138.04,35.119],[138.045,35.114],[138.049,35.112],[138.054,35.11],[138.056,35.106],[138.054,35.102],[138.05,35.098],[138.048,35.093],[138.047,35.089],[138.044,35.084],[138.044,35.08],[138.045,35.073],[138.04,35.069],[138.04,35.062],[138.044,35.057],[138.043,35.053],[138.047,35.049],[138.048,35.043],[138.047,35.039],[138.043,35.036],[138.04,35.035],[138.032,35.031],[138.029,35.028],[138.024,35.025],[138.021,35.024],[138.014,35.024],[138.016,35.02],[138.021,35.019],[138.026,35.017],[138.026,35.013],[138.03,35.011],[138.034,35.005],[138.036,34.999],[138.045,34.999],[138.049,34.999],[138.054,35.001],[138.059,35.0],[138.063,35.0],[138.067,34.997],[138.071,34.997],[138.076,34.991],[138.076,34.988],[138.073,34.984],[138.079,34.981],[138.084,34.981],[138.087,34.977],[138.089,34.972],[138.091,34.976],[138.095,34.978],[138.098,34.981],[138.102,34.979],[138.101,34.984],[138.101,34.99],[138.105,34.997],[138.108,34.996],[138.111,35.0],[138.116,34.999],[138.119,35.0],[138.121,35.005],[138.121,35.008],[138.123,35.013],[138.122,35.016],[138.129,35.021],[138.127,35.026],[138.129,35.029],[138.135,35.031],[138.139,35.036],[138.14,35.042],[138.146,35.049],[138.146,35.057],[138.15,35.061],[138.153,35.063],[138.158,35.061],[138.159,35.054],[138.158,35.05],[138.163,35.05],[138.165,35.053],[138.169,35.053],[138.172,35.053],[138.172,35.057],[138.172,35.061],[138.175,35.063],[138.178,35.061],[138.183,35.064],[138.189,35.06],[138.197,35.055],[138.199,35.05],[138.201,35.054],[138.2,35.061],[138.204,35.067],[138.21,35.071],[138.205,35.075],[138.204,35.078],[138.2,35.081],[138.199,35.088],[138.192,35.091],[138.19,35.106],[138.193,35.11],[138.191,35.118],[138.186,35.124],[138.184,35.129],[138.185,35.134],[138.187,35.138],[138.196,35.144],[138.201,35.144],[138.21,35.145],[138.212,35.149],[138.217,35.154],[138.221,35.159],[138.224,35.16],[138.228,35.158],[138.231,35.16],[138.236,35.167],[138.238,35.172],[138.238,35.177],[138.234,35.18],[138.233,35.186],[138.225,35.193],[138.224,35.199],[138.215,35.204],[138.211,35.204],[138.21,35.201],[138.206,35.203],[138.206,35.199],[138.199,35.197],[138.202,35.193],[138.199,35.189],[138.194,35.187],[138.193,35.19],[138.189,35.193],[138.188,35.196],[138.183,35.193],[138.183,35.198],[138.182,35.203],[138.188,35.204],[138.186,35.208],[138.186,35.212],[138.186,35.217],[138.19,35.219],[138.197,35.226],[138.202,35.228],[138.199,35.233],[138.203,35.24],[138.199,35.242],[138.194,35.249],[138.19,35.249],[138.187,35.249],[138.183,35.25],[138.178,35.256],[138.178,35.26],[138.162,35.256],[138.158,35.256],[138.153,35.257],[138.146,35.256],[138.146,35.261],[138.144,35.265],[138.138,35.267],[138.137,35.272],[138.136,35.276],[138.136,35.282],[138.135,35.286],[138.132,35.287],[138.129,35.291],[138.12,35.294],[138.115,35.298],[138.098,35.304],[138.098,35.309],[138.093,35.314],[138.089,35.318],[138.086,35.321],[138.083,35.325],[138.086,35.33],[138.087,35.338]]]]}},{"type":"Feature","properties":{"name":"周智郡森町","code":"22461"},"geometry":{"type":"MultiPolygon","coordinates":[[[[137.909,34.891],[137.91,34.885],[137.909,34.882],[137.904,34.88],[137.901,34.876],[137.897,34.875],[137.893,34.87],[137.893,34.867],[137.89,34.862],[137.884,34.858],[137.881,34.858],[137.879,34.854],[137.88,34.85],[137.884,34.845],[137.881,34.839],[137.876,34.839],[137.873,34.837],[137.876,34.833],[137.873,34.831],[137.874,34.827],[137.873,34.822],[137.874,34.818],[137.88,34.813],[137.886,34.815],[137.891,34.814],[137.891,34.808],[137.89,34.805],[137.891,34.801],[137.888,34.794],[137.887,34.788],[137.884,34.786],[137.889,34.786],[137.892,34.788],[137.897,34.788],[137.9,34.793],[137.902,34.796],[137.907,34.798],[137.906,34.794],[137.913,34.796],[137.916,34.797],[137.92,34.797],[137.922,34.802],[137.926,34.808],[137.93,34.808],[137.932,34.811],[137.935,34.818],[137.939,34.822],[137.946,34.824],[137.947,34.828],[137.947,34.831],[137.952,34.832],[137.954,34.837],[137.955,34.842],[137.958,34.843],[137.957,34.848],[137.959,34.853],[137.962,34.856],[137.962,34.861],[137.965,34.865],[137.969,34.867],[137.97,34.87],[137.975,34.873],[137.978,34.876],[137.983,34.878],[137.989,34.884],[137.99,34.887],[137.992,34.891],[137.997,34.897],[138.002,34.899],[138.011,34.908],[138.011,34.914],[138.014,34.913],[138.019,34.915],[138.023,34.913],[138.028,34.915],[138.033,34.913],[138.035,34.917],[138.039,34.92],[138.044,34.923],[138.038,34.928],[138.036,34.932],[138.03,34.931],[138.028,34.935],[138.024,34.936],[138.018,34.939],[138.012,34.94],[138.015,34.943],[138.016,34.948],[138.014,34.952],[138.016,34.955],[138.015,34.96],[138.013,34.968],[138.012,34.973],[138.01,34.976],[138.003,34.972],[138.004,34.967],[138.001,34.965],[137.997,34.968],[137.993,34.969],[137.99,34.968],[137.986,34.967],[137.981,34.967],[137.982,34.963],[137.981,34.958],[137.977,34.958],[137.971,34.959],[137.968,34.955],[137.965,34.955],[137.962,34.948],[137.955,34.947],[137.948,34.949],[137.943,34.946],[137.938,34.947],[137.936,34.944],[137.928,34.94],[137.926,34.935],[137.918,34.927],[137.912,34.929],[137.908,34.929],[137.908,34.925],[137.906,34.921],[137.903,34.917],[137.905,34.913],[137.907,34.907],[137.915,34.903],[137.919,34.902],[137.92,34.898],[137.92,34.893],[137.917,34.891],[137.914,34.892],[137.909,34.891]]]]}}]}