{"type":"FeatureCollection","features":[{"type":"Feature","properties":{"name":"名古屋市千種区","code":"23101"},"geometry":{"type":"MultiPolygon","coordinates":[[[[136.986,35.149],[136.989,35.161],[136.992,35.164],[136.99,35.169],[136.985,35.17],[136.979,35.176],[136.984,35.18],[136.987,35.184],[136.985,35.193],[136.974,35.19],[136.966,35.191],[136.965,35.186],[136.955,35.187],[136.954,35.184],[136.945,35.185],[136.937,35.18],[136.936,35.175],[136.93,35.17],[136.921,35.159],[136.932,35.157],[136.939,35.155],[136.94,35.158],[136.954,35.159],[136.962,35.158],[136.961,35.154],[136.968,35.152],[136.973,35.148],[136.986,35.149]]]]}},{"type":"Feature","properties":{"name":"名古屋市東区","code":"23102"},"geometry":{"type":"MultiPolygon","coordinates":[[[[136.966,35.191],[136.951,35.194],[136.944,35.199],[136.934,35.19],[136.926,35.188],[136.92,35.188],[136.917,35.185],[136.907,35.186],[136.909,35.169],[136.93,35.17],[136.936,35.175],[136.937,35.18],[136.945,35.185],[136.954,35.184],[136.955,35.187],[136.965,35.186],[136.966,35.191]]]]}},{"type":"Feature","properties":{"name":"名古屋市北区","code":"23103"},"geometry":{"type":"MultiPolygon","coordinates":[[[[136.944,35.199],[136.939,35.206],[136.928,35.21],[136.928,35.215],[136.937,35.216],[136.94,35.224],[136.932,35.223],[136.926,35.231],[136.929,35.233],[136.927,35.243],[136.92,35.238],[136.911,35.236],[136.909,35.24],[136.903,35.24],[136.899,35.235],[136.904,35.233],[136.904,35.227],[136.907,35.223],[136.9,35.216],[136.891,35.212],[136.9,35.21],[136.9,35.19],[136.907,35.186],[136.917,35.185],[136.92,35.188],[136.926,35.188],[136.934,35.19],[136.944,35.199]]]]}},{"type":"Feature","properties":{"name":"名古屋市西区","code":"23104"},"geometry":{"type":"MultiPolygon","coordinates":[[[[136.899,35.235],[136.875,35.225],[136.871,35.231],[136.858,35.231],[136.856,35.221],[136.86,35.215],[136.865,35.213],[136.86,35.208],[136.866,35.207],[136.868,35.212],[136.879,35.209],[136.87,35.194],[136.866,35.192],[136.878,35.178],[136.893,35.174],[136.894,35.18],[136.899,35.187],[136.9,35.21],[136.891,35.212],[136.9,35.216],[136.907,35.223],[136.904,35.227],[136.904,35.233],[136.899,35.235]]]]}},{"type":"Feature","properties":{"name":"名古屋市中村区","code":"23105"},"geometry":{"type":"MultiPolygon","coordinates":[[[[136.866,35.192],[136.856,35.188],[136.848,35.181],[136.841,35.174],[136.836,35.169],[136.833,35.165],[136.837,35.156],[136.836,35.153],[136.829,35.15],[136.832,35.145],[136.84,35.145],[136.861,35.151],[136.879,35.16],[136.886,35.161],[136.893,35.158],[136.892,35.167],[136.893,35.174],[136.878,35.178],[136.866,35.192]]]]}},{"type":"Feature","properties":{"name":"名古屋市中区","code":"23106"},"geometry":{"type":"MultiPolygon","coordinates":[[[[136.93,35.17],[136.909,35.169],[136.908,35.186],[136.899,35.187],[136.894,35.18],[136.893,35.174],[136.892,35.167],[136.893,35.158],[136.896,35.143],[136.912,35.143],[136.91,35.148],[136.921,35.159],[136.93,35.17]]]]}},{"type":"Feature","properties":{"name":"名古屋市昭和区","code":"23107"},"geometry":{"type":"MultiPolygon","coordinates":[[[[136.921,35.159],[136.91,35.148],[136.912,35.143],[136.915,35.137],[136.919,35.139],[136.937,35.141],[136.952,35.138],[136.961,35.136],[136.967,35.136],[136.967,35.14],[136.972,35.142],[136.973,35.148],[136.968,35.152],[136.961,35.154],[136.962,35.158],[136.954,35.159],[136.94,35.158],[136.939,35.155],[136.932,35.157],[136.921,35.159]]]]}},{"type":"Feature","properties":{"name":"名古屋市瑞穂区","code":"23108"},"geometry":{"type":"MultiPolygon","coordinates":[[[[136.915,35.137],[136.917,35.131],[136.915,35.12],[136.912,35.116],[136.923,35.109],[136.93,35.116],[136.939,35.117],[136.95,35.111],[136.959,35.114],[136.962,35.117],[136.959,35.131],[136.961,35.136],[136.952,35.138],[136.937,35.138],[136.919,35.139],[136.915,35.137]]]]}},{"type":"Feature","properties":{"name":"名古屋市熱田区","code":"23109"},"geometry":{"type":"MultiPolygon","coordinates":[[[[136.896,35.143],[136.898,35.137],[136.886,35.141],[136.883,35.118],[136.889,35.118],[136.889,35.113],[136.895,35.114],[136.901,35.112],[136.905,35.118],[136.912,35.116],[136.915,35.12],[136.917,35.131],[136.915,35.137],[136.912,35.143],[136.896,35.143]]]]}},{"type":"Feature","properties":{"name":"名古屋市中川区","code":"23110"},"geometry":{"type":"MultiPolygon","coordinates":[[[[136.833,35.165],[136.83,35.157],[136.817,35.159],[136.818,35.165],[136.808,35.168],[136.802,35.161],[136.803,35.154],[136.809,35.154],[136.809,35.148],[136.801,35.148],[136.8,35.132],[136.797,35.128],[136.798,35.122],[136.809,35.121],[136.818,35.127],[136.822,35.122],[136.822,35.119],[136.844,35.118],[136.854,35.122],[136.863,35.123],[136.865,35.118],[136.883,35.118],[136.886,35.141],[136.898,35.137],[136.896,35.143],[136.893,35.158],[136.886,35.161],[136.879,35.16],[136.861,35.151],[136.84,35.145],[136.832,35.145],[136.829,35.15],[136.836,35.153],[136.837,35.156],[136.833,35.165]]]]}},{"type":"Feature","properties":{"name":"名古屋市港区","code":"23111"},"geometry":{"type":"MultiPolygon","coordinates":[[[[136.849,35.056],[136.841,35.056],[136.838,35.052],[136.846,35.034],[136.844,35.042],[136.848,35.047],[136.852,35.044],[136.855,35.055],[136.849,35.056]]],[[[136.878,35.072],[136.874,35.072],[136.869,35.068],[136.87,35.063],[136.865,35.05],[136.872,35.05],[136.882,35.069],[136.878,35.072]]],[[[136.883,35.118],[136.865,35.118],[136.863,35.123],[136.854,35.122],[136.844,35.118],[136.822,35.119],[136.822,35.122],[136.818,35.127],[136.809,35.121],[136.798,35.122],[136.794,35.122],[136.792,35.112],[136.798,35.102],[136.798,35.097],[136.81,35.093],[136.825,35.08],[136.847,35.083],[136.85,35.078],[136.846,35.064],[136.843,35.059],[136.847,35.057],[136.855,35.057],[136.869,35.082],[136.869,35.088],[136.875,35.09],[136.885,35.089],[136.89,35.09],[136.89,35.07],[136.884,35.067],[136.902,35.069],[136.904,35.084],[136.909,35.083],[136.912,35.091],[136.903,35.089],[136.901,35.094],[136.901,35.112],[136.895,35.114],[136.889,35.113],[136.889,35.118],[136.883,35.118]]]]}},{"type":"Feature","properties":{"name":"名古屋市南区","code":"23112"},"geometry":{"type":"MultiPolygon","coordinates":[[[[136.912,35.116],[136.905,35.118],[136.901,35.112],[136.901,35.094],[136.903,35.089],[136.912,35.091],[136.909,35.083],[136.904,35.084],[136.902,35.069],[136.906,35.068],[136.931,35.071],[136.941,35.079],[136.942,35.091],[136.947,35.095],[136.948,35.099],[136.95,35.111],[136.939,35.117],[136.93,35.116],[136.923,35.109],[136.912,35.116]]]]}},{"type":"Feature","properties":{"name":"名古屋市守山区","code":"23113"},"geometry":{"type":"MultiPolygon","coordinates":[[[[136.985,35.193],[136.993,35.198],[136.996,35.194],[137.008,35.19],[137.02,35.191],[137.032,35.192],[137.02,35.198],[137.019,35.194],[137.012,35.195],[137.013,35.201],[137.008,35.206],[137.002,35.209],[137.007,35.219],[137.011,35.221],[137.019,35.231],[137.039,35.238],[137.044,35.242],[137.049,35.238],[137.052,35.243],[137.06,35.246],[137.055,35.25],[137.053,35.258],[137.05,35.26],[137.037,35.258],[137.029,35.259],[137.02,35.252],[137.014,35.252],[137.011,35.245],[137.005,35.24],[136.993,35.241],[136.99,35.238],[136.989,35.227],[136.981,35.225],[136.974,35.218],[136.964,35.217],[136.956,35.217],[136.937,35.216],[136.928,35.215],[136.928,35.21],[136.939,35.206],[136.944,35.199],[136.951,35.194],[136.966,35.191],[136.974,35.19],[136.985,35.193]]]]}},{"type":"Feature","properties":{"name":"名古屋市緑区","code":"23114"},"geometry":{"type":"MultiPolygon","coordinates":[[[[136.906,35.068],[136.913,35.068],[136.918,35.063],[136.924,35.064],[136.926,35.059],[136.931,35.051],[136.937,35.053],[136.941,35.052],[136.946,35.044],[136.953,35.045],[136.956,35.048],[136.962,35.04],[136.965,35.043],[136.972,35.043],[136.974,35.049],[136.972,35.056],[136.976,35.062],[136.984,35.061],[136.988,35.073],[136.995,35.072],[136.998,35.074],[137.005,35.072],[137.01,35.075],[137.017,35.092],[137.021,35.091],[137.02,35.096],[137.023,35.103],[137.021,35.11],[137.017,35.109],[137.002,35.101],[136.998,35.106],[136.991,35.109],[136.984,35.104],[136.957,35.101],[136.953,35.102],[136.948,35.099],[136.947,35.095],[136.942,35.091],[136.941,35.079],[136.931,35.071],[136.906,35.068]]]]}},{"type":"Feature","properties":{"name":"名古屋市名東区","code":"23115"},"geometry":{"type":"MultiPolygon","coordinates":[[[[136.986,35.149],[136.994,35.145],[137.001,35.145],[137.005,35.138],[137.01,35.137],[137.017,35.136],[137.023,35.14],[137.018,35.147],[137.022,35.153],[137.027,35.156],[137.023,35.163],[137.027,35.169],[137.024,35.174],[137.027,35.179],[137.026,35.185],[137.02,35.191],[137.008,35.19],[136.996,35.194],[136.993,35.198],[136.985,35.193],[136.987,35.184],[136.984,35.18],[136.979,35.176],[136.985,35.17],[136.99,35.169],[136.992,35.164],[136.989,35.161],[136.986,35.149]]]]}},{"type":"Feature","properties":{"name":"名古屋市天白区","code":"23116"},"geometry":{"type":"MultiPolygon","coordinates":[[[[136.973,35.148],[136.972,35.142],[136.967,35.14],[136.967,35.136],[136.961,35.136],[136.959,35.131],[136.962,35.117],[136.959,35.114],[136.95,35.111],[136.948,35.099],[136.953,35.102],[136.957,35.101],[136.984,35.104],[136.991,35.109],[136.998,35.106],[137.002,35.101],[137.017,35.109],[137.02,35.11],[137.015,35.117],[137.003,35.128],[137.008,35.131],[137.01,35.137],[137.005,35.138],[137.001,35.145],[136.994,35.145],[136.986,35.149],[136.973,35.148]]]]}},{"type":"Feature","properties":{"name":"豊橋市","code":"23201"},"geometry":{"type":"MultiPolygon","coordinates":[[[[137.319,34.748],[137.314,34.749],[137.308,34.735],[137.319,34.733],[137.319,34.748]]],[[[137.499,34.827],[137.495,34.828],[137.489,34.833],[137.487,34.843],[137.479,34.849],[137.482,34.856],[137.478,34.86],[137.472,34.861],[137.461,34.859],[137.461,34.853],[137.456,34.848],[137.446,34.844],[137.438,34.847],[137.435,34.844],[137.426,34.843],[137.423,34.838],[137.431,34.825],[137.437,34.828],[137.443,34.824],[137.438,34.821],[137.439,34.816],[137.433,34.816],[137.431,34.81],[137.421,34.811],[137.413,34.806],[137.405,34.804],[137.402,34.798],[137.398,34.796],[137.389,34.798],[137.377,34.792],[137.365,34.79],[137.349,34.784],[137.349,34.793],[137.339,34.786],[137.331,34.79],[137.329,34.797],[137.32,34.789],[137.306,34.784],[137.309,34.779],[137.319,34.781],[137.326,34.786],[137.331,34.781],[137.326,34.771],[137.321,34.771],[137.32,34.733],[137.339,34.729],[137.347,34.732],[137.338,34.725],[137.338,34.721],[137.33,34.721],[137.33,34.725],[137.309,34.725],[137.308,34.702],[137.312,34.7],[137.32,34.7],[137.322,34.695],[137.311,34.696],[137.308,34.692],[137.316,34.689],[137.307,34.68],[137.311,34.674],[137.307,34.665],[137.324,34.661],[137.339,34.661],[137.341,34.648],[137.386,34.657],[137.416,34.662],[137.435,34.667],[137.485,34.674],[137.485,34.684],[137.488,34.687],[137.492,34.702],[137.487,34.717],[137.483,34.72],[137.481,34.731],[137.479,34.734],[137.481,34.741],[137.474,34.75],[137.477,34.757],[137.477,34.775],[137.482,34.782],[137.493,34.787],[137.492,34.796],[137.494,34.802],[137.487,34.812],[137.494,34.815],[137.495,34.819],[137.502,34.823],[137.499,34.827]]]]}},{"type":"Feature","properties":{"name":"岡崎市","code":"23202"},"geometry":{"type":"MultiPolygon","coordinates":[[[[137.385,34.991],[137.375,34.998],[137.377,35.001],[137.371,35.015],[137.355,35.014],[137.348,35.015],[137.346,35.009],[137.329,35.017],[137.32,35.016],[137.315,35.02],[137.309,35.016],[137.3,35.017],[137.296,35.019],[137.289,35.018],[137.282,35.021],[137.273,35.028],[137.27,35.028],[137.266,35.02],[137.262,35.017],[137.256,35.028],[137.243,35.029],[137.237,35.039],[137.225,35.04],[137.218,35.038],[137.212,35.041],[137.208,35.033],[137.199,35.034],[137.193,35.038],[137.186,35.031],[137.177,35.035],[137.171,35.035],[137.16,35.026],[137.16,35.017],[137.166,35.003],[137.16,34.997],[137.148,34.992],[137.143,34.992],[137.141,34.998],[137.13,34.999],[137.123,34.991],[137.116,34.991],[137.119,34.982],[137.125,34.977],[137.115,34.97],[137.12,34.965],[137.117,34.961],[137.116,34.956],[137.106,34.944],[137.109,34.935],[137.112,34.937],[137.115,34.93],[137.119,34.927],[137.111,34.92],[137.105,34.912],[137.108,34.904],[137.115,34.9],[137.113,34.896],[137.115,34.891],[137.106,34.887],[137.103,34.879],[137.117,34.88],[137.129,34.89],[137.138,34.891],[137.154,34.887],[137.158,34.889],[137.162,34.9],[137.167,34.906],[137.177,34.91],[137.193,34.905],[137.196,34.901],[137.203,34.899],[137.208,34.892],[137.202,34.891],[137.201,34.885],[137.204,34.881],[137.211,34.878],[137.21,34.872],[137.212,34.868],[137.226,34.87],[137.232,34.865],[137.239,34.867],[137.256,34.861],[137.256,34.869],[137.263,34.876],[137.263,34.882],[137.268,34.885],[137.274,34.885],[137.279,34.881],[137.291,34.882],[137.297,34.886],[137.303,34.878],[137.313,34.884],[137.336,34.891],[137.35,34.898],[137.352,34.892],[137.359,34.891],[137.361,34.886],[137.367,34.89],[137.377,34.893],[137.382,34.888],[137.389,34.887],[137.394,34.883],[137.405,34.894],[137.404,34.902],[137.412,34.907],[137.421,34.91],[137.421,34.916],[137.417,34.923],[137.411,34.928],[137.41,34.938],[137.413,34.942],[137.403,34.949],[137.408,34.958],[137.402,34.959],[137.392,34.966],[137.4,34.976],[137.406,34.979],[137.4,34.982],[137.391,34.983],[137.385,34.991]]]]}},{"type":"Feature","properties":{"name":"一宮市","code":"23203"},"geometry":{"type":"MultiPolygon","coordinates":[[[[136.834,35.356],[136.817,35.359],[136.804,35.36],[136.793,35.363],[136.794,35.368],[136.776,35.37],[136.768,35.367],[136.759,35.357],[136.75,35.337],[136.737,35.316],[136.728,35.3],[136.719,35.289],[136.71,35.283],[136.705,35.276],[136.717,35.272],[136.721,35.272],[136.736,35.268],[136.74,35.258],[136.75,35.264],[136.76,35.268],[136.761,35.264],[136.776,35.26],[136.786,35.263],[136.791,35.268],[136.804,35.271],[136.807,35.276],[136.823,35.276],[136.829,35.269],[136.829,35.262],[136.833,35.26],[136.837,35.251],[136.843,35.252],[136.843,35.26],[136.851,35.265],[136.844,35.271],[136.849,35.28],[136.856,35.28],[136.864,35.291],[136.865,35.297],[136.873,35.298],[136.877,35.302],[136.872,35.305],[136.872,35.308],[136.867,35.312],[136.855,35.317],[136.857,35.322],[136.846,35.33],[136.844,35.337],[136.842,35.346],[136.834,35.356]]]]}},{"type":"Feature","properties":{"name":"瀬戸市","code":"23204"},"geometry":{"type":"MultiPolygon","coordinates":[[[[137.06,35.246],[137.066,35.239],[137.057,35.222],[137.06,35.216],[137.068,35.214],[137.062,35.208],[137.057,35.208],[137.049,35.203],[137.05,35.195],[137.059,35.191],[137.067,35.196],[137.072,35.191],[137.082,35.189],[137.085,35.19],[137.088,35.183],[137.096,35.179],[137.099,35.181],[137.106,35.179],[137.109,35.186],[137.121,35.185],[137.126,35.182],[137.129,35.188],[137.135,35.192],[137.143,35.194],[137.143,35.197],[137.161,35.207],[137.168,35.205],[137.173,35.211],[137.173,35.218],[137.181,35.229],[137.178,35.236],[137.18,35.244],[137.184,35.25],[137.189,35.253],[137.176,35.26],[137.177,35.27],[137.165,35.282],[137.159,35.282],[137.153,35.279],[137.146,35.28],[137.132,35.294],[137.119,35.298],[137.101,35.302],[137.098,35.297],[137.096,35.291],[137.082,35.279],[137.081,35.274],[137.068,35.263],[137.056,35.265],[137.05,35.26],[137.053,35.258],[137.055,35.25],[137.06,35.246]]]]}},{"type":"Feature","properties":{"name":"半田市","code":"23205"},"geometry":{"type":"MultiPolygon","coordinates":[[[[136.975,34.932],[136.966,34.933],[136.967,34.936],[136.96,34.94],[136.954,34.938],[136.944,34.942],[136.938,34.936],[136.936,34.931],[136.937,34.927],[136.934,34.923],[136.933,34.913],[136.919,34.913],[136.914,34.911],[136.899,34.914],[136.894,34.911],[136.887,34.911],[136.88,34.918],[136.869,34.91],[136.866,34.9],[136.871,34.897],[136.877,34.896],[136.877,34.888],[136.875,34.883],[136.876,34.878],[136.884,34.873],[136.895,34.875],[136.905,34.871],[136.915,34.869],[136.924,34.87],[136.941,34.863],[136.946,34.869],[136.946,34.874],[136.94,34.877],[136.944,34.881],[136.963,34.874],[136.957,34.881],[136.969,34.901],[136.973,34.912],[136.975,34.932]]]]}},{"type":"Feature","properties":{"name":"春日井市","code":"23206"},"geometry":{"type":"MultiPolygon","coordinates":[[[[136.937,35.216],[136.956,35.217],[136.964,35.217],[136.974,35.218],[136.981,35.225],[136.989,35.227],[136.99,35.238],[136.993,35.241],[137.005,35.24],[137.011,35.245],[137.014,35.252],[137.02,35.252],[137.029,35.259],[137.037,35.258],[137.05,35.26],[137.056,35.265],[137.068,35.263],[137.081,35.274],[137.082,35.279],[137.096,35.291],[137.092,35.293],[137.081,35.292],[137.08,35.307],[137.072,35.307],[137.067,35.312],[137.064,35.321],[137.073,35.326],[137.068,35.336],[137.062,35.339],[137.05,35.334],[137.046,35.34],[137.04,35.33],[137.025,35.325],[137.019,35.317],[137.016,35.311],[137.018,35.306],[137.013,35.298],[137.014,35.293],[137.008,35.286],[137.002,35.285],[136.989,35.281],[136.986,35.283],[136.973,35.285],[136.968,35.289],[136.965,35.284],[136.957,35.281],[136.954,35.284],[136.943,35.287],[136.946,35.278],[136.931,35.273],[136.931,35.265],[136.935,35.261],[136.931,35.257],[136.932,35.247],[136.927,35.243],[136.929,35.233],[136.926,35.231],[136.932,35.223],[136.94,35.224],[136.937,35.216]]]]}},{"type":"Feature","properties":{"name":"豊川市","code":"23207"},"geometry":{"type":"MultiPolygon","coordinates":[[[[137.299,34.81],[137.301,34.798],[137.311,34.799],[137.308,34.805],[137.299,34.81]]],[[[137.461,34.859],[137.453,34.864],[137.455,34.869],[137.46,34.871],[137.456,34.879],[137.451,34.883],[137.443,34.892],[137.443,34.896],[137.429,34.9],[137.423,34.904],[137.421,34.91],[137.412,34.907],[137.404,34.902],[137.405,34.894],[137.394,34.883],[137.389,34.887],[137.382,34.888],[137.377,34.893],[137.367,34.89],[137.361,34.886],[137.359,34.891],[137.352,34.892],[137.35,34.898],[137.336,34.891],[137.313,34.884],[137.303,34.878],[137.297,34.886],[137.291,34.882],[137.279,34.881],[137.274,34.885],[137.268,34.885],[137.263,34.882],[137.263,34.876],[137.256,34.869],[137.256,34.861],[137.257,34.856],[137.26,34.846],[137.265,34.839],[137.275,34.834],[137.296,34.833],[137.302,34.826],[137.289,34.824],[137.298,34.811],[137.311,34.805],[137.316,34.796],[137.303,34.793],[137.306,34.784],[137.32,34.789],[137.329,34.797],[137.331,34.79],[137.339,34.786],[137.349,34.793],[137.349,34.784],[137.363,34.791],[137.377,34.792],[137.387,34.801],[137.398,34.796],[137.402,34.798],[137.405,34.804],[137.413,34.806],[137.421,34.811],[137.431,34.81],[137.433,34.816],[137.439,34.816],[137.438,34.821],[137.443,34.824],[137.437,34.828],[137.431,34.825],[137.423,34.838],[137.426,34.843],[137.435,34.844],[137.438,34.847],[137.446,34.844],[137.456,34.848],[137.461,34.853],[137.461,34.859]]]]}},{"type":"Feature","properties":{"name":"津島市","code":"23208"},"geometry":{"type":"MultiPolygon","coordinates":[[[[136.785,35.156],[136.783,35.161],[136.787,35.172],[136.78,35.172],[136.779,35.184],[136.772,35.198],[136.764,35.2],[136.758,35.186],[136.754,35.186],[136.754,35.179],[136.748,35.177],[136.746,35.182],[136.738,35.181],[136.73,35.184],[136.731,35.189],[136.722,35.186],[136.709,35.189],[136.707,35.179],[136.71,35.164],[136.727,35.168],[136.732,35.167],[136.747,35.156],[136.754,35.149],[136.76,35.134],[136.771,35.137],[136.772,35.141],[136.771,35.148],[136.782,35.15],[136.785,35.156]]]]}},{"type":"Feature","properties":{"name":"碧南市","code":"23209"},"geometry":{"type":"MultiPolygon","coordinates":[[[[136.957,34.828],[136.946,34.825],[136.946,34.82],[136.957,34.828]]],[[[137.037,34.89],[137.028,34.891],[137.022,34.895],[137.016,34.894],[137.013,34.905],[137.019,34.911],[137.035,34.921],[137.033,34.928],[137.034,34.934],[137.032,34.937],[137.024,34.932],[137.016,34.926],[137.002,34.915],[136.997,34.915],[136.983,34.908],[136.978,34.907],[136.977,34.895],[136.971,34.877],[136.975,34.873],[136.969,34.872],[136.955,34.855],[136.965,34.853],[136.954,34.848],[136.957,34.833],[136.964,34.823],[136.971,34.821],[137.0,34.866],[137.007,34.872],[137.021,34.878],[137.033,34.886],[137.037,34.89]]]]}},{"type":"Feature","properties":{"name":"刈谷市","code":"23210"},"geometry":{"type":"MultiPolygon","coordinates":[[[[137.068,35.057],[137.069,35.062],[137.056,35.067],[137.051,35.064],[137.045,35.069],[137.043,35.063],[137.034,35.053],[137.025,35.049],[137.017,35.04],[137.005,35.034],[137.002,35.027],[136.998,35.024],[136.991,35.022],[136.988,35.016],[136.988,35.009],[136.981,35.001],[136.982,34.993],[136.979,34.984],[136.982,34.972],[136.983,34.956],[136.992,34.958],[137.0,34.954],[137.011,34.947],[137.029,34.96],[137.036,34.963],[137.042,34.959],[137.047,34.961],[137.043,34.968],[137.048,34.974],[137.046,34.981],[137.038,34.985],[137.03,34.986],[137.019,34.998],[137.023,35.005],[137.03,35.007],[137.037,35.015],[137.034,35.019],[137.04,35.022],[137.049,35.028],[137.046,35.033],[137.05,35.036],[137.057,35.049],[137.063,35.051],[137.065,35.057],[137.068,35.057]]]]}},{"type":"Feature","properties":{"name":"豊田市","code":"23211"},"geometry":{"type":"MultiPolygon","coordinates":[[[[137.385,34.991],[137.394,34.995],[137.393,34.998],[137.397,35.006],[137.407,35.012],[137.416,35.01],[137.425,35.011],[137.426,35.024],[137.435,35.03],[137.43,35.037],[137.432,35.052],[137.44,35.062],[137.445,35.064],[137.446,35.072],[137.443,35.081],[137.434,35.087],[137.435,35.091],[137.43,35.096],[137.429,35.104],[137.433,35.108],[137.442,35.11],[137.448,35.12],[137.448,35.126],[137.445,35.13],[137.444,35.136],[137.452,35.133],[137.457,35.133],[137.463,35.139],[137.468,35.141],[137.475,35.15],[137.462,35.16],[137.474,35.17],[137.483,35.18],[137.482,35.186],[137.487,35.194],[137.495,35.197],[137.503,35.196],[137.499,35.189],[137.5,35.185],[137.513,35.185],[137.519,35.178],[137.538,35.19],[137.546,35.187],[137.551,35.189],[137.567,35.188],[137.575,35.186],[137.581,35.19],[137.579,35.198],[137.577,35.203],[137.577,35.212],[137.579,35.219],[137.576,35.22],[137.572,35.227],[137.569,35.228],[137.563,35.235],[137.557,35.237],[137.55,35.243],[137.546,35.252],[137.548,35.26],[137.552,35.26],[137.557,35.265],[137.556,35.272],[137.571,35.283],[137.567,35.29],[137.562,35.29],[137.558,35.284],[137.552,35.284],[137.543,35.281],[137.532,35.282],[137.521,35.284],[137.514,35.27],[137.505,35.263],[137.497,35.264],[137.497,35.259],[137.484,35.257],[137.477,35.253],[137.469,35.245],[137.466,35.247],[137.462,35.241],[137.453,35.241],[137.45,35.235],[137.442,35.234],[137.435,35.224],[137.43,35.223],[137.425,35.227],[137.417,35.24],[137.409,35.235],[137.401,35.242],[137.388,35.24],[137.383,35.247],[137.387,35.252],[137.385,35.259],[137.362,35.261],[137.351,35.257],[137.344,35.258],[137.34,35.265],[137.346,35.271],[137.326,35.28],[137.321,35.284],[137.304,35.291],[137.298,35.289],[137.283,35.288],[137.274,35.289],[137.263,35.285],[137.259,35.279],[137.261,35.275],[137.254,35.273],[137.25,35.269],[137.244,35.269],[137.225,35.256],[137.221,35.26],[137.211,35.26],[137.2,35.251],[137.189,35.253],[137.184,35.25],[137.18,35.244],[137.178,35.236],[137.181,35.229],[137.173,35.218],[137.173,35.211],[137.168,35.205],[137.161,35.207],[137.143,35.197],[137.143,35.194],[137.135,35.192],[137.129,35.188],[137.126,35.182],[137.121,35.185],[137.109,35.186],[137.106,35.179],[137.099,35.181],[137.096,35.179],[137.097,35.174],[137.095,35.16],[137.096,35.157],[137.097,35.145],[137.104,35.136],[137.105,35.132],[137.115,35.131],[137.121,35.125],[137.128,35.123],[137.13,35.12],[137.121,35.115],[137.116,35.104],[137.112,35.097],[137.105,35.084],[137.102,35.072],[137.102,35.064],[137.096,35.059],[137.09,35.062],[137.083,35.058],[137.068,35.057],[137.065,35.057],[137.063,35.051],[137.057,35.049],[137.05,35.036],[137.046,35.033],[137.049,35.028],[137.04,35.022],[137.045,35.02],[137.048,35.014],[137.058,35.013],[137.062,35.01],[137.068,35.012],[137.073,35.018],[137.078,35.008],[137.085,35.01],[137.094,35.007],[137.101,35.009],[137.112,35.002],[137.116,34.991],[137.123,34.991],[137.13,34.999],[137.141,34.998],[137.143,34.992],[137.148,34.992],[137.16,34.997],[137.166,35.003],[137.16,35.017],[137.16,35.026],[137.171,35.035],[137.177,35.035],[137.186,35.031],[137.193,35.038],[137.199,35.034],[137.208,35.033],[137.212,35.041],[137.218,35.038],[137.225,35.04],[137.237,35.039],[137.243,35.029],[137.256,35.028],[137.262,35.017],[137.266,35.02],[137.27,35.028],[137.273,35.028],[137.282,35.021],[137.289,35.018],[137.296,35.019],[137.3,35.017],[137.309,35.016],[137.315,35.02],[137.32,35.016],[137.329,35.017],[137.346,35.009],[137.348,35.015],[137.355,35.014],[137.371,35.015],[137.377,35.001],[137.375,34.998],[137.385,34.991]]]]}},{"type":"Feature","properties":{"name":"安城市","code":"23212"},"geometry":{"type":"MultiPolygon","coordinates":[[[[137.116,34.991],[137.112,35.002],[137.101,35.009],[137.094,35.007],[137.085,35.01],[137.085,35.006],[137.079,35.001],[137.07,34.997],[137.072,34.986],[137.064,34.985],[137.06,34.98],[137.046,34.981],[137.048,34.974],[137.043,34.968],[137.047,34.961],[137.042,34.959],[137.036,34.963],[137.029,34.96],[137.011,34.947],[137.012,34.944],[137.012,34.936],[137.017,34.931],[137.024,34.932],[137.032,34.937],[137.034,34.934],[137.033,34.928],[137.035,34.921],[137.019,34.911],[137.013,34.905],[137.016,34.894],[137.022,34.895],[137.028,34.891],[137.037,34.89],[137.04,34.896],[137.046,34.895],[137.048,34.901],[137.06,34.908],[137.063,34.914],[137.068,34.913],[137.067,34.906],[137.063,34.9],[137.065,34.889],[137.089,34.89],[137.098,34.894],[137.106,34.9],[137.108,34.904],[137.105,34.912],[137.111,34.92],[137.119,34.927],[137.115,34.93],[137.112,34.937],[137.109,34.935],[137.106,34.944],[137.116,34.956],[137.117,34.961],[137.12,34.965],[137.115,34.97],[137.125,34.977],[137.119,34.982],[137.116,34.991]]]]}},{"type":"Feature","properties":{"name":"西尾市","code":"23213"},"geometry":{"type":"MultiPolygon","coordinates":[[[[137.041,34.732],[137.036,34.732],[137.033,34.723],[137.044,34.726],[137.047,34.721],[137.05,34.719],[137.055,34.727],[137.041,34.732]]],[[[137.108,34.904],[137.106,34.9],[137.098,34.894],[137.089,34.89],[137.065,34.889],[137.063,34.9],[137.067,34.906],[137.068,34.913],[137.063,34.914],[137.06,34.908],[137.048,34.901],[137.046,34.895],[137.04,34.896],[137.037,34.89],[137.033,34.886],[137.021,34.878],[137.007,34.872],[137.0,34.866],[136.971,34.821],[136.991,34.816],[136.997,34.816],[137.0,34.805],[137.006,34.799],[137.012,34.796],[137.012,34.793],[137.018,34.79],[137.017,34.786],[137.025,34.778],[137.041,34.776],[137.049,34.779],[137.063,34.783],[137.07,34.787],[137.076,34.787],[137.082,34.784],[137.088,34.776],[137.093,34.778],[137.099,34.784],[137.107,34.788],[137.118,34.79],[137.125,34.783],[137.132,34.782],[137.134,34.789],[137.146,34.788],[137.153,34.781],[137.163,34.787],[137.168,34.788],[137.17,34.793],[137.17,34.813],[137.164,34.815],[137.155,34.825],[137.148,34.823],[137.146,34.828],[137.135,34.834],[137.128,34.842],[137.124,34.844],[137.117,34.839],[137.102,34.843],[137.105,34.852],[137.113,34.854],[137.121,34.846],[137.127,34.853],[137.122,34.859],[137.115,34.86],[137.112,34.865],[137.115,34.87],[137.123,34.871],[137.133,34.87],[137.137,34.875],[137.135,34.882],[137.14,34.882],[137.138,34.891],[137.129,34.89],[137.117,34.88],[137.103,34.879],[137.106,34.887],[137.113,34.888],[137.113,34.896],[137.115,34.9],[137.108,34.904]]]]}},{"type":"Feature","properties":{"name":"蒲郡市","code":"23214"},"geometry":{"type":"MultiPolygon","coordinates":[[[[137.212,34.868],[137.204,34.861],[137.206,34.856],[137.197,34.853],[137.193,34.848],[137.198,34.841],[137.192,34.835],[137.2,34.825],[137.187,34.823],[137.18,34.823],[137.179,34.826],[137.17,34.822],[137.164,34.815],[137.17,34.813],[137.17,34.793],[137.168,34.788],[137.174,34.785],[137.178,34.779],[137.174,34.776],[137.173,34.77],[137.17,34.765],[137.178,34.766],[137.189,34.776],[137.187,34.781],[137.191,34.793],[137.193,34.805],[137.199,34.811],[137.21,34.803],[137.223,34.817],[137.25,34.811],[137.253,34.806],[137.258,34.804],[137.264,34.806],[137.27,34.805],[137.279,34.808],[137.293,34.805],[137.295,34.811],[137.298,34.811],[137.289,34.824],[137.302,34.826],[137.296,34.833],[137.278,34.835],[137.265,34.839],[137.26,34.846],[137.257,34.856],[137.256,34.861],[137.239,34.867],[137.232,34.865],[137.226,34.87],[137.212,34.868]]]]}},{"type":"Feature","properties":{"name":"犬山市","code":"23215"},"geometry":{"type":"MultiPolygon","coordinates":[[[[137.046,35.34],[137.047,35.349],[137.05,35.36],[137.045,35.367],[137.034,35.368],[137.028,35.375],[137.023,35.375],[137.016,35.378],[137.014,35.382],[137.002,35.381],[136.999,35.39],[136.991,35.393],[136.987,35.402],[136.982,35.402],[136.979,35.406],[136.985,35.412],[136.986,35.425],[136.974,35.422],[136.964,35.421],[136.961,35.415],[136.963,35.407],[136.962,35.4],[136.935,35.388],[136.926,35.381],[136.921,35.379],[136.923,35.376],[136.917,35.371],[136.921,35.368],[136.931,35.368],[136.935,35.37],[136.94,35.361],[136.942,35.352],[136.936,35.346],[136.937,35.343],[136.931,35.329],[136.925,35.325],[136.922,35.319],[136.927,35.321],[136.938,35.322],[136.95,35.323],[136.947,35.313],[136.965,35.317],[136.969,35.322],[136.979,35.325],[136.985,35.321],[136.989,35.331],[136.995,35.33],[137.001,35.332],[137.012,35.332],[137.013,35.335],[137.032,35.334],[137.042,35.336],[137.046,35.339]]]]}},{"type":"Feature","properties":{"name":"常滑市","code":"23216"},"geometry":{"type":"MultiPolygon","coordinates":[[[[136.806,34.878],[136.798,34.876],[136.801,34.87],[136.806,34.846],[136.807,34.84],[136.814,34.84],[136.813,34.847],[136.824,34.849],[136.823,34.859],[136.821,34.866],[136.815,34.872],[136.806,34.878]]],[[[136.88,34.918],[136.884,34.92],[136.892,34.937],[136.881,34.942],[136.864,34.942],[136.859,34.938],[136.855,34.932],[136.847,34.932],[136.835,34.937],[136.829,34.937],[136.825,34.939],[136.823,34.936],[136.824,34.931],[136.822,34.915],[136.822,34.902],[136.826,34.893],[136.822,34.884],[136.827,34.875],[136.833,34.874],[136.837,34.884],[136.841,34.878],[136.837,34.876],[136.85,34.87],[136.857,34.862],[136.857,34.856],[136.861,34.851],[136.867,34.838],[136.862,34.814],[136.867,34.813],[136.872,34.814],[136.879,34.813],[136.887,34.815],[136.883,34.824],[136.885,34.828],[136.885,34.84],[136.882,34.851],[136.888,34.852],[136.891,34.856],[136.888,34.865],[136.881,34.868],[136.876,34.878],[136.875,34.883],[136.877,34.888],[136.877,34.896],[136.871,34.897],[136.866,34.9],[136.869,34.91],[136.88,34.918]]]]}},{"type":"Feature","properties":{"name":"江南市","code":"23217"},"geometry":{"type":"MultiPolygon","coordinates":[[[[136.877,35.302],[136.884,35.299],[136.888,35.305],[136.883,35.309],[136.884,35.318],[136.889,35.321],[136.895,35.335],[136.9,35.341],[136.895,35.347],[136.892,35.354],[136.896,35.36],[136.896,35.367],[136.899,35.372],[136.893,35.378],[136.886,35.378],[136.878,35.374],[136.865,35.373],[136.861,35.368],[136.834,35.356],[136.842,35.346],[136.842,35.337],[136.846,35.33],[136.857,35.322],[136.855,35.317],[136.867,35.312],[136.872,35.308],[136.872,35.305],[136.877,35.302]]]]}},{"type":"Feature","properties":{"name":"小牧市","code":"23219"},"geometry":{"type":"MultiPolygon","coordinates":[[[[137.046,35.339],[137.042,35.336],[137.032,35.334],[137.013,35.335],[137.012,35.332],[137.001,35.332],[136.995,35.33],[136.989,35.331],[136.985,35.321],[136.979,35.325],[136.969,35.322],[136.965,35.317],[136.947,35.313],[136.95,35.323],[136.94,35.323],[136.927,35.321],[136.922,35.319],[136.907,35.32],[136.896,35.307],[136.888,35.305],[136.884,35.299],[136.883,35.289],[136.886,35.283],[136.885,35.275],[136.881,35.267],[136.896,35.263],[136.897,35.256],[136.902,35.255],[136.909,35.262],[136.917,35.265],[136.924,35.263],[136.931,35.257],[136.935,35.261],[136.931,35.265],[136.931,35.273],[136.946,35.278],[136.943,35.287],[136.954,35.284],[136.957,35.281],[136.965,35.284],[136.968,35.289],[136.973,35.285],[136.986,35.283],[136.989,35.281],[137.002,35.285],[137.008,35.286],[137.014,35.293],[137.013,35.298],[137.018,35.306],[137.016,35.311],[137.019,35.317],[137.025,35.325],[137.04,35.33],[137.046,35.339]]]]}},{"type":"Feature","properties":{"name":"稲沢市","code":"23220"},"geometry":{"type":"MultiPolygon","coordinates":[[[[136.705,35.276],[136.698,35.262],[136.691,35.253],[136.68,35.245],[136.678,35.242],[136.68,35.228],[136.687,35.229],[136.687,35.234],[136.695,35.236],[136.71,35.23],[136.721,35.23],[136.718,35.223],[136.728,35.22],[136.73,35.208],[136.725,35.204],[136.724,35.199],[136.737,35.194],[136.743,35.195],[136.753,35.204],[136.762,35.205],[136.78,35.208],[136.794,35.213],[136.806,35.213],[136.809,35.218],[136.823,35.215],[136.826,35.222],[136.835,35.222],[136.838,35.229],[136.83,35.237],[136.829,35.243],[136.837,35.251],[136.833,35.26],[136.829,35.262],[136.829,35.269],[136.823,35.276],[136.807,35.276],[136.804,35.271],[136.791,35.268],[136.786,35.263],[136.779,35.263],[136.761,35.264],[136.76,35.268],[136.751,35.266],[136.74,35.258],[136.736,35.268],[136.721,35.272],[136.717,35.272],[136.705,35.276]]]]}},{"type":"Feature","properties":{"name":"新城市","code":"23221"},"geometry":{"type":"MultiPolygon","coordinates":[[[[137.499,34.827],[137.5,34.831],[137.508,34.835],[137.518,34.836],[137.524,34.841],[137.534,34.844],[137.539,34.842],[137.551,34.849],[137.565,34.852],[137.574,34.85],[137.587,34.85],[137.595,34.859],[137.598,34.873],[137.609,34.875],[137.616,34.875],[137.621,34.879],[137.634,34.885],[137.641,34.893],[137.64,34.905],[137.648,34.912],[137.647,34.919],[137.653,34.925],[137.651,34.933],[137.657,34.938],[137.66,34.945],[137.671,34.948],[137.675,34.945],[137.683,34.955],[137.69,34.957],[137.69,34.964],[137.696,34.971],[137.704,34.97],[137.707,34.972],[137.7,34.985],[137.708,34.994],[137.702,34.998],[137.701,35.004],[137.705,35.015],[137.706,35.022],[137.701,35.03],[137.691,35.033],[137.692,35.038],[137.681,35.042],[137.675,35.04],[137.667,35.042],[137.662,35.05],[137.655,35.05],[137.652,35.054],[137.645,35.056],[137.645,35.059],[137.638,35.064],[137.634,35.058],[137.628,35.054],[137.631,35.049],[137.626,35.047],[137.623,35.04],[137.625,35.034],[137.622,35.029],[137.62,35.019],[137.604,35.016],[137.6,35.019],[137.599,35.025],[137.595,35.031],[137.59,35.034],[137.59,35.038],[137.584,35.051],[137.583,35.057],[137.58,35.06],[137.57,35.06],[137.561,35.058],[137.543,35.057],[137.535,35.052],[137.531,35.043],[137.525,35.043],[137.523,35.048],[137.517,35.047],[137.512,35.04],[137.505,35.042],[137.51,35.049],[137.507,35.054],[137.502,35.065],[137.491,35.069],[137.488,35.064],[137.476,35.062],[137.471,35.054],[137.463,35.053],[137.459,35.056],[137.452,35.054],[137.449,35.059],[137.451,35.067],[137.446,35.072],[137.445,35.064],[137.44,35.062],[137.432,35.052],[137.43,35.037],[137.435,35.03],[137.426,35.024],[137.425,35.011],[137.416,35.01],[137.407,35.012],[137.397,35.006],[137.393,34.998],[137.394,34.995],[137.385,34.991],[137.391,34.983],[137.4,34.982],[137.406,34.979],[137.4,34.976],[137.392,34.966],[137.402,34.959],[137.408,34.958],[137.402,34.951],[137.413,34.942],[137.41,34.938],[137.412,34.931],[137.417,34.923],[137.421,34.916],[137.421,34.91],[137.423,34.904],[137.429,34.9],[137.443,34.896],[137.443,34.892],[137.451,34.883],[137.456,34.879],[137.46,34.871],[137.455,34.869],[137.453,34.864],[137.461,34.859],[137.472,34.861],[137.478,34.86],[137.482,34.856],[137.479,34.849],[137.487,34.843],[137.489,34.833],[137.495,34.828],[137.499,34.827]]]]}},{"type":"Feature","properties":{"name":"東海市","code":"23222"},"geometry":{"type":"MultiPolygon","coordinates":[[[[136.884,35.067],[136.879,35.047],[136.889,35.045],[136.889,35.042],[136.87,35.042],[136.854,35.021],[136.853,35.015],[136.871,35.013],[136.87,35.008],[136.88,35.004],[136.885,34.998],[136.893,34.997],[136.894,34.99],[136.898,34.981],[136.907,34.98],[136.914,34.97],[136.916,34.973],[136.923,34.976],[136.919,34.982],[136.917,34.994],[136.919,35.007],[136.927,35.014],[136.934,35.011],[136.94,35.015],[136.932,35.02],[136.933,35.024],[136.927,35.03],[136.932,35.043],[136.929,35.047],[136.931,35.051],[136.926,35.059],[136.924,35.064],[136.918,35.063],[136.913,35.068],[136.906,35.068],[136.902,35.069],[136.884,35.067]]]]}},{"type":"Feature","properties":{"name":"大府市","code":"23223"},"geometry":{"type":"MultiPolygon","coordinates":[[[[136.931,35.051],[136.929,35.047],[136.932,35.043],[136.927,35.03],[136.933,35.024],[136.932,35.02],[136.94,35.015],[136.934,35.011],[136.927,35.014],[136.919,35.007],[136.917,34.994],[136.919,34.982],[136.923,34.976],[136.929,34.983],[136.932,34.984],[136.936,34.99],[136.946,34.992],[136.949,34.998],[136.953,34.996],[136.962,35.003],[136.973,34.999],[136.981,35.001],[136.988,35.009],[136.988,35.016],[136.991,35.022],[136.998,35.024],[137.002,35.027],[136.997,35.039],[136.987,35.038],[136.984,35.043],[136.974,35.049],[136.972,35.043],[136.965,35.043],[136.962,35.04],[136.956,35.048],[136.953,35.045],[136.946,35.044],[136.941,35.052],[136.937,35.053],[136.931,35.051]]]]}},{"type":"Feature","properties":{"name":"知多市","code":"23224"},"geometry":{"type":"MultiPolygon","coordinates":[[[[136.822,34.961],[136.819,34.964],[136.811,34.955],[136.82,34.95],[136.823,34.953],[136.822,34.961]]],[[[136.881,34.942],[136.879,34.951],[136.885,34.957],[136.889,34.955],[136.894,34.959],[136.907,34.952],[136.91,34.953],[136.912,34.959],[136.918,34.963],[136.914,34.97],[136.907,34.98],[136.898,34.981],[136.894,34.99],[136.893,34.997],[136.885,34.998],[136.88,35.004],[136.87,35.008],[136.85,35.011],[136.844,35.005],[136.854,35.003],[136.852,34.998],[136.846,34.999],[136.834,34.982],[136.821,34.966],[136.829,34.961],[136.826,34.953],[136.827,34.946],[136.825,34.939],[136.829,34.937],[136.835,34.937],[136.847,34.932],[136.855,34.932],[136.859,34.938],[136.864,34.942],[136.881,34.942]]]]}},{"type":"Feature","properties":{"name":"知立市","code":"23225"},"geometry":{"type":"MultiPolygon","coordinates":[[[[137.046,34.981],[137.06,34.98],[137.064,34.985],[137.072,34.986],[137.07,34.997],[137.079,35.001],[137.085,35.006],[137.085,35.01],[137.078,35.008],[137.073,35.018],[137.068,35.012],[137.062,35.01],[137.058,35.013],[137.048,35.014],[137.045,35.02],[137.04,35.022],[137.034,35.019],[137.037,35.015],[137.03,35.007],[137.023,35.005],[137.019,34.998],[137.03,34.986],[137.038,34.985],[137.046,34.981]]]]}},{"type":"Feature","properties":{"name":"尾張旭市","code":"23226"},"geometry":{"type":"MultiPolygon","coordinates":[[[[137.032,35.192],[137.044,35.191],[137.05,35.195],[137.049,35.203],[137.057,35.208],[137.062,35.208],[137.068,35.214],[137.06,35.216],[137.057,35.222],[137.066,35.239],[137.06,35.246],[137.052,35.243],[137.049,35.238],[137.044,35.242],[137.039,35.238],[137.019,35.231],[137.011,35.221],[137.007,35.219],[137.002,35.209],[137.008,35.206],[137.013,35.201],[137.012,35.195],[137.019,35.194],[137.02,35.198],[137.032,35.192]]]]}},{"type":"Feature","properties":{"name":"高浜市","code":"23227"},"geometry":{"type":"MultiPolygon","coordinates":[[[[137.024,34.932],[137.017,34.931],[137.012,34.936],[137.012,34.944],[137.011,34.947],[137.0,34.952],[136.992,34.958],[136.983,34.956],[136.986,34.952],[136.982,34.944],[136.979,34.933],[136.982,34.929],[136.978,34.915],[136.978,34.907],[136.983,34.908],[136.997,34.915],[137.002,34.915],[137.016,34.926],[137.024,34.932]]]]}},{"type":"Feature","properties":{"name":"岩倉市","code":"23228"},"geometry":{"type":"MultiPolygon","coordinates":[[[[136.851,35.265],[136.86,35.265],[136.874,35.258],[136.881,35.267],[136.885,35.275],[136.886,35.283],[136.883,35.289],[136.884,35.299],[136.877,35.302],[136.873,35.298],[136.865,35.297],[136.864,35.291],[136.856,35.28],[136.849,35.28],[136.844,35.271],[136.851,35.265]]]]}},{"type":"Feature","properties":{"name":"豊明市","code":"23229"},"geometry":{"type":"MultiPolygon","coordinates":[[[[136.974,35.049],[136.984,35.043],[136.987,35.038],[136.997,35.039],[137.002,35.027],[137.005,35.034],[137.017,35.04],[137.025,35.049],[137.034,35.053],[137.043,35.063],[137.043,35.068],[137.041,35.08],[137.036,35.084],[137.027,35.085],[137.026,35.09],[137.021,35.091],[137.017,35.092],[137.01,35.075],[137.005,35.072],[136.998,35.074],[136.995,35.072],[136.988,35.073],[136.984,35.061],[136.976,35.062],[136.972,35.056],[136.974,35.049]]]]}},{"type":"Feature","properties":{"name":"日進市","code":"23230"},"geometry":{"type":"MultiPolygon","coordinates":[[[[137.021,35.11],[137.033,35.113],[137.039,35.109],[137.046,35.114],[137.054,35.116],[137.061,35.115],[137.062,35.119],[137.068,35.121],[137.075,35.119],[137.081,35.121],[137.084,35.125],[137.091,35.132],[137.088,35.139],[137.097,35.145],[137.098,35.156],[137.083,35.159],[137.076,35.158],[137.059,35.162],[137.06,35.168],[137.048,35.168],[137.044,35.163],[137.036,35.16],[137.031,35.155],[137.027,35.156],[137.022,35.153],[137.018,35.147],[137.023,35.14],[137.017,35.136],[137.01,35.137],[137.008,35.131],[137.003,35.128],[137.015,35.117],[137.02,35.11]]]]}},{"type":"Feature","properties":{"name":"田原市","code":"23231"},"geometry":{"type":"MultiPolygon","coordinates":[[[[137.307,34.68],[137.287,34.685],[137.291,34.691],[137.301,34.694],[137.301,34.728],[137.285,34.731],[137.262,34.716],[137.267,34.709],[137.262,34.699],[137.258,34.697],[137.252,34.705],[137.245,34.706],[137.233,34.699],[137.24,34.691],[137.233,34.689],[137.229,34.679],[137.224,34.676],[137.212,34.679],[137.206,34.678],[137.198,34.669],[137.186,34.669],[137.175,34.659],[137.17,34.657],[137.158,34.655],[137.143,34.654],[137.132,34.656],[137.13,34.652],[137.137,34.651],[137.14,34.647],[137.137,34.641],[137.119,34.635],[137.102,34.638],[137.106,34.642],[137.102,34.646],[137.097,34.646],[137.089,34.65],[137.09,34.656],[137.082,34.662],[137.075,34.663],[137.068,34.661],[137.06,34.653],[137.042,34.62],[137.03,34.601],[137.027,34.59],[137.023,34.584],[137.018,34.585],[137.018,34.578],[137.031,34.581],[137.039,34.579],[137.068,34.586],[137.095,34.591],[137.117,34.587],[137.132,34.588],[137.143,34.59],[137.164,34.597],[137.18,34.603],[137.193,34.605],[137.207,34.611],[137.219,34.614],[137.222,34.613],[137.241,34.62],[137.274,34.63],[137.309,34.64],[137.341,34.648],[137.339,34.661],[137.324,34.661],[137.307,34.665],[137.311,34.674],[137.307,34.68]]]]}},{"type":"Feature","properties":{"name":"愛西市","code":"23232"},"geometry":{"type":"MultiPolygon","coordinates":[[[[136.764,35.2],[136.762,35.205],[136.753,35.204],[136.743,35.195],[136.737,35.194],[136.724,35.199],[136.725,35.204],[136.73,35.208],[136.728,35.22],[136.718,35.223],[136.721,35.23],[136.71,35.23],[136.695,35.236],[136.687,35.234],[136.687,35.229],[136.68,35.228],[136.681,35.224],[136.683,35.2],[136.672,35.189],[136.671,35.173],[136.674,35.16],[136.674,35.153],[136.671,35.14],[136.676,35.129],[136.695,35.125],[136.701,35.119],[136.707,35.121],[136.705,35.128],[136.715,35.13],[136.725,35.128],[136.733,35.129],[136.737,35.127],[136.746,35.131],[136.755,35.123],[136.758,35.117],[136.763,35.116],[136.77,35.118],[136.773,35.128],[136.771,35.137],[136.763,35.133],[136.754,35.149],[136.747,35.156],[136.732,35.167],[136.727,35.168],[136.71,35.164],[136.707,35.179],[136.709,35.189],[136.72,35.189],[136.731,35.189],[136.73,35.184],[136.738,35.181],[136.746,35.182],[136.748,35.177],[136.754,35.179],[136.754,35.186],[136.758,35.186],[136.764,35.2]]]]}},{"type":"Feature","properties":{"name":"清須市","code":"23233"},"geometry":{"type":"MultiPolygon","coordinates":[[[[136.858,35.231],[136.851,35.238],[136.844,35.237],[136.839,35.246],[136.843,35.252],[136.837,35.251],[136.829,35.243],[136.83,35.237],[136.838,35.229],[136.835,35.222],[136.826,35.222],[136.823,35.215],[136.823,35.204],[136.837,35.205],[136.838,35.197],[136.844,35.194],[136.846,35.189],[136.844,35.183],[136.848,35.181],[136.856,35.188],[136.866,35.192],[136.87,35.194],[136.879,35.207],[136.868,35.212],[136.866,35.207],[136.86,35.208],[136.865,35.213],[136.86,35.215],[136.856,35.221],[136.858,35.231]]]]}},{"type":"Feature","properties":{"name":"北名古屋市","code":"23234"},"geometry":{"type":"MultiPolygon","coordinates":[[[[136.903,35.24],[136.905,35.249],[136.902,35.255],[136.897,35.256],[136.896,35.263],[136.882,35.264],[136.874,35.258],[136.86,35.265],[136.851,35.265],[136.843,35.26],[136.843,35.252],[136.839,35.246],[136.844,35.237],[136.851,35.238],[136.858,35.231],[136.871,35.231],[136.875,35.225],[136.899,35.235],[136.903,35.24]]]]}},{"type":"Feature","properties":{"name":"弥富市","code":"23235"},"geometry":{"type":"MultiPolygon","coordinates":[[[[136.701,35.119],[136.714,35.105],[136.72,35.103],[136.731,35.097],[136.742,35.086],[136.75,35.081],[136.752,35.072],[136.752,35.062],[136.753,35.053],[136.761,35.038],[136.773,35.024],[136.781,35.018],[136.786,35.02],[136.794,35.014],[136.797,35.022],[136.781,35.034],[136.786,35.036],[136.8,35.029],[136.801,35.045],[136.797,35.045],[136.797,35.051],[136.807,35.052],[136.807,35.06],[136.795,35.066],[136.775,35.082],[136.763,35.085],[136.758,35.091],[136.771,35.093],[136.771,35.098],[136.778,35.097],[136.781,35.092],[136.785,35.092],[136.796,35.098],[136.788,35.106],[136.785,35.111],[136.774,35.115],[136.77,35.118],[136.763,35.116],[136.758,35.117],[136.755,35.123],[136.746,35.131],[136.737,35.127],[136.733,35.129],[136.725,35.128],[136.717,35.132],[136.705,35.128],[136.707,35.121],[136.701,35.119]]]]}},{"type":"Feature","properties":{"name":"みよし市","code":"23236"},"geometry":{"type":"MultiPolygon","coordinates":[[[[137.068,35.057],[137.083,35.058],[137.09,35.062],[137.096,35.059],[137.102,35.064],[137.102,35.072],[137.105,35.084],[137.113,35.094],[137.116,35.104],[137.121,35.115],[137.13,35.12],[137.128,35.123],[137.121,35.125],[137.115,35.131],[137.105,35.132],[137.104,35.136],[137.097,35.145],[137.088,35.139],[137.091,35.132],[137.084,35.125],[137.089,35.123],[137.085,35.105],[137.088,35.101],[137.082,35.097],[137.078,35.099],[137.071,35.096],[137.066,35.097],[137.056,35.091],[137.05,35.076],[137.045,35.069],[137.051,35.064],[137.056,35.067],[137.069,35.062],[137.068,35.057]]]]}},{"type":"Feature","properties":{"name":"あま市","code":"23237"},"geometry":{"type":"MultiPolygon","coordinates":[[[[136.848,35.181],[136.844,35.183],[136.846,35.189],[136.844,35.194],[136.838,35.197],[136.837,35.205],[136.823,35.204],[136.823,35.215],[136.809,35.218],[136.806,35.213],[136.794,35.213],[136.78,35.208],[136.762,35.205],[136.764,35.2],[136.772,35.198],[136.779,35.184],[136.78,35.172],[136.787,35.172],[136.783,35.161],[136.785,35.157],[136.787,35.15],[136.794,35.148],[136.801,35.148],[136.809,35.148],[136.809,35.154],[136.803,35.154],[136.802,35.161],[136.808,35.168],[136.809,35.178],[136.809,35.19],[136.814,35.187],[136.824,35.187],[136.824,35.18],[136.832,35.179],[136.841,35.174],[136.848,35.181]]]]}},{"type":"Feature","properties":{"name":"長久手市","code":"23238"},"geometry":{"type":"MultiPolygon","coordinates":[[[[137.02,35.191],[137.026,35.185],[137.027,35.179],[137.024,35.174],[137.027,35.169],[137.023,35.163],[137.027,35.156],[137.031,35.155],[137.036,35.16],[137.044,35.163],[137.048,35.168],[137.06,35.168],[137.059,35.162],[137.076,35.158],[137.083,35.159],[137.096,35.157],[137.095,35.16],[137.097,35.174],[137.096,35.179],[137.088,35.183],[137.085,35.19],[137.082,35.189],[137.072,35.191],[137.067,35.196],[137.059,35.191],[137.05,35.195],[137.044,35.191],[137.032,35.192],[137.02,35.191]]]]}},{"type":"Feature","properties":{"name":"愛知郡東郷町","code":"23302"},"geometry":{"type":"MultiPolygon","coordinates":[[[[137.021,35.091],[137.026,35.09],[137.027,35.085],[137.036,35.084],[137.041,35.08],[137.043,35.068],[137.05,35.076],[137.056,35.091],[137.066,35.097],[137.071,35.096],[137.078,35.099],[137.082,35.097],[137.088,35.101],[137.085,35.105],[137.089,35.123],[137.084,35.125],[137.081,35.121],[137.075,35.119],[137.068,35.121],[137.062,35.119],[137.061,35.115],[137.054,35.116],[137.046,35.114],[137.039,35.109],[137.033,35.113],[137.024,35.108],[137.023,35.103],[137.02,35.096],[137.021,35.091]]]]}},{"type":"Feature","properties":{"name":"西春日井郡豊山町","code":"23342"},"geometry":{"type":"MultiPolygon","coordinates":[[[[136.927,35.243],[136.932,35.247],[136.931,35.257],[136.924,35.263],[136.917,35.265],[136.909,35.262],[136.902,35.255],[136.905,35.249],[136.903,35.24],[136.909,35.24],[136.911,35.236],[136.92,35.238],[136.927,35.243]]]]}},{"type":"Feature","properties":{"name":"丹羽郡大口町","code":"23361"},"geometry":{"type":"MultiPolygon","coordinates":[[[[136.94,35.361],[136.939,35.355],[136.936,35.35],[136.93,35.35],[136.919,35.352],[136.91,35.349],[136.9,35.341],[136.895,35.335],[136.889,35.321],[136.884,35.318],[136.883,35.309],[136.888,35.305],[136.896,35.307],[136.907,35.32],[136.922,35.319],[136.925,35.325],[136.931,35.329],[136.937,35.343],[136.936,35.346],[136.942,35.352],[136.94,35.361]]]]}},{"type":"Feature","properties":{"name":"丹羽郡扶桑町","code":"23362"},"geometry":{"type":"MultiPolygon","coordinates":[[[[136.921,35.379],[136.909,35.378],[136.893,35.378],[136.899,35.372],[136.896,35.367],[136.896,35.36],[136.892,35.354],[136.895,35.347],[136.9,35.341],[136.91,35.349],[136.919,35.352],[136.93,35.35],[136.936,35.35],[136.939,35.355],[136.94,35.361],[136.935,35.37],[136.931,35.368],[136.921,35.368],[136.917,35.371],[136.923,35.376],[136.921,35.379]]]]}},{"type":"Feature","properties":{"name":"海部郡大治町","code":"23424"},"geometry":{"type":"MultiPolygon","coordinates":[[[[136.841,35.174],[136.832,35.179],[136.824,35.18],[136.824,35.187],[136.814,35.187],[136.809,35.19],[136.809,35.178],[136.808,35.168],[136.818,35.165],[136.817,35.159],[136.83,35.157],[136.833,35.165],[136.836,35.169],[136.841,35.174]]]]}},{"type":"Feature","properties":{"name":"海部郡蟹江町","code":"23425"},"geometry":{"type":"MultiPolygon","coordinates":[[[[136.801,35.148],[136.794,35.148],[136.787,35.15],[136.785,35.157],[136.782,35.15],[136.771,35.148],[136.772,35.141],[136.771,35.137],[136.773,35.128],[136.77,35.118],[136.774,35.115],[136.785,35.111],[136.788,35.106],[136.796,35.1],[136.792,35.112],[136.794,35.122],[136.798,35.122],[136.797,35.128],[136.8,35.132],[136.801,35.148]]]]}},{"type":"Feature","properties":{"name":"海部郡飛島村","code":"23427"},"geometry":{"type":"MultiPolygon","coordinates":[[[[136.831,35.049],[136.81,35.049],[136.811,35.027],[136.818,35.026],[136.839,35.03],[136.831,35.049]]],[[[136.798,35.097],[136.785,35.092],[136.781,35.092],[136.778,35.097],[136.771,35.098],[136.771,35.093],[136.758,35.091],[136.763,35.085],[136.775,35.082],[136.795,35.066],[136.807,35.06],[136.807,35.052],[136.817,35.05],[136.83,35.05],[136.834,35.06],[136.834,35.064],[136.824,35.068],[136.825,35.08],[136.81,35.093],[136.798,35.097]]]]}},{"type":"Feature","properties":{"name":"知多郡阿久比町","code":"23441"},"geometry":{"type":"MultiPolygon","coordinates":[[[[136.944,34.942],[136.939,34.95],[136.928,34.955],[136.918,34.963],[136.912,34.959],[136.91,34.953],[136.907,34.952],[136.894,34.959],[136.889,34.955],[136.885,34.957],[136.879,34.951],[136.881,34.942],[136.892,34.94],[136.884,34.92],[136.88,34.918],[136.887,34.911],[136.894,34.911],[136.899,34.914],[136.914,34.911],[136.919,34.913],[136.933,34.913],[136.934,34.923],[136.937,34.927],[136.936,34.931],[136.938,34.936],[136.944,34.942]]]]}},{"type":"Feature","properties":{"name":"知多郡東浦町","code":"23442"},"geometry":{"type":"MultiPolygon","coordinates":[[[[136.975,34.932],[136.98,34.951],[136.983,34.956],[136.982,34.972],[136.979,34.984],[136.982,34.993],[136.981,35.001],[136.973,34.999],[136.962,35.003],[136.953,34.996],[136.949,34.998],[136.946,34.992],[136.936,34.99],[136.932,34.984],[136.929,34.983],[136.923,34.976],[136.916,34.973],[136.914,34.97],[136.918,34.963],[136.928,34.955],[136.939,34.95],[136.944,34.942],[136.954,34.938],[136.96,34.94],[136.967,34.936],[136.966,34.933],[136.975,34.932]]]]}},{"type":"Feature","properties":{"name":"知多郡南知多町","code":"23445"},"geometry":{"type":"MultiPolygon","coordinates":[[[[137.008,34.686],[137.004,34.678],[137.0,34.678],[137.003,34.666],[137.007,34.676],[137.01,34.677],[137.008,34.686]]],[[[137.008,34.709],[136.998,34.705],[136.999,34.7],[137.011,34.705],[137.008,34.709]]],[[[136.942,34.747],[136.935,34.741],[136.923,34.729],[136.91,34.739],[136.903,34.748],[136.899,34.755],[136.898,34.764],[136.888,34.766],[136.881,34.761],[136.869,34.755],[136.865,34.756],[136.859,34.747],[136.852,34.749],[136.857,34.745],[136.859,34.741],[136.866,34.738],[136.872,34.73],[136.881,34.727],[136.888,34.721],[136.898,34.719],[136.91,34.714],[136.93,34.705],[136.936,34.708],[136.943,34.701],[136.955,34.7],[136.961,34.701],[136.974,34.699],[136.974,34.705],[136.97,34.71],[136.973,34.717],[136.963,34.719],[136.964,34.723],[136.97,34.724],[136.964,34.734],[136.957,34.738],[136.952,34.738],[136.942,34.747]]]]}},{"type":"Feature","properties":{"name":"知多郡美浜町","code":"23446"},"geometry":{"type":"MultiPolygon","coordinates":[[[[136.862,34.814],[136.857,34.804],[136.856,34.794],[136.847,34.774],[136.842,34.762],[136.845,34.756],[136.852,34.749],[136.859,34.747],[136.865,34.756],[136.869,34.755],[136.881,34.761],[136.888,34.766],[136.898,34.764],[136.899,34.755],[136.903,34.748],[136.91,34.739],[136.923,34.729],[136.935,34.741],[136.942,34.747],[136.935,34.754],[136.927,34.757],[136.927,34.764],[136.92,34.766],[136.915,34.77],[136.916,34.783],[136.921,34.793],[136.919,34.798],[136.922,34.804],[136.921,34.813],[136.914,34.811],[136.904,34.815],[136.887,34.815],[136.879,34.813],[136.872,34.814],[136.867,34.813],[136.862,34.814]]]]}},{"type":"Feature","properties":{"name":"知多郡武豊町","code":"23447"},"geometry":{"type":"MultiPolygon","coordinates":[[[[136.876,34.878],[136.881,34.868],[136.888,34.865],[136.891,34.856],[136.888,34.852],[136.882,34.851],[136.885,34.84],[136.885,34.828],[136.883,34.824],[136.887,34.815],[136.904,34.815],[136.914,34.811],[136.921,34.813],[136.925,34.814],[136.927,34.828],[136.935,34.83],[136.936,34.836],[136.929,34.839],[136.93,34.849],[136.935,34.848],[136.935,34.857],[136.928,34.859],[136.928,34.866],[136.941,34.863],[136.927,34.868],[136.915,34.869],[136.905,34.871],[136.895,34.875],[136.884,34.873],[136.876,34.878]]]]}},{"type":"Feature","properties":{"name":"額田郡幸田町","code":"23501"},"geometry":{"type":"MultiPolygon","coordinates":[[[[137.138,34.891],[137.14,34.882],[137.135,34.882],[137.137,34.875],[137.133,34.87],[137.123,34.871],[137.115,34.87],[137.112,34.865],[137.115,34.86],[137.122,34.859],[137.127,34.853],[137.121,34.846],[137.113,34.854],[137.105,34.852],[137.102,34.843],[137.117,34.839],[137.124,34.844],[137.128,34.842],[137.135,34.834],[137.146,34.828],[137.148,34.823],[137.155,34.825],[137.164,34.815],[137.17,34.822],[137.179,34.826],[137.18,34.823],[137.187,34.823],[137.2,34.825],[137.192,34.833],[137.198,34.841],[137.193,34.848],[137.197,34.853],[137.206,34.856],[137.204,34.861],[137.212,34.868],[137.21,34.872],[137.211,34.878],[137.204,34.881],[137.201,34.885],[137.202,34.891],[137.208,34.892],[137.203,34.899],[137.196,34.901],[137.193,34.905],[137.177,34.91],[137.167,34.906],[137.162,34.9],[137.158,34.889],[137.154,34.887],[137.138,34.891]]]]}},{"type":"Feature","properties":{"name":"北設楽郡設楽町","code":"23561"},"geometry":{"type":"MultiPolygon","coordinates":[[[[137.446,35.072],[137.451,35.067],[137.449,35.059],[137.452,35.054],[137.459,35.056],[137.463,35.053],[137.471,35.054],[137.476,35.062],[137.488,35.064],[137.491,35.069],[137.502,35.065],[137.507,35.054],[137.51,35.049],[137.505,35.042],[137.512,35.04],[137.517,35.047],[137.523,35.048],[137.525,35.043],[137.531,35.043],[137.535,35.052],[137.543,35.057],[137.559,35.055],[137.57,35.06],[137.58,35.06],[137.583,35.057],[137.584,35.051],[137.59,35.038],[137.59,35.034],[137.595,35.031],[137.599,35.025],[137.6,35.019],[137.604,35.016],[137.62,35.019],[137.622,35.029],[137.625,35.034],[137.623,35.04],[137.626,35.047],[137.631,35.049],[137.628,35.054],[137.634,35.058],[137.638,35.064],[137.639,35.068],[137.634,35.072],[137.633,35.084],[137.625,35.089],[137.621,35.098],[137.61,35.098],[137.606,35.103],[137.606,35.111],[137.61,35.119],[137.61,35.131],[137.61,35.14],[137.615,35.141],[137.621,35.138],[137.631,35.143],[137.637,35.142],[137.642,35.145],[137.65,35.146],[137.655,35.139],[137.659,35.141],[137.671,35.142],[137.676,35.14],[137.677,35.145],[137.677,35.158],[137.667,35.176],[137.663,35.187],[137.66,35.189],[137.655,35.199],[137.657,35.204],[137.657,35.215],[137.654,35.218],[137.645,35.214],[137.645,35.209],[137.633,35.212],[137.627,35.212],[137.603,35.206],[137.591,35.199],[137.579,35.198],[137.581,35.19],[137.575,35.186],[137.567,35.188],[137.551,35.189],[137.546,35.187],[137.538,35.19],[137.519,35.178],[137.513,35.185],[137.5,35.185],[137.499,35.189],[137.503,35.196],[137.495,35.197],[137.487,35.194],[137.482,35.186],[137.483,35.18],[137.474,35.17],[137.462,35.16],[137.475,35.15],[137.468,35.141],[137.463,35.139],[137.457,35.133],[137.452,35.133],[137.444,35.136],[137.445,35.13],[137.448,35.126],[137.448,35.12],[137.442,35.11],[137.433,35.108],[137.429,35.104],[137.43,35.096],[137.435,35.091],[137.434,35.087],[137.443,35.081],[137.446,35.072]]]]}},{"type":"Feature","properties":{"name":"北設楽郡東栄町","code":"23562"},"geometry":{"type":"MultiPolygon","coordinates":[[[[137.705,35.015],[137.717,35.027],[137.717,35.035],[137.729,35.04],[137.74,35.057],[137.755,35.065],[137.768,35.072],[137.776,35.078],[137.774,35.084],[137.775,35.093],[137.778,35.1],[137.774,35.1],[137.763,35.109],[137.762,35.112],[137.748,35.115],[137.746,35.123],[137.74,35.123],[137.716,35.131],[137.712,35.126],[137.706,35.123],[137.694,35.124],[137.689,35.133],[137.682,35.133],[137.671,35.129],[137.66,35.129],[137.655,35.139],[137.65,35.146],[137.642,35.145],[137.637,35.142],[137.631,35.143],[137.621,35.138],[137.615,35.141],[137.61,35.14],[137.61,35.131],[137.61,35.119],[137.606,35.111],[137.606,35.103],[137.61,35.098],[137.621,35.098],[137.625,35.089],[137.633,35.084],[137.634,35.072],[137.639,35.068],[137.638,35.064],[137.645,35.059],[137.645,35.056],[137.652,35.054],[137.655,35.05],[137.662,35.05],[137.667,35.042],[137.675,35.04],[137.681,35.042],[137.692,35.038],[137.691,35.033],[137.701,35.03],[137.706,35.022],[137.705,35.015]]]]}},{"type":"Feature","properties":{"name":"北設楽郡豊根村","code":"23563"},"geometry":{"type":"MultiPolygon","coordinates":[[[[137.655,35.139],[137.66,35.129],[137.671,35.129],[137.682,35.133],[137.689,35.133],[137.694,35.124],[137.703,35.126],[137.712,35.126],[137.716,35.131],[137.74,35.123],[137.746,35.123],[137.748,35.115],[137.762,35.112],[137.763,35.109],[137.774,35.1],[137.778,35.1],[137.782,35.097],[137.793,35.096],[137.795,35.103],[137.801,35.107],[137.798,35.118],[137.797,35.127],[137.792,35.129],[137.793,35.135],[137.799,35.135],[137.801,35.131],[137.806,35.131],[137.81,35.137],[137.815,35.14],[137.812,35.144],[137.814,35.151],[137.822,35.148],[137.829,35.152],[137.827,35.155],[137.821,35.158],[137.825,35.168],[137.818,35.175],[137.81,35.175],[137.803,35.183],[137.807,35.188],[137.814,35.186],[137.82,35.197],[137.822,35.203],[137.829,35.204],[137.827,35.216],[137.822,35.216],[137.807,35.21],[137.8,35.206],[137.783,35.206],[137.779,35.203],[137.768,35.207],[137.766,35.21],[137.768,35.218],[137.76,35.221],[137.747,35.22],[137.743,35.219],[137.736,35.223],[137.729,35.221],[137.722,35.222],[137.722,35.231],[137.712,35.229],[137.706,35.234],[137.7,35.232],[137.694,35.234],[137.687,35.231],[137.681,35.235],[137.679,35.231],[137.674,35.231],[137.668,35.227],[137.657,35.228],[137.654,35.227],[137.654,35.218],[137.657,35.215],[137.657,35.204],[137.655,35.199],[137.66,35.189],[137.663,35.187],[137.667,35.176],[137.677,35.158],[137.677,35.145],[137.676,35.14],[137.671,35.142],[137.659,35.141],[137.655,35.139]]]]}},{"type":"Feature","properties":{"name":"所属未定地","code":null},"geometry":{"type":"MultiPolygon","coordinates":[[[[136.822,35.008],[136.822,35.018],[136.809,35.013],[136.8,35.004],[136.812,34.996],[136.822,35.008]]]]}}]}