{"type":"FeatureCollection","features":[{"type":"Feature","properties":{"name":"津市","code":"24201"},"geometry":{"type":"MultiPolygon","coordinates":[[[[136.488,34.802],[136.483,34.805],[136.479,34.806],[136.477,34.803],[136.478,34.808],[136.473,34.809],[136.469,34.809],[136.466,34.812],[136.462,34.811],[136.458,34.812],[136.455,34.813],[136.451,34.811],[136.449,34.815],[136.441,34.821],[136.436,34.823],[136.434,34.828],[136.434,34.832],[136.433,34.836],[136.435,34.84],[136.429,34.841],[136.422,34.844],[136.422,34.841],[136.417,34.84],[136.414,34.842],[136.41,34.843],[136.403,34.842],[136.404,34.838],[136.398,34.837],[136.394,34.836],[136.388,34.835],[136.381,34.828],[136.38,34.824],[136.376,34.822],[136.371,34.82],[136.367,34.821],[136.359,34.823],[136.353,34.821],[136.348,34.819],[136.343,34.818],[136.337,34.82],[136.333,34.819],[136.327,34.82],[136.323,34.819],[136.323,34.816],[136.322,34.812],[136.318,34.812],[136.314,34.813],[136.313,34.808],[136.31,34.804],[136.313,34.8],[136.313,34.796],[136.317,34.788],[136.321,34.787],[136.324,34.786],[136.328,34.785],[136.332,34.787],[136.335,34.782],[136.336,34.778],[136.34,34.775],[136.342,34.77],[136.338,34.768],[136.334,34.766],[136.329,34.763],[136.325,34.761],[136.323,34.758],[136.319,34.755],[136.319,34.75],[136.314,34.747],[136.31,34.745],[136.306,34.744],[136.3,34.741],[136.297,34.735],[136.301,34.731],[136.305,34.732],[136.308,34.729],[136.31,34.725],[136.305,34.723],[136.302,34.719],[136.3,34.716],[136.295,34.716],[136.294,34.712],[136.29,34.709],[136.288,34.704],[136.283,34.698],[136.279,34.693],[136.279,34.69],[136.271,34.685],[136.273,34.68],[136.273,34.677],[136.269,34.676],[136.268,34.671],[136.273,34.667],[136.275,34.663],[136.272,34.662],[136.267,34.661],[136.268,34.657],[136.262,34.656],[136.261,34.653],[136.257,34.648],[136.255,34.644],[136.251,34.644],[136.25,34.636],[136.245,34.63],[136.246,34.625],[136.249,34.624],[136.25,34.619],[136.249,34.613],[136.25,34.61],[136.249,34.605],[136.25,34.602],[136.253,34.599],[136.257,34.596],[136.258,34.593],[136.253,34.591],[136.251,34.587],[136.255,34.587],[136.255,34.583],[136.251,34.584],[136.245,34.582],[136.239,34.58],[136.231,34.58],[136.227,34.579],[136.224,34.574],[136.222,34.569],[136.22,34.566],[136.219,34.562],[136.22,34.558],[136.215,34.562],[136.211,34.564],[136.205,34.565],[136.201,34.567],[136.198,34.564],[136.195,34.567],[136.192,34.568],[136.185,34.569],[136.179,34.568],[136.174,34.562],[136.171,34.562],[136.168,34.557],[136.165,34.552],[136.164,34.549],[136.16,34.547],[136.166,34.541],[136.17,34.539],[136.172,34.535],[136.17,34.527],[136.168,34.521],[136.172,34.518],[136.182,34.517],[136.187,34.522],[136.19,34.524],[136.194,34.523],[136.198,34.525],[136.207,34.528],[136.215,34.529],[136.216,34.523],[136.218,34.52],[136.22,34.516],[136.219,34.511],[136.216,34.508],[136.215,34.501],[136.218,34.497],[136.222,34.497],[136.229,34.495],[136.229,34.489],[136.224,34.487],[136.219,34.485],[136.216,34.481],[136.215,34.478],[136.215,34.473],[136.212,34.47],[136.209,34.467],[136.209,34.462],[136.209,34.455],[136.206,34.449],[136.215,34.45],[136.22,34.448],[136.228,34.449],[136.24,34.448],[136.244,34.447],[136.248,34.448],[136.252,34.448],[136.256,34.45],[136.264,34.452],[136.269,34.451],[136.275,34.452],[136.279,34.453],[136.286,34.456],[136.288,34.46],[136.293,34.463],[136.298,34.462],[136.305,34.461],[136.31,34.464],[136.314,34.468],[136.316,34.474],[136.321,34.476],[136.324,34.479],[136.325,34.487],[136.329,34.49],[136.334,34.491],[136.338,34.495],[136.342,34.497],[136.344,34.502],[136.346,34.507],[136.346,34.512],[136.344,34.515],[136.341,34.521],[136.338,34.527],[136.338,34.532],[136.342,34.533],[136.346,34.534],[136.35,34.538],[136.352,34.541],[136.355,34.545],[136.36,34.549],[136.361,34.553],[136.362,34.558],[136.365,34.56],[136.369,34.563],[136.371,34.569],[136.376,34.575],[136.377,34.579],[136.377,34.584],[136.383,34.589],[136.387,34.592],[136.39,34.595],[136.392,34.601],[136.392,34.607],[136.391,34.61],[136.397,34.616],[136.402,34.614],[136.405,34.615],[136.408,34.62],[136.412,34.621],[136.415,34.623],[136.421,34.627],[136.423,34.632],[136.427,34.634],[136.43,34.637],[136.437,34.635],[136.44,34.63],[136.443,34.629],[136.448,34.628],[136.449,34.631],[136.45,34.637],[136.451,34.642],[136.453,34.638],[136.456,34.637],[136.461,34.639],[136.463,34.643],[136.463,34.646],[136.464,34.649],[136.468,34.649],[136.471,34.648],[136.477,34.647],[136.481,34.647],[136.484,34.645],[136.489,34.646],[136.492,34.647],[136.5,34.651],[136.507,34.65],[136.514,34.649],[136.522,34.648],[136.527,34.649],[136.532,34.647],[136.536,34.641],[136.543,34.637],[136.55,34.635],[136.55,34.638],[136.548,34.645],[136.548,34.652],[136.549,34.662],[136.548,34.666],[136.554,34.667],[136.558,34.671],[136.554,34.676],[136.549,34.671],[136.542,34.675],[136.547,34.68],[136.541,34.683],[136.537,34.677],[136.53,34.684],[136.525,34.683],[136.522,34.69],[136.521,34.694],[136.521,34.698],[136.522,34.703],[136.523,34.708],[136.525,34.713],[136.528,34.726],[136.529,34.73],[136.53,34.735],[136.531,34.747],[136.534,34.754],[136.539,34.763],[136.545,34.774],[136.548,34.779],[136.555,34.788],[136.563,34.797],[136.57,34.805],[136.566,34.808],[136.562,34.81],[136.557,34.81],[136.555,34.814],[136.552,34.814],[136.548,34.81],[136.545,34.81],[136.541,34.808],[136.534,34.808],[136.529,34.808],[136.527,34.812],[136.523,34.812],[136.52,34.809],[136.517,34.809],[136.514,34.811],[136.511,34.807],[136.507,34.806],[136.502,34.806],[136.498,34.804],[136.495,34.8],[136.491,34.799],[136.488,34.802]]]]}},{"type":"Feature","properties":{"name":"四日市市","code":"24202"},"geometry":{"type":"MultiPolygon","coordinates":[[[[136.673,34.998],[136.675,35.002],[136.671,35.002],[136.664,34.999],[136.654,34.992],[136.65,34.977],[136.655,34.975],[136.666,34.973],[136.672,34.983],[136.676,34.984],[136.678,34.987],[136.661,34.993],[136.667,34.998],[136.671,34.996]]],[[[136.563,35.064],[136.559,35.064],[136.55,35.067],[136.543,35.07],[136.539,35.071],[136.539,35.066],[136.541,35.063],[136.54,35.058],[136.538,35.053],[136.534,35.043],[136.537,35.043],[136.534,35.038],[136.542,35.038],[136.559,35.036],[136.558,35.033],[136.556,35.029],[136.555,35.025],[136.554,35.018],[136.551,35.015],[136.546,35.016],[136.541,35.018],[136.537,35.018],[136.534,35.013],[136.54,35.009],[136.546,35.001],[136.536,35.0],[136.532,34.998],[136.527,34.999],[136.523,35.001],[136.518,34.998],[136.513,34.997],[136.509,34.999],[136.504,34.998],[136.499,34.997],[136.494,34.996],[136.489,34.996],[136.485,34.995],[136.478,34.994],[136.474,34.994],[136.467,34.993],[136.463,34.991],[136.459,34.991],[136.455,34.997],[136.451,34.997],[136.445,35.0],[136.439,34.999],[136.429,35.001],[136.426,34.999],[136.421,35.0],[136.416,34.998],[136.416,34.992],[136.416,34.988],[136.415,34.985],[136.419,34.984],[136.425,34.985],[136.428,34.987],[136.435,34.986],[136.439,34.987],[136.444,34.987],[136.45,34.983],[136.456,34.979],[136.461,34.978],[136.47,34.971],[136.473,34.965],[136.476,34.964],[136.477,34.96],[136.48,34.957],[136.486,34.954],[136.492,34.955],[136.496,34.951],[136.503,34.95],[136.508,34.948],[136.512,34.945],[136.513,34.941],[136.518,34.935],[136.524,34.931],[136.532,34.927],[136.535,34.926],[136.541,34.924],[136.545,34.923],[136.55,34.921],[136.553,34.919],[136.557,34.918],[136.561,34.916],[136.565,34.914],[136.569,34.913],[136.573,34.914],[136.577,34.915],[136.581,34.911],[136.587,34.909],[136.594,34.91],[136.599,34.906],[136.603,34.906],[136.607,34.905],[136.615,34.904],[136.625,34.904],[136.634,34.903],[136.641,34.902],[136.647,34.904],[136.647,34.908],[136.646,34.917],[136.645,34.921],[136.647,34.925],[136.646,34.929],[136.645,34.933],[136.653,34.937],[136.667,34.937],[136.668,34.942],[136.663,34.942],[136.663,34.945],[136.648,34.947],[136.644,34.943],[136.643,34.939],[136.638,34.946],[136.634,34.949],[136.641,34.949],[136.645,34.954],[136.641,34.956],[136.639,34.953],[136.637,34.957],[136.646,34.959],[136.645,34.962],[136.65,34.975],[136.646,34.977],[136.65,34.986],[136.65,34.991],[136.66,35.001],[136.666,35.004],[136.674,35.006],[136.672,35.01],[136.673,35.015],[136.667,35.017],[136.662,35.012],[136.654,35.018],[136.659,35.022],[136.658,35.025],[136.654,35.025],[136.648,35.027],[136.643,35.033],[136.64,35.037],[136.642,35.043],[136.637,35.045],[136.633,35.044],[136.63,35.045],[136.621,35.047],[136.613,35.046],[136.61,35.048],[136.604,35.048],[136.6,35.049],[136.595,35.049],[136.589,35.05],[136.585,35.051],[136.581,35.052],[136.572,35.054],[136.568,35.061],[136.563,35.062]]]]}},{"type":"Feature","properties":{"name":"伊勢市","code":"24203"},"geometry":{"type":"MultiPolygon","coordinates":[[[[136.816,34.485],[136.817,34.49],[136.813,34.492],[136.816,34.497],[136.813,34.498],[136.812,34.502],[136.811,34.507],[136.804,34.507],[136.796,34.507],[136.789,34.508],[136.781,34.509],[136.777,34.509],[136.773,34.51],[136.765,34.514],[136.758,34.519],[136.753,34.525],[136.748,34.522],[136.747,34.526],[136.742,34.53],[136.737,34.534],[136.723,34.541],[136.718,34.543],[136.71,34.545],[136.705,34.545],[136.7,34.546],[136.694,34.547],[136.689,34.55],[136.68,34.554],[136.673,34.556],[136.667,34.558],[136.663,34.561],[136.66,34.566],[136.657,34.563],[136.657,34.558],[136.658,34.554],[136.652,34.549],[136.647,34.546],[136.647,34.542],[136.645,34.536],[136.65,34.535],[136.661,34.529],[136.659,34.524],[136.66,34.52],[136.655,34.518],[136.658,34.521],[136.654,34.522],[136.653,34.519],[136.654,34.516],[136.647,34.512],[136.646,34.517],[136.641,34.515],[136.646,34.512],[136.65,34.51],[136.643,34.508],[136.643,34.504],[136.639,34.5],[136.646,34.501],[136.649,34.498],[136.654,34.502],[136.657,34.505],[136.656,34.501],[136.648,34.495],[136.648,34.49],[136.646,34.486],[136.65,34.486],[136.656,34.489],[136.655,34.484],[136.654,34.481],[136.657,34.48],[136.663,34.478],[136.667,34.48],[136.67,34.477],[136.667,34.474],[136.663,34.47],[136.654,34.463],[136.651,34.461],[136.651,34.457],[136.653,34.451],[136.645,34.447],[136.644,34.442],[136.639,34.435],[136.633,34.431],[136.64,34.426],[136.643,34.423],[136.645,34.417],[136.643,34.412],[136.643,34.408],[136.645,34.403],[136.643,34.398],[136.647,34.396],[136.653,34.396],[136.658,34.395],[136.665,34.395],[136.67,34.393],[136.674,34.392],[136.679,34.396],[136.684,34.395],[136.688,34.396],[136.693,34.393],[136.694,34.388],[136.703,34.388],[136.71,34.388],[136.714,34.389],[136.718,34.392],[136.724,34.39],[136.729,34.387],[136.735,34.387],[136.74,34.386],[136.744,34.385],[136.747,34.385],[136.752,34.386],[136.752,34.389],[136.755,34.395],[136.758,34.399],[136.754,34.4],[136.758,34.405],[136.758,34.408],[136.759,34.412],[136.763,34.412],[136.772,34.417],[136.781,34.417],[136.784,34.419],[136.788,34.423],[136.784,34.426],[136.784,34.431],[136.783,34.439],[136.783,34.444],[136.783,34.45],[136.785,34.454],[136.789,34.458],[136.792,34.459],[136.798,34.459],[136.801,34.464],[136.804,34.468],[136.806,34.473],[136.803,34.475],[136.804,34.48],[136.807,34.481],[136.813,34.482],[136.816,34.485]]]]}},{"type":"Feature","properties":{"name":"松阪市","code":"24204"},"geometry":{"type":"MultiPolygon","coordinates":[[[[136.206,34.449],[136.197,34.45],[136.192,34.45],[136.189,34.451],[136.185,34.448],[136.182,34.446],[136.178,34.446],[136.173,34.446],[136.165,34.448],[136.161,34.448],[136.157,34.447],[136.153,34.445],[136.151,34.442],[136.148,34.442],[136.144,34.441],[136.139,34.442],[136.136,34.443],[136.132,34.444],[136.128,34.445],[136.121,34.443],[136.115,34.439],[136.111,34.436],[136.107,34.435],[136.101,34.436],[136.096,34.435],[136.091,34.43],[136.09,34.427],[136.091,34.423],[136.09,34.416],[136.087,34.412],[136.083,34.41],[136.078,34.408],[136.074,34.4],[136.073,34.396],[136.069,34.394],[136.069,34.389],[136.072,34.387],[136.078,34.386],[136.082,34.384],[136.086,34.38],[136.087,34.376],[136.09,34.372],[136.092,34.369],[136.091,34.363],[136.094,34.362],[136.096,34.357],[136.097,34.354],[136.097,34.35],[136.098,34.345],[136.102,34.342],[136.101,34.338],[136.106,34.334],[136.109,34.329],[136.113,34.328],[136.119,34.326],[136.124,34.322],[136.128,34.319],[136.133,34.315],[136.139,34.315],[136.146,34.315],[136.158,34.314],[136.161,34.32],[136.165,34.323],[136.168,34.325],[136.173,34.324],[136.178,34.322],[136.183,34.323],[136.188,34.325],[136.187,34.331],[136.189,34.334],[136.186,34.34],[136.191,34.342],[136.195,34.346],[136.201,34.347],[136.205,34.348],[136.21,34.349],[136.215,34.348],[136.223,34.35],[136.226,34.35],[136.234,34.352],[136.237,34.353],[136.241,34.354],[136.251,34.355],[136.256,34.359],[136.257,34.362],[136.263,34.365],[136.268,34.368],[136.271,34.369],[136.269,34.372],[136.264,34.375],[136.262,34.381],[136.257,34.383],[136.257,34.386],[136.261,34.391],[136.265,34.396],[136.267,34.401],[136.27,34.402],[136.273,34.407],[136.282,34.407],[136.29,34.405],[136.295,34.406],[136.298,34.408],[136.302,34.407],[136.307,34.407],[136.31,34.406],[136.315,34.406],[136.318,34.405],[136.322,34.405],[136.327,34.406],[136.334,34.406],[136.34,34.405],[136.348,34.405],[136.354,34.406],[136.358,34.408],[136.362,34.406],[136.366,34.406],[136.37,34.403],[136.377,34.403],[136.378,34.407],[136.383,34.408],[136.391,34.411],[136.398,34.416],[136.401,34.416],[136.405,34.418],[136.409,34.42],[136.408,34.424],[136.41,34.43],[136.415,34.436],[136.417,34.439],[136.423,34.442],[136.42,34.447],[136.418,34.452],[136.418,34.457],[136.419,34.46],[136.421,34.466],[136.417,34.467],[136.413,34.468],[136.408,34.468],[136.405,34.468],[136.401,34.469],[136.405,34.472],[136.41,34.474],[136.416,34.476],[136.422,34.477],[136.427,34.479],[136.428,34.482],[136.433,34.483],[136.437,34.482],[136.441,34.478],[136.447,34.477],[136.449,34.481],[136.452,34.484],[136.456,34.487],[136.463,34.486],[136.469,34.486],[136.473,34.487],[136.481,34.485],[136.488,34.488],[136.493,34.49],[136.492,34.494],[136.488,34.493],[136.482,34.494],[136.478,34.498],[136.486,34.501],[136.49,34.508],[136.495,34.509],[136.5,34.501],[136.503,34.5],[136.507,34.5],[136.514,34.503],[136.518,34.506],[136.526,34.505],[136.532,34.506],[136.538,34.505],[136.543,34.507],[136.548,34.512],[136.555,34.513],[136.558,34.515],[136.565,34.521],[136.574,34.523],[136.578,34.523],[136.582,34.523],[136.586,34.523],[136.59,34.526],[136.595,34.527],[136.596,34.531],[136.597,34.535],[136.602,34.537],[136.601,34.54],[136.604,34.545],[136.607,34.549],[136.607,34.554],[136.608,34.559],[136.613,34.563],[136.617,34.562],[136.616,34.565],[136.616,34.569],[136.611,34.57],[136.61,34.575],[136.608,34.58],[136.611,34.583],[136.611,34.587],[136.615,34.589],[136.614,34.593],[136.605,34.594],[136.604,34.598],[136.602,34.602],[136.594,34.602],[136.588,34.602],[136.584,34.604],[136.581,34.605],[136.576,34.607],[136.565,34.608],[136.562,34.609],[136.563,34.613],[136.56,34.61],[136.555,34.612],[136.549,34.607],[136.543,34.61],[136.536,34.61],[136.531,34.609],[136.53,34.613],[136.532,34.616],[136.538,34.616],[136.539,34.624],[136.544,34.622],[136.548,34.63],[136.55,34.635],[136.543,34.637],[136.538,34.639],[136.534,34.644],[136.53,34.648],[136.522,34.648],[136.514,34.649],[136.507,34.65],[136.5,34.651],[136.495,34.649],[136.489,34.646],[136.486,34.645],[136.481,34.647],[136.477,34.647],[136.471,34.648],[136.468,34.649],[136.464,34.649],[136.463,34.646],[136.463,34.643],[136.461,34.639],[136.456,34.637],[136.453,34.638],[136.454,34.641],[136.45,34.637],[136.449,34.631],[136.448,34.628],[136.443,34.629],[136.44,34.63],[136.439,34.633],[136.43,34.637],[136.427,34.634],[136.423,34.632],[136.421,34.627],[136.418,34.624],[136.414,34.621],[136.41,34.621],[136.405,34.617],[136.402,34.614],[136.397,34.616],[136.394,34.611],[136.39,34.607],[136.392,34.601],[136.39,34.597],[136.387,34.592],[136.383,34.589],[136.38,34.586],[136.377,34.581],[136.376,34.575],[136.371,34.572],[136.368,34.566],[136.365,34.56],[136.362,34.558],[136.361,34.553],[136.36,34.549],[136.357,34.548],[136.355,34.543],[136.35,34.538],[136.346,34.534],[136.342,34.533],[136.338,34.532],[136.338,34.527],[136.338,34.522],[136.343,34.518],[136.346,34.512],[136.348,34.508],[136.346,34.504],[136.344,34.5],[136.338,34.495],[136.334,34.491],[136.331,34.491],[136.325,34.49],[136.324,34.481],[136.321,34.476],[136.316,34.474],[136.314,34.47],[136.311,34.466],[136.307,34.463],[136.3,34.461],[136.293,34.463],[136.288,34.46],[136.286,34.456],[136.281,34.453],[136.275,34.452],[136.271,34.452],[136.264,34.452],[136.259,34.45],[136.252,34.448],[136.248,34.448],[136.244,34.447],[136.24,34.448],[136.228,34.449],[136.222,34.449],[136.217,34.45],[136.208,34.448]]]]}},{"type":"Feature","properties":{"name":"桑名市","code":"24205"},"geometry":{"type":"MultiPolygon","coordinates":[[[[136.642,35.043],[136.648,35.042],[136.656,35.043],[136.659,35.043],[136.661,35.046],[136.664,35.048],[136.67,35.047],[136.675,35.047],[136.678,35.042],[136.691,35.032],[136.697,35.026],[136.699,35.022],[136.711,35.024],[136.727,35.025],[136.733,35.027],[136.74,35.033],[136.75,35.037],[136.755,35.039],[136.752,35.044],[136.743,35.039],[136.734,35.053],[136.729,35.058],[136.726,35.064],[136.725,35.071],[136.723,35.076],[136.72,35.08],[136.718,35.093],[136.717,35.097],[136.714,35.105],[136.704,35.116],[136.7,35.12],[136.695,35.125],[136.687,35.126],[136.681,35.128],[136.676,35.129],[136.673,35.135],[136.67,35.134],[136.668,35.137],[136.668,35.141],[136.661,35.149],[136.658,35.156],[136.656,35.161],[136.646,35.166],[136.645,35.163],[136.646,35.157],[136.646,35.15],[136.644,35.144],[136.64,35.148],[136.635,35.148],[136.63,35.15],[136.624,35.147],[136.616,35.15],[136.613,35.153],[136.612,35.158],[136.611,35.162],[136.607,35.166],[136.606,35.172],[136.602,35.178],[136.599,35.177],[136.594,35.181],[136.587,35.176],[136.582,35.174],[136.577,35.171],[136.575,35.167],[136.578,35.159],[136.575,35.154],[136.574,35.148],[136.575,35.142],[136.578,35.139],[136.583,35.134],[136.584,35.13],[136.587,35.126],[136.59,35.123],[136.594,35.119],[136.594,35.116],[136.598,35.114],[136.601,35.113],[136.602,35.107],[136.604,35.103],[136.608,35.1],[136.612,35.099],[136.62,35.094],[136.616,35.093],[136.615,35.088],[136.614,35.085],[136.603,35.085],[136.607,35.079],[136.61,35.073],[136.61,35.068],[136.609,35.065],[136.609,35.061],[136.603,35.06],[136.6,35.052],[136.604,35.048],[136.608,35.046],[136.612,35.046],[136.618,35.047],[136.627,35.046],[136.633,35.044],[136.636,35.046],[136.641,35.045]]]]}},{"type":"Feature","properties":{"name":"鈴鹿市","code":"24207"},"geometry":{"type":"MultiPolygon","coordinates":[[[[136.57,34.805],[136.582,34.817],[136.589,34.825],[136.594,34.828],[136.591,34.83],[136.595,34.832],[136.601,34.839],[136.604,34.843],[136.613,34.851],[136.615,34.855],[136.621,34.863],[136.626,34.868],[136.63,34.877],[136.634,34.884],[136.633,34.887],[136.636,34.893],[136.639,34.897],[136.642,34.901],[136.634,34.903],[136.625,34.904],[136.615,34.904],[136.607,34.905],[136.603,34.906],[136.599,34.906],[136.596,34.908],[136.589,34.91],[136.584,34.912],[136.578,34.912],[136.573,34.914],[136.569,34.913],[136.565,34.914],[136.56,34.914],[136.557,34.918],[136.553,34.919],[136.55,34.921],[136.545,34.923],[136.541,34.924],[136.535,34.926],[136.532,34.927],[136.524,34.931],[136.518,34.935],[136.511,34.939],[136.513,34.943],[136.508,34.948],[136.503,34.95],[136.497,34.952],[136.492,34.955],[136.488,34.954],[136.48,34.958],[136.475,34.959],[136.476,34.964],[136.473,34.965],[136.47,34.971],[136.464,34.976],[136.456,34.979],[136.45,34.983],[136.445,34.985],[136.442,34.988],[136.437,34.987],[136.428,34.987],[136.425,34.985],[136.422,34.985],[136.415,34.985],[136.416,34.981],[136.409,34.975],[136.405,34.971],[136.403,34.966],[136.399,34.963],[136.396,34.957],[136.395,34.952],[136.399,34.951],[136.405,34.95],[136.411,34.948],[136.419,34.946],[136.42,34.942],[136.426,34.936],[136.427,34.932],[136.431,34.931],[136.43,34.927],[136.43,34.923],[136.435,34.918],[136.441,34.916],[136.445,34.911],[136.45,34.907],[136.455,34.906],[136.462,34.904],[136.466,34.904],[136.473,34.906],[136.477,34.905],[136.48,34.906],[136.482,34.91],[136.486,34.911],[136.485,34.906],[136.488,34.903],[136.494,34.901],[136.492,34.892],[136.492,34.889],[136.496,34.886],[136.495,34.882],[136.495,34.878],[136.491,34.876],[136.49,34.871],[136.494,34.871],[136.496,34.866],[136.493,34.862],[136.491,34.854],[136.487,34.851],[136.486,34.847],[136.486,34.843],[136.483,34.839],[136.485,34.835],[136.488,34.832],[136.491,34.826],[136.492,34.82],[136.49,34.817],[136.49,34.812],[136.491,34.807],[136.488,34.802],[136.491,34.799],[136.495,34.8],[136.498,34.804],[136.502,34.806],[136.507,34.806],[136.51,34.805],[136.513,34.812],[136.515,34.808],[136.52,34.809],[136.523,34.812],[136.527,34.812],[136.529,34.808],[136.534,34.808],[136.54,34.808],[136.545,34.81],[136.548,34.81],[136.552,34.812],[136.555,34.814],[136.557,34.81],[136.562,34.81],[136.566,34.808],[136.57,34.805]]]]}},{"type":"Feature","properties":{"name":"名張市","code":"24208"},"geometry":{"type":"MultiPolygon","coordinates":[[[[136.195,34.567],[136.192,34.572],[136.194,34.575],[136.191,34.576],[136.187,34.58],[136.188,34.583],[136.187,34.586],[136.186,34.592],[136.181,34.594],[136.18,34.599],[136.183,34.602],[136.179,34.608],[136.182,34.611],[136.176,34.616],[136.177,34.619],[136.179,34.627],[136.175,34.63],[136.172,34.633],[136.166,34.637],[136.161,34.64],[136.158,34.642],[136.154,34.644],[136.152,34.649],[136.153,34.654],[136.15,34.654],[136.15,34.657],[136.149,34.661],[136.144,34.663],[136.144,34.666],[136.143,34.67],[136.137,34.671],[136.133,34.671],[136.13,34.669],[136.126,34.669],[136.121,34.674],[136.125,34.676],[136.132,34.682],[136.129,34.683],[136.124,34.687],[136.119,34.688],[136.116,34.684],[136.114,34.678],[136.115,34.673],[136.11,34.671],[136.107,34.671],[136.101,34.672],[136.097,34.675],[136.091,34.676],[136.088,34.676],[136.084,34.673],[136.082,34.67],[136.082,34.665],[136.078,34.663],[136.078,34.659],[136.071,34.658],[136.067,34.654],[136.062,34.653],[136.057,34.656],[136.049,34.659],[136.044,34.66],[136.041,34.664],[136.041,34.659],[136.046,34.656],[136.05,34.652],[136.058,34.653],[136.063,34.651],[136.068,34.647],[136.071,34.641],[136.071,34.637],[136.074,34.634],[136.072,34.63],[136.069,34.627],[136.069,34.622],[136.065,34.621],[136.061,34.617],[136.056,34.61],[136.05,34.606],[136.048,34.602],[136.049,34.595],[136.051,34.59],[136.051,34.587],[136.047,34.585],[136.05,34.58],[136.055,34.578],[136.061,34.575],[136.06,34.569],[136.066,34.567],[136.069,34.567],[136.074,34.567],[136.079,34.563],[136.082,34.562],[136.086,34.558],[136.09,34.559],[136.093,34.557],[136.099,34.556],[136.107,34.556],[136.111,34.556],[136.111,34.551],[136.114,34.546],[136.117,34.547],[136.12,34.548],[136.124,34.549],[136.134,34.555],[136.138,34.561],[136.142,34.559],[136.147,34.556],[136.151,34.556],[136.151,34.559],[136.155,34.56],[136.156,34.556],[136.162,34.548],[136.165,34.552],[136.168,34.557],[136.171,34.562],[136.174,34.562],[136.177,34.567],[136.185,34.567],[136.19,34.569],[136.194,34.566]]]]}},{"type":"Feature","properties":{"name":"尾鷲市","code":"24209"},"geometry":{"type":"MultiPolygon","coordinates":[[[[136.302,34.099],[136.299,34.104],[136.293,34.106],[136.286,34.11],[136.28,34.113],[136.276,34.112],[136.27,34.107],[136.267,34.107],[136.26,34.103],[136.255,34.099],[136.255,34.095],[136.256,34.092],[136.254,34.088],[136.259,34.088],[136.26,34.092],[136.26,34.097],[136.262,34.101],[136.267,34.103],[136.273,34.1],[136.268,34.099],[136.265,34.097],[136.266,34.093],[136.271,34.09],[136.27,34.087],[136.271,34.083],[136.276,34.085],[136.279,34.087],[136.28,34.092],[136.282,34.095],[136.286,34.094],[136.291,34.097],[136.293,34.09],[136.297,34.089],[136.302,34.097]]],[[[136.236,34.087],[136.231,34.089],[136.226,34.092],[136.222,34.091],[136.218,34.092],[136.212,34.092],[136.208,34.091],[136.204,34.092],[136.199,34.092],[136.191,34.091],[136.185,34.093],[136.181,34.093],[136.177,34.092],[136.173,34.09],[136.168,34.092],[136.168,34.096],[136.168,34.102],[136.166,34.105],[136.165,34.108],[136.159,34.109],[136.155,34.111],[136.151,34.114],[136.148,34.118],[136.141,34.119],[136.135,34.119],[136.131,34.118],[136.125,34.118],[136.12,34.117],[136.115,34.117],[136.108,34.115],[136.105,34.114],[136.106,34.11],[136.104,34.106],[136.108,34.103],[136.103,34.099],[136.104,34.094],[136.11,34.089],[136.117,34.084],[136.112,34.082],[136.108,34.084],[136.103,34.084],[136.099,34.086],[136.096,34.086],[136.093,34.083],[136.097,34.079],[136.097,34.076],[136.094,34.072],[136.094,34.067],[136.095,34.062],[136.097,34.059],[136.092,34.048],[136.098,34.045],[136.099,34.041],[136.101,34.037],[136.102,34.033],[136.104,34.027],[136.101,34.026],[136.105,34.023],[136.111,34.023],[136.117,34.024],[136.121,34.026],[136.127,34.027],[136.13,34.026],[136.143,34.027],[136.148,34.025],[136.152,34.02],[136.152,34.016],[136.148,34.013],[136.142,34.011],[136.137,34.008],[136.137,34.0],[136.132,33.996],[136.132,33.99],[136.134,33.986],[136.136,33.978],[136.136,33.974],[136.138,33.971],[136.139,33.966],[136.147,33.962],[136.151,33.958],[136.155,33.957],[136.164,33.957],[136.168,33.957],[136.17,33.963],[136.177,33.967],[136.181,33.965],[136.183,33.959],[136.189,33.957],[136.193,33.954],[136.2,33.955],[136.208,33.952],[136.213,33.956],[136.219,33.955],[136.222,33.951],[136.226,33.948],[136.229,33.947],[136.227,33.952],[136.228,33.956],[136.224,33.962],[136.225,33.967],[136.219,33.967],[136.22,33.97],[136.222,33.974],[136.219,33.975],[136.215,33.972],[136.211,33.969],[136.207,33.967],[136.204,33.965],[136.2,33.965],[136.197,33.968],[136.193,33.97],[136.197,33.972],[136.202,33.971],[136.207,33.975],[136.211,33.982],[136.215,33.983],[136.213,33.99],[136.212,33.995],[136.21,33.998],[136.214,34.001],[136.217,33.998],[136.221,33.996],[136.227,33.989],[136.231,33.987],[136.235,33.987],[136.241,33.986],[136.245,33.985],[136.251,33.983],[136.247,33.981],[136.244,33.982],[136.24,33.983],[136.236,33.982],[136.237,33.977],[136.236,33.973],[136.239,33.969],[136.244,33.97],[136.249,33.973],[136.253,33.967],[136.256,33.968],[136.262,33.967],[136.265,33.971],[136.269,33.97],[136.271,33.974],[136.27,33.981],[136.272,33.984],[136.272,33.988],[136.265,33.989],[136.262,33.989],[136.261,33.994],[136.257,33.998],[136.262,33.996],[136.265,33.993],[136.266,33.996],[136.266,34.0],[136.27,34.001],[136.271,34.006],[136.265,34.007],[136.261,34.005],[136.256,34.005],[136.253,34.007],[136.254,34.01],[136.25,34.013],[136.247,34.014],[136.242,34.014],[136.246,34.016],[136.25,34.017],[136.256,34.012],[136.262,34.012],[136.266,34.013],[136.277,34.019],[136.283,34.02],[136.281,34.023],[136.277,34.025],[136.274,34.026],[136.27,34.03],[136.267,34.03],[136.258,34.032],[136.255,34.036],[136.251,34.038],[136.247,34.038],[136.245,34.042],[136.243,34.05],[136.245,34.056],[136.243,34.06],[136.25,34.06],[136.249,34.063],[136.246,34.064],[136.242,34.064],[136.237,34.065],[136.232,34.065],[136.227,34.065],[136.221,34.063],[136.217,34.063],[136.211,34.063],[136.208,34.069],[136.205,34.071],[136.201,34.075],[136.211,34.078],[136.216,34.08],[136.22,34.08],[136.223,34.082],[136.229,34.086],[136.234,34.086]]]]}},{"type":"Feature","properties":{"name":"亀山市","code":"24210"},"geometry":{"type":"MultiPolygon","coordinates":[[[[136.488,34.802],[136.491,34.807],[136.491,34.812],[136.488,34.814],[136.492,34.82],[136.491,34.826],[136.488,34.832],[136.485,34.835],[136.483,34.839],[136.486,34.843],[136.486,34.847],[136.488,34.85],[136.491,34.854],[136.492,34.861],[136.496,34.865],[136.494,34.87],[136.49,34.871],[136.489,34.875],[136.495,34.878],[136.495,34.882],[136.496,34.886],[136.492,34.889],[136.492,34.892],[136.494,34.901],[136.49,34.901],[136.486,34.903],[136.485,34.908],[136.48,34.906],[136.477,34.905],[136.473,34.906],[136.467,34.905],[136.464,34.905],[136.458,34.905],[136.451,34.906],[136.445,34.911],[136.441,34.915],[136.435,34.916],[136.431,34.92],[136.431,34.925],[136.431,34.931],[136.427,34.932],[136.426,34.936],[136.421,34.942],[136.419,34.946],[136.413,34.948],[136.408,34.949],[136.401,34.949],[136.395,34.952],[136.39,34.952],[136.386,34.953],[136.381,34.948],[136.377,34.946],[136.373,34.942],[136.375,34.938],[136.372,34.935],[136.372,34.932],[136.373,34.929],[136.374,34.925],[136.371,34.923],[136.368,34.919],[136.368,34.915],[136.365,34.913],[136.365,34.909],[136.366,34.905],[136.362,34.905],[136.357,34.9],[136.35,34.899],[136.346,34.895],[136.339,34.895],[136.335,34.893],[136.331,34.892],[136.326,34.889],[136.322,34.889],[136.319,34.89],[136.313,34.887],[136.313,34.881],[136.305,34.875],[136.299,34.875],[136.289,34.87],[136.285,34.87],[136.281,34.866],[136.278,34.859],[136.283,34.857],[136.288,34.845],[136.29,34.841],[136.286,34.838],[136.283,34.837],[136.278,34.835],[136.278,34.831],[136.279,34.827],[136.278,34.822],[136.271,34.819],[136.267,34.819],[136.272,34.815],[136.274,34.812],[136.279,34.81],[136.282,34.811],[136.287,34.813],[136.294,34.813],[136.298,34.811],[136.303,34.81],[136.307,34.808],[136.312,34.807],[136.313,34.811],[136.318,34.812],[136.322,34.812],[136.323,34.816],[136.323,34.819],[136.326,34.822],[136.331,34.819],[136.334,34.818],[136.343,34.818],[136.348,34.819],[136.353,34.821],[136.357,34.821],[136.365,34.823],[136.371,34.82],[136.376,34.821],[136.38,34.824],[136.381,34.828],[136.387,34.833],[136.394,34.836],[136.397,34.836],[136.402,34.837],[136.403,34.842],[136.408,34.843],[136.414,34.842],[136.417,34.84],[136.422,34.841],[136.422,34.844],[136.429,34.841],[136.433,34.841],[136.436,34.836],[136.434,34.832],[136.436,34.829],[136.437,34.824],[136.438,34.82],[136.447,34.816],[136.45,34.811],[136.454,34.811],[136.458,34.812],[136.461,34.814],[136.466,34.812],[136.469,34.809],[136.473,34.809],[136.478,34.808],[136.477,34.803],[136.479,34.806],[136.483,34.807],[136.486,34.803]]]]}},{"type":"Feature","properties":{"name":"鳥羽市","code":"24211"},"geometry":{"type":"MultiPolygon","coordinates":[[[[136.904,34.503],[136.899,34.499],[136.89,34.496],[136.885,34.496],[136.878,34.494],[136.872,34.487],[136.878,34.483],[136.883,34.482],[136.884,34.478],[136.888,34.477],[136.89,34.483],[136.896,34.484],[136.897,34.488],[136.905,34.491],[136.91,34.5],[136.904,34.503]]],[[[136.788,34.423],[136.794,34.424],[136.797,34.423],[136.803,34.422],[136.808,34.417],[136.812,34.414],[136.815,34.413],[136.82,34.411],[136.824,34.409],[136.829,34.406],[136.831,34.402],[136.834,34.401],[136.841,34.401],[136.844,34.399],[136.845,34.403],[136.847,34.408],[136.853,34.408],[136.859,34.405],[136.864,34.406],[136.868,34.403],[136.866,34.399],[136.861,34.397],[136.861,34.393],[136.865,34.394],[136.868,34.391],[136.87,34.387],[136.873,34.384],[136.878,34.383],[136.882,34.381],[136.883,34.384],[136.88,34.388],[136.884,34.389],[136.888,34.391],[136.886,34.384],[136.889,34.385],[136.893,34.389],[136.897,34.389],[136.898,34.379],[136.905,34.376],[136.912,34.376],[136.912,34.382],[136.908,34.383],[136.907,34.387],[136.91,34.39],[136.909,34.396],[136.912,34.401],[136.916,34.402],[136.918,34.406],[136.92,34.411],[136.924,34.412],[136.925,34.416],[136.924,34.421],[136.92,34.424],[136.922,34.431],[136.922,34.435],[136.92,34.438],[136.925,34.444],[136.919,34.445],[136.918,34.448],[136.915,34.452],[136.91,34.455],[136.907,34.451],[136.903,34.452],[136.897,34.454],[136.893,34.452],[136.899,34.448],[136.893,34.447],[136.892,34.444],[136.889,34.445],[136.885,34.443],[136.883,34.44],[136.887,34.437],[136.89,34.437],[136.886,34.433],[136.882,34.432],[136.879,34.43],[136.88,34.434],[136.881,34.437],[136.877,34.438],[136.881,34.44],[136.881,34.445],[136.884,34.446],[136.884,34.45],[136.879,34.451],[136.876,34.45],[136.875,34.455],[136.87,34.455],[136.87,34.459],[136.868,34.463],[136.871,34.462],[136.871,34.469],[136.875,34.472],[136.872,34.474],[136.868,34.476],[136.867,34.481],[136.863,34.481],[136.858,34.478],[136.847,34.481],[136.845,34.485],[136.845,34.488],[136.841,34.489],[136.841,34.493],[136.837,34.489],[136.835,34.493],[136.835,34.497],[136.834,34.501],[136.834,34.504],[136.824,34.505],[136.826,34.5],[136.827,34.495],[136.828,34.491],[136.824,34.49],[136.825,34.486],[136.82,34.484],[136.816,34.485],[136.813,34.482],[136.809,34.482],[136.804,34.48],[136.805,34.477],[136.804,34.473],[136.806,34.47],[136.804,34.466],[136.801,34.46],[136.794,34.46],[136.789,34.458],[136.785,34.454],[136.783,34.45],[136.782,34.446],[136.783,34.439],[136.783,34.433],[136.784,34.426],[136.788,34.423]]],[[[136.86,34.491],[136.855,34.49],[136.852,34.488],[136.854,34.484],[136.858,34.484],[136.864,34.486],[136.863,34.489],[136.86,34.491]]],[[[136.845,34.52],[136.837,34.518],[136.843,34.517],[136.847,34.519]]],[[[136.899,34.539],[136.893,34.536],[136.888,34.533],[136.885,34.532],[136.88,34.531],[136.876,34.529],[136.869,34.529],[136.868,34.526],[136.872,34.528],[136.875,34.527],[136.872,34.523],[136.872,34.519],[136.868,34.517],[136.865,34.517],[136.859,34.518],[136.855,34.515],[136.848,34.511],[136.847,34.508],[136.852,34.507],[136.858,34.506],[136.865,34.508],[136.871,34.51],[136.875,34.51],[136.878,34.515],[136.886,34.516],[136.888,34.519],[136.892,34.522],[136.9,34.522],[136.899,34.519],[136.904,34.52],[136.901,34.526],[136.904,34.529],[136.902,34.533],[136.901,34.538]]],[[[136.917,34.544],[136.912,34.543],[136.908,34.543],[136.914,34.542]]],[[[136.982,34.552],[136.977,34.549],[136.98,34.545],[136.983,34.543],[136.986,34.546],[136.988,34.55],[136.983,34.551]]]]}},{"type":"Feature","properties":{"name":"志摩市","code":"24215"},"geometry":{"type":"MultiPolygon","coordinates":[[[[136.818,34.293],[136.814,34.291],[136.808,34.289],[136.812,34.287],[136.817,34.289],[136.82,34.288],[136.821,34.291]]],[[[136.82,34.311],[136.816,34.31],[136.811,34.306],[136.814,34.305],[136.819,34.305],[136.822,34.305],[136.826,34.307],[136.824,34.311],[136.821,34.312]]],[[[136.876,34.368],[136.872,34.365],[136.869,34.366],[136.868,34.363],[136.871,34.359],[136.877,34.362],[136.877,34.367]]],[[[136.744,34.385],[136.743,34.379],[136.746,34.376],[136.75,34.371],[136.754,34.368],[136.755,34.364],[136.753,34.36],[136.751,34.356],[136.748,34.352],[136.751,34.349],[136.753,34.345],[136.756,34.341],[136.752,34.337],[136.749,34.336],[136.746,34.332],[136.746,34.325],[136.741,34.322],[136.738,34.322],[136.734,34.32],[136.729,34.319],[136.724,34.316],[136.721,34.317],[136.717,34.315],[136.714,34.315],[136.71,34.314],[136.704,34.313],[136.704,34.309],[136.702,34.306],[136.708,34.307],[136.712,34.306],[136.716,34.302],[136.725,34.304],[136.729,34.302],[136.736,34.302],[136.739,34.302],[136.743,34.299],[136.748,34.296],[136.751,34.293],[136.755,34.295],[136.761,34.294],[136.764,34.293],[136.763,34.296],[136.76,34.297],[136.755,34.299],[136.756,34.303],[136.761,34.302],[136.758,34.306],[136.765,34.305],[136.764,34.309],[136.763,34.313],[136.759,34.313],[136.766,34.314],[136.768,34.31],[136.77,34.314],[136.776,34.314],[136.772,34.309],[136.775,34.306],[136.78,34.304],[136.774,34.304],[136.773,34.296],[136.777,34.297],[136.779,34.292],[136.785,34.29],[136.79,34.289],[136.794,34.289],[136.798,34.291],[136.802,34.294],[136.807,34.296],[136.809,34.302],[136.804,34.304],[136.801,34.306],[136.793,34.308],[136.798,34.309],[136.799,34.313],[136.803,34.315],[136.798,34.319],[136.801,34.32],[136.804,34.324],[136.806,34.328],[136.805,34.323],[136.803,34.319],[136.809,34.314],[136.805,34.31],[136.814,34.31],[136.819,34.313],[136.825,34.315],[136.824,34.312],[136.827,34.31],[136.832,34.309],[136.836,34.307],[136.839,34.312],[136.845,34.315],[136.848,34.314],[136.844,34.311],[136.844,34.308],[136.847,34.309],[136.85,34.307],[136.847,34.306],[136.839,34.305],[136.839,34.302],[136.836,34.304],[136.833,34.304],[136.829,34.303],[136.833,34.297],[136.84,34.298],[136.845,34.298],[136.846,34.301],[136.85,34.3],[136.847,34.298],[136.848,34.294],[136.848,34.291],[136.853,34.293],[136.856,34.288],[136.862,34.289],[136.863,34.286],[136.856,34.286],[136.848,34.287],[136.844,34.29],[136.839,34.291],[136.836,34.287],[136.832,34.285],[136.832,34.281],[136.831,34.276],[136.835,34.275],[136.833,34.271],[136.839,34.274],[136.839,34.271],[136.844,34.272],[136.844,34.278],[136.848,34.276],[136.852,34.279],[136.857,34.279],[136.855,34.276],[136.859,34.272],[136.863,34.271],[136.858,34.271],[136.853,34.272],[136.852,34.268],[136.848,34.266],[136.852,34.273],[136.849,34.273],[136.848,34.269],[136.843,34.267],[136.839,34.263],[136.834,34.265],[136.83,34.266],[136.83,34.263],[136.828,34.266],[136.83,34.271],[136.826,34.271],[136.822,34.272],[136.817,34.273],[136.818,34.27],[136.816,34.267],[136.813,34.264],[136.814,34.268],[136.814,34.272],[136.809,34.272],[136.804,34.273],[136.798,34.276],[136.792,34.278],[136.795,34.273],[136.791,34.276],[136.785,34.278],[136.782,34.276],[136.778,34.278],[136.774,34.277],[136.771,34.279],[136.766,34.278],[136.762,34.274],[136.756,34.273],[136.752,34.272],[136.753,34.269],[136.759,34.269],[136.763,34.267],[136.765,34.264],[136.769,34.261],[136.773,34.259],[136.777,34.261],[136.781,34.261],[136.787,34.258],[136.79,34.258],[136.797,34.256],[136.802,34.255],[136.806,34.254],[136.812,34.253],[136.816,34.251],[136.823,34.251],[136.828,34.251],[136.834,34.252],[136.841,34.252],[136.844,34.251],[136.847,34.25],[136.848,34.257],[136.853,34.262],[136.859,34.262],[136.865,34.263],[136.87,34.263],[136.871,34.267],[136.869,34.272],[136.874,34.273],[136.878,34.273],[136.883,34.274],[136.886,34.274],[136.891,34.276],[136.895,34.277],[136.9,34.277],[136.9,34.28],[136.899,34.285],[136.894,34.288],[136.894,34.293],[136.889,34.295],[136.885,34.297],[136.886,34.303],[136.888,34.308],[136.891,34.31],[136.892,34.316],[136.885,34.318],[136.879,34.325],[136.878,34.33],[136.878,34.335],[136.879,34.34],[136.882,34.345],[136.887,34.347],[136.892,34.351],[136.901,34.356],[136.904,34.361],[136.908,34.364],[136.903,34.363],[136.898,34.364],[136.895,34.362],[136.892,34.366],[136.889,34.364],[136.887,34.359],[136.881,34.359],[136.876,34.354],[136.872,34.352],[136.87,34.345],[136.865,34.345],[136.866,34.351],[136.861,34.351],[136.869,34.354],[136.868,34.359],[136.864,34.365],[136.861,34.362],[136.858,34.361],[136.855,34.358],[136.851,34.357],[136.853,34.363],[136.853,34.367],[136.846,34.369],[136.845,34.366],[136.84,34.365],[136.841,34.361],[136.838,34.356],[136.834,34.354],[136.831,34.355],[136.827,34.353],[136.823,34.354],[136.82,34.358],[136.823,34.361],[136.815,34.365],[136.813,34.368],[136.817,34.366],[136.822,34.365],[136.828,34.365],[136.833,34.364],[136.838,34.364],[136.838,34.367],[136.844,34.368],[136.845,34.371],[136.849,34.371],[136.852,34.371],[136.855,34.369],[136.856,34.365],[136.86,34.368],[136.867,34.368],[136.871,34.37],[136.875,34.371],[136.876,34.374],[136.873,34.382],[136.87,34.385],[136.868,34.39],[136.865,34.394],[136.861,34.393],[136.861,34.397],[136.866,34.399],[136.868,34.403],[136.864,34.406],[136.86,34.404],[136.855,34.405],[136.847,34.408],[136.845,34.403],[136.844,34.399],[136.841,34.401],[136.835,34.399],[136.832,34.401],[136.831,34.405],[136.826,34.407],[136.821,34.408],[136.818,34.413],[136.814,34.414],[136.808,34.417],[136.803,34.422],[136.797,34.423],[136.794,34.424],[136.79,34.424],[136.784,34.419],[136.781,34.417],[136.773,34.418],[136.763,34.412],[136.759,34.412],[136.758,34.408],[136.758,34.405],[136.754,34.403],[136.758,34.399],[136.757,34.396],[136.754,34.391],[136.752,34.386],[136.747,34.385],[136.744,34.385]]]]}},{"type":"Feature","properties":{"name":"北牟婁郡紀北町","code":"24543"},"geometry":{"type":"MultiPolygon","coordinates":[[[[136.302,34.099],[136.304,34.103],[136.308,34.106],[136.308,34.11],[136.308,34.113],[136.313,34.116],[136.309,34.118],[136.304,34.117],[136.299,34.118],[136.299,34.113],[136.296,34.112],[136.293,34.112],[136.289,34.115],[136.286,34.117],[136.283,34.121],[136.288,34.125],[136.292,34.127],[136.289,34.132],[136.286,34.129],[136.281,34.13],[136.28,34.134],[136.277,34.137],[136.278,34.142],[136.281,34.143],[136.285,34.148],[136.281,34.151],[136.279,34.155],[136.278,34.16],[136.283,34.163],[136.285,34.159],[136.289,34.157],[136.289,34.163],[136.292,34.166],[136.296,34.166],[136.296,34.169],[136.299,34.176],[136.302,34.176],[136.303,34.18],[136.31,34.18],[136.314,34.179],[136.317,34.179],[136.321,34.186],[136.325,34.186],[136.329,34.183],[136.334,34.181],[136.333,34.186],[136.334,34.19],[136.339,34.193],[136.338,34.197],[136.333,34.197],[136.331,34.193],[136.33,34.197],[136.324,34.194],[136.328,34.199],[136.332,34.198],[136.337,34.198],[136.339,34.202],[136.345,34.207],[136.35,34.208],[136.354,34.208],[136.359,34.208],[136.355,34.206],[136.352,34.205],[136.352,34.202],[136.351,34.196],[136.356,34.199],[136.36,34.197],[136.362,34.192],[136.362,34.189],[136.365,34.191],[136.368,34.194],[136.371,34.197],[136.374,34.197],[136.372,34.202],[136.371,34.206],[136.374,34.211],[136.372,34.216],[136.373,34.223],[136.369,34.225],[136.366,34.229],[136.362,34.231],[136.358,34.237],[136.357,34.24],[136.352,34.241],[136.347,34.242],[136.343,34.244],[136.339,34.241],[136.335,34.24],[136.327,34.243],[136.322,34.243],[136.312,34.243],[136.306,34.249],[136.302,34.25],[136.299,34.254],[136.296,34.257],[136.3,34.263],[136.297,34.267],[136.291,34.27],[136.288,34.272],[136.281,34.272],[136.275,34.272],[136.27,34.274],[136.266,34.271],[136.263,34.269],[136.258,34.264],[136.254,34.263],[136.25,34.265],[136.243,34.261],[136.239,34.257],[136.241,34.251],[136.24,34.248],[136.231,34.247],[136.226,34.247],[136.217,34.245],[136.218,34.241],[136.216,34.236],[136.214,34.232],[136.208,34.23],[136.206,34.227],[136.208,34.223],[136.205,34.218],[136.202,34.22],[136.197,34.22],[136.192,34.217],[136.191,34.213],[136.189,34.21],[136.19,34.206],[136.19,34.2],[136.191,34.196],[136.187,34.191],[136.182,34.191],[136.177,34.19],[136.173,34.188],[136.168,34.188],[136.163,34.186],[136.158,34.185],[136.153,34.186],[136.15,34.184],[136.149,34.18],[136.146,34.174],[136.147,34.171],[136.143,34.169],[136.137,34.167],[136.132,34.165],[136.128,34.169],[136.122,34.168],[136.118,34.167],[136.114,34.167],[136.111,34.165],[136.115,34.161],[136.112,34.157],[136.107,34.154],[136.106,34.149],[136.107,34.145],[136.103,34.142],[136.104,34.137],[136.107,34.131],[136.108,34.127],[136.105,34.123],[136.102,34.122],[136.099,34.119],[136.104,34.115],[136.108,34.115],[136.113,34.116],[136.118,34.118],[136.125,34.118],[136.129,34.117],[136.133,34.119],[136.141,34.119],[136.146,34.12],[136.149,34.116],[136.153,34.114],[136.159,34.109],[136.162,34.11],[136.165,34.107],[136.168,34.102],[136.168,34.096],[136.168,34.092],[136.173,34.09],[136.177,34.092],[136.181,34.093],[136.185,34.093],[136.19,34.09],[136.197,34.091],[136.204,34.092],[136.208,34.091],[136.212,34.092],[136.215,34.093],[136.222,34.091],[136.226,34.092],[136.229,34.09],[136.236,34.087],[136.234,34.091],[136.231,34.096],[136.227,34.099],[136.231,34.103],[136.243,34.106],[136.243,34.109],[136.252,34.112],[136.255,34.115],[136.258,34.12],[136.262,34.122],[136.266,34.124],[136.268,34.129],[136.273,34.127],[136.272,34.124],[136.272,34.12],[136.269,34.117],[136.264,34.115],[136.262,34.11],[136.258,34.107],[136.255,34.106],[136.251,34.105],[136.251,34.099],[136.25,34.095],[136.255,34.09],[136.255,34.095],[136.255,34.099],[136.258,34.103],[136.267,34.107],[136.27,34.107],[136.276,34.11],[136.28,34.113],[136.286,34.11],[136.29,34.107],[136.297,34.105],[136.3,34.102]]]]}},{"type":"Feature","properties":{"name":"熊野市","code":"24212"},"geometry":{"type":"MultiPolygon","coordinates":[[[[136.101,34.026],[136.098,34.024],[136.093,34.024],[136.089,34.026],[136.086,34.029],[136.082,34.028],[136.078,34.029],[136.076,34.032],[136.073,34.034],[136.068,34.033],[136.062,34.032],[136.055,34.036],[136.053,34.032],[136.044,34.036],[136.043,34.041],[136.041,34.037],[136.036,34.039],[136.033,34.034],[136.028,34.033],[136.025,34.036],[136.02,34.037],[136.017,34.034],[136.017,34.028],[136.015,34.025],[136.011,34.021],[136.007,34.02],[136.006,34.015],[136.004,34.01],[136.007,34.007],[136.005,34.003],[136.002,34.001],[135.996,34.002],[135.997,33.998],[136.004,33.992],[136.004,33.986],[136.008,33.979],[136.012,33.976],[136.013,33.969],[136.01,33.966],[136.004,33.963],[136.001,33.957],[135.997,33.957],[135.993,33.961],[135.991,33.965],[135.988,33.968],[135.981,33.968],[135.978,33.967],[135.975,33.964],[135.975,33.961],[135.977,33.957],[135.977,33.954],[135.977,33.947],[135.976,33.944],[135.971,33.933],[135.967,33.928],[135.958,33.934],[135.952,33.937],[135.947,33.938],[135.944,33.94],[135.937,33.939],[135.933,33.94],[135.93,33.941],[135.929,33.937],[135.931,33.934],[135.928,33.935],[135.922,33.934],[135.917,33.925],[135.92,33.921],[135.924,33.92],[135.928,33.922],[135.933,33.923],[135.934,33.917],[135.922,33.914],[135.918,33.92],[135.91,33.918],[135.902,33.921],[135.898,33.922],[135.894,33.92],[135.897,33.915],[135.898,33.91],[135.894,33.906],[135.887,33.907],[135.882,33.908],[135.879,33.908],[135.881,33.902],[135.885,33.898],[135.888,33.896],[135.885,33.891],[135.884,33.887],[135.887,33.883],[135.891,33.881],[135.892,33.884],[135.893,33.889],[135.892,33.893],[135.896,33.891],[135.901,33.885],[135.902,33.882],[135.899,33.878],[135.898,33.873],[135.898,33.87],[135.894,33.868],[135.891,33.868],[135.887,33.871],[135.881,33.873],[135.878,33.871],[135.878,33.867],[135.875,33.862],[135.87,33.86],[135.862,33.863],[135.862,33.868],[135.862,33.877],[135.858,33.872],[135.859,33.868],[135.857,33.865],[135.853,33.862],[135.853,33.858],[135.856,33.855],[135.86,33.852],[135.859,33.845],[135.856,33.837],[135.856,33.834],[135.859,33.83],[135.858,33.827],[135.856,33.82],[135.858,33.816],[135.864,33.81],[135.872,33.809],[135.877,33.806],[135.88,33.803],[135.884,33.801],[135.889,33.802],[135.895,33.798],[135.898,33.79],[135.897,33.787],[135.901,33.781],[135.907,33.784],[135.913,33.787],[135.92,33.791],[135.924,33.789],[135.929,33.788],[135.932,33.791],[135.93,33.795],[135.927,33.801],[135.93,33.805],[135.934,33.808],[135.935,33.811],[135.938,33.813],[135.944,33.816],[135.946,33.819],[135.947,33.825],[135.942,33.83],[135.938,33.834],[135.938,33.84],[135.938,33.844],[135.942,33.847],[135.946,33.846],[135.952,33.847],[135.959,33.845],[135.961,33.851],[135.962,33.858],[135.967,33.861],[135.97,33.861],[135.969,33.865],[135.971,33.868],[135.97,33.871],[135.968,33.88],[135.97,33.883],[135.973,33.885],[135.977,33.885],[135.981,33.89],[135.987,33.887],[135.991,33.891],[135.991,33.887],[135.993,33.893],[135.998,33.89],[136.003,33.889],[136.008,33.89],[136.018,33.893],[136.024,33.892],[136.029,33.892],[136.035,33.893],[136.034,33.888],[136.038,33.885],[136.038,33.879],[136.038,33.874],[136.04,33.87],[136.046,33.863],[136.053,33.863],[136.056,33.862],[136.06,33.861],[136.068,33.854],[136.066,33.849],[136.066,33.84],[136.072,33.851],[136.077,33.858],[136.081,33.864],[136.086,33.87],[136.09,33.874],[136.101,33.885],[136.107,33.89],[136.112,33.889],[136.117,33.891],[136.115,33.894],[136.118,33.899],[136.122,33.898],[136.126,33.895],[136.127,33.892],[136.128,33.887],[136.132,33.888],[136.136,33.888],[136.139,33.891],[136.138,33.895],[136.134,33.898],[136.139,33.899],[136.143,33.897],[136.15,33.899],[136.146,33.903],[136.142,33.904],[136.139,33.908],[136.142,33.91],[136.152,33.912],[136.152,33.917],[136.153,33.92],[136.152,33.924],[136.149,33.924],[136.148,33.929],[136.153,33.931],[136.159,33.931],[136.163,33.93],[136.169,33.925],[136.168,33.921],[136.17,33.918],[136.17,33.913],[136.176,33.912],[136.18,33.913],[136.183,33.915],[136.187,33.918],[136.19,33.919],[136.198,33.922],[136.194,33.926],[136.197,33.93],[136.197,33.936],[136.189,33.934],[136.185,33.936],[136.181,33.938],[136.186,33.939],[136.191,33.94],[136.195,33.942],[136.2,33.942],[136.203,33.944],[136.207,33.941],[136.213,33.938],[136.21,33.936],[136.21,33.931],[136.213,33.934],[136.217,33.934],[136.216,33.937],[136.22,33.941],[136.217,33.947],[136.22,33.947],[136.224,33.946],[136.232,33.946],[136.226,33.948],[136.222,33.95],[136.219,33.952],[136.215,33.955],[136.21,33.955],[136.203,33.954],[136.195,33.956],[136.191,33.954],[136.183,33.959],[136.182,33.963],[136.178,33.965],[136.172,33.965],[136.168,33.957],[136.164,33.957],[136.156,33.959],[136.151,33.958],[136.147,33.962],[136.141,33.964],[136.138,33.971],[136.136,33.974],[136.136,33.978],[136.136,33.983],[136.134,33.987],[136.132,33.996],[136.137,34.0],[136.137,34.008],[136.14,34.01],[136.146,34.01],[136.151,34.013],[136.152,34.02],[136.148,34.025],[136.143,34.027],[136.133,34.027],[136.127,34.027],[136.121,34.026],[136.117,34.024],[136.112,34.023],[136.105,34.023],[136.101,34.026]]]]}},{"type":"Feature","properties":{"name":"いなべ市","code":"24214"},"geometry":{"type":"MultiPolygon","coordinates":[[[[136.563,35.064],[136.566,35.067],[136.567,35.075],[136.562,35.082],[136.568,35.085],[136.569,35.089],[136.572,35.089],[136.576,35.093],[136.579,35.097],[136.582,35.1],[136.583,35.105],[136.587,35.107],[136.587,35.11],[136.589,35.114],[136.592,35.116],[136.591,35.12],[136.589,35.125],[136.584,35.128],[136.584,35.134],[136.578,35.139],[136.575,35.142],[136.573,35.147],[136.574,35.152],[136.575,35.157],[136.575,35.164],[136.577,35.169],[136.582,35.174],[136.586,35.175],[136.592,35.179],[136.592,35.186],[136.588,35.184],[136.587,35.189],[136.584,35.193],[136.582,35.197],[136.577,35.197],[136.576,35.202],[136.566,35.205],[136.562,35.206],[136.561,35.209],[136.56,35.213],[136.559,35.217],[136.557,35.221],[136.55,35.219],[136.547,35.222],[136.548,35.227],[136.549,35.231],[136.55,35.234],[136.544,35.235],[136.541,35.237],[136.54,35.241],[136.542,35.244],[136.536,35.248],[136.535,35.253],[136.534,35.257],[136.528,35.258],[136.523,35.255],[136.52,35.254],[136.515,35.253],[136.513,35.247],[136.512,35.242],[136.511,35.239],[136.506,35.235],[136.501,35.235],[136.497,35.237],[136.494,35.238],[136.49,35.237],[136.487,35.238],[136.483,35.24],[136.48,35.235],[136.474,35.237],[136.469,35.233],[136.466,35.237],[136.462,35.236],[136.456,35.231],[136.452,35.227],[136.447,35.221],[136.443,35.218],[136.435,35.22],[136.433,35.224],[136.433,35.228],[136.428,35.228],[136.425,35.224],[136.417,35.22],[136.416,35.215],[136.416,35.211],[136.416,35.205],[136.415,35.202],[136.413,35.196],[136.413,35.192],[136.409,35.188],[136.413,35.186],[136.416,35.185],[136.419,35.183],[136.424,35.185],[136.43,35.181],[136.436,35.177],[136.437,35.173],[136.444,35.172],[136.446,35.169],[136.453,35.166],[136.455,35.161],[136.454,35.158],[136.455,35.152],[136.45,35.149],[136.446,35.15],[136.443,35.145],[136.443,35.139],[136.438,35.137],[136.437,35.132],[136.439,35.129],[136.445,35.127],[136.448,35.124],[136.445,35.119],[136.44,35.117],[136.443,35.111],[136.441,35.108],[136.441,35.103],[136.44,35.099],[136.439,35.096],[136.438,35.092],[136.442,35.087],[136.449,35.085],[136.453,35.087],[136.458,35.086],[136.462,35.087],[136.477,35.093],[136.485,35.092],[136.489,35.092],[136.496,35.091],[136.501,35.091],[136.508,35.088],[136.514,35.09],[136.518,35.09],[136.526,35.086],[136.529,35.084],[136.528,35.076],[136.535,35.073],[136.539,35.071],[136.543,35.07],[136.548,35.069],[136.557,35.065],[136.563,35.064]]]]}},{"type":"Feature","properties":{"name":"伊賀市","code":"24216"},"geometry":{"type":"MultiPolygon","coordinates":[[[[136.312,34.807],[136.307,34.808],[136.303,34.81],[136.298,34.811],[136.294,34.813],[136.29,34.812],[136.283,34.812],[136.279,34.81],[136.274,34.812],[136.272,34.815],[136.268,34.816],[136.271,34.819],[136.275,34.819],[136.279,34.827],[136.278,34.831],[136.278,34.835],[136.283,34.837],[136.286,34.838],[136.29,34.841],[136.29,34.845],[136.284,34.854],[136.28,34.857],[136.281,34.864],[136.283,34.868],[136.281,34.873],[136.277,34.874],[136.273,34.869],[136.269,34.868],[136.268,34.864],[136.264,34.863],[136.258,34.861],[136.254,34.858],[136.251,34.858],[136.243,34.86],[136.237,34.86],[136.233,34.861],[136.229,34.862],[136.224,34.863],[136.22,34.863],[136.217,34.865],[136.212,34.866],[136.205,34.869],[136.202,34.869],[136.198,34.87],[136.195,34.873],[136.19,34.873],[136.187,34.878],[136.182,34.878],[136.179,34.881],[136.181,34.886],[136.177,34.887],[136.172,34.887],[136.167,34.888],[136.162,34.887],[136.154,34.885],[136.149,34.882],[136.145,34.884],[136.141,34.887],[136.136,34.888],[136.135,34.885],[136.132,34.883],[136.128,34.885],[136.126,34.888],[136.122,34.888],[136.12,34.891],[136.116,34.892],[136.116,34.896],[136.112,34.902],[136.106,34.9],[136.103,34.896],[136.1,34.892],[136.095,34.888],[136.089,34.889],[136.086,34.889],[136.087,34.886],[136.09,34.883],[136.085,34.879],[136.09,34.875],[136.096,34.874],[136.099,34.871],[136.103,34.87],[136.109,34.87],[136.113,34.869],[136.119,34.871],[136.122,34.873],[136.126,34.87],[136.123,34.866],[136.126,34.862],[136.121,34.86],[136.117,34.856],[136.113,34.856],[136.11,34.855],[136.107,34.845],[136.104,34.841],[136.101,34.84],[136.095,34.84],[136.09,34.837],[136.086,34.837],[136.09,34.833],[136.089,34.827],[136.095,34.819],[136.091,34.816],[136.091,34.812],[136.086,34.811],[136.082,34.808],[136.076,34.808],[136.073,34.804],[136.068,34.804],[136.064,34.802],[136.06,34.801],[136.055,34.802],[136.052,34.799],[136.049,34.8],[136.045,34.799],[136.041,34.798],[136.038,34.794],[136.035,34.794],[136.028,34.791],[136.025,34.792],[136.021,34.789],[136.023,34.782],[136.029,34.781],[136.034,34.779],[136.034,34.775],[136.033,34.772],[136.031,34.769],[136.029,34.765],[136.029,34.76],[136.03,34.756],[136.035,34.757],[136.038,34.756],[136.039,34.753],[136.039,34.749],[136.043,34.748],[136.048,34.744],[136.05,34.741],[136.057,34.737],[136.06,34.734],[136.063,34.726],[136.068,34.724],[136.069,34.72],[136.071,34.715],[136.066,34.71],[136.063,34.709],[136.054,34.706],[136.058,34.702],[136.068,34.698],[136.074,34.698],[136.077,34.691],[136.08,34.684],[136.082,34.679],[136.086,34.676],[136.091,34.676],[136.095,34.674],[136.101,34.674],[136.105,34.669],[136.11,34.671],[136.115,34.673],[136.114,34.678],[136.117,34.682],[136.119,34.686],[136.124,34.687],[136.126,34.683],[136.132,34.682],[136.127,34.678],[136.121,34.674],[136.124,34.668],[136.128,34.671],[136.133,34.671],[136.137,34.671],[136.143,34.67],[136.144,34.666],[136.144,34.663],[136.149,34.661],[136.15,34.657],[136.15,34.654],[136.153,34.654],[136.153,34.651],[136.152,34.647],[136.158,34.642],[136.161,34.641],[136.166,34.637],[136.172,34.633],[136.175,34.63],[136.178,34.627],[136.177,34.622],[136.176,34.618],[136.182,34.611],[136.179,34.608],[136.18,34.604],[136.182,34.6],[136.181,34.594],[136.185,34.593],[136.187,34.586],[136.188,34.583],[136.187,34.58],[136.191,34.576],[136.194,34.575],[136.192,34.572],[136.195,34.567],[136.198,34.564],[136.201,34.567],[136.205,34.565],[136.209,34.567],[136.215,34.562],[136.219,34.558],[136.219,34.562],[136.22,34.566],[136.222,34.569],[136.223,34.573],[136.226,34.579],[136.23,34.579],[136.238,34.579],[136.245,34.582],[136.251,34.584],[136.255,34.583],[136.255,34.587],[136.251,34.587],[136.253,34.591],[136.256,34.591],[136.259,34.595],[136.253,34.599],[136.25,34.6],[136.249,34.603],[136.251,34.608],[136.251,34.612],[136.25,34.616],[136.249,34.622],[136.246,34.625],[136.245,34.63],[136.252,34.634],[136.25,34.641],[136.253,34.645],[136.258,34.646],[136.258,34.65],[136.262,34.656],[136.266,34.656],[136.267,34.661],[136.271,34.664],[136.275,34.663],[136.273,34.667],[136.269,34.67],[136.266,34.674],[136.271,34.675],[136.273,34.68],[136.271,34.685],[136.276,34.688],[136.279,34.693],[136.283,34.696],[136.285,34.702],[136.29,34.709],[136.294,34.712],[136.295,34.716],[136.3,34.716],[136.302,34.719],[136.305,34.723],[136.31,34.725],[136.308,34.729],[136.305,34.732],[136.301,34.731],[136.297,34.735],[136.3,34.739],[136.304,34.744],[136.31,34.745],[136.314,34.747],[136.319,34.75],[136.319,34.755],[136.323,34.758],[136.325,34.761],[136.329,34.763],[136.333,34.764],[136.338,34.768],[136.342,34.77],[136.342,34.773],[136.339,34.776],[136.337,34.781],[136.334,34.785],[136.328,34.786],[136.324,34.786],[136.321,34.787],[136.317,34.788],[136.313,34.796],[136.313,34.8],[136.31,34.802],[136.312,34.807]]]]}},{"type":"Feature","properties":{"name":"桑名郡木曽岬町","code":"24303"},"geometry":{"type":"MultiPolygon","coordinates":[[[[136.75,35.036],[136.758,35.027],[136.763,35.021],[136.771,35.021],[136.761,35.038],[136.753,35.053],[136.752,35.062],[136.752,35.072],[136.751,35.078],[136.742,35.086],[136.735,35.093],[136.731,35.097],[136.72,35.103],[136.714,35.105],[136.717,35.097],[136.718,35.093],[136.719,35.083],[136.723,35.076],[136.725,35.071],[136.726,35.064],[136.729,35.058],[136.733,35.054],[136.743,35.039],[136.752,35.044],[136.755,35.039],[136.75,35.036]]]]}},{"type":"Feature","properties":{"name":"員弁郡東員町","code":"24324"},"geometry":{"type":"MultiPolygon","coordinates":[[[[136.6,35.049],[136.604,35.058],[136.607,35.061],[136.609,35.065],[136.61,35.068],[136.61,35.073],[136.608,35.078],[136.603,35.083],[136.613,35.084],[136.615,35.088],[136.616,35.093],[136.619,35.093],[136.613,35.098],[136.608,35.1],[136.605,35.101],[136.603,35.105],[136.604,35.11],[136.599,35.112],[136.594,35.116],[136.589,35.114],[136.587,35.11],[136.587,35.107],[136.583,35.105],[136.582,35.1],[136.579,35.097],[136.576,35.093],[136.573,35.09],[136.569,35.089],[136.568,35.085],[136.563,35.083],[136.566,35.077],[136.565,35.07],[136.565,35.065],[136.563,35.062],[136.568,35.061],[136.569,35.056],[136.581,35.052],[136.585,35.051],[136.589,35.05],[136.593,35.049],[136.6,35.049]]]]}},{"type":"Feature","properties":{"name":"三重郡菰野町","code":"24341"},"geometry":{"type":"MultiPolygon","coordinates":[[[[136.539,35.071],[136.535,35.073],[136.528,35.076],[136.529,35.081],[136.526,35.086],[136.52,35.088],[136.517,35.089],[136.509,35.09],[136.501,35.091],[136.496,35.091],[136.491,35.091],[136.485,35.092],[136.477,35.093],[136.462,35.087],[136.459,35.086],[136.453,35.087],[136.449,35.085],[136.445,35.088],[136.438,35.083],[136.436,35.08],[136.44,35.074],[136.441,35.07],[136.442,35.067],[136.438,35.064],[136.433,35.061],[136.429,35.056],[136.425,35.057],[136.422,35.051],[136.418,35.05],[136.418,35.043],[136.416,35.037],[136.417,35.034],[136.419,35.03],[136.424,35.03],[136.421,35.024],[136.417,35.02],[136.417,35.015],[136.417,35.011],[136.419,35.007],[136.42,35.003],[136.421,35.0],[136.426,34.999],[136.429,35.001],[136.437,35.0],[136.445,35.0],[136.451,34.997],[136.455,34.997],[136.457,34.994],[136.463,34.991],[136.467,34.993],[136.471,34.994],[136.475,34.996],[136.485,34.995],[136.489,34.996],[136.494,34.996],[136.499,34.997],[136.504,34.998],[136.509,34.999],[136.513,34.997],[136.518,34.998],[136.523,35.001],[136.527,34.999],[136.532,34.998],[136.536,35.0],[136.544,35.0],[136.54,35.009],[136.536,35.011],[136.536,35.017],[136.541,35.017],[136.547,35.017],[136.551,35.015],[136.554,35.018],[136.555,35.023],[136.556,35.027],[136.558,35.033],[136.559,35.036],[136.542,35.038],[136.534,35.038],[136.537,35.043],[136.534,35.043],[136.539,35.05],[136.54,35.056],[136.542,35.06],[136.538,35.065],[136.539,35.071]]]]}},{"type":"Feature","properties":{"name":"三重郡朝日町","code":"24343"},"geometry":{"type":"MultiPolygon","coordinates":[[[[136.658,35.025],[136.664,35.029],[136.672,35.028],[136.679,35.033],[136.677,35.039],[136.68,35.036],[136.683,35.032],[136.68,35.037],[136.684,35.034],[136.68,35.038],[136.678,35.042],[136.675,35.047],[136.671,35.045],[136.667,35.046],[136.661,35.046],[136.661,35.042],[136.656,35.043],[136.65,35.041],[136.645,35.043],[136.642,35.04],[136.642,35.033],[136.645,35.03],[136.652,35.028],[136.658,35.025]]]]}},{"type":"Feature","properties":{"name":"三重郡川越町","code":"24344"},"geometry":{"type":"MultiPolygon","coordinates":[[[[136.674,35.006],[136.68,35.008],[136.685,35.008],[136.686,35.004],[136.7,35.007],[136.697,35.016],[136.698,35.02],[136.697,35.026],[136.691,35.032],[136.681,35.039],[136.686,35.034],[136.682,35.037],[136.683,35.033],[136.68,35.036],[136.677,35.039],[136.678,35.036],[136.674,35.029],[136.667,35.03],[136.66,35.028],[136.659,35.025],[136.656,35.019],[136.662,35.012],[136.667,35.017],[136.673,35.015],[136.672,35.011],[136.674,35.006]]]]}},{"type":"Feature","properties":{"name":"多気郡多気町","code":"24441"},"geometry":{"type":"MultiPolygon","coordinates":[[[[136.407,34.417],[136.411,34.416],[136.417,34.417],[136.423,34.418],[136.426,34.417],[136.433,34.415],[136.437,34.418],[136.446,34.42],[136.45,34.42],[136.459,34.425],[136.463,34.426],[136.467,34.428],[136.465,34.433],[136.469,34.436],[136.474,34.435],[136.482,34.436],[136.486,34.437],[136.491,34.438],[136.496,34.44],[136.499,34.44],[136.495,34.443],[136.5,34.447],[136.504,34.448],[136.508,34.45],[136.506,34.454],[136.511,34.452],[136.516,34.453],[136.519,34.455],[136.526,34.454],[136.533,34.456],[136.537,34.457],[136.542,34.457],[136.548,34.46],[136.549,34.456],[136.551,34.45],[136.555,34.451],[136.56,34.452],[136.566,34.452],[136.571,34.452],[136.576,34.451],[136.579,34.452],[136.579,34.455],[136.579,34.46],[136.581,34.463],[136.584,34.467],[136.58,34.47],[136.58,34.479],[136.582,34.485],[136.588,34.492],[136.593,34.495],[136.597,34.496],[136.6,34.498],[136.598,34.503],[136.6,34.506],[136.594,34.508],[136.588,34.509],[136.589,34.512],[136.592,34.518],[136.59,34.521],[136.586,34.523],[136.582,34.523],[136.578,34.523],[136.574,34.523],[136.566,34.521],[136.558,34.515],[136.555,34.513],[136.548,34.512],[136.546,34.508],[136.538,34.505],[136.532,34.506],[136.526,34.505],[136.518,34.506],[136.514,34.503],[136.507,34.5],[136.503,34.5],[136.5,34.501],[136.497,34.508],[136.49,34.508],[136.488,34.503],[136.479,34.5],[136.48,34.495],[136.486,34.494],[136.492,34.494],[136.493,34.49],[136.488,34.488],[136.483,34.487],[136.474,34.486],[136.469,34.486],[136.465,34.486],[136.456,34.487],[136.452,34.484],[136.449,34.481],[136.448,34.477],[136.443,34.477],[136.437,34.482],[136.433,34.483],[136.429,34.483],[136.428,34.479],[136.422,34.477],[136.416,34.476],[136.41,34.474],[136.405,34.472],[136.4,34.471],[136.405,34.468],[136.408,34.468],[136.413,34.468],[136.416,34.467],[136.421,34.466],[136.421,34.461],[136.418,34.457],[136.419,34.453],[136.42,34.447],[136.423,34.442],[136.417,34.439],[136.415,34.436],[136.41,34.431],[136.408,34.426],[136.409,34.42]]]]}},{"type":"Feature","properties":{"name":"多気郡明和町","code":"24442"},"geometry":{"type":"MultiPolygon","coordinates":[[[[136.648,34.517],[136.647,34.521],[136.65,34.521],[136.654,34.52],[136.656,34.523],[136.66,34.52],[136.659,34.524],[136.661,34.527],[136.652,34.535],[136.645,34.536],[136.647,34.542],[136.647,34.546],[136.652,34.549],[136.658,34.551],[136.656,34.556],[136.659,34.56],[136.66,34.566],[136.657,34.57],[136.655,34.573],[136.65,34.583],[136.647,34.589],[136.641,34.592],[136.634,34.593],[136.629,34.595],[136.617,34.6],[136.607,34.6],[136.604,34.601],[136.608,34.597],[136.612,34.592],[136.615,34.589],[136.611,34.587],[136.611,34.583],[136.608,34.58],[136.61,34.575],[136.608,34.572],[136.614,34.57],[136.617,34.567],[136.617,34.562],[136.613,34.563],[136.609,34.561],[136.607,34.554],[136.607,34.549],[136.605,34.545],[136.601,34.54],[136.602,34.537],[136.597,34.535],[136.596,34.531],[136.595,34.527],[136.59,34.526],[136.59,34.521],[136.592,34.518],[136.591,34.512],[136.588,34.51],[136.592,34.505],[136.598,34.506],[136.602,34.504],[136.607,34.505],[136.612,34.507],[136.613,34.513],[136.614,34.518],[136.621,34.517],[136.628,34.516],[136.634,34.517],[136.638,34.517],[136.644,34.519],[136.648,34.516]]]]}},{"type":"Feature","properties":{"name":"多気郡大台町","code":"24443"},"geometry":{"type":"MultiPolygon","coordinates":[[[[136.13,34.316],[136.126,34.314],[136.122,34.31],[136.119,34.31],[136.115,34.309],[136.112,34.305],[136.108,34.305],[136.105,34.305],[136.1,34.306],[136.096,34.303],[136.096,34.297],[136.096,34.294],[136.098,34.289],[136.101,34.287],[136.105,34.283],[136.11,34.281],[136.113,34.279],[136.115,34.274],[136.119,34.27],[136.119,34.266],[136.118,34.261],[136.123,34.258],[136.128,34.257],[136.132,34.252],[136.131,34.247],[136.13,34.243],[136.125,34.241],[136.121,34.237],[136.117,34.234],[136.116,34.23],[136.111,34.229],[136.11,34.224],[136.117,34.223],[136.117,34.217],[136.115,34.211],[136.11,34.211],[136.107,34.207],[136.102,34.205],[136.098,34.202],[136.097,34.198],[136.093,34.196],[136.093,34.19],[136.096,34.188],[136.1,34.186],[136.107,34.185],[136.109,34.181],[136.107,34.175],[136.106,34.172],[136.112,34.168],[136.118,34.167],[136.122,34.168],[136.128,34.169],[136.129,34.166],[136.136,34.165],[136.14,34.168],[136.147,34.171],[136.146,34.174],[136.146,34.177],[136.15,34.184],[136.153,34.186],[136.158,34.185],[136.162,34.186],[136.168,34.188],[136.173,34.188],[136.177,34.19],[136.182,34.191],[136.185,34.191],[136.188,34.193],[136.193,34.194],[136.191,34.198],[136.19,34.206],[136.189,34.21],[136.191,34.213],[136.192,34.217],[136.196,34.22],[136.199,34.219],[136.205,34.218],[136.208,34.223],[136.206,34.227],[136.208,34.23],[136.214,34.232],[136.216,34.236],[136.218,34.241],[136.217,34.245],[136.226,34.247],[136.23,34.245],[136.24,34.248],[136.241,34.251],[136.238,34.256],[136.243,34.261],[136.248,34.264],[136.254,34.263],[136.258,34.264],[136.263,34.269],[136.266,34.271],[136.27,34.274],[136.266,34.277],[136.264,34.28],[136.268,34.287],[136.275,34.288],[136.279,34.289],[136.286,34.294],[136.291,34.295],[136.296,34.297],[136.301,34.297],[136.305,34.297],[136.311,34.3],[136.314,34.299],[136.317,34.302],[136.319,34.309],[136.324,34.314],[136.325,34.319],[136.329,34.319],[136.332,34.316],[136.339,34.317],[136.344,34.317],[136.348,34.317],[136.352,34.319],[136.355,34.322],[136.36,34.326],[136.366,34.33],[136.37,34.333],[136.373,34.34],[136.376,34.34],[136.383,34.344],[136.388,34.347],[136.394,34.347],[136.4,34.35],[136.403,34.353],[136.411,34.354],[136.415,34.36],[136.417,34.364],[136.416,34.369],[136.416,34.374],[136.417,34.378],[136.419,34.382],[136.413,34.384],[136.41,34.387],[136.407,34.388],[136.408,34.391],[136.412,34.394],[136.415,34.394],[136.42,34.397],[136.425,34.4],[136.429,34.398],[136.432,34.395],[136.434,34.391],[136.434,34.387],[136.433,34.384],[136.429,34.383],[136.429,34.379],[136.433,34.377],[136.436,34.375],[136.438,34.371],[136.446,34.368],[136.449,34.371],[136.451,34.377],[136.447,34.378],[136.444,34.381],[136.448,34.386],[136.446,34.392],[136.455,34.395],[136.459,34.402],[136.465,34.405],[136.47,34.413],[136.479,34.419],[136.482,34.419],[136.489,34.421],[136.494,34.42],[136.495,34.431],[136.499,34.434],[136.51,34.433],[136.515,34.43],[136.519,34.431],[136.523,34.434],[136.527,34.435],[136.533,34.439],[136.545,34.438],[136.548,34.442],[136.552,34.444],[136.553,34.45],[136.547,34.454],[136.548,34.46],[136.544,34.457],[136.539,34.459],[136.533,34.456],[136.526,34.454],[136.522,34.455],[136.516,34.453],[136.511,34.452],[136.509,34.455],[136.508,34.45],[136.504,34.448],[136.5,34.447],[136.495,34.445],[136.499,34.44],[136.496,34.44],[136.491,34.438],[136.488,34.438],[136.482,34.436],[136.474,34.435],[136.469,34.436],[136.465,34.433],[136.466,34.429],[136.463,34.426],[136.459,34.425],[136.453,34.42],[136.448,34.42],[136.44,34.418],[136.433,34.415],[136.429,34.416],[136.425,34.419],[136.419,34.419],[136.412,34.417],[136.407,34.417],[136.401,34.416],[136.398,34.416],[136.391,34.411],[136.386,34.41],[136.378,34.407],[136.377,34.403],[136.372,34.404],[136.366,34.406],[136.362,34.406],[136.358,34.408],[136.354,34.406],[136.348,34.405],[136.343,34.404],[136.335,34.405],[136.328,34.407],[136.324,34.404],[136.318,34.405],[136.315,34.406],[136.312,34.407],[136.307,34.407],[136.302,34.407],[136.298,34.408],[136.295,34.406],[136.29,34.405],[136.285,34.406],[136.275,34.407],[136.271,34.404],[136.267,34.401],[136.265,34.398],[136.263,34.394],[136.26,34.387],[136.257,34.383],[136.262,34.381],[136.264,34.377],[136.269,34.372],[136.271,34.369],[136.268,34.368],[136.263,34.365],[136.259,34.365],[136.256,34.359],[136.252,34.355],[136.243,34.354],[136.237,34.353],[136.234,34.352],[136.229,34.352],[136.223,34.35],[136.218,34.349],[136.212,34.349],[136.208,34.35],[136.201,34.347],[136.195,34.346],[136.191,34.342],[136.186,34.34],[136.189,34.334],[136.187,34.331],[136.186,34.326],[136.183,34.323],[136.178,34.322],[136.173,34.324],[136.168,34.325],[136.165,34.323],[136.161,34.321],[136.158,34.316],[136.146,34.315],[136.142,34.316],[136.133,34.315],[136.13,34.316]]]]}},{"type":"Feature","properties":{"name":"度会郡玉城町","code":"24461"},"geometry":{"type":"MultiPolygon","coordinates":[[[[136.6,34.506],[136.598,34.503],[136.6,34.498],[136.597,34.496],[136.593,34.495],[136.588,34.492],[136.584,34.488],[136.583,34.481],[136.579,34.481],[136.581,34.472],[136.584,34.467],[136.582,34.464],[136.579,34.46],[136.579,34.455],[136.579,34.452],[136.583,34.448],[136.587,34.447],[136.586,34.452],[136.59,34.452],[136.596,34.45],[136.604,34.449],[136.605,34.454],[136.608,34.455],[136.611,34.454],[136.612,34.458],[136.615,34.459],[136.62,34.455],[136.624,34.452],[136.632,34.453],[136.635,34.453],[136.64,34.454],[136.644,34.455],[136.647,34.456],[136.651,34.457],[136.651,34.461],[136.654,34.463],[136.663,34.47],[136.667,34.474],[136.671,34.476],[136.669,34.48],[136.663,34.478],[136.659,34.478],[136.654,34.481],[136.655,34.484],[136.656,34.489],[136.652,34.488],[136.652,34.485],[136.646,34.483],[136.648,34.49],[136.648,34.495],[136.657,34.499],[136.657,34.505],[136.654,34.502],[136.649,34.498],[136.646,34.501],[136.639,34.5],[136.643,34.504],[136.643,34.508],[136.65,34.51],[136.646,34.512],[136.642,34.512],[136.643,34.517],[136.648,34.515],[136.654,34.515],[136.654,34.519],[136.651,34.52],[136.647,34.519],[136.638,34.517],[136.635,34.518],[136.628,34.517],[136.623,34.516],[136.614,34.518],[136.613,34.513],[136.614,34.51],[136.607,34.505],[136.603,34.505]]]]}},{"type":"Feature","properties":{"name":"度会郡度会町","code":"24470"},"geometry":{"type":"MultiPolygon","coordinates":[[[[136.651,34.457],[136.647,34.456],[136.644,34.455],[136.64,34.454],[136.635,34.453],[136.632,34.453],[136.624,34.452],[136.62,34.455],[136.617,34.458],[136.612,34.458],[136.611,34.454],[136.608,34.455],[136.605,34.454],[136.604,34.449],[136.599,34.45],[136.59,34.452],[136.586,34.452],[136.587,34.447],[136.583,34.448],[136.579,34.452],[136.576,34.451],[136.571,34.452],[136.566,34.452],[136.56,34.452],[136.555,34.451],[136.553,34.445],[136.549,34.443],[136.548,34.439],[136.533,34.439],[136.528,34.437],[136.53,34.433],[136.53,34.426],[136.535,34.424],[136.533,34.42],[136.534,34.416],[136.533,34.412],[136.531,34.408],[136.527,34.404],[136.527,34.4],[136.521,34.394],[136.521,34.39],[136.524,34.386],[136.525,34.382],[136.522,34.377],[136.517,34.375],[136.517,34.37],[136.518,34.365],[136.52,34.36],[136.52,34.357],[136.515,34.351],[136.514,34.347],[136.513,34.341],[136.512,34.338],[136.519,34.335],[136.525,34.334],[136.529,34.328],[136.533,34.324],[136.537,34.324],[136.541,34.325],[136.545,34.321],[136.548,34.319],[136.556,34.319],[136.561,34.321],[136.568,34.322],[136.573,34.323],[136.577,34.321],[136.58,34.32],[136.586,34.317],[136.589,34.323],[136.594,34.33],[136.597,34.329],[136.605,34.329],[136.608,34.333],[136.605,34.338],[136.605,34.343],[136.611,34.351],[136.61,34.355],[136.613,34.36],[136.615,34.366],[136.618,34.37],[136.624,34.371],[136.632,34.374],[136.636,34.374],[136.637,34.378],[136.637,34.381],[136.638,34.387],[136.632,34.388],[136.631,34.392],[136.634,34.392],[136.638,34.395],[136.643,34.398],[136.645,34.403],[136.643,34.408],[136.643,34.412],[136.642,34.415],[136.643,34.423],[136.64,34.425],[136.633,34.43],[136.639,34.435],[136.643,34.439],[136.643,34.445],[136.65,34.449],[136.651,34.454]]]]}},{"type":"Feature","properties":{"name":"度会郡大紀町","code":"24471"},"geometry":{"type":"MultiPolygon","coordinates":[[[[136.374,34.197],[136.376,34.202],[136.381,34.206],[136.386,34.208],[136.385,34.212],[136.384,34.215],[136.388,34.217],[136.392,34.219],[136.399,34.218],[136.402,34.214],[136.397,34.216],[136.394,34.211],[136.397,34.209],[136.398,34.205],[136.403,34.207],[136.409,34.207],[136.413,34.208],[136.419,34.212],[136.423,34.215],[136.426,34.215],[136.428,34.218],[136.428,34.223],[136.422,34.226],[136.421,34.232],[136.418,34.237],[136.417,34.242],[136.419,34.248],[136.418,34.253],[136.419,34.258],[136.419,34.261],[136.422,34.266],[136.425,34.266],[136.429,34.27],[136.424,34.274],[136.423,34.278],[136.419,34.284],[136.423,34.287],[136.427,34.285],[136.431,34.285],[136.436,34.287],[136.44,34.288],[136.443,34.29],[136.451,34.29],[136.455,34.296],[136.454,34.3],[136.455,34.305],[136.458,34.309],[136.457,34.315],[136.457,34.32],[136.459,34.324],[136.464,34.326],[136.469,34.327],[136.477,34.327],[136.484,34.327],[136.489,34.325],[136.492,34.326],[136.497,34.326],[136.503,34.331],[136.506,34.337],[136.512,34.338],[136.513,34.341],[136.515,34.345],[136.514,34.35],[136.517,34.356],[136.521,34.359],[136.518,34.363],[136.519,34.368],[136.516,34.373],[136.522,34.377],[136.527,34.38],[136.525,34.384],[136.521,34.39],[136.521,34.394],[136.527,34.4],[136.527,34.404],[136.531,34.408],[136.533,34.412],[136.534,34.416],[136.533,34.42],[136.535,34.424],[136.531,34.423],[136.529,34.431],[136.527,34.435],[136.523,34.434],[136.519,34.431],[136.515,34.43],[136.51,34.433],[136.499,34.434],[136.495,34.431],[136.496,34.422],[136.489,34.421],[136.485,34.419],[136.479,34.419],[136.473,34.415],[136.467,34.407],[136.459,34.402],[136.457,34.396],[136.447,34.394],[136.448,34.386],[136.444,34.381],[136.447,34.378],[136.451,34.377],[136.449,34.371],[136.446,34.368],[136.438,34.371],[136.436,34.375],[136.433,34.377],[136.429,34.379],[136.428,34.382],[136.433,34.384],[136.434,34.387],[136.434,34.391],[136.432,34.395],[136.429,34.398],[136.425,34.4],[136.42,34.397],[136.415,34.394],[136.412,34.394],[136.408,34.391],[136.407,34.388],[136.41,34.387],[136.413,34.384],[136.417,34.383],[136.417,34.378],[136.415,34.374],[136.416,34.369],[136.415,34.366],[136.415,34.36],[136.411,34.354],[136.403,34.353],[136.4,34.35],[136.394,34.347],[136.39,34.346],[136.385,34.344],[136.376,34.34],[136.373,34.34],[136.37,34.333],[136.366,34.331],[136.361,34.328],[136.356,34.324],[136.354,34.319],[136.348,34.317],[136.344,34.317],[136.339,34.317],[136.335,34.316],[136.332,34.318],[136.325,34.319],[136.324,34.314],[136.322,34.311],[136.317,34.302],[136.314,34.299],[136.311,34.3],[136.305,34.297],[136.301,34.297],[136.296,34.297],[136.291,34.295],[136.286,34.294],[136.281,34.29],[136.275,34.288],[136.27,34.289],[136.264,34.28],[136.266,34.277],[136.27,34.274],[136.275,34.272],[136.281,34.272],[136.288,34.272],[136.291,34.27],[136.295,34.268],[136.298,34.265],[136.296,34.259],[136.299,34.254],[136.302,34.25],[136.306,34.249],[136.311,34.243],[136.32,34.243],[136.327,34.243],[136.334,34.242],[136.339,34.241],[136.343,34.244],[136.346,34.244],[136.351,34.241],[136.357,34.24],[136.358,34.237],[136.361,34.232],[136.366,34.229],[136.369,34.225],[136.373,34.223],[136.373,34.218],[136.374,34.213],[136.373,34.208],[136.37,34.204],[136.374,34.197]]]]}},{"type":"Feature","properties":{"name":"度会郡南伊勢町","code":"24472"},"geometry":{"type":"MultiPolygon","coordinates":[[[[136.643,34.398],[136.64,34.398],[136.636,34.394],[136.631,34.392],[136.632,34.388],[136.638,34.387],[136.637,34.381],[136.637,34.378],[136.636,34.374],[136.632,34.374],[136.625,34.372],[136.618,34.37],[136.616,34.367],[136.612,34.361],[136.61,34.357],[136.611,34.351],[136.607,34.345],[136.605,34.338],[136.608,34.333],[136.605,34.329],[136.6,34.33],[136.594,34.33],[136.59,34.326],[136.588,34.318],[136.583,34.318],[136.577,34.321],[136.573,34.323],[136.568,34.322],[136.563,34.32],[136.557,34.32],[136.551,34.32],[136.545,34.32],[136.541,34.325],[136.537,34.324],[136.533,34.324],[136.53,34.327],[136.528,34.333],[136.52,34.334],[136.515,34.338],[136.506,34.337],[136.503,34.333],[136.5,34.327],[136.494,34.327],[136.489,34.325],[136.484,34.327],[136.477,34.327],[136.471,34.329],[136.465,34.327],[136.461,34.324],[136.457,34.32],[136.457,34.315],[136.457,34.312],[136.455,34.305],[136.454,34.302],[136.453,34.297],[136.453,34.291],[136.446,34.29],[136.442,34.288],[136.436,34.287],[136.431,34.285],[136.427,34.285],[136.423,34.287],[136.42,34.285],[136.423,34.278],[136.424,34.274],[136.429,34.27],[136.425,34.266],[136.422,34.266],[136.419,34.261],[136.419,34.258],[136.417,34.255],[136.417,34.251],[136.419,34.245],[136.417,34.238],[136.418,34.235],[136.421,34.229],[136.426,34.223],[136.431,34.22],[136.435,34.221],[136.44,34.221],[136.445,34.22],[136.449,34.22],[136.455,34.222],[136.46,34.224],[136.454,34.227],[136.452,34.231],[136.455,34.234],[136.454,34.238],[136.455,34.241],[136.453,34.245],[136.447,34.242],[136.447,34.246],[136.443,34.244],[136.44,34.248],[136.446,34.249],[136.451,34.247],[136.457,34.247],[136.46,34.248],[136.459,34.251],[136.461,34.254],[136.465,34.256],[136.469,34.257],[136.467,34.252],[136.473,34.249],[136.469,34.247],[136.464,34.247],[136.461,34.243],[136.46,34.239],[136.464,34.236],[136.463,34.233],[136.468,34.232],[136.472,34.231],[136.477,34.229],[136.48,34.229],[136.484,34.226],[136.481,34.221],[136.485,34.221],[136.488,34.223],[136.492,34.224],[136.496,34.225],[136.497,34.23],[136.502,34.232],[136.505,34.23],[136.508,34.231],[136.507,34.236],[136.503,34.238],[136.496,34.237],[136.493,34.238],[136.491,34.234],[136.491,34.239],[136.486,34.241],[136.487,34.245],[136.492,34.242],[136.497,34.244],[136.502,34.243],[136.501,34.246],[136.501,34.25],[136.496,34.251],[136.491,34.252],[136.494,34.254],[136.494,34.257],[136.498,34.255],[136.502,34.255],[136.505,34.251],[136.508,34.25],[136.511,34.246],[136.51,34.243],[136.518,34.24],[136.514,34.244],[136.511,34.248],[136.51,34.251],[136.508,34.256],[136.507,34.26],[136.509,34.263],[136.506,34.264],[136.505,34.268],[136.506,34.274],[136.502,34.275],[136.506,34.279],[136.51,34.279],[136.514,34.278],[136.515,34.275],[136.511,34.272],[136.517,34.269],[136.521,34.268],[136.525,34.267],[136.522,34.273],[136.526,34.271],[136.529,34.273],[136.532,34.27],[136.529,34.267],[136.525,34.262],[136.529,34.26],[136.53,34.265],[136.53,34.268],[136.535,34.268],[136.536,34.274],[136.539,34.279],[136.541,34.272],[136.543,34.266],[136.538,34.261],[136.539,34.257],[136.543,34.255],[136.546,34.25],[136.551,34.253],[136.548,34.259],[136.553,34.261],[136.557,34.266],[136.555,34.27],[136.554,34.273],[136.553,34.277],[136.548,34.282],[136.553,34.281],[136.558,34.278],[136.557,34.282],[136.559,34.285],[136.564,34.285],[136.567,34.287],[136.572,34.289],[136.576,34.29],[136.579,34.29],[136.58,34.293],[136.584,34.293],[136.584,34.289],[136.587,34.29],[136.59,34.295],[136.595,34.292],[136.594,34.289],[136.599,34.285],[136.594,34.284],[136.592,34.28],[136.591,34.283],[136.591,34.286],[136.586,34.285],[136.581,34.281],[136.582,34.284],[136.576,34.284],[136.574,34.281],[136.572,34.276],[136.577,34.278],[136.581,34.277],[136.585,34.275],[136.588,34.272],[136.589,34.268],[136.585,34.27],[136.585,34.273],[136.581,34.275],[136.579,34.269],[136.583,34.266],[136.585,34.262],[136.586,34.257],[136.591,34.257],[136.596,34.257],[136.6,34.259],[136.605,34.259],[136.608,34.262],[136.609,34.265],[136.613,34.269],[136.616,34.27],[136.621,34.274],[136.628,34.273],[136.632,34.275],[136.635,34.276],[136.635,34.28],[136.636,34.285],[136.64,34.286],[136.643,34.285],[136.648,34.287],[136.655,34.287],[136.658,34.289],[136.657,34.292],[136.654,34.292],[136.654,34.297],[136.661,34.301],[136.665,34.307],[136.672,34.311],[136.675,34.315],[136.671,34.314],[136.667,34.317],[136.664,34.314],[136.668,34.313],[136.664,34.312],[136.656,34.31],[136.658,34.314],[136.653,34.317],[136.652,34.313],[136.648,34.312],[136.644,34.309],[136.64,34.308],[136.637,34.309],[136.637,34.313],[136.643,34.312],[136.645,34.315],[136.65,34.316],[136.651,34.321],[136.656,34.318],[136.659,34.321],[136.659,34.326],[136.665,34.326],[136.67,34.324],[136.673,34.326],[136.668,34.329],[136.665,34.329],[136.67,34.332],[136.669,34.335],[136.667,34.34],[136.663,34.339],[136.659,34.339],[136.656,34.341],[136.661,34.346],[136.669,34.344],[136.672,34.339],[136.676,34.339],[136.68,34.341],[136.684,34.343],[136.689,34.345],[136.683,34.339],[136.679,34.338],[136.683,34.335],[136.686,34.335],[136.683,34.328],[136.682,34.324],[136.686,34.325],[136.687,34.329],[136.69,34.333],[136.695,34.336],[136.696,34.34],[136.693,34.341],[136.697,34.342],[136.694,34.349],[136.699,34.349],[136.699,34.346],[136.706,34.349],[136.705,34.344],[136.707,34.338],[136.71,34.339],[136.715,34.34],[136.719,34.342],[136.722,34.338],[136.722,34.343],[136.727,34.343],[136.726,34.34],[136.723,34.336],[136.728,34.335],[136.724,34.333],[136.721,34.332],[136.717,34.33],[136.717,34.324],[136.713,34.33],[136.71,34.331],[136.704,34.329],[136.708,34.324],[136.709,34.32],[136.706,34.321],[136.705,34.324],[136.701,34.324],[136.702,34.32],[136.696,34.32],[136.695,34.316],[136.695,34.312],[136.691,34.31],[136.689,34.306],[136.688,34.3],[136.691,34.295],[136.684,34.293],[136.686,34.289],[136.688,34.284],[136.691,34.286],[136.694,34.29],[136.698,34.289],[136.699,34.293],[136.705,34.293],[136.71,34.295],[136.713,34.296],[136.713,34.3],[136.715,34.304],[136.708,34.307],[136.705,34.305],[136.704,34.309],[136.704,34.313],[136.709,34.315],[136.714,34.315],[136.717,34.315],[136.721,34.317],[136.724,34.316],[136.729,34.319],[136.734,34.32],[136.738,34.322],[136.741,34.322],[136.746,34.325],[136.746,34.331],[136.749,34.336],[136.752,34.337],[136.756,34.341],[136.753,34.345],[136.751,34.349],[136.748,34.352],[136.751,34.356],[136.753,34.36],[136.755,34.364],[136.754,34.368],[136.751,34.371],[136.746,34.376],[136.743,34.379],[136.744,34.385],[136.74,34.386],[136.735,34.387],[136.729,34.387],[136.725,34.388],[136.718,34.392],[136.714,34.389],[136.71,34.388],[136.706,34.387],[136.694,34.385],[136.695,34.39],[136.691,34.395],[136.684,34.395],[136.68,34.396],[136.674,34.392],[136.67,34.393],[136.665,34.395],[136.66,34.394],[136.654,34.395],[136.647,34.396],[136.643,34.398]]]]}},{"type":"Feature","properties":{"name":"南牟婁郡御浜町","code":"24561"},"geometry":{"type":"MultiPolygon","coordinates":[[[[135.947,33.828],[135.951,33.829],[135.951,33.825],[135.96,33.822],[135.964,33.819],[135.967,33.817],[135.972,33.816],[135.976,33.818],[135.981,33.819],[135.984,33.819],[135.989,33.817],[135.991,33.812],[135.994,33.812],[135.997,33.806],[135.997,33.799],[136.0,33.795],[136.003,33.795],[136.006,33.791],[136.007,33.787],[136.007,33.782],[136.007,33.779],[136.013,33.779],[136.018,33.778],[136.023,33.777],[136.027,33.774],[136.032,33.772],[136.035,33.78],[136.038,33.786],[136.041,33.795],[136.046,33.806],[136.049,33.811],[136.053,33.819],[136.057,33.826],[136.061,33.832],[136.063,33.837],[136.066,33.84],[136.064,33.846],[136.068,33.853],[136.059,33.858],[136.056,33.862],[136.053,33.863],[136.048,33.863],[136.042,33.869],[136.038,33.874],[136.038,33.879],[136.039,33.883],[136.035,33.887],[136.035,33.891],[136.029,33.892],[136.025,33.893],[136.019,33.892],[136.009,33.892],[136.003,33.889],[135.998,33.89],[135.994,33.894],[135.994,33.89],[135.991,33.891],[135.987,33.887],[135.984,33.89],[135.978,33.887],[135.975,33.887],[135.97,33.883],[135.968,33.88],[135.97,33.873],[135.971,33.868],[135.969,33.865],[135.97,33.861],[135.967,33.861],[135.962,33.858],[135.962,33.854],[135.962,33.847],[135.954,33.846],[135.946,33.846],[135.942,33.847],[135.939,33.846],[135.939,33.842],[135.936,33.836],[135.94,33.832],[135.945,33.828]]]]}},{"type":"Feature","properties":{"name":"南牟婁郡紀宝町","code":"24562"},"geometry":{"type":"MultiPolygon","coordinates":[[[[135.901,33.781],[135.906,33.768],[135.909,33.767],[135.914,33.767],[135.918,33.766],[135.921,33.759],[135.924,33.756],[135.928,33.754],[135.935,33.757],[135.938,33.757],[135.939,33.751],[135.939,33.745],[135.94,33.739],[135.942,33.735],[135.946,33.732],[135.951,33.73],[135.955,33.728],[135.964,33.724],[135.973,33.723],[135.977,33.725],[135.976,33.729],[135.972,33.732],[135.973,33.735],[135.979,33.737],[135.983,33.736],[135.992,33.733],[135.997,33.731],[136.004,33.728],[136.008,33.727],[136.012,33.723],[136.018,33.731],[136.014,33.734],[136.018,33.735],[136.022,33.742],[136.022,33.748],[136.024,33.755],[136.028,33.766],[136.032,33.772],[136.027,33.774],[136.023,33.777],[136.018,33.778],[136.013,33.779],[136.009,33.777],[136.006,33.777],[136.007,33.782],[136.007,33.787],[136.006,33.791],[136.003,33.795],[136.0,33.795],[135.997,33.799],[135.997,33.806],[135.994,33.812],[135.991,33.812],[135.99,33.816],[135.984,33.819],[135.981,33.819],[135.976,33.818],[135.972,33.816],[135.967,33.817],[135.964,33.819],[135.96,33.822],[135.951,33.825],[135.951,33.829],[135.947,33.828],[135.948,33.82],[135.946,33.816],[135.938,33.813],[135.935,33.811],[135.934,33.808],[135.93,33.805],[135.927,33.803],[135.929,33.798],[135.932,33.791],[135.929,33.788],[135.924,33.789],[135.92,33.791],[135.916,33.788],[135.907,33.784],[135.904,33.784]]]]}}]}