{"type":"FeatureCollection","features":[{"type":"Feature","properties":{"name":"大津市","code":"25201"},"geometry":{"type":"MultiPolygon","coordinates":[[[[136.016,35.231],[135.994,35.264],[135.984,35.272],[135.957,35.278],[135.937,35.261],[135.91,35.264],[135.906,35.275],[135.883,35.285],[135.861,35.283],[135.845,35.261],[135.831,35.223],[135.831,35.21],[135.842,35.19],[135.847,35.162],[135.856,35.159],[135.849,35.142],[135.852,35.134],[135.84,35.086],[135.832,35.071],[135.835,35.056],[135.816,35.047],[135.835,35.022],[135.833,35.009],[135.842,34.99],[135.857,34.98],[135.852,34.971],[135.875,34.954],[135.88,34.935],[135.871,34.926],[135.868,34.893],[135.9,34.871],[135.913,34.884],[135.936,34.892],[135.943,34.878],[135.964,34.88],[135.967,34.891],[135.987,34.89],[135.993,34.909],[136.012,34.92],[136.042,34.923],[136.033,34.938],[136.041,34.945],[136.017,34.944],[136.01,34.955],[136.01,34.976],[135.989,34.98],[135.967,34.983],[135.95,34.972],[135.94,34.992],[135.919,34.996],[135.903,34.992],[135.888,35.035],[135.923,35.088],[135.936,35.116],[135.94,35.138],[135.959,35.147],[135.973,35.181],[135.996,35.19],[136.016,35.231]]]]}},{"type":"Feature","properties":{"name":"彦根市","code":"25202"},"geometry":{"type":"MultiPolygon","coordinates":[[[[136.352,35.274],[136.346,35.286],[136.301,35.299],[136.244,35.296],[136.216,35.304],[136.21,35.339],[136.149,35.356],[136.146,35.35],[136.153,35.269],[136.122,35.256],[136.084,35.259],[136.085,35.252],[136.112,35.216],[136.14,35.207],[136.167,35.204],[136.192,35.19],[136.195,35.199],[136.216,35.194],[136.226,35.219],[136.238,35.213],[136.258,35.228],[136.275,35.24],[136.288,35.241],[136.301,35.257],[136.321,35.268],[136.339,35.264],[136.352,35.274]]]]}},{"type":"Feature","properties":{"name":"長浜市","code":"25203"},"geometry":{"type":"MultiPolygon","coordinates":[[[[136.21,35.339],[136.226,35.348],[136.25,35.353],[136.278,35.351],[136.296,35.355],[136.311,35.343],[136.325,35.347],[136.337,35.379],[136.332,35.4],[136.357,35.401],[136.363,35.417],[136.359,35.434],[136.343,35.461],[136.333,35.469],[136.337,35.496],[136.348,35.524],[136.346,35.536],[136.337,35.55],[136.322,35.544],[136.316,35.556],[136.323,35.57],[136.324,35.617],[136.316,35.623],[136.289,35.621],[136.279,35.637],[136.281,35.661],[136.269,35.669],[136.245,35.674],[136.234,35.682],[136.199,35.69],[136.185,35.704],[136.151,35.698],[136.134,35.67],[136.148,35.663],[136.177,35.595],[136.166,35.583],[136.17,35.571],[136.139,35.576],[136.113,35.573],[136.106,35.529],[136.099,35.5],[136.101,35.49],[136.094,35.461],[136.116,35.455],[136.116,35.433],[136.095,35.41],[136.098,35.393],[136.149,35.356],[136.21,35.339]]]]}},{"type":"Feature","properties":{"name":"近江八幡市","code":"25204"},"geometry":{"type":"MultiPolygon","coordinates":[[[[135.996,35.19],[136.001,35.186],[136.008,35.141],[136.025,35.136],[136.033,35.114],[136.065,35.105],[136.078,35.092],[136.099,35.097],[136.103,35.089],[136.123,35.092],[136.146,35.076],[136.126,35.096],[136.14,35.11],[136.16,35.107],[136.176,35.131],[136.168,35.144],[136.14,35.161],[136.13,35.183],[136.106,35.189],[136.1,35.21],[136.091,35.222],[136.085,35.252],[136.084,35.259],[136.071,35.259],[136.027,35.239],[136.016,35.231],[135.996,35.19]]]]}},{"type":"Feature","properties":{"name":"草津市","code":"25206"},"geometry":{"type":"MultiPolygon","coordinates":[[[[135.989,34.98],[135.999,34.997],[135.99,35.008],[135.97,35.016],[135.972,35.031],[135.961,35.038],[135.963,35.051],[135.95,35.062],[135.941,35.081],[135.923,35.088],[135.888,35.035],[135.903,34.992],[135.919,34.996],[135.94,34.992],[135.95,34.972],[135.967,34.983],[135.989,34.98]]]]}},{"type":"Feature","properties":{"name":"守山市","code":"25207"},"geometry":{"type":"MultiPolygon","coordinates":[[[[135.923,35.088],[135.941,35.081],[135.95,35.062],[135.963,35.051],[135.995,35.037],[136.016,35.051],[135.997,35.063],[136.01,35.076],[136.002,35.09],[136.004,35.101],[135.989,35.12],[135.968,35.131],[135.959,35.147],[135.94,35.138],[135.936,35.116],[135.923,35.088]]]]}},{"type":"Feature","properties":{"name":"栗東市","code":"25208"},"geometry":{"type":"MultiPolygon","coordinates":[[[[136.041,34.945],[136.049,34.958],[136.061,34.964],[136.043,34.987],[136.036,35.012],[136.039,35.026],[136.016,35.051],[135.995,35.037],[135.963,35.051],[135.961,35.038],[135.972,35.031],[135.97,35.016],[135.99,35.008],[135.999,34.997],[135.989,34.98],[136.01,34.976],[136.01,34.955],[136.017,34.944],[136.041,34.945]]]]}},{"type":"Feature","properties":{"name":"甲賀市","code":"25209"},"geometry":{"type":"MultiPolygon","coordinates":[[[[135.943,34.878],[135.941,34.864],[135.972,34.846],[135.971,34.838],[136.005,34.843],[136.005,34.827],[136.029,34.817],[136.015,34.809],[136.011,34.796],[136.028,34.791],[136.041,34.798],[136.073,34.804],[136.095,34.819],[136.088,34.83],[136.104,34.841],[136.108,34.853],[136.126,34.862],[136.122,34.873],[136.099,34.871],[136.087,34.876],[136.102,34.896],[136.132,34.883],[136.149,34.882],[136.167,34.888],[136.181,34.886],[136.198,34.87],[136.228,34.861],[136.251,34.858],[136.276,34.872],[136.289,34.87],[136.339,34.895],[136.366,34.905],[136.374,34.924],[136.373,34.942],[136.395,34.951],[136.403,34.969],[136.416,34.981],[136.421,35.0],[136.418,35.018],[136.405,35.014],[136.388,35.022],[136.364,35.017],[136.342,35.017],[136.341,34.989],[136.321,34.978],[136.301,34.984],[136.27,34.961],[136.238,34.959],[136.219,34.98],[136.183,35.004],[136.181,35.016],[136.164,35.031],[136.153,35.019],[136.142,35.025],[136.139,35.003],[136.127,34.989],[136.132,34.963],[136.113,34.948],[136.061,34.964],[136.049,34.958],[136.041,34.945],[136.033,34.938],[136.042,34.923],[136.012,34.92],[135.993,34.909],[135.987,34.89],[135.967,34.891],[135.964,34.88],[135.943,34.878]]]]}},{"type":"Feature","properties":{"name":"野洲市","code":"25210"},"geometry":{"type":"MultiPolygon","coordinates":[[[[135.959,35.147],[135.968,35.131],[135.989,35.12],[136.004,35.101],[136.002,35.09],[136.01,35.076],[135.997,35.063],[136.016,35.051],[136.039,35.026],[136.051,35.032],[136.056,35.057],[136.073,35.052],[136.079,35.062],[136.078,35.092],[136.065,35.105],[136.033,35.114],[136.025,35.136],[136.008,35.141],[136.001,35.186],[135.996,35.19],[135.973,35.181],[135.959,35.147]]]]}},{"type":"Feature","properties":{"name":"湖南市","code":"25211"},"geometry":{"type":"MultiPolygon","coordinates":[[[[136.061,34.964],[136.113,34.948],[136.132,34.963],[136.127,34.989],[136.139,35.003],[136.142,35.025],[136.12,35.035],[136.101,35.022],[136.087,35.03],[136.073,35.052],[136.056,35.057],[136.051,35.032],[136.039,35.026],[136.036,35.012],[136.043,34.987],[136.061,34.964]]]]}},{"type":"Feature","properties":{"name":"高島市","code":"25212"},"geometry":{"type":"MultiPolygon","coordinates":[[[[136.016,35.231],[136.027,35.239],[136.071,35.259],[136.084,35.259],[136.122,35.256],[136.153,35.269],[136.146,35.35],[136.149,35.356],[136.098,35.393],[136.095,35.41],[136.116,35.433],[136.116,35.455],[136.094,35.461],[136.101,35.49],[136.099,35.5],[136.106,35.529],[136.083,35.541],[136.069,35.526],[136.048,35.535],[136.028,35.529],[136.007,35.492],[135.99,35.493],[135.952,35.511],[135.938,35.511],[135.916,35.471],[135.914,35.432],[135.893,35.42],[135.891,35.403],[135.865,35.394],[135.855,35.409],[135.838,35.414],[135.813,35.413],[135.808,35.385],[135.779,35.374],[135.764,35.345],[135.781,35.341],[135.791,35.324],[135.811,35.314],[135.82,35.291],[135.835,35.274],[135.861,35.283],[135.883,35.285],[135.906,35.275],[135.91,35.264],[135.937,35.261],[135.957,35.278],[135.984,35.272],[135.994,35.264],[136.016,35.231]]]]}},{"type":"Feature","properties":{"name":"東近江市","code":"25213"},"geometry":{"type":"MultiPolygon","coordinates":[[[[136.085,35.252],[136.091,35.222],[136.1,35.21],[136.106,35.189],[136.13,35.183],[136.14,35.161],[136.168,35.144],[136.176,35.131],[136.16,35.107],[136.14,35.11],[136.126,35.096],[136.146,35.076],[136.146,35.062],[136.156,35.028],[136.164,35.031],[136.181,35.016],[136.217,35.039],[136.221,35.064],[136.249,35.068],[136.267,35.058],[136.295,35.057],[136.307,35.045],[136.328,35.036],[136.342,35.017],[136.364,35.017],[136.388,35.022],[136.405,35.014],[136.418,35.018],[136.424,35.03],[136.418,35.05],[136.442,35.067],[136.435,35.082],[136.448,35.124],[136.436,35.131],[136.455,35.161],[136.424,35.185],[136.409,35.187],[136.389,35.197],[136.375,35.177],[136.39,35.155],[136.387,35.145],[136.355,35.131],[136.336,35.143],[136.322,35.146],[136.303,35.158],[136.282,35.152],[136.264,35.157],[136.247,35.151],[136.237,35.159],[136.227,35.144],[136.204,35.148],[136.192,35.19],[136.167,35.204],[136.14,35.207],[136.112,35.216],[136.085,35.252]]]]}},{"type":"Feature","properties":{"name":"米原市","code":"25214"},"geometry":{"type":"MultiPolygon","coordinates":[[[[136.352,35.274],[136.378,35.287],[136.392,35.287],[136.412,35.316],[136.411,35.328],[136.422,35.348],[136.412,35.37],[136.437,35.379],[136.444,35.389],[136.412,35.419],[136.426,35.448],[136.42,35.466],[136.402,35.47],[136.388,35.497],[136.402,35.513],[136.4,35.53],[136.384,35.533],[136.374,35.559],[136.363,35.558],[136.357,35.54],[136.346,35.536],[136.348,35.524],[136.337,35.496],[136.333,35.469],[136.343,35.461],[136.359,35.434],[136.363,35.417],[136.357,35.401],[136.332,35.4],[136.337,35.379],[136.325,35.347],[136.311,35.343],[136.296,35.355],[136.278,35.351],[136.25,35.353],[136.226,35.348],[136.21,35.339],[136.216,35.304],[136.244,35.296],[136.301,35.299],[136.346,35.286],[136.352,35.274]]]]}},{"type":"Feature","properties":{"name":"蒲生郡日野町","code":"25383"},"geometry":{"type":"MultiPolygon","coordinates":[[[[136.342,35.017],[136.328,35.036],[136.307,35.045],[136.295,35.057],[136.267,35.058],[136.249,35.068],[136.221,35.064],[136.217,35.039],[136.181,35.016],[136.183,35.004],[136.219,34.98],[136.238,34.959],[136.27,34.961],[136.301,34.984],[136.321,34.978],[136.341,34.989],[136.342,35.017]]]]}},{"type":"Feature","properties":{"name":"蒲生郡竜王町","code":"25384"},"geometry":{"type":"MultiPolygon","coordinates":[[[[136.078,35.092],[136.079,35.062],[136.073,35.052],[136.087,35.03],[136.101,35.022],[136.12,35.035],[136.142,35.025],[136.153,35.019],[136.164,35.031],[136.156,35.028],[136.146,35.062],[136.146,35.076],[136.123,35.092],[136.103,35.089],[136.099,35.097],[136.078,35.092]]]]}},{"type":"Feature","properties":{"name":"愛知郡愛荘町","code":"25425"},"geometry":{"type":"MultiPolygon","coordinates":[[[[136.192,35.19],[136.204,35.148],[136.227,35.144],[136.237,35.159],[136.247,35.151],[136.264,35.157],[136.282,35.152],[136.303,35.158],[136.322,35.146],[136.336,35.143],[136.327,35.155],[136.311,35.156],[136.29,35.183],[136.256,35.188],[136.216,35.194],[136.195,35.199],[136.192,35.19]]]]}},{"type":"Feature","properties":{"name":"犬上郡豊郷町","code":"25441"},"geometry":{"type":"MultiPolygon","coordinates":[[[[136.216,35.194],[136.256,35.188],[136.243,35.198],[136.238,35.213],[136.226,35.219],[136.216,35.194]]]]}},{"type":"Feature","properties":{"name":"犬上郡甲良町","code":"25442"},"geometry":{"type":"MultiPolygon","coordinates":[[[[136.238,35.213],[136.243,35.198],[136.256,35.188],[136.29,35.183],[136.287,35.2],[136.258,35.228],[136.238,35.213]]]]}},{"type":"Feature","properties":{"name":"犬上郡多賀町","code":"25443"},"geometry":{"type":"MultiPolygon","coordinates":[[[[136.258,35.228],[136.287,35.2],[136.29,35.183],[136.311,35.156],[136.327,35.155],[136.336,35.143],[136.355,35.131],[136.387,35.145],[136.39,35.155],[136.375,35.177],[136.389,35.197],[136.409,35.187],[136.417,35.214],[136.38,35.241],[136.389,35.25],[136.396,35.281],[136.392,35.287],[136.378,35.287],[136.352,35.274],[136.339,35.264],[136.321,35.268],[136.301,35.257],[136.288,35.241],[136.275,35.24],[136.258,35.228]]]]}}]}