{"type":"FeatureCollection","features":[{"type":"Feature","properties":{"name":"京都市北区","code":"26101"},"geometry":{"type":"MultiPolygon","coordinates":[[[[135.745,35.15],[135.742,35.158],[135.734,35.162],[135.731,35.17],[135.724,35.171],[135.72,35.168],[135.714,35.169],[135.706,35.166],[135.69,35.166],[135.675,35.164],[135.673,35.159],[135.673,35.142],[135.675,35.138],[135.674,35.13],[135.67,35.123],[135.66,35.116],[135.65,35.114],[135.649,35.11],[135.654,35.106],[135.65,35.102],[135.656,35.092],[135.661,35.094],[135.664,35.098],[135.673,35.094],[135.667,35.087],[135.668,35.083],[135.677,35.083],[135.677,35.079],[135.685,35.077],[135.69,35.08],[135.694,35.072],[135.7,35.069],[135.704,35.063],[135.711,35.059],[135.714,35.047],[135.711,35.042],[135.722,35.036],[135.722,35.028],[135.727,35.023],[135.733,35.022],[135.736,35.035],[135.747,35.035],[135.752,35.038],[135.764,35.037],[135.77,35.033],[135.758,35.05],[135.768,35.051],[135.772,35.062],[135.765,35.078],[135.76,35.084],[135.748,35.088],[135.741,35.089],[135.743,35.096],[135.74,35.122],[135.738,35.132],[135.745,35.138],[135.745,35.15]]]]}},{"type":"Feature","properties":{"name":"京都市上京区","code":"26102"},"geometry":{"type":"MultiPolygon","coordinates":[[[[135.733,35.022],[135.745,35.016],[135.753,35.018],[135.772,35.017],[135.772,35.029],[135.77,35.033],[135.764,35.037],[135.752,35.038],[135.747,35.035],[135.736,35.035],[135.733,35.022]]]]}},{"type":"Feature","properties":{"name":"京都市左京区","code":"26103"},"geometry":{"type":"MultiPolygon","coordinates":[[[[135.77,35.033],[135.772,35.029],[135.772,35.017],[135.772,35.01],[135.784,35.011],[135.791,35.008],[135.801,35.008],[135.805,35.015],[135.815,35.015],[135.82,35.013],[135.835,35.012],[135.835,35.022],[135.826,35.024],[135.828,35.028],[135.825,35.036],[135.815,35.042],[135.816,35.047],[135.827,35.054],[135.835,35.056],[135.836,35.062],[135.832,35.071],[135.838,35.079],[135.84,35.086],[135.835,35.091],[135.838,35.097],[135.843,35.103],[135.843,35.11],[135.85,35.121],[135.85,35.127],[135.852,35.134],[135.849,35.142],[135.853,35.146],[135.856,35.159],[135.847,35.162],[135.841,35.18],[135.842,35.19],[135.835,35.202],[135.835,35.207],[135.831,35.21],[135.831,35.223],[135.837,35.226],[135.838,35.238],[135.842,35.253],[135.846,35.257],[135.845,35.261],[135.848,35.267],[135.852,35.269],[135.855,35.275],[135.861,35.283],[135.859,35.287],[135.852,35.286],[135.85,35.28],[135.842,35.278],[135.835,35.274],[135.83,35.277],[135.82,35.291],[135.821,35.297],[135.815,35.301],[135.811,35.314],[135.795,35.321],[135.788,35.308],[135.777,35.305],[135.778,35.294],[135.781,35.29],[135.775,35.284],[135.772,35.288],[135.766,35.29],[135.748,35.287],[135.736,35.288],[135.729,35.284],[135.732,35.278],[135.726,35.272],[135.727,35.268],[135.732,35.266],[135.731,35.258],[135.729,35.251],[135.733,35.246],[135.742,35.243],[135.755,35.244],[135.761,35.233],[135.761,35.227],[135.763,35.221],[135.763,35.215],[135.754,35.207],[135.754,35.202],[135.757,35.196],[135.775,35.179],[135.771,35.173],[135.771,35.162],[135.773,35.157],[135.766,35.151],[135.762,35.151],[135.753,35.147],[135.745,35.15],[135.745,35.138],[135.738,35.132],[135.742,35.124],[135.743,35.096],[135.741,35.089],[135.748,35.088],[135.76,35.084],[135.765,35.078],[135.772,35.062],[135.768,35.051],[135.758,35.05],[135.77,35.033]]]]}},{"type":"Feature","properties":{"name":"京都市中京区","code":"26104"},"geometry":{"type":"MultiPolygon","coordinates":[[[[135.727,35.023],[135.724,35.016],[135.724,35.009],[135.733,35.008],[135.733,34.996],[135.736,34.999],[135.748,34.999],[135.748,35.004],[135.772,35.004],[135.772,35.01],[135.772,35.017],[135.753,35.018],[135.745,35.016],[135.733,35.022],[135.727,35.023]]]]}},{"type":"Feature","properties":{"name":"京都市東山区","code":"26105"},"geometry":{"type":"MultiPolygon","coordinates":[[[[135.772,35.01],[135.772,35.004],[135.768,34.996],[135.768,34.982],[135.765,34.973],[135.781,34.974],[135.788,34.972],[135.787,34.985],[135.791,34.991],[135.791,34.998],[135.787,35.005],[135.791,35.008],[135.784,35.011],[135.772,35.01]]]]}},{"type":"Feature","properties":{"name":"京都市下京区","code":"26106"},"geometry":{"type":"MultiPolygon","coordinates":[[[[135.733,34.996],[135.729,34.994],[135.727,34.986],[135.734,34.981],[135.746,34.985],[135.767,34.984],[135.768,34.996],[135.772,35.004],[135.748,35.004],[135.748,34.999],[135.736,34.999],[135.733,34.996]]]]}},{"type":"Feature","properties":{"name":"京都市南区","code":"26107"},"geometry":{"type":"MultiPolygon","coordinates":[[[[135.768,34.982],[135.746,34.985],[135.734,34.981],[135.727,34.986],[135.719,34.984],[135.715,34.98],[135.722,34.973],[135.722,34.969],[135.705,34.969],[135.705,34.963],[135.71,34.963],[135.71,34.956],[135.717,34.951],[135.718,34.942],[135.725,34.943],[135.724,34.95],[135.733,34.951],[135.737,34.945],[135.74,34.946],[135.742,34.953],[135.753,34.962],[135.752,34.967],[135.76,34.967],[135.765,34.973],[135.768,34.982]]]]}},{"type":"Feature","properties":{"name":"京都市右京区","code":"26108"},"geometry":{"type":"MultiPolygon","coordinates":[[[[135.745,35.15],[135.753,35.147],[135.762,35.151],[135.766,35.151],[135.773,35.157],[135.771,35.162],[135.771,35.173],[135.775,35.179],[135.757,35.196],[135.754,35.202],[135.754,35.207],[135.763,35.215],[135.763,35.221],[135.761,35.227],[135.761,35.233],[135.755,35.244],[135.742,35.243],[135.733,35.246],[135.729,35.251],[135.733,35.255],[135.732,35.266],[135.727,35.268],[135.718,35.265],[135.712,35.261],[135.707,35.261],[135.689,35.255],[135.655,35.263],[135.652,35.26],[135.64,35.258],[135.629,35.245],[135.63,35.236],[135.62,35.233],[135.619,35.225],[135.609,35.228],[135.599,35.225],[135.59,35.216],[135.597,35.212],[135.597,35.203],[135.591,35.195],[135.584,35.19],[135.583,35.185],[135.574,35.171],[135.562,35.157],[135.562,35.148],[135.559,35.137],[135.561,35.133],[135.568,35.128],[135.575,35.133],[135.578,35.128],[135.591,35.124],[135.592,35.117],[135.597,35.11],[135.604,35.112],[135.612,35.105],[135.616,35.104],[135.615,35.097],[135.605,35.093],[135.598,35.094],[135.592,35.084],[135.59,35.077],[135.596,35.071],[135.6,35.071],[135.603,35.063],[135.608,35.067],[135.619,35.068],[135.622,35.065],[135.617,35.055],[135.618,35.042],[135.622,35.038],[135.626,35.04],[135.635,35.031],[135.64,35.023],[135.653,35.029],[135.656,35.021],[135.659,35.017],[135.668,35.016],[135.678,35.011],[135.683,35.013],[135.689,35.008],[135.691,34.998],[135.704,34.999],[135.708,34.997],[135.711,34.988],[135.715,34.98],[135.719,34.984],[135.727,34.986],[135.729,34.994],[135.733,34.996],[135.733,35.008],[135.724,35.009],[135.724,35.016],[135.727,35.023],[135.722,35.028],[135.722,35.036],[135.711,35.042],[135.714,35.047],[135.711,35.059],[135.704,35.063],[135.7,35.069],[135.694,35.072],[135.69,35.08],[135.685,35.077],[135.677,35.079],[135.677,35.083],[135.668,35.083],[135.667,35.087],[135.673,35.094],[135.664,35.098],[135.661,35.094],[135.656,35.092],[135.65,35.102],[135.654,35.106],[135.649,35.11],[135.65,35.114],[135.66,35.116],[135.67,35.123],[135.674,35.13],[135.675,35.138],[135.673,35.142],[135.673,35.159],[135.675,35.164],[135.69,35.166],[135.706,35.166],[135.714,35.169],[135.72,35.168],[135.724,35.171],[135.731,35.17],[135.734,35.162],[135.742,35.158],[135.745,35.15]]]]}},{"type":"Feature","properties":{"name":"京都市伏見区","code":"26109"},"geometry":{"type":"MultiPolygon","coordinates":[[[[135.765,34.973],[135.76,34.967],[135.752,34.967],[135.753,34.962],[135.742,34.953],[135.74,34.946],[135.737,34.945],[135.733,34.951],[135.724,34.95],[135.725,34.943],[135.718,34.942],[135.714,34.936],[135.715,34.929],[135.714,34.916],[135.707,34.908],[135.703,34.899],[135.705,34.895],[135.712,34.893],[135.712,34.887],[135.715,34.883],[135.724,34.88],[135.732,34.875],[135.733,34.878],[135.729,34.885],[135.723,34.888],[135.72,34.893],[135.716,34.899],[135.72,34.898],[135.732,34.904],[135.74,34.905],[135.748,34.911],[135.753,34.904],[135.761,34.908],[135.776,34.916],[135.79,34.917],[135.792,34.93],[135.798,34.935],[135.807,34.938],[135.811,34.937],[135.814,34.929],[135.818,34.927],[135.829,34.927],[135.83,34.935],[135.845,34.936],[135.85,34.939],[135.847,34.948],[135.852,34.957],[135.859,34.957],[135.863,34.951],[135.878,34.947],[135.875,34.954],[135.865,34.957],[135.847,34.966],[135.841,34.966],[135.836,34.97],[135.829,34.966],[135.821,34.964],[135.818,34.958],[135.805,34.953],[135.802,34.955],[135.794,34.95],[135.791,34.959],[135.791,34.965],[135.788,34.972],[135.781,34.974],[135.765,34.973]]]]}},{"type":"Feature","properties":{"name":"京都市山科区","code":"26110"},"geometry":{"type":"MultiPolygon","coordinates":[[[[135.791,35.008],[135.787,35.005],[135.791,34.998],[135.791,34.991],[135.787,34.985],[135.788,34.972],[135.791,34.965],[135.791,34.959],[135.794,34.95],[135.802,34.955],[135.805,34.953],[135.818,34.958],[135.821,34.964],[135.829,34.966],[135.836,34.97],[135.841,34.966],[135.847,34.966],[135.863,34.96],[135.852,34.971],[135.857,34.98],[135.855,34.985],[135.849,34.985],[135.849,34.992],[135.842,34.99],[135.827,34.991],[135.833,34.999],[135.837,35.001],[135.833,35.009],[135.824,35.009],[135.82,35.013],[135.815,35.015],[135.805,35.015],[135.801,35.008],[135.791,35.008]]]]}},{"type":"Feature","properties":{"name":"京都市西京区","code":"26111"},"geometry":{"type":"MultiPolygon","coordinates":[[[[135.715,34.98],[135.711,34.988],[135.708,34.997],[135.704,34.999],[135.691,34.998],[135.689,35.008],[135.683,35.013],[135.678,35.011],[135.668,35.016],[135.659,35.017],[135.656,35.021],[135.653,35.029],[135.64,35.023],[135.636,35.019],[135.647,35.007],[135.646,35.001],[135.639,34.998],[135.638,34.981],[135.641,34.976],[135.624,34.974],[135.613,34.971],[135.616,34.963],[135.619,34.959],[135.612,34.944],[135.611,34.94],[135.603,34.936],[135.601,34.93],[135.615,34.928],[135.624,34.935],[135.633,34.935],[135.643,34.93],[135.654,34.934],[135.659,34.933],[135.675,34.946],[135.68,34.944],[135.695,34.947],[135.683,34.964],[135.693,34.968],[135.705,34.963],[135.705,34.969],[135.722,34.969],[135.722,34.973],[135.715,34.98]]]]}},{"type":"Feature","properties":{"name":"福知山市","code":"26201"},"geometry":{"type":"MultiPolygon","coordinates":[[[[135.159,35.455],[135.15,35.459],[135.145,35.466],[135.13,35.47],[135.125,35.47],[135.11,35.464],[135.106,35.458],[135.107,35.451],[135.094,35.444],[135.08,35.444],[135.07,35.445],[135.061,35.449],[135.059,35.452],[135.05,35.451],[135.052,35.442],[135.047,35.424],[135.05,35.414],[135.049,35.407],[135.038,35.41],[135.03,35.41],[135.03,35.406],[135.024,35.401],[135.019,35.394],[135.005,35.391],[135.002,35.387],[134.991,35.386],[134.989,35.393],[134.981,35.398],[134.971,35.399],[134.959,35.409],[134.955,35.408],[134.946,35.413],[134.932,35.406],[134.923,35.391],[134.927,35.386],[134.927,35.377],[134.919,35.364],[134.923,35.354],[134.919,35.35],[134.917,35.34],[134.926,35.337],[134.928,35.33],[134.925,35.326],[134.926,35.322],[134.921,35.317],[134.925,35.312],[134.934,35.308],[134.941,35.309],[134.947,35.304],[134.96,35.298],[134.986,35.293],[134.993,35.289],[134.997,35.29],[135.007,35.286],[135.012,35.281],[135.01,35.27],[135.019,35.268],[135.036,35.263],[135.042,35.264],[135.049,35.262],[135.057,35.264],[135.058,35.255],[135.064,35.246],[135.068,35.237],[135.075,35.243],[135.083,35.246],[135.085,35.253],[135.09,35.254],[135.095,35.26],[135.1,35.26],[135.109,35.266],[135.119,35.263],[135.129,35.261],[135.135,35.265],[135.142,35.262],[135.147,35.264],[135.157,35.261],[135.167,35.243],[135.162,35.231],[135.155,35.227],[135.163,35.22],[135.171,35.22],[135.175,35.215],[135.182,35.216],[135.189,35.207],[135.197,35.203],[135.2,35.196],[135.193,35.194],[135.187,35.19],[135.19,35.183],[135.187,35.172],[135.193,35.172],[135.203,35.165],[135.207,35.161],[135.222,35.163],[135.229,35.166],[135.232,35.177],[135.238,35.176],[135.25,35.178],[135.254,35.176],[135.267,35.176],[135.274,35.177],[135.285,35.171],[135.289,35.172],[135.287,35.187],[135.287,35.2],[135.294,35.198],[135.297,35.212],[135.293,35.219],[135.299,35.22],[135.289,35.235],[135.299,35.235],[135.303,35.243],[135.31,35.248],[135.323,35.255],[135.325,35.26],[135.322,35.264],[135.319,35.274],[135.311,35.269],[135.298,35.268],[135.292,35.265],[135.281,35.268],[135.272,35.272],[135.258,35.269],[135.247,35.264],[135.239,35.265],[135.22,35.278],[135.217,35.277],[135.203,35.284],[135.201,35.289],[135.201,35.301],[135.198,35.308],[135.185,35.311],[135.193,35.321],[135.191,35.328],[135.189,35.339],[135.184,35.339],[135.178,35.344],[135.173,35.345],[135.18,35.353],[135.186,35.355],[135.185,35.362],[135.174,35.369],[135.175,35.373],[135.189,35.371],[135.192,35.373],[135.198,35.371],[135.204,35.373],[135.203,35.383],[135.208,35.393],[135.217,35.395],[135.228,35.392],[135.229,35.396],[135.222,35.402],[135.221,35.406],[135.215,35.413],[135.203,35.414],[135.205,35.425],[135.196,35.429],[135.184,35.431],[135.174,35.428],[135.169,35.43],[135.171,35.437],[135.167,35.442],[135.173,35.449],[135.159,35.455]]]]}},{"type":"Feature","properties":{"name":"舞鶴市","code":"26202"},"geometry":{"type":"MultiPolygon","coordinates":[[[[135.229,35.396],[135.234,35.398],[135.251,35.396],[135.256,35.398],[135.267,35.4],[135.271,35.396],[135.284,35.399],[135.296,35.397],[135.297,35.39],[135.31,35.383],[135.323,35.388],[135.327,35.386],[135.333,35.39],[135.34,35.393],[135.347,35.387],[135.35,35.393],[135.359,35.397],[135.368,35.392],[135.378,35.394],[135.384,35.38],[135.392,35.383],[135.401,35.39],[135.403,35.395],[135.408,35.394],[135.409,35.4],[135.406,35.408],[135.406,35.416],[135.409,35.428],[135.42,35.426],[135.426,35.433],[135.434,35.429],[135.444,35.432],[135.454,35.44],[135.463,35.445],[135.466,35.451],[135.47,35.454],[135.469,35.458],[135.463,35.462],[135.458,35.469],[135.462,35.479],[135.47,35.485],[135.471,35.489],[135.476,35.49],[135.473,35.501],[135.476,35.505],[135.467,35.509],[135.45,35.521],[135.45,35.527],[135.454,35.537],[135.46,35.543],[135.46,35.548],[135.467,35.552],[135.484,35.557],[135.474,35.557],[135.465,35.571],[135.457,35.57],[135.454,35.567],[135.45,35.572],[135.45,35.58],[135.456,35.585],[135.457,35.592],[135.461,35.599],[135.457,35.6],[135.45,35.598],[135.45,35.595],[135.435,35.588],[135.435,35.581],[135.427,35.575],[135.427,35.567],[135.413,35.57],[135.404,35.562],[135.39,35.557],[135.379,35.562],[135.378,35.559],[135.366,35.551],[135.357,35.549],[135.352,35.544],[135.344,35.545],[135.34,35.55],[135.337,35.538],[135.336,35.532],[135.339,35.524],[135.35,35.518],[135.344,35.515],[135.347,35.51],[135.342,35.507],[135.355,35.502],[135.373,35.506],[135.384,35.504],[135.385,35.512],[135.389,35.516],[135.394,35.517],[135.396,35.513],[135.391,35.509],[135.394,35.5],[135.4,35.495],[135.396,35.49],[135.395,35.484],[135.385,35.479],[135.374,35.477],[135.382,35.486],[135.38,35.49],[135.375,35.492],[135.364,35.488],[135.355,35.488],[135.35,35.486],[135.344,35.475],[135.336,35.473],[135.327,35.464],[135.328,35.46],[135.32,35.456],[135.322,35.452],[135.313,35.452],[135.311,35.458],[135.318,35.463],[135.32,35.474],[135.324,35.482],[135.323,35.487],[135.332,35.495],[135.335,35.506],[135.332,35.51],[135.331,35.517],[135.323,35.526],[135.311,35.512],[135.296,35.516],[135.289,35.516],[135.288,35.5],[135.284,35.49],[135.276,35.491],[135.272,35.496],[135.266,35.498],[135.26,35.506],[135.254,35.51],[135.242,35.507],[135.234,35.511],[135.224,35.504],[135.22,35.499],[135.219,35.493],[135.209,35.493],[135.201,35.49],[135.201,35.482],[135.194,35.474],[135.186,35.47],[135.185,35.462],[135.174,35.457],[135.159,35.455],[135.173,35.449],[135.167,35.442],[135.171,35.437],[135.169,35.43],[135.174,35.428],[135.184,35.431],[135.196,35.429],[135.205,35.425],[135.203,35.414],[135.215,35.413],[135.221,35.406],[135.222,35.402],[135.229,35.396]]]]}},{"type":"Feature","properties":{"name":"綾部市","code":"26203"},"geometry":{"type":"MultiPolygon","coordinates":[[[[135.319,35.274],[135.332,35.271],[135.339,35.28],[135.345,35.282],[135.351,35.289],[135.359,35.292],[135.367,35.292],[135.37,35.297],[135.379,35.303],[135.385,35.315],[135.393,35.318],[135.401,35.325],[135.412,35.327],[135.417,35.335],[135.423,35.337],[135.429,35.342],[135.457,35.346],[135.468,35.346],[135.475,35.344],[135.486,35.346],[135.498,35.342],[135.5,35.348],[135.505,35.349],[135.5,35.36],[135.516,35.365],[135.522,35.37],[135.528,35.369],[135.534,35.371],[135.535,35.377],[135.528,35.38],[135.529,35.391],[135.525,35.403],[135.53,35.408],[135.527,35.418],[135.521,35.423],[135.516,35.422],[135.51,35.424],[135.506,35.421],[135.495,35.426],[135.5,35.433],[135.498,35.438],[135.491,35.439],[135.486,35.449],[135.481,35.448],[135.47,35.454],[135.466,35.451],[135.463,35.445],[135.454,35.44],[135.444,35.432],[135.434,35.429],[135.426,35.433],[135.42,35.426],[135.409,35.428],[135.406,35.416],[135.404,35.411],[135.409,35.4],[135.408,35.394],[135.403,35.395],[135.401,35.39],[135.392,35.383],[135.384,35.38],[135.378,35.394],[135.368,35.392],[135.359,35.397],[135.35,35.393],[135.347,35.387],[135.34,35.393],[135.333,35.39],[135.327,35.386],[135.323,35.388],[135.31,35.383],[135.297,35.39],[135.296,35.397],[135.284,35.399],[135.271,35.396],[135.267,35.4],[135.256,35.398],[135.251,35.396],[135.234,35.398],[135.229,35.396],[135.228,35.392],[135.219,35.392],[135.208,35.393],[135.203,35.383],[135.204,35.373],[135.198,35.371],[135.192,35.373],[135.189,35.371],[135.175,35.373],[135.174,35.369],[135.185,35.362],[135.186,35.355],[135.18,35.353],[135.173,35.345],[135.178,35.344],[135.184,35.339],[135.189,35.339],[135.191,35.328],[135.193,35.321],[135.185,35.311],[135.198,35.308],[135.201,35.301],[135.201,35.289],[135.203,35.284],[135.217,35.277],[135.22,35.278],[135.239,35.265],[135.247,35.264],[135.258,35.269],[135.272,35.272],[135.281,35.268],[135.292,35.265],[135.298,35.268],[135.311,35.269],[135.319,35.274]]]]}},{"type":"Feature","properties":{"name":"宇治市","code":"26204"},"geometry":{"type":"MultiPolygon","coordinates":[[[[135.761,34.908],[135.765,34.902],[135.766,34.896],[135.76,34.893],[135.76,34.886],[135.766,34.886],[135.767,34.874],[135.76,34.874],[135.76,34.869],[135.776,34.868],[135.781,34.87],[135.789,34.866],[135.802,34.867],[135.812,34.861],[135.825,34.858],[135.83,34.86],[135.829,34.865],[135.843,34.871],[135.845,34.877],[135.849,34.882],[135.858,34.884],[135.863,34.891],[135.867,34.892],[135.867,34.897],[135.863,34.904],[135.871,34.91],[135.869,34.92],[135.871,34.926],[135.88,34.935],[135.876,34.943],[135.878,34.947],[135.863,34.951],[135.859,34.957],[135.852,34.957],[135.847,34.948],[135.85,34.939],[135.845,34.936],[135.83,34.935],[135.829,34.927],[135.818,34.927],[135.814,34.929],[135.811,34.937],[135.807,34.938],[135.798,34.935],[135.792,34.93],[135.79,34.917],[135.776,34.916],[135.761,34.908]]]]}},{"type":"Feature","properties":{"name":"宮津市","code":"26205"},"geometry":{"type":"MultiPolygon","coordinates":[[[[135.159,35.455],[135.174,35.457],[135.185,35.462],[135.186,35.47],[135.194,35.474],[135.201,35.482],[135.201,35.49],[135.209,35.493],[135.219,35.493],[135.22,35.499],[135.224,35.504],[135.234,35.511],[135.242,35.507],[135.254,35.51],[135.26,35.506],[135.266,35.498],[135.272,35.496],[135.276,35.491],[135.284,35.49],[135.288,35.5],[135.289,35.516],[135.283,35.52],[135.272,35.525],[135.273,35.529],[135.269,35.533],[135.246,35.535],[135.24,35.54],[135.237,35.55],[135.242,35.56],[135.261,35.554],[135.265,35.557],[135.275,35.56],[135.262,35.568],[135.254,35.568],[135.251,35.57],[135.25,35.578],[135.247,35.582],[135.248,35.588],[135.255,35.588],[135.256,35.598],[135.238,35.582],[135.228,35.585],[135.23,35.576],[135.227,35.57],[135.208,35.563],[135.204,35.555],[135.209,35.554],[135.211,35.548],[135.209,35.543],[135.202,35.538],[135.193,35.54],[135.188,35.547],[135.187,35.557],[135.19,35.567],[135.2,35.578],[135.206,35.583],[135.209,35.591],[135.214,35.598],[135.225,35.603],[135.228,35.608],[135.234,35.612],[135.235,35.616],[135.245,35.621],[135.246,35.631],[135.25,35.64],[135.253,35.649],[135.263,35.661],[135.268,35.667],[135.274,35.667],[135.268,35.674],[135.269,35.679],[135.276,35.683],[135.277,35.69],[135.267,35.695],[135.264,35.692],[135.252,35.689],[135.245,35.689],[135.239,35.685],[135.227,35.689],[135.221,35.687],[135.213,35.689],[135.207,35.686],[135.204,35.679],[135.198,35.674],[135.205,35.664],[135.197,35.665],[135.193,35.67],[135.187,35.667],[135.18,35.67],[135.179,35.66],[135.175,35.655],[135.164,35.654],[135.158,35.643],[135.159,35.634],[135.164,35.628],[135.173,35.622],[135.178,35.614],[135.183,35.614],[135.181,35.606],[135.18,35.598],[135.177,35.593],[135.171,35.578],[135.176,35.574],[135.177,35.568],[135.172,35.567],[135.163,35.563],[135.158,35.555],[135.148,35.559],[135.139,35.552],[135.14,35.544],[135.144,35.544],[135.149,35.536],[135.155,35.53],[135.166,35.531],[135.165,35.526],[135.167,35.519],[135.162,35.512],[135.151,35.51],[135.151,35.501],[135.145,35.497],[135.138,35.49],[135.137,35.482],[135.123,35.475],[135.125,35.47],[135.13,35.47],[135.145,35.466],[135.15,35.459],[135.159,35.455]]]]}},{"type":"Feature","properties":{"name":"亀岡市","code":"26206"},"geometry":{"type":"MultiPolygon","coordinates":[[[[135.598,35.094],[135.591,35.096],[135.587,35.099],[135.579,35.098],[135.57,35.101],[135.562,35.096],[135.561,35.09],[135.552,35.085],[135.553,35.075],[135.557,35.07],[135.556,35.064],[135.548,35.062],[135.541,35.067],[135.539,35.061],[135.526,35.057],[135.524,35.061],[135.515,35.061],[135.505,35.063],[135.506,35.069],[135.497,35.068],[135.484,35.069],[135.477,35.072],[135.472,35.067],[135.474,35.061],[135.463,35.049],[135.455,35.042],[135.443,35.037],[135.434,35.025],[135.426,35.028],[135.398,35.025],[135.393,35.029],[135.386,35.028],[135.382,35.031],[135.382,35.026],[135.378,35.021],[135.382,35.01],[135.397,35.011],[135.403,35.007],[135.41,35.012],[135.418,35.003],[135.423,35.002],[135.436,35.008],[135.447,35.005],[135.452,35.002],[135.46,35.002],[135.471,34.995],[135.482,34.995],[135.493,34.988],[135.483,34.982],[135.488,34.967],[135.482,34.965],[135.485,34.955],[135.481,34.95],[135.488,34.946],[135.49,34.942],[135.5,34.941],[135.504,34.946],[135.515,34.944],[135.515,34.937],[135.523,34.93],[135.537,34.926],[135.536,34.921],[135.541,34.915],[135.544,34.917],[135.553,34.916],[135.563,34.918],[135.567,34.916],[135.581,34.922],[135.581,34.937],[135.572,34.939],[135.565,34.933],[135.562,34.938],[135.561,34.947],[135.563,34.954],[135.579,34.956],[135.578,34.96],[135.571,34.964],[135.571,34.97],[135.577,34.974],[135.585,34.975],[135.589,34.967],[135.603,34.971],[135.608,34.969],[135.613,34.971],[135.624,34.974],[135.641,34.976],[135.638,34.981],[135.639,34.998],[135.646,35.001],[135.647,35.007],[135.636,35.019],[135.64,35.023],[135.635,35.031],[135.626,35.04],[135.622,35.038],[135.618,35.042],[135.617,35.055],[135.622,35.065],[135.619,35.068],[135.608,35.067],[135.603,35.063],[135.6,35.071],[135.596,35.071],[135.59,35.077],[135.592,35.084],[135.598,35.094]]]]}},{"type":"Feature","properties":{"name":"城陽市","code":"26207"},"geometry":{"type":"MultiPolygon","coordinates":[[[[135.76,34.869],[135.749,34.868],[135.752,34.854],[135.753,34.849],[135.762,34.836],[135.765,34.834],[135.777,34.833],[135.786,34.828],[135.791,34.822],[135.808,34.822],[135.814,34.825],[135.824,34.825],[135.832,34.826],[135.848,34.825],[135.846,34.834],[135.842,34.84],[135.841,34.846],[135.835,34.848],[135.833,34.858],[135.83,34.86],[135.825,34.858],[135.812,34.861],[135.802,34.867],[135.789,34.866],[135.781,34.87],[135.776,34.868],[135.76,34.869]]]]}},{"type":"Feature","properties":{"name":"向日市","code":"26208"},"geometry":{"type":"MultiPolygon","coordinates":[[[[135.705,34.963],[135.693,34.968],[135.683,34.964],[135.695,34.947],[135.699,34.941],[135.7,34.929],[135.715,34.929],[135.714,34.936],[135.718,34.942],[135.717,34.951],[135.71,34.956],[135.71,34.963],[135.705,34.963]]]]}},{"type":"Feature","properties":{"name":"長岡京市","code":"26209"},"geometry":{"type":"MultiPolygon","coordinates":[[[[135.715,34.929],[135.7,34.929],[135.699,34.941],[135.695,34.947],[135.68,34.944],[135.675,34.946],[135.659,34.933],[135.654,34.934],[135.643,34.93],[135.649,34.926],[135.65,34.917],[135.649,34.91],[135.654,34.909],[135.662,34.904],[135.668,34.905],[135.67,34.909],[135.679,34.913],[135.688,34.913],[135.695,34.908],[135.707,34.908],[135.714,34.916],[135.715,34.929]]]]}},{"type":"Feature","properties":{"name":"八幡市","code":"26210"},"geometry":{"type":"MultiPolygon","coordinates":[[[[135.703,34.899],[135.694,34.892],[135.686,34.891],[135.683,34.888],[135.68,34.881],[135.684,34.878],[135.683,34.872],[135.691,34.868],[135.692,34.853],[135.696,34.848],[135.702,34.852],[135.71,34.847],[135.712,34.84],[135.719,34.832],[135.722,34.836],[135.72,34.84],[135.728,34.845],[135.729,34.85],[135.735,34.854],[135.738,34.85],[135.746,34.851],[135.753,34.849],[135.752,34.854],[135.752,34.865],[135.748,34.871],[135.737,34.873],[135.732,34.875],[135.724,34.88],[135.715,34.883],[135.712,34.887],[135.712,34.893],[135.705,34.895],[135.703,34.899]]]]}},{"type":"Feature","properties":{"name":"京田辺市","code":"26211"},"geometry":{"type":"MultiPolygon","coordinates":[[[[135.753,34.849],[135.746,34.851],[135.738,34.85],[135.735,34.854],[135.729,34.85],[135.728,34.845],[135.72,34.84],[135.722,34.836],[135.719,34.832],[135.723,34.826],[135.731,34.823],[135.747,34.801],[135.741,34.788],[135.732,34.783],[135.729,34.778],[135.733,34.755],[135.737,34.752],[135.742,34.757],[135.749,34.757],[135.756,34.764],[135.754,34.769],[135.76,34.779],[135.772,34.781],[135.782,34.78],[135.787,34.784],[135.786,34.789],[135.8,34.79],[135.798,34.796],[135.802,34.806],[135.802,34.811],[135.791,34.822],[135.786,34.828],[135.777,34.833],[135.765,34.834],[135.762,34.836],[135.753,34.849]]]]}},{"type":"Feature","properties":{"name":"京丹後市","code":"26212"},"geometry":{"type":"MultiPolygon","coordinates":[[[[135.213,35.689],[135.214,35.693],[135.207,35.694],[135.199,35.697],[135.195,35.696],[135.189,35.709],[135.193,35.712],[135.193,35.718],[135.199,35.725],[135.197,35.732],[135.207,35.736],[135.208,35.741],[135.22,35.746],[135.224,35.755],[135.232,35.765],[135.233,35.769],[135.221,35.779],[135.22,35.77],[135.207,35.764],[135.196,35.768],[135.186,35.764],[135.183,35.761],[135.175,35.761],[135.172,35.757],[135.167,35.758],[135.162,35.754],[135.156,35.754],[135.147,35.75],[135.135,35.753],[135.124,35.746],[135.108,35.744],[135.101,35.741],[135.095,35.743],[135.085,35.739],[135.088,35.732],[135.085,35.726],[135.074,35.718],[135.068,35.718],[135.066,35.714],[135.059,35.707],[135.046,35.702],[135.042,35.7],[135.037,35.702],[135.03,35.697],[135.03,35.692],[135.026,35.69],[135.02,35.692],[135.015,35.69],[135.003,35.694],[134.999,35.691],[134.986,35.692],[134.982,35.685],[134.975,35.683],[134.973,35.676],[134.967,35.676],[134.964,35.671],[134.967,35.666],[134.963,35.662],[134.943,35.653],[134.923,35.646],[134.909,35.645],[134.9,35.649],[134.892,35.649],[134.884,35.647],[134.886,35.657],[134.879,35.661],[134.871,35.66],[134.864,35.652],[134.867,35.636],[134.87,35.632],[134.874,35.621],[134.871,35.615],[134.866,35.614],[134.867,35.608],[134.866,35.599],[134.854,35.589],[134.863,35.587],[134.866,35.581],[134.876,35.574],[134.881,35.567],[134.881,35.564],[134.888,35.56],[134.901,35.556],[134.903,35.549],[134.915,35.545],[134.919,35.538],[134.915,35.528],[134.923,35.522],[134.923,35.516],[134.93,35.512],[134.942,35.514],[134.963,35.515],[134.965,35.52],[134.974,35.525],[134.979,35.524],[134.982,35.528],[134.988,35.53],[134.993,35.534],[135.008,35.534],[135.018,35.538],[135.027,35.54],[135.036,35.54],[135.047,35.533],[135.054,35.532],[135.061,35.533],[135.069,35.537],[135.074,35.537],[135.094,35.549],[135.115,35.549],[135.118,35.547],[135.128,35.557],[135.131,35.558],[135.137,35.573],[135.141,35.574],[135.146,35.584],[135.156,35.586],[135.164,35.592],[135.169,35.606],[135.181,35.606],[135.183,35.614],[135.178,35.614],[135.173,35.622],[135.164,35.628],[135.159,35.634],[135.158,35.643],[135.164,35.654],[135.175,35.655],[135.179,35.66],[135.18,35.67],[135.187,35.667],[135.193,35.67],[135.197,35.665],[135.205,35.664],[135.198,35.674],[135.204,35.679],[135.207,35.686],[135.213,35.689]]]]}},{"type":"Feature","properties":{"name":"南丹市","code":"26213"},"geometry":{"type":"MultiPolygon","coordinates":[[[[135.795,35.321],[135.791,35.324],[135.786,35.331],[135.781,35.341],[135.764,35.345],[135.769,35.356],[135.755,35.354],[135.744,35.359],[135.736,35.351],[135.725,35.352],[135.719,35.355],[135.713,35.353],[135.711,35.348],[135.701,35.344],[135.677,35.35],[135.668,35.357],[135.661,35.356],[135.652,35.36],[135.642,35.367],[135.637,35.364],[135.623,35.37],[135.607,35.371],[135.594,35.37],[135.588,35.368],[135.58,35.375],[135.572,35.374],[135.566,35.377],[135.559,35.376],[135.537,35.377],[135.534,35.371],[135.528,35.369],[135.522,35.37],[135.516,35.365],[135.5,35.36],[135.505,35.349],[135.5,35.348],[135.498,35.342],[135.497,35.333],[135.502,35.324],[135.48,35.313],[135.474,35.303],[135.478,35.297],[135.473,35.29],[135.461,35.284],[135.457,35.267],[135.456,35.261],[135.462,35.256],[135.465,35.249],[135.454,35.245],[135.452,35.23],[135.456,35.224],[135.457,35.216],[135.454,35.212],[135.452,35.205],[135.448,35.201],[135.446,35.193],[135.452,35.191],[135.455,35.187],[135.462,35.185],[135.461,35.176],[135.465,35.168],[135.46,35.166],[135.458,35.156],[135.451,35.154],[135.455,35.146],[135.448,35.138],[135.448,35.133],[135.443,35.133],[135.446,35.127],[135.441,35.125],[135.437,35.12],[135.426,35.119],[135.428,35.114],[135.421,35.105],[135.412,35.107],[135.4,35.105],[135.392,35.098],[135.401,35.094],[135.404,35.089],[135.4,35.086],[135.4,35.076],[135.387,35.073],[135.377,35.066],[135.377,35.061],[135.369,35.055],[135.371,35.045],[135.376,35.044],[135.38,35.039],[135.382,35.031],[135.386,35.028],[135.393,35.029],[135.398,35.025],[135.426,35.028],[135.434,35.025],[135.443,35.037],[135.455,35.042],[135.463,35.049],[135.474,35.061],[135.472,35.067],[135.477,35.072],[135.484,35.069],[135.497,35.068],[135.506,35.069],[135.505,35.063],[135.515,35.061],[135.524,35.061],[135.526,35.057],[135.539,35.061],[135.541,35.067],[135.548,35.062],[135.556,35.064],[135.557,35.07],[135.553,35.075],[135.552,35.085],[135.561,35.09],[135.562,35.096],[135.57,35.101],[135.579,35.098],[135.587,35.099],[135.591,35.096],[135.598,35.094],[135.605,35.093],[135.615,35.097],[135.616,35.104],[135.612,35.105],[135.604,35.112],[135.597,35.11],[135.592,35.117],[135.591,35.124],[135.578,35.128],[135.575,35.133],[135.568,35.128],[135.561,35.133],[135.559,35.137],[135.562,35.148],[135.562,35.157],[135.574,35.169],[135.583,35.185],[135.584,35.19],[135.591,35.195],[135.597,35.203],[135.597,35.212],[135.59,35.216],[135.599,35.225],[135.609,35.228],[135.619,35.225],[135.62,35.233],[135.63,35.236],[135.629,35.245],[135.64,35.258],[135.652,35.26],[135.655,35.263],[135.689,35.255],[135.707,35.261],[135.712,35.261],[135.718,35.265],[135.727,35.268],[135.726,35.272],[135.732,35.278],[135.729,35.284],[135.736,35.288],[135.748,35.287],[135.766,35.29],[135.772,35.288],[135.775,35.284],[135.781,35.29],[135.778,35.294],[135.777,35.305],[135.788,35.308],[135.795,35.321]]]]}},{"type":"Feature","properties":{"name":"木津川市","code":"26214"},"geometry":{"type":"MultiPolygon","coordinates":[[[[135.868,34.803],[135.849,34.8],[135.837,34.801],[135.828,34.799],[135.825,34.795],[135.813,34.792],[135.8,34.79],[135.803,34.786],[135.804,34.771],[135.808,34.761],[135.805,34.751],[135.796,34.751],[135.786,34.749],[135.776,34.744],[135.775,34.739],[135.788,34.739],[135.79,34.733],[135.778,34.728],[135.778,34.723],[135.792,34.725],[135.804,34.722],[135.806,34.718],[135.812,34.717],[135.82,34.712],[135.827,34.714],[135.839,34.712],[135.849,34.706],[135.863,34.706],[135.868,34.71],[135.876,34.714],[135.885,34.714],[135.89,34.709],[135.897,34.731],[135.903,34.733],[135.912,34.744],[135.916,34.754],[135.922,34.755],[135.917,34.754],[135.913,34.765],[135.9,34.766],[135.899,34.769],[135.903,34.773],[135.899,34.779],[135.891,34.769],[135.881,34.774],[135.876,34.783],[135.869,34.788],[135.872,34.794],[135.866,34.795],[135.868,34.803]]]]}},{"type":"Feature","properties":{"name":"乙訓郡大山崎町","code":"26303"},"geometry":{"type":"MultiPolygon","coordinates":[[[[135.707,34.908],[135.697,34.911],[135.688,34.913],[135.679,34.913],[135.67,34.909],[135.668,34.905],[135.675,34.9],[135.679,34.89],[135.683,34.888],[135.686,34.891],[135.694,34.892],[135.703,34.899],[135.707,34.908]]]]}},{"type":"Feature","properties":{"name":"久世郡久御山町","code":"26322"},"geometry":{"type":"MultiPolygon","coordinates":[[[[135.732,34.875],[135.737,34.873],[135.748,34.871],[135.749,34.868],[135.76,34.869],[135.76,34.874],[135.767,34.874],[135.766,34.886],[135.76,34.886],[135.76,34.893],[135.766,34.896],[135.765,34.902],[135.761,34.908],[135.753,34.904],[135.748,34.911],[135.74,34.905],[135.732,34.904],[135.72,34.898],[135.716,34.899],[135.72,34.893],[135.721,34.889],[135.729,34.885],[135.733,34.878],[135.732,34.875]]]]}},{"type":"Feature","properties":{"name":"綴喜郡井手町","code":"26343"},"geometry":{"type":"MultiPolygon","coordinates":[[[[135.791,34.822],[135.802,34.811],[135.802,34.806],[135.798,34.796],[135.8,34.79],[135.813,34.792],[135.825,34.795],[135.828,34.799],[135.837,34.801],[135.849,34.8],[135.868,34.803],[135.867,34.808],[135.861,34.814],[135.86,34.821],[135.852,34.826],[135.848,34.825],[135.832,34.826],[135.824,34.825],[135.814,34.825],[135.808,34.822],[135.791,34.822]]]]}},{"type":"Feature","properties":{"name":"綴喜郡宇治田原町","code":"26344"},"geometry":{"type":"MultiPolygon","coordinates":[[[[135.829,34.865],[135.833,34.858],[135.835,34.848],[135.841,34.846],[135.842,34.84],[135.848,34.836],[135.848,34.825],[135.852,34.826],[135.86,34.821],[135.861,34.814],[135.869,34.816],[135.879,34.816],[135.887,34.82],[135.89,34.826],[135.898,34.823],[135.908,34.828],[135.904,34.83],[135.912,34.834],[135.924,34.833],[135.935,34.846],[135.946,34.852],[135.941,34.864],[135.944,34.873],[135.941,34.885],[135.936,34.892],[135.924,34.885],[135.913,34.884],[135.909,34.877],[135.9,34.871],[135.889,34.875],[135.889,34.881],[135.881,34.884],[135.867,34.892],[135.863,34.891],[135.858,34.884],[135.849,34.882],[135.845,34.877],[135.843,34.871],[135.829,34.865]]]]}},{"type":"Feature","properties":{"name":"相楽郡笠置町","code":"26364"},"geometry":{"type":"MultiPolygon","coordinates":[[[[135.922,34.755],[135.929,34.753],[135.923,34.745],[135.924,34.741],[135.932,34.738],[135.941,34.739],[135.955,34.748],[135.958,34.741],[135.966,34.743],[135.97,34.741],[135.972,34.749],[135.972,34.761],[135.977,34.762],[135.977,34.774],[135.978,34.782],[135.97,34.781],[135.967,34.795],[135.96,34.794],[135.952,34.798],[135.951,34.792],[135.94,34.772],[135.928,34.775],[135.919,34.77],[135.92,34.765],[135.913,34.765],[135.917,34.754],[135.922,34.755]]]]}},{"type":"Feature","properties":{"name":"相楽郡和束町","code":"26365"},"geometry":{"type":"MultiPolygon","coordinates":[[[[135.913,34.765],[135.92,34.765],[135.919,34.77],[135.928,34.775],[135.94,34.772],[135.951,34.792],[135.952,34.798],[135.954,34.802],[135.954,34.808],[135.96,34.811],[135.968,34.809],[135.973,34.814],[135.995,34.826],[136.012,34.822],[136.019,34.822],[136.028,34.819],[136.015,34.827],[136.005,34.827],[136.002,34.833],[136.005,34.843],[136.001,34.845],[135.995,34.842],[135.978,34.838],[135.971,34.838],[135.972,34.846],[135.963,34.85],[135.957,34.855],[135.946,34.852],[135.935,34.846],[135.924,34.833],[135.912,34.834],[135.904,34.83],[135.908,34.828],[135.898,34.823],[135.89,34.826],[135.887,34.82],[135.879,34.816],[135.869,34.816],[135.861,34.814],[135.867,34.808],[135.868,34.803],[135.866,34.795],[135.872,34.794],[135.869,34.788],[135.876,34.783],[135.881,34.774],[135.891,34.769],[135.899,34.779],[135.903,34.773],[135.899,34.769],[135.9,34.766],[135.913,34.765]]]]}},{"type":"Feature","properties":{"name":"相楽郡精華町","code":"26366"},"geometry":{"type":"MultiPolygon","coordinates":[[[[135.737,34.752],[135.739,34.748],[135.746,34.747],[135.748,34.743],[135.757,34.736],[135.755,34.728],[135.761,34.726],[135.778,34.723],[135.778,34.728],[135.79,34.733],[135.788,34.739],[135.775,34.739],[135.776,34.744],[135.786,34.749],[135.796,34.751],[135.805,34.751],[135.808,34.761],[135.804,34.771],[135.803,34.786],[135.8,34.79],[135.786,34.789],[135.787,34.784],[135.782,34.78],[135.772,34.781],[135.76,34.779],[135.754,34.769],[135.756,34.764],[135.749,34.757],[135.742,34.757],[135.737,34.752]]]]}},{"type":"Feature","properties":{"name":"相楽郡南山城村","code":"26367"},"geometry":{"type":"MultiPolygon","coordinates":[[[[135.97,34.741],[135.973,34.742],[135.981,34.737],[135.986,34.726],[135.986,34.715],[136.0,34.713],[136.005,34.717],[136.013,34.714],[136.014,34.708],[136.019,34.709],[136.027,34.706],[136.029,34.714],[136.039,34.72],[136.042,34.734],[136.05,34.741],[136.048,34.744],[136.039,34.749],[136.038,34.756],[136.03,34.756],[136.029,34.765],[136.033,34.772],[136.034,34.779],[136.023,34.782],[136.02,34.786],[136.022,34.791],[136.011,34.796],[136.01,34.8],[136.015,34.809],[136.019,34.813],[136.027,34.815],[136.028,34.819],[136.019,34.822],[136.012,34.822],[135.995,34.826],[135.973,34.814],[135.968,34.809],[135.96,34.811],[135.954,34.808],[135.954,34.802],[135.952,34.798],[135.96,34.794],[135.967,34.795],[135.97,34.781],[135.978,34.782],[135.977,34.774],[135.977,34.762],[135.972,34.761],[135.97,34.751],[135.97,34.741]]]]}},{"type":"Feature","properties":{"name":"船井郡京丹波町","code":"26407"},"geometry":{"type":"MultiPolygon","coordinates":[[[[135.289,35.172],[135.292,35.161],[135.286,35.153],[135.279,35.151],[135.28,35.147],[135.288,35.143],[135.294,35.142],[135.303,35.143],[135.315,35.146],[135.324,35.147],[135.341,35.15],[135.337,35.144],[135.34,35.138],[135.343,35.136],[135.355,35.137],[135.36,35.132],[135.373,35.129],[135.382,35.13],[135.391,35.126],[135.386,35.121],[135.387,35.116],[135.393,35.111],[135.389,35.108],[135.388,35.099],[135.392,35.098],[135.4,35.105],[135.412,35.107],[135.421,35.105],[135.428,35.114],[135.426,35.119],[135.437,35.12],[135.441,35.125],[135.446,35.127],[135.443,35.133],[135.448,35.133],[135.448,35.138],[135.455,35.146],[135.451,35.154],[135.458,35.156],[135.46,35.166],[135.465,35.168],[135.461,35.176],[135.462,35.185],[135.455,35.187],[135.452,35.191],[135.446,35.193],[135.448,35.201],[135.452,35.205],[135.454,35.212],[135.457,35.216],[135.456,35.224],[135.452,35.23],[135.454,35.245],[135.465,35.249],[135.462,35.256],[135.456,35.261],[135.457,35.267],[135.461,35.284],[135.473,35.29],[135.478,35.297],[135.474,35.303],[135.48,35.313],[135.502,35.324],[135.497,35.333],[135.498,35.342],[135.486,35.346],[135.475,35.344],[135.468,35.346],[135.457,35.346],[135.429,35.342],[135.423,35.337],[135.417,35.335],[135.412,35.327],[135.401,35.325],[135.393,35.318],[135.385,35.315],[135.379,35.303],[135.37,35.297],[135.367,35.292],[135.359,35.292],[135.351,35.289],[135.345,35.282],[135.339,35.28],[135.332,35.271],[135.319,35.274],[135.322,35.264],[135.325,35.26],[135.323,35.255],[135.31,35.248],[135.303,35.243],[135.299,35.235],[135.289,35.235],[135.299,35.22],[135.293,35.219],[135.297,35.212],[135.294,35.198],[135.287,35.2],[135.284,35.19],[135.287,35.174]]]]}},{"type":"Feature","properties":{"name":"与謝郡伊根町","code":"26463"},"geometry":{"type":"MultiPolygon","coordinates":[[[[135.274,35.667],[135.283,35.671],[135.288,35.676],[135.294,35.671],[135.292,35.664],[135.293,35.66],[135.303,35.663],[135.299,35.674],[135.299,35.679],[135.304,35.687],[135.304,35.692],[135.309,35.694],[135.307,35.699],[135.299,35.701],[135.295,35.705],[135.287,35.708],[135.286,35.711],[135.29,35.719],[135.289,35.724],[135.284,35.728],[135.273,35.732],[135.274,35.74],[135.267,35.745],[135.257,35.744],[135.253,35.75],[135.25,35.759],[135.244,35.76],[135.233,35.769],[135.232,35.765],[135.224,35.755],[135.22,35.746],[135.208,35.741],[135.207,35.736],[135.197,35.732],[135.199,35.725],[135.193,35.718],[135.193,35.712],[135.189,35.709],[135.195,35.696],[135.199,35.697],[135.207,35.694],[135.214,35.693],[135.213,35.689],[135.221,35.687],[135.227,35.689],[135.239,35.685],[135.245,35.689],[135.252,35.689],[135.264,35.692],[135.267,35.695],[135.277,35.69],[135.276,35.683],[135.269,35.679],[135.268,35.674],[135.274,35.667]]]]}},{"type":"Feature","properties":{"name":"与謝郡与謝野町","code":"26465"},"geometry":{"type":"MultiPolygon","coordinates":[[[[135.125,35.47],[135.123,35.475],[135.137,35.482],[135.138,35.49],[135.145,35.497],[135.151,35.501],[135.151,35.51],[135.162,35.512],[135.167,35.519],[135.165,35.526],[135.166,35.531],[135.155,35.53],[135.149,35.536],[135.144,35.544],[135.14,35.544],[135.139,35.552],[135.148,35.559],[135.158,35.555],[135.163,35.563],[135.172,35.567],[135.177,35.568],[135.176,35.574],[135.171,35.578],[135.177,35.593],[135.18,35.598],[135.181,35.606],[135.169,35.606],[135.162,35.595],[135.156,35.586],[135.146,35.584],[135.141,35.574],[135.137,35.573],[135.131,35.558],[135.128,35.557],[135.118,35.547],[135.115,35.549],[135.094,35.549],[135.074,35.537],[135.069,35.537],[135.061,35.533],[135.054,35.532],[135.047,35.533],[135.037,35.537],[135.036,35.531],[135.039,35.528],[135.043,35.52],[135.043,35.511],[135.041,35.504],[135.032,35.498],[135.042,35.494],[135.04,35.482],[135.035,35.477],[135.041,35.473],[135.044,35.466],[135.045,35.455],[135.05,35.451],[135.059,35.452],[135.061,35.449],[135.07,35.445],[135.08,35.444],[135.094,35.444],[135.107,35.451],[135.106,35.458],[135.11,35.464],[135.125,35.47]]]]}}]}