{"type":"FeatureCollection","features":[{"type":"Feature","properties":{"name":"大阪市都島区","code":"27102"},"geometry":{"type":"MultiPolygon","coordinates":[[[[135.515,34.721],[135.522,34.714],[135.518,34.707],[135.523,34.698],[135.52,34.692],[135.535,34.695],[135.536,34.708],[135.541,34.711],[135.526,34.733],[135.518,34.729],[135.515,34.721]]]]}},{"type":"Feature","properties":{"name":"大阪市福島区","code":"27103"},"geometry":{"type":"MultiPolygon","coordinates":[[[[135.463,34.688],[135.472,34.681],[135.481,34.685],[135.491,34.694],[135.474,34.707],[135.462,34.7],[135.463,34.688]]]]}},{"type":"Feature","properties":{"name":"大阪市此花区","code":"27104"},"geometry":{"type":"MultiPolygon","coordinates":[[[[135.349,34.62],[135.359,34.628],[135.353,34.632],[135.344,34.623],[135.349,34.62]]],[[[135.38,34.661],[135.373,34.652],[135.379,34.643],[135.393,34.642],[135.405,34.654],[135.4,34.657],[135.38,34.661]]],[[[135.403,34.673],[135.388,34.668],[135.388,34.663],[135.41,34.659],[135.409,34.669],[135.403,34.673]]],[[[135.462,34.7],[135.439,34.689],[135.422,34.683],[135.417,34.673],[135.418,34.66],[135.426,34.656],[135.441,34.663],[135.449,34.673],[135.462,34.677],[135.472,34.681],[135.463,34.688],[135.462,34.7]]]]}},{"type":"Feature","properties":{"name":"大阪市西区","code":"27106"},"geometry":{"type":"MultiPolygon","coordinates":[[[[135.472,34.681],[135.462,34.677],[135.474,34.667],[135.481,34.668],[135.497,34.669],[135.497,34.693],[135.481,34.685],[135.472,34.681]]]]}},{"type":"Feature","properties":{"name":"大阪市港区","code":"27107"},"geometry":{"type":"MultiPolygon","coordinates":[[[[135.426,34.656],[135.428,34.651],[135.444,34.644],[135.45,34.646],[135.456,34.648],[135.464,34.659],[135.474,34.667],[135.462,34.677],[135.449,34.673],[135.441,34.663],[135.426,34.656]]]]}},{"type":"Feature","properties":{"name":"大阪市大正区","code":"27108"},"geometry":{"type":"MultiPolygon","coordinates":[[[[135.474,34.667],[135.464,34.659],[135.456,34.648],[135.45,34.646],[135.449,34.626],[135.454,34.625],[135.474,34.629],[135.479,34.64],[135.481,34.655],[135.481,34.668],[135.474,34.667]]]]}},{"type":"Feature","properties":{"name":"大阪市天王寺区","code":"27109"},"geometry":{"type":"MultiPolygon","coordinates":[[[[135.534,34.675],[135.522,34.676],[135.519,34.666],[135.511,34.662],[135.507,34.648],[135.518,34.645],[135.525,34.648],[135.531,34.665],[135.534,34.675]]]]}},{"type":"Feature","properties":{"name":"大阪市浪速区","code":"27111"},"geometry":{"type":"MultiPolygon","coordinates":[[[[135.481,34.668],[135.481,34.655],[135.485,34.656],[135.507,34.648],[135.511,34.662],[135.501,34.663],[135.497,34.669],[135.481,34.668]]]]}},{"type":"Feature","properties":{"name":"大阪市西淀川区","code":"27113"},"geometry":{"type":"MultiPolygon","coordinates":[[[[135.474,34.707],[135.454,34.727],[135.446,34.729],[135.446,34.718],[135.43,34.711],[135.425,34.706],[135.407,34.697],[135.422,34.683],[135.439,34.689],[135.462,34.7],[135.474,34.707]]]]}},{"type":"Feature","properties":{"name":"大阪市東淀川区","code":"27114"},"geometry":{"type":"MultiPolygon","coordinates":[[[[135.526,34.733],[135.537,34.733],[135.552,34.737],[135.556,34.746],[135.561,34.754],[135.551,34.757],[135.549,34.768],[135.532,34.759],[135.532,34.752],[135.525,34.748],[135.516,34.75],[135.507,34.745],[135.502,34.731],[135.504,34.719],[135.515,34.721],[135.518,34.729],[135.526,34.733]]]]}},{"type":"Feature","properties":{"name":"大阪市東成区","code":"27115"},"geometry":{"type":"MultiPolygon","coordinates":[[[[135.531,34.665],[135.557,34.664],[135.562,34.668],[135.563,34.678],[135.554,34.681],[135.534,34.682],[135.534,34.675],[135.531,34.665]]]]}},{"type":"Feature","properties":{"name":"大阪市生野区","code":"27116"},"geometry":{"type":"MultiPolygon","coordinates":[[[[135.525,34.648],[135.529,34.644],[135.548,34.636],[135.561,34.644],[135.557,34.664],[135.531,34.665],[135.525,34.648]]]]}},{"type":"Feature","properties":{"name":"大阪市旭区","code":"27117"},"geometry":{"type":"MultiPolygon","coordinates":[[[[135.541,34.711],[135.547,34.715],[135.56,34.715],[135.568,34.718],[135.553,34.733],[135.56,34.737],[135.556,34.746],[135.552,34.737],[135.537,34.733],[135.526,34.733],[135.541,34.711]]]]}},{"type":"Feature","properties":{"name":"大阪市城東区","code":"27118"},"geometry":{"type":"MultiPolygon","coordinates":[[[[135.535,34.695],[135.534,34.682],[135.554,34.681],[135.563,34.678],[135.566,34.688],[135.559,34.688],[135.56,34.715],[135.547,34.715],[135.541,34.711],[135.536,34.708],[135.535,34.695]]]]}},{"type":"Feature","properties":{"name":"大阪市阿倍野区","code":"27119"},"geometry":{"type":"MultiPolygon","coordinates":[[[[135.508,34.648],[135.496,34.624],[135.509,34.622],[135.516,34.616],[135.529,34.644],[135.525,34.648],[135.518,34.645],[135.508,34.648]]]]}},{"type":"Feature","properties":{"name":"大阪市住吉区","code":"27120"},"geometry":{"type":"MultiPolygon","coordinates":[[[[135.496,34.624],[135.493,34.623],[135.487,34.596],[135.495,34.594],[135.503,34.586],[135.522,34.594],[135.524,34.609],[135.516,34.616],[135.509,34.622],[135.496,34.624]]]]}},{"type":"Feature","properties":{"name":"大阪市東住吉区","code":"27121"},"geometry":{"type":"MultiPolygon","coordinates":[[[[135.529,34.644],[135.516,34.616],[135.524,34.609],[135.523,34.595],[135.543,34.599],[135.541,34.609],[135.541,34.625],[135.548,34.636],[135.529,34.644]]]]}},{"type":"Feature","properties":{"name":"大阪市西成区","code":"27122"},"geometry":{"type":"MultiPolygon","coordinates":[[[[135.474,34.629],[135.482,34.622],[135.493,34.623],[135.496,34.624],[135.508,34.648],[135.485,34.656],[135.481,34.655],[135.479,34.64],[135.474,34.629]]]]}},{"type":"Feature","properties":{"name":"大阪市淀川区","code":"27123"},"geometry":{"type":"MultiPolygon","coordinates":[[[[135.474,34.707],[135.493,34.718],[135.504,34.719],[135.502,34.731],[135.507,34.745],[135.495,34.751],[135.488,34.75],[135.481,34.738],[135.467,34.731],[135.46,34.733],[135.449,34.734],[135.446,34.729],[135.454,34.727],[135.474,34.707]]]]}},{"type":"Feature","properties":{"name":"大阪市鶴見区","code":"27124"},"geometry":{"type":"MultiPolygon","coordinates":[[[[135.56,34.715],[135.559,34.688],[135.566,34.688],[135.58,34.69],[135.585,34.699],[135.595,34.703],[135.599,34.715],[135.59,34.714],[135.584,34.722],[135.583,34.717],[135.568,34.718],[135.56,34.715]]]]}},{"type":"Feature","properties":{"name":"大阪市住之江区","code":"27125"},"geometry":{"type":"MultiPolygon","coordinates":[[[[135.39,34.628],[135.399,34.621],[135.403,34.612],[135.42,34.613],[135.418,34.62],[135.4,34.621],[135.39,34.628]]],[[[135.449,34.626],[135.431,34.622],[135.438,34.608],[135.447,34.608],[135.487,34.596],[135.493,34.623],[135.482,34.622],[135.474,34.629],[135.454,34.625],[135.449,34.626]]],[[[135.417,34.645],[135.399,34.638],[135.41,34.626],[135.422,34.622],[135.442,34.629],[135.439,34.641],[135.432,34.644],[135.417,34.645]]]]}},{"type":"Feature","properties":{"name":"大阪市平野区","code":"27126"},"geometry":{"type":"MultiPolygon","coordinates":[[[[135.548,34.636],[135.541,34.625],[135.541,34.609],[135.543,34.599],[135.544,34.595],[135.567,34.596],[135.577,34.593],[135.587,34.609],[135.575,34.618],[135.575,34.632],[135.561,34.644],[135.548,34.636]]]]}},{"type":"Feature","properties":{"name":"大阪市北区","code":"27127"},"geometry":{"type":"MultiPolygon","coordinates":[[[[135.515,34.721],[135.504,34.719],[135.493,34.718],[135.474,34.707],[135.491,34.694],[135.481,34.685],[135.497,34.693],[135.52,34.692],[135.523,34.698],[135.518,34.707],[135.522,34.714],[135.515,34.721]]]]}},{"type":"Feature","properties":{"name":"大阪市中央区","code":"27128"},"geometry":{"type":"MultiPolygon","coordinates":[[[[135.52,34.692],[135.497,34.693],[135.497,34.669],[135.501,34.663],[135.511,34.662],[135.519,34.666],[135.522,34.676],[135.534,34.675],[135.534,34.682],[135.535,34.695],[135.52,34.692]]]]}},{"type":"Feature","properties":{"name":"堺市堺区","code":"27141"},"geometry":{"type":"MultiPolygon","coordinates":[[[[135.487,34.596],[135.447,34.608],[135.438,34.608],[135.447,34.602],[135.444,34.598],[135.424,34.605],[135.426,34.593],[135.449,34.587],[135.453,34.566],[135.464,34.56],[135.467,34.552],[135.482,34.552],[135.488,34.557],[135.503,34.586],[135.495,34.594],[135.487,34.596]]]]}},{"type":"Feature","properties":{"name":"堺市中区","code":"27142"},"geometry":{"type":"MultiPolygon","coordinates":[[[[135.509,34.548],[135.49,34.542],[135.483,34.541],[135.471,34.523],[135.486,34.513],[135.503,34.506],[135.536,34.503],[135.534,34.508],[135.533,34.515],[135.527,34.525],[135.509,34.548]]]]}},{"type":"Feature","properties":{"name":"堺市東区","code":"27143"},"geometry":{"type":"MultiPolygon","coordinates":[[[[135.533,34.515],[135.541,34.511],[135.546,34.518],[135.553,34.518],[135.555,34.528],[135.542,34.531],[135.54,34.55],[135.547,34.559],[135.535,34.558],[135.529,34.553],[135.508,34.548],[135.527,34.525],[135.533,34.515]]]]}},{"type":"Feature","properties":{"name":"堺市西区","code":"27144"},"geometry":{"type":"MultiPolygon","coordinates":[[[[135.436,34.543],[135.441,34.554],[135.431,34.554],[135.426,34.547],[135.436,34.543]]],[[[135.453,34.566],[135.445,34.567],[135.442,34.583],[135.426,34.59],[135.429,34.571],[135.421,34.57],[135.416,34.594],[135.402,34.6],[135.411,34.561],[135.43,34.561],[135.445,34.557],[135.438,34.541],[135.446,34.537],[135.448,34.529],[135.46,34.52],[135.455,34.515],[135.461,34.512],[135.465,34.5],[135.481,34.503],[135.486,34.513],[135.471,34.523],[135.483,34.541],[135.49,34.542],[135.482,34.552],[135.467,34.552],[135.464,34.56],[135.453,34.566]]]]}},{"type":"Feature","properties":{"name":"堺市南区","code":"27145"},"geometry":{"type":"MultiPolygon","coordinates":[[[[135.486,34.513],[135.481,34.503],[135.465,34.5],[135.466,34.483],[135.478,34.471],[135.479,34.465],[135.49,34.46],[135.497,34.452],[135.501,34.434],[135.52,34.431],[135.522,34.44],[135.534,34.449],[135.545,34.462],[135.542,34.467],[135.535,34.48],[135.535,34.493],[135.54,34.501],[135.534,34.508],[135.536,34.503],[135.503,34.506],[135.486,34.513]]]]}},{"type":"Feature","properties":{"name":"堺市北区","code":"27146"},"geometry":{"type":"MultiPolygon","coordinates":[[[[135.503,34.586],[135.488,34.557],[135.482,34.552],[135.49,34.542],[135.508,34.548],[135.529,34.553],[135.535,34.558],[135.547,34.559],[135.548,34.566],[135.537,34.566],[135.532,34.577],[135.522,34.577],[135.522,34.594],[135.503,34.586]]]]}},{"type":"Feature","properties":{"name":"堺市美原区","code":"27147"},"geometry":{"type":"MultiPolygon","coordinates":[[[[135.555,34.528],[135.563,34.525],[135.567,34.514],[135.582,34.511],[135.582,34.519],[135.587,34.532],[135.573,34.548],[135.567,34.56],[135.553,34.554],[135.549,34.56],[135.54,34.55],[135.542,34.531],[135.555,34.528]]]]}},{"type":"Feature","properties":{"name":"岸和田市","code":"27202"},"geometry":{"type":"MultiPolygon","coordinates":[[[[135.355,34.489],[135.349,34.468],[135.36,34.474],[135.353,34.48],[135.355,34.489]]],[[[135.415,34.474],[135.395,34.489],[135.371,34.5],[135.37,34.49],[135.377,34.487],[135.374,34.476],[135.364,34.478],[135.359,34.46],[135.37,34.451],[135.381,34.445],[135.378,34.438],[135.385,34.421],[135.392,34.42],[135.405,34.405],[135.411,34.388],[135.417,34.379],[135.426,34.376],[135.434,34.348],[135.453,34.35],[135.454,34.359],[135.462,34.382],[135.45,34.391],[135.454,34.4],[135.449,34.432],[135.442,34.442],[135.44,34.462],[135.43,34.47],[135.424,34.466],[135.415,34.474]]]]}},{"type":"Feature","properties":{"name":"豊中市","code":"27203"},"geometry":{"type":"MultiPolygon","coordinates":[[[[135.488,34.75],[135.488,34.767],[135.5,34.777],[135.492,34.781],[135.496,34.796],[135.505,34.8],[135.508,34.811],[135.498,34.825],[135.493,34.817],[135.476,34.821],[135.453,34.807],[135.448,34.808],[135.441,34.792],[135.446,34.775],[135.445,34.769],[135.459,34.752],[135.46,34.733],[135.467,34.731],[135.481,34.738],[135.488,34.75]]]]}},{"type":"Feature","properties":{"name":"池田市","code":"27204"},"geometry":{"type":"MultiPolygon","coordinates":[[[[135.449,34.811],[135.454,34.843],[135.459,34.846],[135.459,34.861],[135.437,34.877],[135.43,34.861],[135.431,34.856],[135.419,34.849],[135.424,34.838],[135.424,34.83],[135.416,34.818],[135.424,34.802],[135.429,34.802],[135.441,34.792],[135.448,34.808]]]]}},{"type":"Feature","properties":{"name":"吹田市","code":"27205"},"geometry":{"type":"MultiPolygon","coordinates":[[[[135.549,34.768],[135.537,34.787],[135.552,34.794],[135.553,34.809],[135.53,34.816],[135.524,34.826],[135.512,34.827],[135.506,34.831],[135.498,34.825],[135.508,34.811],[135.505,34.8],[135.496,34.796],[135.492,34.781],[135.5,34.777],[135.488,34.767],[135.488,34.75],[135.495,34.751],[135.507,34.745],[135.516,34.75],[135.525,34.748],[135.532,34.752],[135.532,34.759],[135.549,34.768]]]]}},{"type":"Feature","properties":{"name":"泉大津市","code":"27206"},"geometry":{"type":"MultiPolygon","coordinates":[[[[135.401,34.527],[135.394,34.531],[135.388,34.524],[135.395,34.517],[135.401,34.527]]],[[[135.419,34.519],[135.41,34.523],[135.406,34.517],[135.388,34.514],[135.378,34.532],[135.367,34.517],[135.378,34.508],[135.39,34.499],[135.402,34.495],[135.411,34.482],[135.415,34.482],[135.421,34.49],[135.429,34.494],[135.424,34.501],[135.434,34.509],[135.433,34.514],[135.427,34.513],[135.419,34.519]]]]}},{"type":"Feature","properties":{"name":"高槻市","code":"27207"},"geometry":{"type":"MultiPolygon","coordinates":[[[[135.628,34.934],[135.615,34.928],[135.601,34.93],[135.611,34.94],[135.619,34.959],[135.613,34.971],[135.603,34.971],[135.589,34.967],[135.585,34.975],[135.571,34.97],[135.571,34.964],[135.579,34.956],[135.563,34.954],[135.562,34.938],[135.581,34.937],[135.581,34.922],[135.573,34.917],[135.574,34.905],[135.566,34.901],[135.571,34.881],[135.563,34.872],[135.569,34.869],[135.567,34.857],[135.572,34.849],[135.582,34.847],[135.587,34.824],[135.606,34.817],[135.598,34.812],[135.598,34.799],[135.598,34.786],[135.602,34.781],[135.614,34.792],[135.62,34.806],[135.64,34.816],[135.646,34.83],[135.647,34.842],[135.652,34.849],[135.665,34.855],[135.673,34.87],[135.645,34.882],[135.641,34.89],[135.635,34.892],[135.63,34.907],[135.628,34.934]]]]}},{"type":"Feature","properties":{"name":"貝塚市","code":"27208"},"geometry":{"type":"MultiPolygon","coordinates":[[[[135.359,34.46],[135.353,34.451],[135.337,34.446],[135.329,34.434],[135.337,34.432],[135.357,34.418],[135.377,34.403],[135.38,34.392],[135.387,34.385],[135.383,34.369],[135.388,34.355],[135.392,34.347],[135.408,34.347],[135.409,34.342],[135.425,34.34],[135.434,34.348],[135.426,34.376],[135.417,34.379],[135.411,34.388],[135.405,34.405],[135.392,34.42],[135.385,34.421],[135.378,34.438],[135.381,34.445],[135.37,34.451],[135.359,34.46]]],[[[135.339,34.469],[135.328,34.45],[135.333,34.445],[135.342,34.451],[135.347,34.459],[135.339,34.469]]]]}},{"type":"Feature","properties":{"name":"守口市","code":"27209"},"geometry":{"type":"MultiPolygon","coordinates":[[[[135.556,34.746],[135.56,34.737],[135.553,34.733],[135.568,34.718],[135.583,34.717],[135.584,34.722],[135.582,34.729],[135.572,34.738],[135.581,34.748],[135.599,34.745],[135.606,34.75],[135.587,34.768],[135.573,34.758],[135.561,34.754],[135.556,34.746]]]]}},{"type":"Feature","properties":{"name":"枚方市","code":"27210"},"geometry":{"type":"MultiPolygon","coordinates":[[[[135.614,34.792],[135.63,34.79],[135.632,34.785],[135.649,34.783],[135.653,34.773],[135.66,34.775],[135.672,34.779],[135.666,34.797],[135.679,34.802],[135.709,34.798],[135.717,34.789],[135.712,34.781],[135.72,34.775],[135.728,34.777],[135.741,34.788],[135.747,34.801],[135.732,34.823],[135.724,34.823],[135.71,34.847],[135.702,34.852],[135.692,34.853],[135.691,34.868],[135.683,34.872],[135.68,34.881],[135.673,34.87],[135.665,34.855],[135.652,34.849],[135.647,34.842],[135.646,34.83],[135.64,34.816],[135.62,34.806],[135.614,34.792]]]]}},{"type":"Feature","properties":{"name":"茨木市","code":"27211"},"geometry":{"type":"MultiPolygon","coordinates":[[[[135.552,34.794],[135.562,34.791],[135.568,34.786],[135.578,34.784],[135.598,34.799],[135.598,34.812],[135.606,34.817],[135.587,34.824],[135.582,34.847],[135.572,34.849],[135.567,34.857],[135.569,34.869],[135.563,34.872],[135.571,34.881],[135.566,34.901],[135.574,34.905],[135.573,34.917],[135.553,34.916],[135.536,34.921],[135.525,34.929],[135.525,34.92],[135.517,34.911],[135.511,34.9],[135.503,34.896],[135.496,34.881],[135.5,34.878],[135.503,34.87],[135.512,34.874],[135.514,34.86],[135.523,34.852],[135.526,34.831],[135.524,34.826],[135.53,34.816],[135.553,34.809],[135.552,34.794]]]]}},{"type":"Feature","properties":{"name":"八尾市","code":"27212"},"geometry":{"type":"MultiPolygon","coordinates":[[[[135.577,34.593],[135.585,34.588],[135.601,34.583],[135.608,34.589],[135.619,34.593],[135.625,34.6],[135.641,34.6],[135.652,34.607],[135.657,34.612],[135.663,34.63],[135.664,34.643],[135.625,34.645],[135.626,34.65],[135.594,34.651],[135.596,34.642],[135.585,34.639],[135.589,34.632],[135.575,34.632],[135.575,34.618],[135.587,34.609],[135.577,34.593]]]]}},{"type":"Feature","properties":{"name":"泉佐野市","code":"27213"},"geometry":{"type":"MultiPolygon","coordinates":[[[[135.388,34.355],[135.381,34.356],[135.379,34.364],[135.37,34.364],[135.356,34.373],[135.343,34.387],[135.335,34.399],[135.339,34.405],[135.353,34.407],[135.357,34.418],[135.337,34.432],[135.329,34.434],[135.325,34.437],[135.314,34.427],[135.31,34.417],[135.293,34.414],[135.289,34.404],[135.3,34.39],[135.29,34.383],[135.306,34.382],[135.319,34.37],[135.324,34.361],[135.322,34.355],[135.329,34.342],[135.339,34.341],[135.339,34.335],[135.346,34.331],[135.359,34.333],[135.362,34.329],[135.374,34.331],[135.38,34.328],[135.405,34.334],[135.409,34.342],[135.408,34.347],[135.392,34.347],[135.388,34.355]]],[[[135.252,34.43],[135.265,34.438],[135.252,34.444],[135.242,34.437],[135.252,34.43]]],[[[135.24,34.439],[135.252,34.447],[135.242,34.455],[135.229,34.446],[135.24,34.439]]]]}},{"type":"Feature","properties":{"name":"富田林市","code":"27214"},"geometry":{"type":"MultiPolygon","coordinates":[[[[135.567,34.514],[135.56,34.512],[135.558,34.49],[135.56,34.479],[135.577,34.475],[135.583,34.468],[135.578,34.455],[135.594,34.442],[135.603,34.439],[135.616,34.452],[135.617,34.474],[135.613,34.49],[135.628,34.49],[135.628,34.498],[135.618,34.507],[135.62,34.515],[135.627,34.525],[135.612,34.526],[135.587,34.532],[135.582,34.519],[135.582,34.511],[135.567,34.514]]]]}},{"type":"Feature","properties":{"name":"寝屋川市","code":"27215"},"geometry":{"type":"MultiPolygon","coordinates":[[[[135.602,34.781],[135.587,34.768],[135.606,34.75],[135.619,34.744],[135.623,34.736],[135.621,34.729],[135.632,34.732],[135.625,34.734],[135.631,34.75],[135.66,34.75],[135.658,34.758],[135.662,34.767],[135.66,34.775],[135.653,34.773],[135.649,34.783],[135.632,34.785],[135.63,34.79],[135.614,34.792],[135.602,34.781]]]]}},{"type":"Feature","properties":{"name":"河内長野市","code":"27216"},"geometry":{"type":"MultiPolygon","coordinates":[[[[135.52,34.431],[135.527,34.425],[135.525,34.408],[135.52,34.399],[135.52,34.388],[135.512,34.382],[135.491,34.373],[135.485,34.363],[135.489,34.356],[135.502,34.35],[135.505,34.341],[135.512,34.338],[135.527,34.351],[135.541,34.358],[135.554,34.359],[135.563,34.369],[135.577,34.376],[135.595,34.375],[135.596,34.379],[135.613,34.377],[135.62,34.384],[135.632,34.383],[135.655,34.384],[135.663,34.397],[135.652,34.401],[135.64,34.418],[135.626,34.422],[135.616,34.431],[135.61,34.43],[135.603,34.439],[135.594,34.442],[135.578,34.455],[135.583,34.468],[135.577,34.475],[135.56,34.479],[135.553,34.472],[135.542,34.467],[135.545,34.462],[135.534,34.449],[135.522,34.44],[135.52,34.431]]]]}},{"type":"Feature","properties":{"name":"松原市","code":"27217"},"geometry":{"type":"MultiPolygon","coordinates":[[[[135.522,34.594],[135.522,34.577],[135.532,34.577],[135.537,34.566],[135.548,34.566],[135.549,34.56],[135.553,34.554],[135.567,34.56],[135.57,34.565],[135.567,34.577],[135.581,34.582],[135.585,34.588],[135.577,34.593],[135.567,34.596],[135.544,34.595],[135.543,34.599],[135.523,34.595]]]]}},{"type":"Feature","properties":{"name":"大東市","code":"27218"},"geometry":{"type":"MultiPolygon","coordinates":[[[[135.595,34.703],[135.608,34.698],[135.618,34.701],[135.653,34.703],[135.663,34.699],[135.673,34.7],[135.672,34.716],[135.657,34.722],[135.657,34.728],[135.647,34.732],[135.632,34.732],[135.621,34.729],[135.624,34.722],[135.614,34.72],[135.599,34.715],[135.595,34.703]]]]}},{"type":"Feature","properties":{"name":"和泉市","code":"27219"},"geometry":{"type":"MultiPolygon","coordinates":[[[[135.455,34.515],[135.448,34.511],[135.433,34.514],[135.434,34.509],[135.424,34.501],[135.429,34.494],[135.421,34.49],[135.415,34.482],[135.415,34.474],[135.424,34.466],[135.43,34.47],[135.44,34.462],[135.442,34.442],[135.449,34.432],[135.454,34.4],[135.45,34.391],[135.462,34.382],[135.454,34.359],[135.453,34.35],[135.458,34.347],[135.478,34.354],[135.485,34.363],[135.491,34.373],[135.512,34.382],[135.52,34.388],[135.52,34.399],[135.525,34.408],[135.527,34.425],[135.52,34.431],[135.501,34.434],[135.497,34.452],[135.49,34.46],[135.479,34.465],[135.478,34.471],[135.466,34.483],[135.465,34.5],[135.461,34.512],[135.455,34.515]]]]}},{"type":"Feature","properties":{"name":"箕面市","code":"27220"},"geometry":{"type":"MultiPolygon","coordinates":[[[[135.448,34.808],[135.453,34.807],[135.476,34.821],[135.493,34.817],[135.498,34.825],[135.506,34.831],[135.512,34.827],[135.524,34.826],[135.526,34.831],[135.523,34.852],[135.514,34.86],[135.512,34.874],[135.503,34.87],[135.5,34.878],[135.494,34.879],[135.482,34.875],[135.478,34.89],[135.486,34.896],[135.476,34.904],[135.473,34.91],[135.453,34.895],[135.445,34.895],[135.441,34.89],[135.437,34.877],[135.459,34.861],[135.459,34.846],[135.454,34.843],[135.449,34.811]]]]}},{"type":"Feature","properties":{"name":"柏原市","code":"27221"},"geometry":{"type":"MultiPolygon","coordinates":[[[[135.608,34.589],[135.628,34.578],[135.622,34.564],[135.622,34.554],[135.653,34.547],[135.658,34.561],[135.673,34.572],[135.671,34.576],[135.682,34.585],[135.675,34.602],[135.661,34.602],[135.652,34.607],[135.641,34.6],[135.625,34.6],[135.619,34.593],[135.608,34.589]]]]}},{"type":"Feature","properties":{"name":"羽曳野市","code":"27222"},"geometry":{"type":"MultiPolygon","coordinates":[[[[135.587,34.532],[135.612,34.526],[135.627,34.525],[135.65,34.533],[135.66,34.541],[135.653,34.547],[135.622,34.554],[135.622,34.564],[135.611,34.566],[135.601,34.554],[135.587,34.571],[135.581,34.582],[135.567,34.577],[135.57,34.565],[135.567,34.56],[135.573,34.548],[135.587,34.532]]]]}},{"type":"Feature","properties":{"name":"門真市","code":"27223"},"geometry":{"type":"MultiPolygon","coordinates":[[[[135.599,34.715],[135.614,34.72],[135.624,34.722],[135.621,34.729],[135.623,34.736],[135.619,34.744],[135.606,34.75],[135.599,34.745],[135.581,34.748],[135.572,34.738],[135.582,34.729],[135.584,34.722],[135.59,34.714],[135.599,34.715]]]]}},{"type":"Feature","properties":{"name":"摂津市","code":"27224"},"geometry":{"type":"MultiPolygon","coordinates":[[[[135.561,34.754],[135.573,34.758],[135.587,34.768],[135.602,34.781],[135.598,34.786],[135.598,34.799],[135.578,34.784],[135.568,34.786],[135.562,34.791],[135.552,34.794],[135.537,34.787],[135.549,34.768],[135.551,34.757],[135.561,34.754]]]]}},{"type":"Feature","properties":{"name":"高石市","code":"27225"},"geometry":{"type":"MultiPolygon","coordinates":[[[[135.438,34.541],[135.432,34.532],[135.419,34.519],[135.427,34.513],[135.433,34.514],[135.448,34.511],[135.455,34.515],[135.46,34.52],[135.448,34.529],[135.446,34.537],[135.438,34.541]]],[[[135.405,34.547],[135.399,34.536],[135.405,34.53],[135.418,34.524],[135.431,34.534],[135.436,34.543],[135.426,34.547],[135.42,34.538],[135.412,34.544],[135.405,34.547]]]]}},{"type":"Feature","properties":{"name":"藤井寺市","code":"27226"},"geometry":{"type":"MultiPolygon","coordinates":[[[[135.585,34.588],[135.581,34.582],[135.587,34.571],[135.601,34.554],[135.611,34.566],[135.622,34.564],[135.628,34.578],[135.608,34.589],[135.601,34.583],[135.585,34.588]]]]}},{"type":"Feature","properties":{"name":"東大阪市","code":"27227"},"geometry":{"type":"MultiPolygon","coordinates":[[[[135.557,34.664],[135.561,34.644],[135.575,34.632],[135.589,34.632],[135.585,34.639],[135.596,34.642],[135.594,34.651],[135.626,34.65],[135.625,34.645],[135.664,34.643],[135.664,34.65],[135.671,34.661],[135.671,34.667],[135.679,34.678],[135.673,34.69],[135.673,34.7],[135.663,34.699],[135.653,34.703],[135.618,34.701],[135.608,34.698],[135.595,34.703],[135.585,34.699],[135.58,34.69],[135.566,34.688],[135.563,34.678],[135.562,34.668],[135.557,34.664]]]]}},{"type":"Feature","properties":{"name":"泉南市","code":"27228"},"geometry":{"type":"MultiPolygon","coordinates":[[[[135.29,34.383],[135.285,34.384],[135.28,34.395],[135.264,34.381],[135.251,34.377],[135.25,34.364],[135.26,34.357],[135.27,34.337],[135.283,34.318],[135.292,34.3],[135.303,34.305],[135.304,34.314],[135.313,34.314],[135.324,34.319],[135.339,34.329],[135.339,34.335],[135.339,34.341],[135.329,34.342],[135.322,34.355],[135.324,34.361],[135.319,34.37],[135.306,34.382],[135.29,34.383]]],[[[135.24,34.423],[135.23,34.43],[135.219,34.422],[135.228,34.413],[135.24,34.423]]],[[[135.229,34.431],[135.218,34.438],[135.201,34.428],[135.206,34.423],[135.222,34.433],[135.229,34.431]]]]}},{"type":"Feature","properties":{"name":"四條畷市","code":"27229"},"geometry":{"type":"MultiPolygon","coordinates":[[[[135.632,34.732],[135.647,34.732],[135.657,34.728],[135.657,34.722],[135.672,34.716],[135.673,34.702],[135.683,34.711],[135.702,34.722],[135.703,34.725],[135.697,34.744],[135.685,34.742],[135.666,34.746],[135.66,34.75],[135.631,34.75],[135.625,34.734],[135.632,34.732]]]]}},{"type":"Feature","properties":{"name":"交野市","code":"27230"},"geometry":{"type":"MultiPolygon","coordinates":[[[[135.66,34.775],[135.662,34.767],[135.658,34.758],[135.66,34.75],[135.666,34.746],[135.685,34.742],[135.697,34.744],[135.707,34.749],[135.71,34.756],[135.707,34.772],[135.712,34.781],[135.717,34.789],[135.709,34.798],[135.679,34.802],[135.666,34.797],[135.672,34.779],[135.66,34.775]]]]}},{"type":"Feature","properties":{"name":"大阪狭山市","code":"27231"},"geometry":{"type":"MultiPolygon","coordinates":[[[[135.534,34.508],[135.54,34.501],[135.535,34.493],[135.535,34.48],[135.542,34.467],[135.553,34.472],[135.56,34.479],[135.558,34.49],[135.56,34.512],[135.567,34.514],[135.563,34.525],[135.555,34.528],[135.553,34.518],[135.546,34.518],[135.541,34.511],[135.533,34.515],[135.534,34.508]]]]}},{"type":"Feature","properties":{"name":"阪南市","code":"27232"},"geometry":{"type":"MultiPolygon","coordinates":[[[[135.251,34.377],[135.226,34.349],[135.216,34.344],[135.203,34.343],[135.193,34.338],[135.192,34.312],[135.208,34.308],[135.225,34.301],[135.236,34.304],[135.247,34.313],[135.258,34.316],[135.273,34.312],[135.283,34.318],[135.27,34.337],[135.26,34.357],[135.25,34.364],[135.251,34.377]]]]}},{"type":"Feature","properties":{"name":"三島郡島本町","code":"27301"},"geometry":{"type":"MultiPolygon","coordinates":[[[[135.673,34.87],[135.68,34.881],[135.683,34.888],[135.675,34.9],[135.649,34.91],[135.649,34.926],[135.643,34.931],[135.628,34.934],[135.63,34.907],[135.635,34.892],[135.641,34.89],[135.645,34.882],[135.673,34.87]]]]}},{"type":"Feature","properties":{"name":"豊能郡豊能町","code":"27321"},"geometry":{"type":"MultiPolygon","coordinates":[[[[135.525,34.929],[135.515,34.937],[135.515,34.944],[135.504,34.946],[135.5,34.941],[135.49,34.942],[135.485,34.947],[135.48,34.945],[135.475,34.931],[135.467,34.929],[135.465,34.92],[135.457,34.918],[135.439,34.921],[135.419,34.91],[135.426,34.907],[135.431,34.897],[135.445,34.895],[135.453,34.895],[135.473,34.91],[135.476,34.904],[135.486,34.896],[135.478,34.89],[135.482,34.875],[135.494,34.879],[135.5,34.878],[135.496,34.881],[135.503,34.896],[135.511,34.9],[135.517,34.911],[135.525,34.92],[135.525,34.929]]]]}},{"type":"Feature","properties":{"name":"豊能郡能勢町","code":"27322"},"geometry":{"type":"MultiPolygon","coordinates":[[[[135.485,34.947],[135.482,34.965],[135.488,34.967],[135.483,34.982],[135.493,34.988],[135.482,34.995],[135.471,34.995],[135.46,35.002],[135.452,35.002],[135.436,35.008],[135.423,35.002],[135.41,35.012],[135.382,35.01],[135.378,35.021],[135.382,35.026],[135.38,35.039],[135.359,35.05],[135.338,35.043],[135.334,35.035],[135.34,35.026],[135.355,35.025],[135.356,35.017],[135.353,34.99],[135.36,34.983],[135.352,34.98],[135.345,34.967],[135.364,34.956],[135.382,34.956],[135.387,34.947],[135.416,34.941],[135.418,34.934],[135.442,34.939],[135.453,34.93],[135.467,34.929],[135.475,34.931],[135.48,34.945],[135.485,34.947]]]]}},{"type":"Feature","properties":{"name":"泉北郡忠岡町","code":"27341"},"geometry":{"type":"MultiPolygon","coordinates":[[[[135.415,34.474],[135.415,34.482],[135.411,34.482],[135.402,34.495],[135.39,34.499],[135.378,34.508],[135.371,34.5],[135.395,34.489],[135.415,34.474]]]]}},{"type":"Feature","properties":{"name":"泉南郡熊取町","code":"27361"},"geometry":{"type":"MultiPolygon","coordinates":[[[[135.357,34.418],[135.353,34.407],[135.339,34.405],[135.335,34.399],[135.343,34.387],[135.356,34.373],[135.37,34.364],[135.379,34.364],[135.381,34.356],[135.388,34.355],[135.383,34.369],[135.387,34.385],[135.38,34.392],[135.377,34.403],[135.357,34.418]]]]}},{"type":"Feature","properties":{"name":"泉南郡田尻町","code":"27362"},"geometry":{"type":"MultiPolygon","coordinates":[[[[135.289,34.404],[135.28,34.395],[135.285,34.384],[135.29,34.383],[135.3,34.39],[135.289,34.404]]],[[[135.242,34.437],[135.229,34.446],[135.218,34.438],[135.229,34.431],[135.24,34.423],[135.252,34.43],[135.242,34.437]]]]}},{"type":"Feature","properties":{"name":"泉南郡岬町","code":"27366"},"geometry":{"type":"MultiPolygon","coordinates":[[[[135.193,34.338],[135.177,34.338],[135.164,34.332],[135.153,34.331],[135.141,34.318],[135.13,34.32],[135.131,34.326],[135.101,34.319],[135.106,34.306],[135.097,34.297],[135.099,34.289],[135.109,34.283],[135.11,34.274],[135.132,34.272],[135.146,34.284],[135.157,34.277],[135.172,34.281],[135.181,34.28],[135.192,34.286],[135.203,34.288],[135.208,34.308],[135.192,34.312],[135.193,34.338]]]]}},{"type":"Feature","properties":{"name":"南河内郡太子町","code":"27381"},"geometry":{"type":"MultiPolygon","coordinates":[[[[135.62,34.515],[135.629,34.515],[135.642,34.504],[135.655,34.497],[135.669,34.505],[135.675,34.506],[135.677,34.526],[135.668,34.531],[135.66,34.541],[135.65,34.533],[135.627,34.525],[135.62,34.515]]]]}},{"type":"Feature","properties":{"name":"南河内郡河南町","code":"27382"},"geometry":{"type":"MultiPolygon","coordinates":[[[[135.617,34.474],[135.627,34.476],[135.628,34.467],[135.636,34.467],[135.648,34.456],[135.654,34.456],[135.658,34.467],[135.675,34.469],[135.682,34.465],[135.685,34.484],[135.679,34.493],[135.675,34.506],[135.669,34.505],[135.655,34.497],[135.642,34.504],[135.629,34.515],[135.62,34.515],[135.618,34.507],[135.628,34.498],[135.628,34.49],[135.613,34.49],[135.617,34.474]]]]}},{"type":"Feature","properties":{"name":"南河内郡千早赤阪村","code":"27383"},"geometry":{"type":"MultiPolygon","coordinates":[[[[135.603,34.439],[135.61,34.43],[135.616,34.431],[135.626,34.422],[135.64,34.418],[135.652,34.401],[135.663,34.397],[135.676,34.399],[135.68,34.409],[135.669,34.414],[135.665,34.424],[135.679,34.432],[135.687,34.451],[135.682,34.456],[135.682,34.465],[135.675,34.469],[135.658,34.467],[135.654,34.456],[135.648,34.456],[135.636,34.467],[135.628,34.467],[135.627,34.476],[135.617,34.474],[135.616,34.452],[135.603,34.439]]]]}}]}