{"type":"FeatureCollection","features":[{"type":"Feature","properties":{"name":"神戸市東灘区","code":"28101"},"geometry":{"type":"MultiPolygon","coordinates":[[[[135.28,34.651],[135.28,34.666],[135.275,34.665],[135.277,34.651],[135.28,34.651]]],[[[135.281,34.697],[135.273,34.699],[135.265,34.696],[135.252,34.693],[135.254,34.678],[135.291,34.682],[135.289,34.688],[135.279,34.69],[135.289,34.691],[135.288,34.697],[135.281,34.697]]],[[[135.304,34.71],[135.303,34.717],[135.294,34.718],[135.292,34.712],[135.294,34.705],[135.304,34.706],[135.304,34.71]]],[[[135.303,34.719],[135.3,34.728],[135.296,34.728],[135.291,34.739],[135.284,34.744],[135.287,34.748],[135.28,34.752],[135.281,34.759],[135.276,34.766],[135.272,34.77],[135.267,34.78],[135.262,34.775],[135.257,34.771],[135.26,34.767],[135.255,34.763],[135.258,34.759],[135.262,34.752],[135.258,34.746],[135.255,34.746],[135.251,34.742],[135.246,34.742],[135.248,34.736],[135.243,34.732],[135.243,34.724],[135.25,34.714],[135.243,34.712],[135.245,34.708],[135.253,34.708],[135.254,34.7],[135.288,34.704],[135.286,34.714],[135.292,34.716],[135.294,34.719],[135.303,34.719]]]]}},{"type":"Feature","properties":{"name":"神戸市灘区","code":"28102"},"geometry":{"type":"MultiPolygon","coordinates":[[[[135.257,34.771],[135.249,34.771],[135.235,34.767],[135.22,34.761],[135.215,34.758],[135.204,34.756],[135.194,34.753],[135.199,34.747],[135.198,34.735],[135.199,34.73],[135.196,34.724],[135.201,34.721],[135.203,34.718],[135.209,34.717],[135.219,34.698],[135.216,34.694],[135.224,34.692],[135.238,34.693],[135.235,34.699],[135.24,34.701],[135.245,34.699],[135.254,34.7],[135.253,34.708],[135.245,34.708],[135.243,34.712],[135.25,34.714],[135.246,34.722],[135.243,34.732],[135.247,34.733],[135.245,34.739],[135.251,34.742],[135.255,34.746],[135.258,34.746],[135.262,34.752],[135.258,34.759],[135.255,34.763],[135.26,34.767],[135.257,34.771]]]]}},{"type":"Feature","properties":{"name":"神戸市兵庫区","code":"28105"},"geometry":{"type":"MultiPolygon","coordinates":[[[[135.183,34.67],[135.176,34.676],[135.17,34.686],[135.177,34.694],[135.175,34.698],[135.175,34.704],[135.172,34.708],[135.17,34.715],[135.167,34.711],[135.153,34.704],[135.148,34.699],[135.145,34.699],[135.138,34.694],[135.148,34.688],[135.152,34.68],[135.156,34.677],[135.159,34.672],[135.157,34.668],[135.159,34.651],[135.167,34.652],[135.167,34.648],[135.183,34.649],[135.187,34.652],[135.181,34.656],[135.18,34.662],[135.186,34.663],[135.187,34.667],[135.183,34.67]]]]}},{"type":"Feature","properties":{"name":"神戸市長田区","code":"28106"},"geometry":{"type":"MultiPolygon","coordinates":[[[[135.138,34.694],[135.133,34.694],[135.127,34.691],[135.124,34.686],[135.131,34.683],[135.132,34.679],[135.128,34.676],[135.131,34.673],[135.132,34.664],[135.142,34.655],[135.134,34.651],[135.14,34.642],[135.148,34.646],[135.167,34.648],[135.167,34.652],[135.159,34.651],[135.16,34.665],[135.159,34.672],[135.156,34.677],[135.152,34.68],[135.148,34.688],[135.138,34.694]]]]}},{"type":"Feature","properties":{"name":"神戸市須磨区","code":"28107"},"geometry":{"type":"MultiPolygon","coordinates":[[[[135.124,34.686],[135.12,34.688],[135.117,34.695],[135.114,34.696],[135.113,34.701],[135.11,34.705],[135.102,34.709],[135.094,34.705],[135.095,34.699],[135.093,34.693],[135.083,34.692],[135.076,34.693],[135.07,34.693],[135.066,34.69],[135.071,34.688],[135.068,34.684],[135.071,34.682],[135.076,34.675],[135.083,34.67],[135.078,34.671],[135.077,34.665],[135.082,34.665],[135.089,34.657],[135.098,34.652],[135.099,34.648],[135.095,34.645],[135.093,34.64],[135.093,34.635],[135.102,34.637],[135.108,34.64],[135.123,34.642],[135.14,34.642],[135.134,34.651],[135.142,34.655],[135.132,34.664],[135.131,34.673],[135.128,34.676],[135.132,34.679],[135.131,34.683],[135.124,34.686]]]]}},{"type":"Feature","properties":{"name":"神戸市垂水区","code":"28108"},"geometry":{"type":"MultiPolygon","coordinates":[[[[135.076,34.675],[135.064,34.676],[135.059,34.673],[135.051,34.676],[135.043,34.668],[135.037,34.667],[135.031,34.66],[135.03,34.655],[135.02,34.647],[135.019,34.643],[135.022,34.641],[135.032,34.633],[135.046,34.625],[135.051,34.627],[135.06,34.626],[135.075,34.628],[135.082,34.632],[135.085,34.634],[135.093,34.635],[135.093,34.64],[135.095,34.645],[135.099,34.648],[135.098,34.652],[135.089,34.657],[135.085,34.667],[135.077,34.665],[135.078,34.671],[135.083,34.67],[135.079,34.677]]]]}},{"type":"Feature","properties":{"name":"神戸市北区","code":"28109"},"geometry":{"type":"MultiPolygon","coordinates":[[[[135.267,34.78],[135.271,34.792],[135.269,34.797],[135.27,34.802],[135.261,34.805],[135.255,34.806],[135.251,34.808],[135.247,34.804],[135.233,34.813],[135.233,34.819],[135.23,34.825],[135.233,34.837],[135.233,34.845],[135.244,34.848],[135.248,34.845],[135.261,34.842],[135.266,34.848],[135.273,34.847],[135.28,34.848],[135.286,34.856],[135.29,34.856],[135.294,34.861],[135.292,34.866],[135.287,34.871],[135.286,34.879],[135.28,34.886],[135.263,34.885],[135.248,34.878],[135.242,34.878],[135.235,34.876],[135.229,34.873],[135.222,34.875],[135.216,34.875],[135.21,34.878],[135.201,34.876],[135.198,34.879],[135.192,34.88],[135.182,34.889],[135.179,34.888],[135.168,34.889],[135.163,34.885],[135.155,34.882],[135.159,34.876],[135.156,34.871],[135.156,34.86],[135.158,34.851],[135.155,34.843],[135.151,34.842],[135.14,34.834],[135.123,34.838],[135.115,34.846],[135.111,34.846],[135.106,34.844],[135.101,34.835],[135.092,34.832],[135.092,34.828],[135.085,34.824],[135.081,34.817],[135.076,34.816],[135.077,34.812],[135.075,34.806],[135.082,34.802],[135.086,34.794],[135.094,34.79],[135.093,34.786],[135.095,34.779],[135.086,34.779],[135.083,34.778],[135.076,34.771],[135.067,34.768],[135.062,34.764],[135.067,34.763],[135.077,34.765],[135.08,34.758],[135.085,34.759],[135.091,34.754],[135.094,34.745],[135.094,34.74],[135.099,34.738],[135.097,34.734],[135.087,34.729],[135.084,34.726],[135.093,34.717],[135.094,34.712],[135.093,34.706],[135.102,34.709],[135.11,34.705],[135.113,34.701],[135.114,34.696],[135.117,34.695],[135.12,34.688],[135.124,34.686],[135.127,34.691],[135.133,34.694],[135.138,34.694],[135.145,34.699],[135.148,34.699],[135.153,34.704],[135.167,34.711],[135.17,34.715],[135.17,34.718],[135.18,34.72],[135.198,34.735],[135.196,34.745],[135.194,34.753],[135.204,34.756],[135.215,34.758],[135.22,34.761],[135.235,34.766],[135.249,34.771],[135.257,34.771],[135.262,34.775],[135.267,34.78]]]]}},{"type":"Feature","properties":{"name":"神戸市中央区","code":"28110"},"geometry":{"type":"MultiPolygon","coordinates":[[[[135.237,34.641],[135.228,34.641],[135.214,34.64],[135.209,34.634],[135.209,34.63],[135.239,34.632],[135.237,34.641]]],[[[135.22,34.683],[135.21,34.681],[135.201,34.674],[135.202,34.659],[135.217,34.65],[135.245,34.651],[135.239,34.661],[135.228,34.658],[135.226,34.662],[135.236,34.665],[135.233,34.671],[135.221,34.667],[135.232,34.673],[135.228,34.676],[135.218,34.673],[135.226,34.678],[135.22,34.683]]],[[[135.198,34.735],[135.18,34.72],[135.17,34.718],[135.17,34.715],[135.172,34.708],[135.175,34.704],[135.175,34.698],[135.177,34.694],[135.173,34.688],[135.176,34.676],[135.183,34.673],[135.189,34.672],[135.184,34.682],[135.19,34.681],[135.201,34.684],[135.204,34.687],[135.207,34.684],[135.218,34.69],[135.216,34.694],[135.219,34.698],[135.209,34.717],[135.203,34.718],[135.201,34.721],[135.196,34.724],[135.199,34.73],[135.198,34.735]]]]}},{"type":"Feature","properties":{"name":"神戸市西区","code":"28111"},"geometry":{"type":"MultiPolygon","coordinates":[[[[135.093,34.706],[135.094,34.712],[135.093,34.717],[135.084,34.726],[135.087,34.729],[135.097,34.734],[135.099,34.738],[135.094,34.74],[135.094,34.745],[135.091,34.754],[135.085,34.759],[135.08,34.758],[135.077,34.765],[135.067,34.763],[135.062,34.764],[135.054,34.765],[135.051,34.77],[135.048,34.772],[135.04,34.77],[135.039,34.765],[135.034,34.766],[135.026,34.764],[135.007,34.768],[135.001,34.77],[135.002,34.776],[134.99,34.774],[134.981,34.769],[134.973,34.763],[134.961,34.763],[134.966,34.752],[134.954,34.737],[134.949,34.733],[134.936,34.731],[134.927,34.727],[134.918,34.726],[134.912,34.721],[134.917,34.707],[134.931,34.699],[134.941,34.708],[134.943,34.713],[134.952,34.712],[134.96,34.713],[134.965,34.712],[134.966,34.708],[134.963,34.704],[134.966,34.698],[134.965,34.686],[134.967,34.68],[134.971,34.677],[134.97,34.671],[134.974,34.666],[134.977,34.659],[134.98,34.658],[134.984,34.661],[134.987,34.657],[134.996,34.659],[135.0,34.657],[135.006,34.658],[135.011,34.661],[135.014,34.658],[135.018,34.659],[135.022,34.657],[135.026,34.661],[135.031,34.66],[135.037,34.667],[135.043,34.668],[135.051,34.676],[135.059,34.673],[135.064,34.676],[135.074,34.674],[135.071,34.682],[135.068,34.684],[135.071,34.688],[135.066,34.69],[135.07,34.693],[135.076,34.693],[135.081,34.689],[135.093,34.693],[135.095,34.699],[135.093,34.702],[135.093,34.706]]]]}},{"type":"Feature","properties":{"name":"姫路市","code":"28201"},"geometry":{"type":"MultiPolygon","coordinates":[[[[134.516,34.66],[134.514,34.655],[134.502,34.649],[134.502,34.643],[134.515,34.637],[134.518,34.644],[134.512,34.647],[134.513,34.65],[134.518,34.65],[134.519,34.654],[134.516,34.66]]],[[[134.487,34.672],[134.485,34.668],[134.486,34.661],[134.48,34.659],[134.467,34.662],[134.463,34.657],[134.46,34.651],[134.461,34.646],[134.465,34.641],[134.474,34.646],[134.481,34.65],[134.488,34.649],[134.493,34.645],[134.498,34.643],[134.501,34.646],[134.498,34.653],[134.495,34.659],[134.49,34.661],[134.496,34.668],[134.493,34.668],[134.487,34.672]]],[[[134.573,34.677],[134.57,34.673],[134.562,34.669],[134.562,34.664],[134.566,34.661],[134.571,34.652],[134.576,34.651],[134.578,34.656],[134.585,34.658],[134.591,34.662],[134.59,34.668],[134.586,34.671],[134.581,34.671],[134.58,34.674],[134.573,34.677]]],[[[134.536,34.687],[134.532,34.684],[134.526,34.684],[134.524,34.681],[134.516,34.682],[134.511,34.677],[134.514,34.675],[134.514,34.671],[134.517,34.668],[134.525,34.667],[134.535,34.661],[134.542,34.658],[134.546,34.665],[134.543,34.67],[134.545,34.674],[134.538,34.679],[134.532,34.677],[134.536,34.687]]],[[[134.702,34.771],[134.693,34.768],[134.691,34.76],[134.698,34.76],[134.702,34.771]]],[[[134.606,34.772],[134.593,34.77],[134.596,34.76],[134.6,34.765],[134.606,34.766],[134.606,34.772]]],[[[134.663,34.765],[134.667,34.77],[134.662,34.772],[134.657,34.765],[134.663,34.765]]],[[[134.72,35.053],[134.717,35.057],[134.71,35.054],[134.702,35.058],[134.702,35.064],[134.698,35.069],[134.701,35.076],[134.686,35.082],[134.683,35.085],[134.683,35.093],[134.675,35.094],[134.672,35.093],[134.664,35.09],[134.66,35.081],[134.652,35.085],[134.637,35.088],[134.625,35.082],[134.624,35.086],[134.618,35.085],[134.614,35.078],[134.606,35.069],[134.605,35.062],[134.598,35.05],[134.591,35.043],[134.591,35.035],[134.592,35.026],[134.594,35.023],[134.592,35.016],[134.589,35.012],[134.583,35.006],[134.585,35.0],[134.579,34.994],[134.579,34.987],[134.575,34.988],[134.57,34.986],[134.567,34.982],[134.564,34.972],[134.568,34.969],[134.573,34.968],[134.574,34.964],[134.57,34.954],[134.573,34.948],[134.573,34.935],[134.568,34.931],[134.568,34.927],[134.572,34.911],[134.566,34.909],[134.563,34.903],[134.571,34.896],[134.577,34.895],[134.593,34.898],[134.598,34.895],[134.598,34.887],[134.597,34.883],[134.591,34.876],[134.587,34.87],[134.585,34.864],[134.585,34.86],[134.589,34.856],[134.597,34.858],[134.6,34.856],[134.6,34.852],[134.607,34.85],[134.617,34.853],[134.615,34.846],[134.623,34.843],[134.623,34.84],[134.628,34.838],[134.628,34.831],[134.627,34.821],[134.623,34.821],[134.62,34.818],[134.603,34.82],[134.606,34.822],[134.604,34.826],[134.596,34.828],[134.59,34.824],[134.583,34.823],[134.581,34.813],[134.578,34.813],[134.578,34.809],[134.565,34.807],[134.557,34.809],[134.559,34.806],[134.57,34.796],[134.573,34.789],[134.574,34.779],[134.571,34.773],[134.571,34.765],[134.57,34.758],[134.573,34.758],[134.586,34.762],[134.585,34.769],[134.604,34.775],[134.609,34.775],[134.612,34.768],[134.624,34.773],[134.629,34.773],[134.629,34.778],[134.623,34.78],[134.622,34.784],[134.642,34.784],[134.644,34.78],[134.634,34.78],[134.633,34.767],[134.646,34.767],[134.646,34.779],[134.654,34.78],[134.65,34.774],[134.653,34.771],[134.661,34.784],[134.67,34.78],[134.666,34.776],[134.662,34.777],[134.66,34.774],[134.668,34.771],[134.674,34.776],[134.677,34.773],[134.683,34.772],[134.685,34.778],[134.689,34.777],[134.688,34.771],[134.693,34.77],[134.702,34.772],[134.699,34.776],[134.712,34.777],[134.725,34.771],[134.741,34.768],[134.746,34.769],[134.761,34.762],[134.768,34.777],[134.767,34.782],[134.763,34.786],[134.76,34.792],[134.757,34.786],[134.753,34.785],[134.752,34.78],[134.748,34.782],[134.745,34.788],[134.748,34.79],[134.745,34.796],[134.754,34.795],[134.763,34.798],[134.768,34.805],[134.774,34.808],[134.772,34.813],[134.779,34.816],[134.775,34.824],[134.768,34.822],[134.764,34.825],[134.765,34.83],[134.773,34.83],[134.773,34.836],[134.777,34.839],[134.782,34.839],[134.785,34.837],[134.799,34.84],[134.799,34.845],[134.801,34.855],[134.795,34.863],[134.798,34.866],[134.807,34.862],[134.814,34.867],[134.808,34.871],[134.808,34.875],[134.804,34.875],[134.789,34.881],[134.786,34.887],[134.788,34.891],[134.794,34.896],[134.794,34.901],[134.797,34.906],[134.796,34.912],[134.794,34.918],[134.785,34.918],[134.779,34.923],[134.77,34.924],[134.765,34.935],[134.756,34.936],[134.751,34.935],[134.747,34.938],[134.729,34.938],[134.729,34.943],[134.725,34.944],[134.725,34.948],[134.718,34.953],[134.715,34.957],[134.718,34.962],[134.717,34.966],[134.713,34.973],[134.706,34.974],[134.705,34.98],[134.709,34.983],[134.712,34.994],[134.708,34.999],[134.701,35.001],[134.699,35.01],[134.695,35.012],[134.698,35.018],[134.706,35.02],[134.708,35.023],[134.71,35.032],[134.714,35.034],[134.721,35.036],[134.721,35.042],[134.718,35.044],[134.72,35.053]]]]}},{"type":"Feature","properties":{"name":"尼崎市","code":"28202"},"geometry":{"type":"MultiPolygon","coordinates":[[[[135.445,34.769],[135.443,34.773],[135.436,34.772],[135.422,34.768],[135.416,34.762],[135.417,34.758],[135.406,34.764],[135.399,34.761],[135.392,34.765],[135.39,34.771],[135.384,34.769],[135.383,34.774],[135.379,34.779],[135.373,34.781],[135.374,34.767],[135.373,34.757],[135.377,34.745],[135.38,34.74],[135.38,34.731],[135.384,34.724],[135.378,34.706],[135.372,34.694],[135.369,34.683],[135.377,34.686],[135.378,34.693],[135.382,34.691],[135.389,34.692],[135.396,34.7],[135.4,34.698],[135.393,34.688],[135.382,34.682],[135.376,34.68],[135.376,34.677],[135.392,34.68],[135.406,34.698],[135.413,34.702],[135.425,34.706],[135.43,34.711],[135.446,34.718],[135.448,34.722],[135.446,34.73],[135.449,34.734],[135.459,34.733],[135.46,34.748],[135.459,34.752],[135.45,34.76],[135.45,34.766],[135.445,34.769]]]]}},{"type":"Feature","properties":{"name":"明石市","code":"28203"},"geometry":{"type":"MultiPolygon","coordinates":[[[[134.863,34.69],[134.878,34.684],[134.884,34.692],[134.87,34.701],[134.867,34.696],[134.863,34.69]]],[[[135.031,34.66],[135.026,34.661],[135.022,34.657],[135.018,34.659],[135.014,34.658],[135.011,34.661],[135.006,34.658],[135.0,34.657],[134.996,34.659],[134.987,34.657],[134.984,34.661],[134.98,34.658],[134.977,34.659],[134.974,34.666],[134.97,34.671],[134.971,34.677],[134.967,34.68],[134.965,34.686],[134.966,34.698],[134.963,34.704],[134.966,34.708],[134.965,34.712],[134.96,34.713],[134.952,34.712],[134.943,34.713],[134.941,34.708],[134.933,34.702],[134.919,34.709],[134.91,34.72],[134.907,34.725],[134.9,34.726],[134.893,34.724],[134.891,34.721],[134.885,34.719],[134.881,34.71],[134.876,34.709],[134.871,34.703],[134.877,34.7],[134.896,34.689],[134.908,34.676],[134.916,34.675],[134.93,34.671],[134.936,34.666],[134.945,34.662],[134.957,34.652],[134.973,34.644],[134.988,34.642],[134.99,34.645],[134.995,34.642],[135.012,34.642],[135.019,34.643],[135.02,34.647],[135.03,34.655],[135.031,34.66]]]]}},{"type":"Feature","properties":{"name":"西宮市","code":"28204"},"geometry":{"type":"MultiPolygon","coordinates":[[[[135.344,34.715],[135.345,34.705],[135.353,34.707],[135.344,34.715]]],[[[135.33,34.722],[135.325,34.717],[135.325,34.71],[135.339,34.711],[135.341,34.716],[135.335,34.721],[135.33,34.722]]],[[[135.268,34.781],[135.285,34.781],[135.287,34.777],[135.295,34.775],[135.3,34.766],[135.305,34.763],[135.306,34.76],[135.312,34.754],[135.316,34.745],[135.317,34.739],[135.321,34.737],[135.324,34.731],[135.324,34.726],[135.333,34.723],[135.336,34.726],[135.339,34.722],[135.349,34.715],[135.36,34.706],[135.364,34.705],[135.354,34.697],[135.363,34.688],[135.369,34.693],[135.372,34.694],[135.378,34.706],[135.384,34.721],[135.38,34.731],[135.38,34.74],[135.377,34.745],[135.373,34.757],[135.374,34.767],[135.373,34.781],[135.372,34.784],[135.369,34.781],[135.37,34.776],[135.363,34.776],[135.353,34.773],[135.342,34.775],[135.341,34.78],[135.333,34.782],[135.326,34.781],[135.317,34.788],[135.312,34.789],[135.304,34.788],[135.307,34.792],[135.302,34.801],[135.316,34.808],[135.322,34.807],[135.338,34.816],[135.333,34.822],[135.325,34.829],[135.324,34.834],[135.316,34.847],[135.316,34.853],[135.316,34.856],[135.312,34.858],[135.306,34.855],[135.301,34.854],[135.301,34.859],[135.294,34.861],[135.29,34.856],[135.286,34.856],[135.28,34.848],[135.273,34.847],[135.266,34.848],[135.261,34.842],[135.248,34.845],[135.244,34.848],[135.233,34.845],[135.233,34.837],[135.23,34.825],[135.233,34.819],[135.233,34.813],[135.247,34.804],[135.251,34.808],[135.255,34.806],[135.261,34.805],[135.27,34.802],[135.269,34.797],[135.271,34.792],[135.268,34.781]]]]}},{"type":"Feature","properties":{"name":"洲本市","code":"28205"},"geometry":{"type":"MultiPolygon","coordinates":[[[[134.895,34.399],[134.88,34.394],[134.881,34.404],[134.874,34.412],[134.864,34.414],[134.858,34.404],[134.854,34.402],[134.848,34.404],[134.842,34.412],[134.843,34.42],[134.839,34.422],[134.833,34.422],[134.827,34.42],[134.82,34.42],[134.814,34.423],[134.812,34.426],[134.808,34.424],[134.799,34.424],[134.796,34.426],[134.788,34.427],[134.783,34.417],[134.776,34.411],[134.767,34.391],[134.764,34.387],[134.76,34.385],[134.755,34.385],[134.741,34.352],[134.748,34.354],[134.758,34.353],[134.759,34.348],[134.766,34.349],[134.772,34.352],[134.78,34.349],[134.784,34.351],[134.788,34.348],[134.801,34.349],[134.81,34.353],[134.816,34.356],[134.819,34.347],[134.826,34.343],[134.826,34.339],[134.836,34.337],[134.84,34.334],[134.848,34.333],[134.841,34.327],[134.844,34.32],[134.84,34.316],[134.836,34.319],[134.835,34.309],[134.839,34.306],[134.842,34.3],[134.84,34.296],[134.842,34.287],[134.841,34.28],[134.837,34.277],[134.837,34.274],[134.835,34.27],[134.844,34.266],[134.85,34.258],[134.856,34.257],[134.857,34.252],[134.862,34.247],[134.868,34.244],[134.871,34.24],[134.88,34.242],[134.891,34.247],[134.898,34.252],[134.907,34.254],[134.914,34.255],[134.924,34.258],[134.937,34.263],[134.952,34.267],[134.954,34.274],[134.949,34.274],[134.948,34.281],[134.949,34.287],[134.944,34.297],[134.934,34.303],[134.929,34.305],[134.921,34.311],[134.918,34.317],[134.918,34.324],[134.915,34.337],[134.912,34.341],[134.904,34.341],[134.899,34.346],[134.894,34.353],[134.896,34.357],[134.896,34.366],[134.896,34.377],[134.895,34.399]]]]}},{"type":"Feature","properties":{"name":"芦屋市","code":"28206"},"geometry":{"type":"MultiPolygon","coordinates":[[[[135.322,34.712],[135.322,34.716],[135.306,34.713],[135.308,34.708],[135.312,34.706],[135.321,34.705],[135.319,34.711]]],[[[135.304,34.719],[135.306,34.714],[135.324,34.718],[135.324,34.726],[135.324,34.731],[135.321,34.737],[135.317,34.739],[135.316,34.745],[135.312,34.754],[135.306,34.76],[135.305,34.763],[135.3,34.766],[135.295,34.775],[135.287,34.777],[135.285,34.781],[135.268,34.781],[135.272,34.77],[135.276,34.766],[135.281,34.759],[135.28,34.752],[135.287,34.748],[135.284,34.744],[135.291,34.739],[135.296,34.728],[135.3,34.728],[135.303,34.719]]]]}},{"type":"Feature","properties":{"name":"伊丹市","code":"28207"},"geometry":{"type":"MultiPolygon","coordinates":[[[[135.445,34.769],[135.446,34.775],[135.445,34.781],[135.442,34.789],[135.429,34.802],[135.424,34.802],[135.41,34.802],[135.404,34.8],[135.401,34.808],[135.395,34.806],[135.389,34.815],[135.375,34.811],[135.383,34.796],[135.378,34.791],[135.37,34.792],[135.372,34.784],[135.373,34.781],[135.379,34.779],[135.383,34.774],[135.384,34.769],[135.39,34.771],[135.392,34.765],[135.399,34.761],[135.406,34.764],[135.417,34.758],[135.416,34.762],[135.422,34.768],[135.436,34.772],[135.443,34.773],[135.445,34.769]]]]}},{"type":"Feature","properties":{"name":"相生市","code":"28208"},"geometry":{"type":"MultiPolygon","coordinates":[[[[134.474,34.755],[134.478,34.765],[134.477,34.772],[134.48,34.772],[134.483,34.776],[134.488,34.776],[134.498,34.781],[134.503,34.785],[134.498,34.793],[134.498,34.798],[134.502,34.802],[134.501,34.809],[134.504,34.813],[134.499,34.819],[134.498,34.83],[134.491,34.826],[134.488,34.826],[134.482,34.83],[134.479,34.835],[134.481,34.839],[134.476,34.843],[134.475,34.847],[134.471,34.849],[134.467,34.848],[134.464,34.861],[134.471,34.863],[134.476,34.865],[134.481,34.87],[134.484,34.874],[134.485,34.88],[134.492,34.884],[134.488,34.887],[134.49,34.891],[134.496,34.893],[134.489,34.9],[134.491,34.905],[134.48,34.911],[134.481,34.917],[134.485,34.922],[134.475,34.921],[134.471,34.911],[134.462,34.909],[134.449,34.909],[134.445,34.909],[134.443,34.905],[134.44,34.903],[134.434,34.904],[134.433,34.897],[134.426,34.895],[134.42,34.887],[134.419,34.882],[134.424,34.879],[134.416,34.864],[134.416,34.855],[134.412,34.852],[134.409,34.849],[134.409,34.838],[134.412,34.836],[134.413,34.83],[134.409,34.824],[134.417,34.816],[134.425,34.809],[134.422,34.798],[134.426,34.789],[134.431,34.787],[134.434,34.79],[134.442,34.791],[134.444,34.787],[134.441,34.775],[134.45,34.774],[134.459,34.769],[134.458,34.762],[134.451,34.754],[134.457,34.756],[134.458,34.76],[134.464,34.764],[134.461,34.769],[134.457,34.779],[134.457,34.786],[134.461,34.789],[134.465,34.788],[134.468,34.793],[134.476,34.785],[134.47,34.784],[134.47,34.778],[134.47,34.772],[134.471,34.766],[134.473,34.76],[134.474,34.755]]]]}},{"type":"Feature","properties":{"name":"豊岡市","code":"28209"},"geometry":{"type":"MultiPolygon","coordinates":[[[[134.934,35.407],[134.946,35.413],[134.955,35.408],[134.959,35.409],[134.964,35.406],[134.971,35.399],[134.981,35.398],[134.989,35.393],[134.987,35.389],[134.991,35.386],[135.002,35.387],[135.005,35.391],[135.012,35.392],[135.019,35.394],[135.024,35.401],[135.03,35.406],[135.03,35.41],[135.038,35.41],[135.049,35.407],[135.05,35.414],[135.049,35.42],[135.047,35.424],[135.047,35.43],[135.049,35.44],[135.05,35.451],[135.045,35.455],[135.044,35.466],[135.041,35.473],[135.035,35.477],[135.036,35.48],[135.04,35.482],[135.042,35.489],[135.042,35.494],[135.032,35.498],[135.041,35.504],[135.045,35.509],[135.043,35.52],[135.039,35.528],[135.036,35.531],[135.037,35.539],[135.027,35.54],[135.018,35.538],[135.008,35.534],[134.993,35.534],[134.988,35.53],[134.982,35.528],[134.979,35.524],[134.974,35.525],[134.965,35.52],[134.963,35.515],[134.958,35.513],[134.953,35.515],[134.942,35.514],[134.93,35.512],[134.923,35.516],[134.923,35.522],[134.915,35.528],[134.919,35.538],[134.915,35.545],[134.903,35.549],[134.901,35.556],[134.888,35.56],[134.881,35.564],[134.881,35.567],[134.876,35.574],[134.866,35.581],[134.863,35.587],[134.856,35.587],[134.866,35.599],[134.867,35.608],[134.866,35.614],[134.871,35.615],[134.874,35.621],[134.87,35.632],[134.871,35.636],[134.867,35.636],[134.866,35.645],[134.868,35.65],[134.864,35.652],[134.868,35.658],[134.861,35.658],[134.857,35.66],[134.85,35.655],[134.845,35.649],[134.842,35.643],[134.839,35.643],[134.834,35.649],[134.837,35.651],[134.839,35.656],[134.826,35.655],[134.814,35.664],[134.805,35.664],[134.795,35.67],[134.784,35.667],[134.781,35.662],[134.776,35.661],[134.765,35.661],[134.761,35.664],[134.757,35.661],[134.745,35.662],[134.737,35.66],[134.733,35.658],[134.731,35.652],[134.721,35.645],[134.718,35.637],[134.713,35.635],[134.715,35.626],[134.719,35.621],[134.71,35.61],[134.711,35.605],[134.71,35.601],[134.697,35.588],[134.692,35.578],[134.688,35.575],[134.682,35.573],[134.671,35.574],[134.662,35.572],[134.657,35.566],[134.654,35.565],[134.651,35.55],[134.645,35.542],[134.64,35.542],[134.637,35.537],[134.637,35.527],[134.633,35.525],[134.629,35.525],[134.624,35.522],[134.617,35.524],[134.617,35.52],[134.619,35.513],[134.619,35.505],[134.618,35.502],[134.624,35.501],[134.627,35.498],[134.637,35.494],[134.637,35.489],[134.64,35.486],[134.644,35.478],[134.635,35.466],[134.636,35.459],[134.631,35.455],[134.631,35.447],[134.636,35.432],[134.643,35.428],[134.654,35.429],[134.66,35.433],[134.668,35.429],[134.675,35.428],[134.679,35.426],[134.684,35.428],[134.688,35.427],[134.696,35.429],[134.704,35.428],[134.711,35.424],[134.717,35.424],[134.722,35.428],[134.728,35.423],[134.739,35.421],[134.743,35.422],[134.747,35.424],[134.751,35.431],[134.745,35.436],[134.746,35.44],[134.749,35.443],[134.763,35.444],[134.767,35.447],[134.772,35.448],[134.785,35.442],[134.792,35.441],[134.79,35.448],[134.797,35.448],[134.801,35.451],[134.809,35.452],[134.813,35.448],[134.817,35.446],[134.82,35.438],[134.826,35.436],[134.834,35.432],[134.836,35.427],[134.84,35.425],[134.842,35.417],[134.845,35.412],[134.849,35.409],[134.857,35.408],[134.863,35.41],[134.878,35.406],[134.889,35.405],[134.902,35.404],[134.903,35.414],[134.911,35.418],[134.915,35.422],[134.92,35.421],[134.924,35.417],[134.929,35.414],[134.934,35.407]]]]}},{"type":"Feature","properties":{"name":"加古川市","code":"28210"},"geometry":{"type":"MultiPolygon","coordinates":[[[[134.779,34.816],[134.782,34.814],[134.791,34.814],[134.798,34.809],[134.799,34.805],[134.798,34.801],[134.805,34.793],[134.809,34.787],[134.814,34.787],[134.812,34.781],[134.819,34.78],[134.821,34.774],[134.813,34.771],[134.809,34.766],[134.808,34.756],[134.811,34.746],[134.809,34.732],[134.813,34.731],[134.809,34.718],[134.827,34.706],[134.829,34.71],[134.837,34.707],[134.844,34.721],[134.848,34.72],[134.847,34.715],[134.849,34.721],[134.857,34.726],[134.865,34.728],[134.874,34.727],[134.88,34.73],[134.886,34.724],[134.891,34.721],[134.893,34.724],[134.9,34.726],[134.899,34.729],[134.893,34.733],[134.89,34.733],[134.888,34.739],[134.884,34.743],[134.888,34.745],[134.88,34.756],[134.881,34.76],[134.884,34.764],[134.89,34.763],[134.892,34.771],[134.897,34.777],[134.907,34.772],[134.911,34.775],[134.919,34.776],[134.932,34.768],[134.933,34.778],[134.926,34.796],[134.926,34.801],[134.928,34.807],[134.927,34.81],[134.92,34.82],[134.921,34.824],[134.916,34.826],[134.901,34.825],[134.896,34.828],[134.89,34.829],[134.888,34.833],[134.884,34.835],[134.883,34.84],[134.873,34.84],[134.868,34.844],[134.864,34.85],[134.858,34.854],[134.852,34.852],[134.842,34.855],[134.829,34.857],[134.825,34.854],[134.816,34.853],[134.814,34.856],[134.817,34.864],[134.814,34.867],[134.807,34.862],[134.798,34.866],[134.795,34.863],[134.801,34.855],[134.801,34.847],[134.799,34.84],[134.785,34.837],[134.782,34.839],[134.777,34.839],[134.773,34.836],[134.773,34.83],[134.765,34.83],[134.764,34.825],[134.768,34.822],[134.775,34.824],[134.779,34.816]]]]}},{"type":"Feature","properties":{"name":"赤穂市","code":"28212"},"geometry":{"type":"MultiPolygon","coordinates":[[[[134.412,34.852],[134.408,34.854],[134.402,34.85],[134.399,34.846],[134.392,34.844],[134.386,34.84],[134.383,34.841],[134.379,34.85],[134.373,34.856],[134.366,34.856],[134.367,34.847],[134.365,34.842],[134.357,34.846],[134.352,34.847],[134.344,34.845],[134.338,34.853],[134.334,34.85],[134.326,34.848],[134.321,34.839],[134.323,34.833],[134.322,34.827],[134.315,34.826],[134.314,34.823],[134.308,34.825],[134.299,34.823],[134.296,34.818],[134.298,34.814],[134.302,34.815],[134.307,34.811],[134.311,34.803],[134.316,34.803],[134.316,34.797],[134.319,34.788],[134.316,34.781],[134.323,34.774],[134.33,34.774],[134.331,34.771],[134.335,34.769],[134.333,34.766],[134.322,34.762],[134.318,34.756],[134.317,34.744],[134.313,34.738],[134.318,34.735],[134.321,34.735],[134.324,34.731],[134.324,34.725],[134.329,34.731],[134.34,34.739],[134.344,34.739],[134.345,34.735],[134.352,34.737],[134.364,34.741],[134.363,34.746],[134.358,34.747],[134.361,34.751],[134.369,34.745],[134.374,34.737],[134.38,34.736],[134.376,34.732],[134.385,34.726],[134.388,34.731],[134.393,34.729],[134.405,34.73],[134.416,34.731],[134.423,34.737],[134.428,34.745],[134.434,34.748],[134.426,34.755],[134.432,34.761],[134.433,34.766],[134.437,34.766],[134.45,34.769],[134.455,34.767],[134.453,34.761],[134.45,34.758],[134.451,34.754],[134.458,34.762],[134.459,34.769],[134.45,34.774],[134.441,34.775],[134.442,34.785],[134.442,34.791],[134.434,34.79],[134.431,34.787],[134.426,34.789],[134.422,34.798],[134.425,34.809],[134.417,34.816],[134.409,34.824],[134.413,34.83],[134.412,34.836],[134.409,34.838],[134.409,34.849],[134.412,34.852]]]]}},{"type":"Feature","properties":{"name":"西脇市","code":"28213"},"geometry":{"type":"MultiPolygon","coordinates":[[[[135.096,35.055],[135.088,35.053],[135.081,35.051],[135.069,35.048],[135.063,35.047],[135.06,35.054],[135.052,35.052],[135.049,35.053],[135.038,35.053],[135.031,35.055],[135.026,35.058],[135.025,35.062],[135.025,35.072],[135.019,35.071],[135.012,35.072],[134.999,35.069],[134.991,35.069],[134.984,35.071],[134.979,35.07],[134.977,35.062],[134.964,35.055],[134.966,35.051],[134.971,35.046],[134.972,35.038],[134.965,35.037],[134.962,35.031],[134.958,35.032],[134.955,35.037],[134.946,35.038],[134.943,35.034],[134.949,35.033],[134.946,35.029],[134.948,35.024],[134.934,35.017],[134.934,35.012],[134.928,35.008],[134.928,34.998],[134.928,34.992],[134.92,34.982],[134.915,34.984],[134.903,34.981],[134.899,34.987],[134.892,34.981],[134.892,34.977],[134.894,34.971],[134.895,34.965],[134.9,34.965],[134.908,34.961],[134.912,34.958],[134.917,34.96],[134.926,34.957],[134.93,34.958],[134.934,34.961],[134.937,34.959],[134.945,34.96],[134.953,34.959],[134.959,34.959],[134.963,34.961],[134.967,34.955],[134.973,34.953],[134.981,34.956],[134.984,34.96],[134.996,34.959],[135.001,34.96],[135.004,34.965],[135.01,34.962],[135.015,34.966],[135.024,34.965],[135.028,34.967],[135.032,34.965],[135.037,34.968],[135.041,34.969],[135.045,34.974],[135.051,34.977],[135.052,34.982],[135.05,34.985],[135.045,34.987],[135.045,34.997],[135.05,35.003],[135.055,35.004],[135.059,35.009],[135.066,35.017],[135.066,35.022],[135.074,35.027],[135.078,35.027],[135.079,35.032],[135.085,35.037],[135.095,35.041],[135.101,35.049],[135.099,35.054]]]]}},{"type":"Feature","properties":{"name":"宝塚市","code":"28214"},"geometry":{"type":"MultiPolygon","coordinates":[[[[135.294,34.861],[135.301,34.859],[135.301,34.854],[135.306,34.855],[135.312,34.858],[135.316,34.856],[135.316,34.853],[135.314,34.849],[135.324,34.834],[135.325,34.829],[135.333,34.822],[135.338,34.816],[135.322,34.807],[135.316,34.808],[135.302,34.801],[135.307,34.792],[135.304,34.788],[135.312,34.789],[135.317,34.788],[135.326,34.781],[135.333,34.782],[135.341,34.78],[135.342,34.775],[135.353,34.773],[135.363,34.776],[135.37,34.776],[135.369,34.781],[135.372,34.784],[135.37,34.792],[135.378,34.791],[135.383,34.796],[135.375,34.811],[135.389,34.815],[135.395,34.806],[135.401,34.808],[135.402,34.812],[135.4,34.824],[135.404,34.829],[135.408,34.834],[135.411,34.838],[135.41,34.843],[135.399,34.846],[135.396,34.843],[135.388,34.844],[135.383,34.846],[135.38,34.85],[135.37,34.849],[135.374,34.857],[135.368,34.861],[135.361,34.864],[135.356,34.865],[135.351,34.864],[135.349,34.869],[135.344,34.875],[135.339,34.876],[135.337,34.887],[135.334,34.893],[135.33,34.893],[135.324,34.894],[135.325,34.899],[135.33,34.898],[135.332,34.902],[135.339,34.903],[135.339,34.908],[135.342,34.911],[135.34,34.916],[135.334,34.917],[135.332,34.922],[135.331,34.932],[135.325,34.934],[135.327,34.941],[135.321,34.944],[135.316,34.952],[135.314,34.96],[135.309,34.96],[135.305,34.962],[135.303,34.952],[135.308,34.946],[135.309,34.932],[135.304,34.921],[135.3,34.926],[135.294,34.928],[135.287,34.926],[135.28,34.921],[135.277,34.921],[135.275,34.917],[135.276,34.909],[135.278,34.906],[135.274,34.895],[135.28,34.889],[135.28,34.886],[135.286,34.879],[135.287,34.871],[135.292,34.866],[135.294,34.861]]]]}},{"type":"Feature","properties":{"name":"三木市","code":"28215"},"geometry":{"type":"MultiPolygon","coordinates":[[[[135.168,34.889],[135.163,34.89],[135.16,34.894],[135.159,34.898],[135.157,34.909],[135.152,34.913],[135.151,34.917],[135.153,34.924],[135.149,34.93],[135.148,34.938],[135.146,34.943],[135.141,34.939],[135.135,34.938],[135.124,34.933],[135.122,34.929],[135.118,34.929],[135.111,34.924],[135.108,34.916],[135.105,34.914],[135.104,34.909],[135.094,34.896],[135.094,34.892],[135.086,34.886],[135.076,34.886],[135.068,34.887],[135.062,34.884],[135.064,34.877],[135.063,34.872],[135.053,34.863],[135.047,34.861],[135.041,34.862],[135.036,34.856],[135.027,34.852],[135.018,34.855],[135.01,34.854],[135.004,34.848],[134.997,34.842],[135.002,34.838],[135.002,34.832],[134.998,34.829],[134.993,34.828],[134.988,34.824],[134.982,34.825],[134.975,34.823],[134.968,34.816],[134.957,34.813],[134.952,34.814],[134.941,34.806],[134.937,34.81],[134.927,34.81],[134.928,34.807],[134.926,34.801],[134.926,34.796],[134.935,34.779],[134.942,34.78],[134.947,34.777],[134.954,34.778],[134.963,34.777],[134.959,34.769],[134.961,34.763],[134.973,34.763],[134.981,34.769],[134.99,34.774],[135.002,34.776],[135.001,34.77],[135.006,34.77],[135.026,34.764],[135.034,34.766],[135.039,34.765],[135.04,34.77],[135.048,34.772],[135.051,34.77],[135.054,34.765],[135.062,34.764],[135.067,34.768],[135.076,34.771],[135.083,34.778],[135.086,34.779],[135.095,34.779],[135.093,34.786],[135.094,34.79],[135.086,34.794],[135.082,34.802],[135.075,34.806],[135.077,34.812],[135.076,34.816],[135.081,34.817],[135.086,34.822],[135.092,34.828],[135.092,34.832],[135.101,34.835],[135.106,34.844],[135.111,34.846],[135.115,34.846],[135.123,34.838],[135.138,34.836],[135.151,34.842],[135.155,34.843],[135.158,34.851],[135.156,34.86],[135.156,34.871],[135.159,34.876],[135.155,34.882],[135.163,34.885],[135.168,34.889]]]]}},{"type":"Feature","properties":{"name":"高砂市","code":"28216"},"geometry":{"type":"MultiPolygon","coordinates":[[[[134.761,34.762],[134.761,34.758],[134.757,34.752],[134.763,34.748],[134.769,34.75],[134.788,34.74],[134.797,34.732],[134.809,34.732],[134.811,34.746],[134.808,34.756],[134.809,34.766],[134.813,34.771],[134.821,34.774],[134.819,34.78],[134.812,34.781],[134.814,34.787],[134.809,34.787],[134.804,34.791],[134.798,34.801],[134.799,34.805],[134.798,34.809],[134.791,34.814],[134.782,34.814],[134.779,34.816],[134.772,34.813],[134.774,34.808],[134.768,34.805],[134.763,34.798],[134.756,34.797],[134.747,34.799],[134.748,34.79],[134.745,34.788],[134.748,34.782],[134.752,34.78],[134.753,34.785],[134.757,34.786],[134.76,34.792],[134.763,34.788],[134.767,34.782],[134.768,34.777],[134.761,34.762]]]]}},{"type":"Feature","properties":{"name":"川西市","code":"28217"},"geometry":{"type":"MultiPolygon","coordinates":[[[[135.424,34.802],[135.42,34.809],[135.416,34.818],[135.422,34.827],[135.424,34.83],[135.424,34.838],[135.419,34.849],[135.431,34.856],[135.43,34.861],[135.435,34.87],[135.438,34.877],[135.437,34.88],[135.441,34.89],[135.444,34.891],[135.446,34.897],[135.439,34.896],[135.431,34.894],[135.431,34.897],[135.426,34.907],[135.42,34.906],[135.419,34.91],[135.43,34.916],[135.435,34.917],[135.439,34.921],[135.451,34.92],[135.457,34.918],[135.465,34.92],[135.467,34.929],[135.461,34.926],[135.457,34.929],[135.453,34.93],[135.442,34.939],[135.439,34.937],[135.425,34.936],[135.418,34.934],[135.416,34.93],[135.407,34.928],[135.41,34.925],[135.411,34.921],[135.405,34.914],[135.397,34.906],[135.391,34.902],[135.389,34.897],[135.381,34.891],[135.379,34.886],[135.384,34.878],[135.37,34.873],[135.365,34.874],[135.364,34.869],[135.361,34.864],[135.368,34.861],[135.374,34.857],[135.368,34.851],[135.38,34.85],[135.383,34.846],[135.388,34.844],[135.396,34.843],[135.399,34.846],[135.41,34.843],[135.411,34.838],[135.408,34.834],[135.406,34.83],[135.4,34.824],[135.402,34.812],[135.401,34.808],[135.404,34.8],[135.41,34.802],[135.424,34.802]]]]}},{"type":"Feature","properties":{"name":"小野市","code":"28218"},"geometry":{"type":"MultiPolygon","coordinates":[[[[134.927,34.81],[134.937,34.81],[134.941,34.806],[134.952,34.814],[134.957,34.813],[134.968,34.816],[134.975,34.823],[134.982,34.825],[134.988,34.824],[134.993,34.828],[134.998,34.829],[135.002,34.832],[135.002,34.838],[134.997,34.842],[135.004,34.848],[135.01,34.854],[135.018,34.855],[135.025,34.853],[135.027,34.866],[135.022,34.876],[135.023,34.879],[135.017,34.885],[135.014,34.883],[135.01,34.889],[135.005,34.889],[135.003,34.893],[135.003,34.899],[134.997,34.901],[134.984,34.898],[134.973,34.897],[134.973,34.894],[134.967,34.892],[134.964,34.884],[134.956,34.887],[134.954,34.883],[134.942,34.885],[134.939,34.882],[134.934,34.882],[134.931,34.885],[134.936,34.891],[134.938,34.898],[134.937,34.903],[134.929,34.908],[134.93,34.913],[134.922,34.914],[134.916,34.912],[134.913,34.906],[134.91,34.911],[134.907,34.909],[134.906,34.903],[134.904,34.895],[134.898,34.891],[134.905,34.884],[134.902,34.875],[134.893,34.866],[134.89,34.864],[134.889,34.858],[134.889,34.848],[134.888,34.84],[134.883,34.84],[134.884,34.835],[134.888,34.833],[134.89,34.829],[134.896,34.828],[134.901,34.825],[134.916,34.826],[134.921,34.824],[134.92,34.82],[134.927,34.81]]]]}},{"type":"Feature","properties":{"name":"三田市","code":"28219"},"geometry":{"type":"MultiPolygon","coordinates":[[[[135.28,34.886],[135.28,34.889],[135.274,34.895],[135.278,34.906],[135.276,34.909],[135.275,34.917],[135.277,34.921],[135.28,34.921],[135.287,34.926],[135.294,34.928],[135.3,34.926],[135.304,34.921],[135.309,34.932],[135.308,34.946],[135.303,34.952],[135.305,34.962],[135.302,34.963],[135.298,34.974],[135.302,34.982],[135.31,34.985],[135.305,34.99],[135.303,34.995],[135.298,34.997],[135.289,34.996],[135.29,35.009],[135.285,35.016],[135.276,35.014],[135.268,35.015],[135.259,35.011],[135.255,35.012],[135.253,35.022],[135.249,35.023],[135.25,35.027],[135.244,35.029],[135.237,35.036],[135.235,35.029],[135.227,35.028],[135.222,35.03],[135.22,35.035],[135.214,35.028],[135.207,35.027],[135.203,35.025],[135.197,35.027],[135.192,35.018],[135.185,35.014],[135.176,35.009],[135.175,34.996],[135.17,34.995],[135.168,35.001],[135.164,34.994],[135.161,34.989],[135.15,34.989],[135.143,34.992],[135.14,34.99],[135.139,34.979],[135.141,34.975],[135.138,34.968],[135.133,34.965],[135.13,34.958],[135.123,34.955],[135.116,34.965],[135.1,34.958],[135.093,34.965],[135.092,34.957],[135.097,34.949],[135.104,34.948],[135.104,34.938],[135.108,34.93],[135.112,34.928],[135.118,34.929],[135.122,34.929],[135.124,34.933],[135.135,34.938],[135.141,34.939],[135.146,34.943],[135.148,34.938],[135.149,34.93],[135.153,34.924],[135.153,34.919],[135.152,34.913],[135.157,34.909],[135.157,34.901],[135.16,34.894],[135.163,34.89],[135.168,34.889],[135.179,34.888],[135.182,34.889],[135.192,34.88],[135.198,34.879],[135.201,34.876],[135.21,34.878],[135.216,34.875],[135.222,34.875],[135.229,34.873],[135.235,34.876],[135.242,34.878],[135.248,34.878],[135.263,34.885],[135.28,34.886]]]]}},{"type":"Feature","properties":{"name":"加西市","code":"28220"},"geometry":{"type":"MultiPolygon","coordinates":[[[[134.814,34.867],[134.817,34.864],[134.814,34.856],[134.816,34.853],[134.825,34.854],[134.829,34.857],[134.842,34.855],[134.852,34.852],[134.858,34.854],[134.864,34.85],[134.868,34.844],[134.873,34.84],[134.883,34.84],[134.888,34.84],[134.887,34.845],[134.887,34.856],[134.89,34.864],[134.893,34.866],[134.902,34.875],[134.905,34.884],[134.898,34.891],[134.904,34.895],[134.904,34.901],[134.907,34.909],[134.905,34.912],[134.897,34.911],[134.902,34.917],[134.907,34.915],[134.909,34.919],[134.904,34.923],[134.902,34.929],[134.905,34.934],[134.918,34.928],[134.926,34.93],[134.934,34.934],[134.934,34.95],[134.93,34.958],[134.926,34.957],[134.917,34.96],[134.912,34.958],[134.908,34.961],[134.901,34.963],[134.895,34.965],[134.894,34.971],[134.892,34.977],[134.892,34.981],[134.877,34.983],[134.873,34.98],[134.869,34.984],[134.866,34.981],[134.862,34.985],[134.86,34.999],[134.861,35.006],[134.851,35.01],[134.849,35.018],[134.833,35.005],[134.834,34.998],[134.828,34.991],[134.822,34.989],[134.813,34.985],[134.812,34.977],[134.809,34.971],[134.805,34.97],[134.804,34.961],[134.796,34.953],[134.799,34.949],[134.8,34.936],[134.799,34.933],[134.794,34.929],[134.796,34.92],[134.796,34.912],[134.797,34.906],[134.794,34.901],[134.794,34.896],[134.788,34.891],[134.786,34.887],[134.79,34.884],[134.804,34.875],[134.808,34.875],[134.808,34.871],[134.814,34.867]]]]}},{"type":"Feature","properties":{"name":"丹波篠山市","code":"28221"},"geometry":{"type":"MultiPolygon","coordinates":[[[[135.059,35.009],[135.067,35.002],[135.07,35.003],[135.073,34.999],[135.073,34.993],[135.079,34.996],[135.082,34.989],[135.091,34.992],[135.095,34.981],[135.093,34.965],[135.1,34.958],[135.116,34.965],[135.123,34.955],[135.13,34.958],[135.133,34.965],[135.138,34.968],[135.141,34.975],[135.139,34.979],[135.14,34.99],[135.143,34.992],[135.15,34.989],[135.161,34.989],[135.164,34.994],[135.165,34.999],[135.17,34.995],[135.175,34.996],[135.176,35.009],[135.183,35.011],[135.192,35.018],[135.197,35.027],[135.203,35.025],[135.207,35.027],[135.214,35.028],[135.22,35.035],[135.222,35.03],[135.227,35.028],[135.235,35.029],[135.237,35.036],[135.245,35.032],[135.25,35.027],[135.249,35.023],[135.253,35.022],[135.255,35.012],[135.259,35.011],[135.268,35.015],[135.276,35.014],[135.285,35.016],[135.288,35.012],[135.294,35.014],[135.305,35.012],[135.314,35.012],[135.317,35.015],[135.321,35.014],[135.321,35.019],[135.323,35.025],[135.34,35.026],[135.338,35.03],[135.334,35.035],[135.334,35.04],[135.338,35.043],[135.349,35.046],[135.349,35.051],[135.359,35.05],[135.368,35.044],[135.369,35.049],[135.369,35.055],[135.371,35.059],[135.377,35.061],[135.377,35.066],[135.387,35.073],[135.394,35.073],[135.4,35.076],[135.399,35.082],[135.4,35.086],[135.404,35.089],[135.401,35.094],[135.391,35.099],[135.389,35.108],[135.393,35.111],[135.391,35.115],[135.387,35.116],[135.386,35.121],[135.391,35.126],[135.382,35.13],[135.373,35.129],[135.368,35.131],[135.36,35.132],[135.355,35.137],[135.343,35.136],[135.34,35.138],[135.337,35.144],[135.341,35.146],[135.341,35.15],[135.327,35.149],[135.315,35.146],[135.303,35.143],[135.299,35.144],[135.294,35.142],[135.288,35.143],[135.28,35.147],[135.279,35.151],[135.286,35.153],[135.288,35.158],[135.292,35.161],[135.29,35.165],[135.289,35.172],[135.285,35.171],[135.281,35.175],[135.274,35.177],[135.267,35.176],[135.254,35.176],[135.25,35.178],[135.238,35.176],[135.232,35.177],[135.23,35.172],[135.229,35.166],[135.225,35.164],[135.228,35.157],[135.229,35.15],[135.224,35.145],[135.221,35.143],[135.218,35.139],[135.209,35.129],[135.201,35.128],[135.187,35.129],[135.172,35.126],[135.165,35.127],[135.161,35.13],[135.151,35.131],[135.149,35.125],[135.141,35.122],[135.136,35.125],[135.13,35.123],[135.126,35.125],[135.12,35.122],[135.116,35.114],[135.109,35.113],[135.109,35.108],[135.112,35.103],[135.111,35.099],[135.116,35.096],[135.114,35.09],[135.117,35.086],[135.125,35.079],[135.122,35.073],[135.129,35.067],[135.127,35.06],[135.131,35.052],[135.127,35.05],[135.119,35.057],[135.112,35.06],[135.106,35.059],[135.102,35.056],[135.096,35.055],[135.101,35.049],[135.095,35.041],[135.085,35.037],[135.079,35.032],[135.078,35.027],[135.074,35.027],[135.066,35.022],[135.066,35.017],[135.059,35.009]]]]}},{"type":"Feature","properties":{"name":"養父市","code":"28222"},"geometry":{"type":"MultiPolygon","coordinates":[[[[134.645,35.428],[134.649,35.42],[134.645,35.414],[134.645,35.411],[134.639,35.407],[134.636,35.41],[134.629,35.41],[134.618,35.407],[134.612,35.4],[134.608,35.4],[134.607,35.394],[134.601,35.388],[134.595,35.388],[134.586,35.39],[134.579,35.393],[134.566,35.392],[134.555,35.393],[134.55,35.39],[134.541,35.389],[134.538,35.392],[134.537,35.395],[134.529,35.394],[134.523,35.39],[134.519,35.389],[134.512,35.38],[134.508,35.379],[134.504,35.373],[134.503,35.366],[134.505,35.359],[134.508,35.356],[134.513,35.354],[134.51,35.351],[134.509,35.342],[134.507,35.339],[134.519,35.33],[134.524,35.329],[134.524,35.326],[134.529,35.323],[134.534,35.322],[134.538,35.318],[134.545,35.316],[134.55,35.309],[134.561,35.307],[134.572,35.298],[134.579,35.296],[134.581,35.282],[134.588,35.274],[134.601,35.267],[134.604,35.266],[134.613,35.269],[134.62,35.278],[134.628,35.281],[134.634,35.279],[134.642,35.274],[134.651,35.262],[134.651,35.257],[134.654,35.253],[134.661,35.252],[134.663,35.256],[134.669,35.256],[134.67,35.25],[134.677,35.244],[134.682,35.242],[134.689,35.247],[134.694,35.249],[134.696,35.253],[134.7,35.254],[134.698,35.262],[134.686,35.273],[134.69,35.275],[134.697,35.283],[134.7,35.286],[134.708,35.279],[134.72,35.276],[134.727,35.281],[134.732,35.279],[134.738,35.28],[134.745,35.278],[134.751,35.277],[134.759,35.266],[134.771,35.267],[134.771,35.27],[134.79,35.276],[134.791,35.28],[134.795,35.283],[134.794,35.294],[134.795,35.298],[134.791,35.3],[134.789,35.303],[134.779,35.307],[134.775,35.31],[134.775,35.315],[134.773,35.319],[134.781,35.322],[134.79,35.324],[134.796,35.326],[134.798,35.331],[134.805,35.337],[134.798,35.342],[134.798,35.345],[134.795,35.351],[134.798,35.357],[134.804,35.358],[134.81,35.362],[134.815,35.37],[134.819,35.369],[134.823,35.374],[134.834,35.376],[134.838,35.374],[134.85,35.375],[134.863,35.387],[134.863,35.394],[134.86,35.401],[134.857,35.408],[134.849,35.409],[134.845,35.412],[134.842,35.417],[134.84,35.425],[134.836,35.427],[134.834,35.432],[134.826,35.436],[134.82,35.438],[134.817,35.446],[134.813,35.448],[134.809,35.452],[134.801,35.451],[134.797,35.448],[134.79,35.448],[134.792,35.441],[134.785,35.442],[134.772,35.448],[134.767,35.447],[134.763,35.444],[134.749,35.443],[134.746,35.44],[134.745,35.436],[134.751,35.431],[134.747,35.424],[134.743,35.422],[134.739,35.421],[134.728,35.423],[134.722,35.428],[134.717,35.424],[134.711,35.424],[134.705,35.426],[134.696,35.429],[134.688,35.427],[134.684,35.428],[134.679,35.426],[134.675,35.428],[134.668,35.429],[134.66,35.433],[134.654,35.429],[134.645,35.428]]]]}},{"type":"Feature","properties":{"name":"丹波市","code":"28223"},"geometry":{"type":"MultiPolygon","coordinates":[[[[135.096,35.055],[135.102,35.056],[135.106,35.059],[135.112,35.06],[135.119,35.057],[135.127,35.05],[135.131,35.052],[135.127,35.06],[135.129,35.067],[135.122,35.073],[135.125,35.079],[135.117,35.086],[135.114,35.09],[135.116,35.096],[135.111,35.099],[135.112,35.103],[135.109,35.108],[135.109,35.113],[135.116,35.114],[135.12,35.122],[135.126,35.125],[135.13,35.123],[135.136,35.125],[135.141,35.122],[135.149,35.125],[135.151,35.131],[135.161,35.13],[135.165,35.127],[135.172,35.126],[135.187,35.129],[135.198,35.129],[135.209,35.129],[135.22,35.136],[135.221,35.143],[135.224,35.145],[135.229,35.15],[135.228,35.157],[135.225,35.164],[135.216,35.162],[135.207,35.161],[135.203,35.165],[135.193,35.172],[135.187,35.172],[135.19,35.183],[135.187,35.19],[135.193,35.194],[135.2,35.196],[135.197,35.203],[135.189,35.207],[135.188,35.21],[135.182,35.216],[135.175,35.215],[135.171,35.22],[135.163,35.22],[135.155,35.227],[135.156,35.23],[135.162,35.231],[135.166,35.239],[135.167,35.243],[135.165,35.249],[135.161,35.254],[135.161,35.258],[135.157,35.261],[135.147,35.264],[135.142,35.262],[135.135,35.265],[135.129,35.261],[135.123,35.263],[135.119,35.263],[135.109,35.266],[135.1,35.26],[135.095,35.26],[135.09,35.254],[135.085,35.253],[135.083,35.246],[135.075,35.243],[135.073,35.24],[135.068,35.237],[135.064,35.242],[135.064,35.246],[135.061,35.249],[135.058,35.255],[135.057,35.264],[135.049,35.262],[135.042,35.264],[135.036,35.263],[135.019,35.268],[135.01,35.27],[135.012,35.281],[135.007,35.286],[135.004,35.286],[134.997,35.29],[134.993,35.289],[134.986,35.293],[134.976,35.295],[134.968,35.296],[134.96,35.298],[134.947,35.304],[134.946,35.307],[134.941,35.309],[134.938,35.308],[134.938,35.3],[134.931,35.297],[134.929,35.291],[134.925,35.289],[134.924,35.28],[134.916,35.273],[134.915,35.267],[134.907,35.261],[134.903,35.254],[134.901,35.248],[134.904,35.239],[134.909,35.235],[134.907,35.229],[134.9,35.228],[134.905,35.223],[134.909,35.222],[134.914,35.218],[134.915,35.214],[134.919,35.212],[134.929,35.213],[134.936,35.216],[134.941,35.214],[134.947,35.215],[134.951,35.209],[134.952,35.203],[134.948,35.196],[134.957,35.19],[134.947,35.176],[134.951,35.167],[134.951,35.161],[134.948,35.156],[134.958,35.154],[134.961,35.147],[134.955,35.143],[134.942,35.132],[134.944,35.129],[134.943,35.124],[134.938,35.118],[134.933,35.116],[134.93,35.108],[134.946,35.094],[134.943,35.087],[134.947,35.077],[134.947,35.071],[134.96,35.068],[134.968,35.071],[134.973,35.072],[134.979,35.07],[134.984,35.071],[134.991,35.069],[134.999,35.069],[135.012,35.072],[135.019,35.071],[135.025,35.072],[135.025,35.062],[135.026,35.058],[135.031,35.055],[135.038,35.053],[135.049,35.053],[135.052,35.052],[135.06,35.054],[135.063,35.047],[135.069,35.048],[135.081,35.051],[135.086,35.054],[135.096,35.055]]]]}},{"type":"Feature","properties":{"name":"南あわじ市","code":"28224"},"geometry":{"type":"MultiPolygon","coordinates":[[[[134.821,34.18],[134.819,34.168],[134.815,34.168],[134.812,34.165],[134.811,34.157],[134.821,34.157],[134.831,34.165],[134.831,34.172],[134.821,34.18]]],[[[134.741,34.352],[134.734,34.34],[134.731,34.335],[134.725,34.329],[134.717,34.328],[134.713,34.322],[134.706,34.321],[134.703,34.324],[134.693,34.324],[134.688,34.33],[134.686,34.326],[134.682,34.32],[134.674,34.318],[134.668,34.306],[134.662,34.297],[134.658,34.295],[134.663,34.289],[134.662,34.277],[134.659,34.272],[134.667,34.272],[134.672,34.269],[134.673,34.26],[134.676,34.256],[134.672,34.25],[134.674,34.245],[134.682,34.248],[134.686,34.247],[134.695,34.248],[134.7,34.244],[134.701,34.241],[134.707,34.244],[134.705,34.248],[134.713,34.255],[134.718,34.257],[134.722,34.25],[134.721,34.245],[134.715,34.24],[134.71,34.239],[134.707,34.232],[134.703,34.229],[134.7,34.222],[134.703,34.217],[134.711,34.217],[134.719,34.215],[134.731,34.207],[134.732,34.199],[134.729,34.19],[134.734,34.189],[134.746,34.193],[134.755,34.195],[134.767,34.199],[134.775,34.2],[134.785,34.199],[134.8,34.2],[134.803,34.204],[134.815,34.208],[134.825,34.216],[134.829,34.222],[134.846,34.231],[134.861,34.235],[134.871,34.24],[134.868,34.244],[134.862,34.247],[134.857,34.252],[134.856,34.257],[134.85,34.258],[134.847,34.266],[134.835,34.27],[134.837,34.274],[134.837,34.277],[134.841,34.28],[134.842,34.287],[134.84,34.296],[134.842,34.3],[134.839,34.306],[134.835,34.309],[134.836,34.319],[134.84,34.316],[134.844,34.32],[134.843,34.325],[134.848,34.333],[134.84,34.334],[134.836,34.337],[134.826,34.339],[134.826,34.343],[134.819,34.347],[134.816,34.356],[134.81,34.353],[134.801,34.35],[134.788,34.348],[134.784,34.351],[134.78,34.349],[134.772,34.352],[134.766,34.349],[134.759,34.348],[134.758,34.353],[134.748,34.354],[134.741,34.352]]]]}},{"type":"Feature","properties":{"name":"美方郡香美町","code":"28585"},"geometry":{"type":"MultiPolygon","coordinates":[[[[134.733,35.658],[134.732,35.662],[134.728,35.662],[134.725,35.667],[134.711,35.665],[134.708,35.664],[134.709,35.658],[134.708,35.654],[134.703,35.655],[134.697,35.654],[134.692,35.66],[134.695,35.661],[134.694,35.665],[134.687,35.662],[134.687,35.656],[134.681,35.657],[134.676,35.66],[134.668,35.656],[134.663,35.648],[134.66,35.65],[134.667,35.663],[134.664,35.667],[134.654,35.664],[134.647,35.66],[134.645,35.654],[134.641,35.65],[134.63,35.65],[134.63,35.642],[134.622,35.64],[134.614,35.64],[134.613,35.644],[134.613,35.649],[134.609,35.649],[134.601,35.658],[134.593,35.655],[134.585,35.659],[134.579,35.66],[134.576,35.652],[134.571,35.657],[134.563,35.655],[134.563,35.652],[134.558,35.651],[134.557,35.656],[134.551,35.658],[134.546,35.665],[134.539,35.67],[134.535,35.667],[134.529,35.666],[134.523,35.667],[134.517,35.666],[134.519,35.662],[134.523,35.662],[134.528,35.653],[134.524,35.649],[134.526,35.643],[134.523,35.638],[134.535,35.625],[134.544,35.623],[134.548,35.626],[134.557,35.621],[134.564,35.621],[134.572,35.619],[134.575,35.615],[134.573,35.61],[134.579,35.601],[134.579,35.597],[134.587,35.593],[134.583,35.586],[134.584,35.577],[134.576,35.575],[134.569,35.568],[134.564,35.568],[134.551,35.564],[134.549,35.559],[134.543,35.556],[134.545,35.55],[134.546,35.539],[134.543,35.535],[134.544,35.53],[134.549,35.523],[134.547,35.519],[134.551,35.515],[134.549,35.511],[134.541,35.507],[134.536,35.509],[134.529,35.505],[134.525,35.508],[134.519,35.506],[134.498,35.491],[134.497,35.487],[134.492,35.486],[134.488,35.476],[134.487,35.47],[134.49,35.462],[134.488,35.451],[134.491,35.449],[134.486,35.439],[134.485,35.433],[134.477,35.429],[134.48,35.425],[134.477,35.415],[134.481,35.41],[134.477,35.4],[134.477,35.395],[134.474,35.392],[134.474,35.386],[134.471,35.38],[134.475,35.375],[134.483,35.373],[134.487,35.369],[134.503,35.366],[134.504,35.373],[134.508,35.379],[134.512,35.38],[134.519,35.389],[134.523,35.39],[134.529,35.394],[134.537,35.395],[134.538,35.392],[134.541,35.389],[134.55,35.39],[134.555,35.393],[134.566,35.392],[134.576,35.395],[134.586,35.39],[134.595,35.388],[134.601,35.388],[134.607,35.394],[134.608,35.4],[134.612,35.4],[134.618,35.407],[134.629,35.41],[134.636,35.41],[134.639,35.407],[134.645,35.411],[134.645,35.414],[134.649,35.42],[134.645,35.428],[134.636,35.432],[134.631,35.447],[134.631,35.455],[134.636,35.459],[134.635,35.466],[134.644,35.478],[134.64,35.486],[134.637,35.489],[134.637,35.494],[134.627,35.498],[134.624,35.501],[134.618,35.502],[134.619,35.505],[134.616,35.511],[134.617,35.52],[134.617,35.524],[134.624,35.522],[134.629,35.525],[134.633,35.525],[134.637,35.527],[134.639,35.535],[134.64,35.542],[134.645,35.542],[134.651,35.55],[134.654,35.565],[134.657,35.566],[134.662,35.572],[134.668,35.572],[134.682,35.573],[134.688,35.575],[134.692,35.578],[134.697,35.588],[134.71,35.601],[134.711,35.605],[134.71,35.61],[134.716,35.619],[134.715,35.626],[134.713,35.635],[134.718,35.637],[134.721,35.645],[134.731,35.652],[134.733,35.658]]]]}},{"type":"Feature","properties":{"name":"朝来市","code":"28225"},"geometry":{"type":"MultiPolygon","coordinates":[[[[134.857,35.408],[134.86,35.401],[134.863,35.394],[134.863,35.387],[134.85,35.375],[134.838,35.374],[134.834,35.376],[134.823,35.374],[134.819,35.369],[134.815,35.37],[134.81,35.362],[134.804,35.358],[134.798,35.357],[134.795,35.351],[134.798,35.345],[134.798,35.342],[134.805,35.337],[134.798,35.331],[134.796,35.326],[134.79,35.324],[134.782,35.324],[134.773,35.319],[134.775,35.315],[134.775,35.31],[134.779,35.307],[134.789,35.303],[134.791,35.3],[134.795,35.298],[134.794,35.294],[134.795,35.283],[134.791,35.28],[134.79,35.276],[134.771,35.27],[134.771,35.267],[134.759,35.266],[134.751,35.277],[134.745,35.278],[134.738,35.28],[134.732,35.279],[134.727,35.281],[134.72,35.276],[134.708,35.279],[134.7,35.286],[134.697,35.283],[134.69,35.275],[134.686,35.273],[134.698,35.262],[134.7,35.254],[134.696,35.253],[134.694,35.249],[134.697,35.242],[134.69,35.235],[134.692,35.232],[134.697,35.229],[134.699,35.224],[134.698,35.214],[134.704,35.211],[134.71,35.212],[134.714,35.205],[134.72,35.202],[134.721,35.196],[134.728,35.193],[134.727,35.189],[134.721,35.186],[134.718,35.18],[134.723,35.175],[134.724,35.169],[134.728,35.166],[134.724,35.16],[134.73,35.147],[134.735,35.141],[134.755,35.137],[134.759,35.142],[134.764,35.145],[134.767,35.136],[134.77,35.133],[134.774,35.126],[134.779,35.128],[134.781,35.135],[134.786,35.138],[134.79,35.142],[134.797,35.142],[134.805,35.14],[134.814,35.142],[134.825,35.135],[134.835,35.14],[134.845,35.149],[134.846,35.156],[134.844,35.162],[134.855,35.166],[134.867,35.168],[134.868,35.171],[134.879,35.175],[134.882,35.18],[134.883,35.185],[134.887,35.189],[134.892,35.194],[134.901,35.195],[134.916,35.206],[134.919,35.212],[134.915,35.214],[134.914,35.218],[134.909,35.222],[134.905,35.223],[134.9,35.228],[134.907,35.229],[134.909,35.235],[134.904,35.239],[134.901,35.248],[134.903,35.254],[134.907,35.261],[134.915,35.267],[134.916,35.273],[134.923,35.277],[134.925,35.289],[134.929,35.291],[134.931,35.297],[134.938,35.3],[134.938,35.308],[134.934,35.308],[134.925,35.312],[134.921,35.317],[134.926,35.322],[134.925,35.326],[134.928,35.33],[134.926,35.337],[134.917,35.34],[134.919,35.35],[134.923,35.354],[134.919,35.364],[134.92,35.368],[134.927,35.377],[134.927,35.386],[134.923,35.391],[134.928,35.4],[134.932,35.401],[134.934,35.407],[134.929,35.414],[134.924,35.417],[134.92,35.421],[134.915,35.422],[134.911,35.418],[134.903,35.414],[134.902,35.404],[134.889,35.405],[134.879,35.404],[134.863,35.41],[134.857,35.408]]]]}},{"type":"Feature","properties":{"name":"淡路市","code":"28226"},"geometry":{"type":"MultiPolygon","coordinates":[[[[134.895,34.399],[134.899,34.409],[134.901,34.419],[134.911,34.43],[134.907,34.433],[134.912,34.437],[134.916,34.435],[134.924,34.444],[134.919,34.444],[134.922,34.449],[134.926,34.447],[134.934,34.455],[134.943,34.466],[134.945,34.471],[134.953,34.483],[134.958,34.489],[134.969,34.496],[134.973,34.497],[134.98,34.504],[134.981,34.508],[134.986,34.513],[134.993,34.523],[134.995,34.546],[135.007,34.556],[135.013,34.56],[135.018,34.564],[135.026,34.577],[135.025,34.581],[135.021,34.59],[135.017,34.591],[135.012,34.596],[135.01,34.602],[135.002,34.609],[134.992,34.607],[134.984,34.604],[134.977,34.598],[134.97,34.589],[134.966,34.586],[134.96,34.576],[134.947,34.561],[134.941,34.557],[134.935,34.549],[134.931,34.547],[134.926,34.549],[134.92,34.544],[134.913,34.536],[134.91,34.536],[134.897,34.529],[134.888,34.53],[134.882,34.525],[134.879,34.524],[134.874,34.515],[134.869,34.513],[134.864,34.505],[134.855,34.489],[134.847,34.477],[134.843,34.474],[134.836,34.467],[134.831,34.466],[134.819,34.468],[134.816,34.464],[134.81,34.459],[134.804,34.45],[134.799,34.449],[134.796,34.446],[134.79,34.428],[134.796,34.426],[134.799,34.424],[134.808,34.424],[134.812,34.426],[134.814,34.423],[134.82,34.42],[134.827,34.42],[134.833,34.422],[134.839,34.422],[134.843,34.42],[134.842,34.412],[134.848,34.404],[134.854,34.402],[134.858,34.404],[134.864,34.414],[134.874,34.412],[134.881,34.404],[134.88,34.394],[134.895,34.399]]]]}},{"type":"Feature","properties":{"name":"宍粟市","code":"28227"},"geometry":{"type":"MultiPolygon","coordinates":[[[[134.672,35.093],[134.664,35.099],[134.665,35.105],[134.661,35.109],[134.656,35.11],[134.657,35.115],[134.663,35.123],[134.658,35.127],[134.657,35.133],[134.664,35.139],[134.671,35.153],[134.672,35.16],[134.669,35.164],[134.67,35.168],[134.677,35.17],[134.682,35.168],[134.687,35.17],[134.693,35.174],[134.698,35.184],[134.702,35.185],[134.706,35.183],[134.713,35.185],[134.721,35.186],[134.727,35.189],[134.728,35.193],[134.721,35.196],[134.72,35.202],[134.714,35.205],[134.71,35.212],[134.704,35.211],[134.698,35.214],[134.699,35.224],[134.697,35.229],[134.692,35.232],[134.69,35.235],[134.697,35.242],[134.694,35.249],[134.689,35.247],[134.685,35.242],[134.677,35.244],[134.67,35.25],[134.669,35.256],[134.663,35.256],[134.661,35.252],[134.654,35.253],[134.651,35.257],[134.651,35.262],[134.641,35.272],[134.634,35.279],[134.628,35.281],[134.62,35.278],[134.613,35.269],[134.604,35.266],[134.601,35.267],[134.59,35.275],[134.581,35.282],[134.579,35.296],[134.572,35.298],[134.561,35.307],[134.55,35.309],[134.545,35.314],[134.538,35.318],[134.534,35.322],[134.529,35.323],[134.524,35.326],[134.524,35.329],[134.519,35.33],[134.507,35.339],[134.502,35.327],[134.505,35.316],[134.515,35.308],[134.512,35.305],[134.512,35.3],[134.509,35.294],[134.513,35.287],[134.513,35.28],[134.505,35.272],[134.502,35.269],[134.495,35.267],[134.49,35.261],[134.484,35.26],[134.482,35.255],[134.477,35.249],[134.471,35.248],[134.462,35.243],[134.464,35.237],[134.448,35.238],[134.444,35.237],[134.44,35.232],[134.435,35.229],[134.423,35.236],[134.415,35.239],[134.403,35.241],[134.4,35.237],[134.397,35.228],[134.383,35.222],[134.381,35.218],[134.381,35.206],[134.384,35.194],[134.395,35.191],[134.4,35.188],[134.411,35.187],[134.413,35.178],[134.407,35.17],[134.406,35.166],[134.411,35.163],[134.413,35.159],[134.412,35.152],[134.409,35.148],[134.412,35.146],[134.416,35.139],[134.411,35.132],[134.413,35.127],[134.413,35.124],[134.418,35.122],[134.429,35.122],[134.434,35.118],[134.436,35.111],[134.444,35.107],[134.446,35.103],[134.438,35.096],[134.442,35.09],[134.44,35.082],[134.435,35.077],[134.435,35.072],[134.437,35.062],[134.439,35.057],[134.44,35.049],[134.438,35.042],[134.443,35.035],[134.45,35.034],[134.462,35.034],[134.465,35.036],[134.473,35.029],[134.477,35.029],[134.48,35.02],[134.487,35.013],[134.485,35.007],[134.489,35.009],[134.493,35.001],[134.498,35.002],[134.508,35.003],[134.511,35.001],[134.508,34.989],[134.515,34.978],[134.519,34.974],[134.524,34.974],[134.531,34.972],[134.536,34.968],[134.541,34.969],[134.545,34.972],[134.552,34.975],[134.553,34.972],[134.548,34.968],[134.549,34.956],[134.554,34.953],[134.563,34.956],[134.57,34.954],[134.574,34.964],[134.573,34.968],[134.568,34.969],[134.564,34.972],[134.567,34.982],[134.57,34.986],[134.575,34.988],[134.579,34.987],[134.579,34.994],[134.585,35.0],[134.583,35.006],[134.589,35.012],[134.592,35.016],[134.594,35.023],[134.592,35.026],[134.591,35.035],[134.594,35.041],[134.598,35.05],[134.605,35.062],[134.606,35.069],[134.614,35.078],[134.618,35.085],[134.624,35.086],[134.625,35.082],[134.637,35.088],[134.65,35.088],[134.66,35.081],[134.664,35.09],[134.672,35.093]]]]}},{"type":"Feature","properties":{"name":"加東市","code":"28228"},"geometry":{"type":"MultiPolygon","coordinates":[[[[134.93,34.958],[134.934,34.95],[134.934,34.934],[134.926,34.93],[134.918,34.928],[134.905,34.934],[134.902,34.929],[134.904,34.923],[134.909,34.919],[134.907,34.915],[134.902,34.917],[134.897,34.911],[134.905,34.912],[134.907,34.909],[134.91,34.911],[134.913,34.906],[134.916,34.912],[134.922,34.914],[134.93,34.913],[134.929,34.908],[134.937,34.903],[134.938,34.898],[134.936,34.891],[134.931,34.885],[134.934,34.882],[134.939,34.882],[134.942,34.885],[134.954,34.883],[134.956,34.887],[134.964,34.884],[134.967,34.892],[134.973,34.894],[134.973,34.897],[134.984,34.898],[134.997,34.901],[135.003,34.899],[135.003,34.893],[135.005,34.889],[135.01,34.889],[135.014,34.883],[135.017,34.885],[135.023,34.879],[135.022,34.876],[135.027,34.866],[135.025,34.853],[135.036,34.856],[135.041,34.862],[135.047,34.861],[135.053,34.863],[135.063,34.872],[135.064,34.877],[135.062,34.884],[135.068,34.887],[135.076,34.886],[135.086,34.886],[135.094,34.892],[135.094,34.896],[135.104,34.909],[135.105,34.914],[135.108,34.916],[135.111,34.924],[135.118,34.929],[135.112,34.928],[135.108,34.93],[135.104,34.938],[135.102,34.945],[135.097,34.949],[135.092,34.957],[135.093,34.965],[135.095,34.981],[135.094,34.991],[135.082,34.989],[135.079,34.996],[135.073,34.993],[135.073,34.999],[135.07,35.003],[135.067,35.002],[135.059,35.009],[135.055,35.004],[135.05,35.003],[135.045,34.997],[135.045,34.987],[135.05,34.985],[135.052,34.982],[135.051,34.977],[135.045,34.974],[135.041,34.969],[135.037,34.968],[135.032,34.965],[135.028,34.967],[135.024,34.965],[135.015,34.966],[135.01,34.962],[135.004,34.965],[135.001,34.96],[134.996,34.959],[134.984,34.96],[134.981,34.956],[134.973,34.953],[134.967,34.955],[134.963,34.961],[134.959,34.959],[134.953,34.959],[134.945,34.96],[134.937,34.959],[134.934,34.961],[134.93,34.958]]]]}},{"type":"Feature","properties":{"name":"たつの市","code":"28229"},"geometry":{"type":"MultiPolygon","coordinates":[[[[134.557,34.809],[134.557,34.816],[134.558,34.824],[134.557,34.829],[134.561,34.833],[134.56,34.838],[134.566,34.844],[134.577,34.845],[134.579,34.854],[134.585,34.86],[134.585,34.864],[134.587,34.87],[134.592,34.873],[134.598,34.88],[134.598,34.887],[134.598,34.895],[134.593,34.898],[134.577,34.895],[134.571,34.896],[134.563,34.903],[134.566,34.909],[134.572,34.911],[134.568,34.927],[134.568,34.931],[134.573,34.935],[134.573,34.948],[134.57,34.954],[134.563,34.956],[134.554,34.953],[134.549,34.956],[134.548,34.968],[134.553,34.972],[134.552,34.975],[134.545,34.972],[134.541,34.969],[134.536,34.968],[134.531,34.972],[134.524,34.974],[134.519,34.974],[134.515,34.978],[134.508,34.989],[134.511,35.001],[134.508,35.003],[134.498,35.002],[134.493,35.001],[134.489,35.009],[134.485,35.007],[134.476,34.994],[134.477,34.99],[134.474,34.988],[134.474,34.982],[134.476,34.979],[134.467,34.977],[134.462,34.969],[134.449,34.97],[134.444,34.967],[134.44,34.967],[134.432,34.96],[134.429,34.956],[134.427,34.95],[134.43,34.945],[134.433,34.945],[134.445,34.939],[134.445,34.934],[134.449,34.932],[134.447,34.927],[134.452,34.92],[134.447,34.913],[134.449,34.909],[134.461,34.91],[134.471,34.911],[134.475,34.921],[134.485,34.922],[134.481,34.917],[134.48,34.911],[134.491,34.905],[134.489,34.9],[134.496,34.893],[134.49,34.891],[134.488,34.887],[134.492,34.884],[134.485,34.88],[134.484,34.874],[134.481,34.87],[134.476,34.865],[134.471,34.863],[134.466,34.864],[134.467,34.848],[134.471,34.849],[134.475,34.847],[134.476,34.843],[134.481,34.839],[134.479,34.835],[134.482,34.83],[134.488,34.826],[134.491,34.826],[134.498,34.83],[134.499,34.819],[134.504,34.813],[134.501,34.809],[134.502,34.802],[134.498,34.798],[134.498,34.793],[134.503,34.785],[134.498,34.781],[134.488,34.776],[134.483,34.776],[134.48,34.772],[134.477,34.772],[134.478,34.765],[134.474,34.755],[134.481,34.76],[134.481,34.766],[134.486,34.769],[134.491,34.767],[134.494,34.772],[134.5,34.774],[134.503,34.773],[134.501,34.769],[134.505,34.761],[134.509,34.766],[134.519,34.773],[134.523,34.779],[134.527,34.783],[134.53,34.782],[134.532,34.777],[134.537,34.775],[134.54,34.771],[134.548,34.773],[134.554,34.772],[134.56,34.769],[134.558,34.764],[134.57,34.758],[134.571,34.765],[134.571,34.773],[134.574,34.779],[134.573,34.789],[134.57,34.796],[134.559,34.806],[134.557,34.809]]]]}},{"type":"Feature","properties":{"name":"川辺郡猪名川町","code":"28301"},"geometry":{"type":"MultiPolygon","coordinates":[[[[135.361,34.864],[135.364,34.869],[135.365,34.874],[135.37,34.873],[135.384,34.878],[135.379,34.886],[135.381,34.891],[135.389,34.897],[135.391,34.902],[135.397,34.906],[135.402,34.914],[135.411,34.921],[135.41,34.925],[135.407,34.928],[135.416,34.93],[135.418,34.934],[135.416,34.941],[135.41,34.94],[135.407,34.944],[135.396,34.944],[135.392,34.941],[135.387,34.947],[135.388,34.951],[135.382,34.956],[135.375,34.955],[135.364,34.956],[135.361,34.954],[135.354,34.963],[135.345,34.967],[135.349,34.972],[135.349,34.976],[135.352,34.98],[135.36,34.983],[135.353,34.99],[135.354,35.001],[135.352,35.004],[135.355,35.007],[135.354,35.013],[135.356,35.017],[135.355,35.025],[135.347,35.027],[135.34,35.026],[135.323,35.025],[135.321,35.019],[135.321,35.014],[135.317,35.015],[135.314,35.012],[135.308,35.01],[135.294,35.014],[135.288,35.012],[135.286,34.997],[135.298,34.997],[135.303,34.995],[135.305,34.99],[135.31,34.985],[135.302,34.982],[135.298,34.974],[135.302,34.963],[135.305,34.962],[135.309,34.96],[135.314,34.96],[135.316,34.952],[135.321,34.944],[135.327,34.941],[135.325,34.934],[135.331,34.932],[135.333,34.925],[135.334,34.917],[135.34,34.916],[135.342,34.911],[135.339,34.908],[135.339,34.903],[135.332,34.902],[135.33,34.898],[135.325,34.899],[135.324,34.894],[135.33,34.893],[135.334,34.893],[135.337,34.887],[135.339,34.876],[135.344,34.875],[135.349,34.869],[135.351,34.864],[135.356,34.865],[135.361,34.864]]]]}},{"type":"Feature","properties":{"name":"多可郡多可町","code":"28365"},"geometry":{"type":"MultiPolygon","coordinates":[[[[134.979,35.07],[134.973,35.072],[134.968,35.071],[134.963,35.066],[134.949,35.069],[134.947,35.077],[134.943,35.087],[134.946,35.094],[134.93,35.108],[134.933,35.116],[134.938,35.118],[134.943,35.124],[134.944,35.129],[134.942,35.132],[134.955,35.143],[134.961,35.147],[134.961,35.152],[134.949,35.154],[134.951,35.161],[134.951,35.167],[134.947,35.176],[134.957,35.19],[134.948,35.196],[134.952,35.203],[134.951,35.209],[134.947,35.215],[134.941,35.214],[134.936,35.216],[134.929,35.213],[134.919,35.212],[134.916,35.206],[134.901,35.195],[134.906,35.192],[134.908,35.189],[134.907,35.183],[134.903,35.182],[134.898,35.171],[134.902,35.169],[134.904,35.161],[134.895,35.153],[134.894,35.149],[134.891,35.146],[134.886,35.146],[134.875,35.14],[134.874,35.134],[134.871,35.128],[134.866,35.125],[134.867,35.121],[134.861,35.115],[134.854,35.113],[134.85,35.103],[134.854,35.093],[134.856,35.089],[134.85,35.086],[134.845,35.084],[134.845,35.079],[134.842,35.076],[134.842,35.07],[134.835,35.064],[134.836,35.06],[134.841,35.058],[134.848,35.047],[134.84,35.041],[134.838,35.038],[134.84,35.033],[134.848,35.024],[134.847,35.018],[134.851,35.01],[134.861,35.006],[134.86,34.999],[134.862,34.985],[134.866,34.981],[134.869,34.984],[134.873,34.98],[134.877,34.983],[134.892,34.981],[134.899,34.987],[134.903,34.981],[134.915,34.984],[134.92,34.982],[134.928,34.992],[134.928,34.998],[134.928,35.008],[134.934,35.012],[134.934,35.017],[134.948,35.024],[134.946,35.029],[134.949,35.033],[134.943,35.034],[134.946,35.038],[134.955,35.037],[134.958,35.032],[134.962,35.031],[134.965,35.037],[134.972,35.038],[134.971,35.046],[134.966,35.051],[134.964,35.055],[134.977,35.062],[134.979,35.07]]]]}},{"type":"Feature","properties":{"name":"加古郡稲美町","code":"28381"},"geometry":{"type":"MultiPolygon","coordinates":[[[[134.961,34.763],[134.959,34.769],[134.963,34.777],[134.954,34.778],[134.947,34.777],[134.942,34.78],[134.935,34.779],[134.932,34.768],[134.919,34.776],[134.911,34.775],[134.907,34.772],[134.897,34.777],[134.892,34.771],[134.893,34.765],[134.884,34.764],[134.881,34.76],[134.88,34.756],[134.888,34.745],[134.884,34.743],[134.888,34.739],[134.89,34.733],[134.893,34.733],[134.899,34.729],[134.9,34.726],[134.907,34.725],[134.912,34.721],[134.918,34.726],[134.927,34.727],[134.936,34.731],[134.949,34.733],[134.954,34.737],[134.966,34.752],[134.961,34.763]]]]}},{"type":"Feature","properties":{"name":"加古郡播磨町","code":"28382"},"geometry":{"type":"MultiPolygon","coordinates":[[[[134.867,34.696],[134.862,34.697],[134.857,34.692],[134.863,34.69],[134.867,34.696]]],[[[134.856,34.71],[134.853,34.706],[134.846,34.708],[134.84,34.697],[134.853,34.694],[134.858,34.7],[134.862,34.707],[134.856,34.71]]],[[[134.891,34.721],[134.886,34.724],[134.88,34.73],[134.874,34.727],[134.865,34.728],[134.857,34.726],[134.849,34.721],[134.847,34.715],[134.866,34.708],[134.871,34.703],[134.876,34.709],[134.881,34.71],[134.885,34.719],[134.891,34.721]]]]}},{"type":"Feature","properties":{"name":"神崎郡市川町","code":"28442"},"geometry":{"type":"MultiPolygon","coordinates":[[[[134.706,35.02],[134.713,35.018],[134.72,35.014],[134.721,35.009],[134.725,35.007],[134.733,34.994],[134.732,34.987],[134.743,34.985],[134.747,34.98],[134.756,34.978],[134.763,34.978],[134.764,34.973],[134.762,34.964],[134.77,34.968],[134.775,34.968],[134.782,34.969],[134.788,34.972],[134.796,34.97],[134.805,34.97],[134.809,34.971],[134.812,34.977],[134.813,34.985],[134.822,34.989],[134.828,34.991],[134.834,34.998],[134.833,35.005],[134.847,35.018],[134.848,35.024],[134.84,35.033],[134.838,35.038],[134.84,35.041],[134.848,35.047],[134.841,35.058],[134.836,35.06],[134.82,35.058],[134.813,35.056],[134.809,35.052],[134.809,35.049],[134.803,35.043],[134.794,35.038],[134.79,35.041],[134.783,35.038],[134.775,35.041],[134.768,35.04],[134.761,35.044],[134.754,35.043],[134.748,35.039],[134.74,35.041],[134.737,35.045],[134.738,35.049],[134.73,35.054],[134.72,35.053],[134.718,35.044],[134.721,35.042],[134.721,35.036],[134.714,35.034],[134.71,35.032],[134.708,35.023],[134.706,35.02]]]]}},{"type":"Feature","properties":{"name":"神崎郡福崎町","code":"28443"},"geometry":{"type":"MultiPolygon","coordinates":[[[[134.794,34.918],[134.794,34.929],[134.799,34.933],[134.8,34.936],[134.799,34.949],[134.796,34.953],[134.804,34.961],[134.805,34.97],[134.799,34.971],[134.788,34.972],[134.782,34.969],[134.775,34.968],[134.77,34.968],[134.762,34.964],[134.764,34.973],[134.763,34.978],[134.756,34.978],[134.747,34.98],[134.743,34.985],[134.732,34.987],[134.733,34.994],[134.725,35.004],[134.721,35.009],[134.72,35.014],[134.713,35.018],[134.706,35.02],[134.698,35.018],[134.695,35.012],[134.699,35.01],[134.701,35.001],[134.708,34.999],[134.712,34.994],[134.709,34.983],[134.705,34.98],[134.706,34.974],[134.713,34.973],[134.717,34.966],[134.718,34.962],[134.715,34.957],[134.718,34.953],[134.725,34.948],[134.725,34.944],[134.729,34.943],[134.729,34.938],[134.747,34.938],[134.751,34.935],[134.756,34.936],[134.765,34.935],[134.77,34.924],[134.779,34.923],[134.785,34.918],[134.792,34.92]]]]}},{"type":"Feature","properties":{"name":"神崎郡神河町","code":"28446"},"geometry":{"type":"MultiPolygon","coordinates":[[[[134.72,35.053],[134.73,35.054],[134.738,35.049],[134.737,35.045],[134.74,35.041],[134.748,35.039],[134.754,35.043],[134.761,35.044],[134.768,35.04],[134.775,35.041],[134.783,35.038],[134.79,35.041],[134.794,35.038],[134.803,35.043],[134.809,35.049],[134.809,35.052],[134.813,35.056],[134.82,35.058],[134.834,35.059],[134.835,35.064],[134.842,35.07],[134.842,35.076],[134.845,35.079],[134.845,35.084],[134.85,35.086],[134.856,35.089],[134.854,35.093],[134.85,35.103],[134.854,35.113],[134.861,35.115],[134.867,35.121],[134.866,35.125],[134.871,35.128],[134.874,35.134],[134.875,35.14],[134.886,35.146],[134.891,35.146],[134.894,35.149],[134.895,35.153],[134.904,35.161],[134.902,35.169],[134.898,35.171],[134.903,35.182],[134.907,35.183],[134.908,35.189],[134.906,35.192],[134.901,35.195],[134.892,35.194],[134.886,35.192],[134.883,35.185],[134.882,35.18],[134.879,35.175],[134.868,35.171],[134.867,35.168],[134.855,35.166],[134.844,35.162],[134.846,35.156],[134.845,35.149],[134.835,35.14],[134.825,35.135],[134.814,35.142],[134.805,35.14],[134.797,35.142],[134.79,35.142],[134.786,35.138],[134.781,35.135],[134.779,35.128],[134.774,35.126],[134.77,35.133],[134.767,35.136],[134.764,35.145],[134.759,35.142],[134.755,35.137],[134.735,35.141],[134.73,35.147],[134.724,35.16],[134.728,35.166],[134.724,35.169],[134.723,35.175],[134.718,35.18],[134.721,35.186],[134.715,35.187],[134.706,35.183],[134.702,35.185],[134.698,35.184],[134.693,35.174],[134.687,35.17],[134.682,35.168],[134.677,35.17],[134.67,35.168],[134.669,35.164],[134.672,35.16],[134.67,35.155],[134.664,35.139],[134.657,35.133],[134.658,35.127],[134.663,35.126],[134.657,35.115],[134.656,35.11],[134.661,35.109],[134.665,35.105],[134.664,35.099],[134.672,35.093],[134.675,35.094],[134.683,35.093],[134.683,35.085],[134.686,35.082],[134.701,35.076],[134.698,35.069],[134.702,35.064],[134.702,35.058],[134.71,35.054],[134.717,35.057],[134.72,35.053]]]]}},{"type":"Feature","properties":{"name":"揖保郡太子町","code":"28464"},"geometry":{"type":"MultiPolygon","coordinates":[[[[134.585,34.86],[134.579,34.854],[134.577,34.845],[134.568,34.842],[134.56,34.838],[134.561,34.833],[134.557,34.829],[134.558,34.824],[134.556,34.819],[134.557,34.809],[134.565,34.807],[134.578,34.809],[134.578,34.813],[134.581,34.813],[134.581,34.82],[134.59,34.824],[134.596,34.828],[134.604,34.826],[134.606,34.822],[134.603,34.82],[134.62,34.818],[134.623,34.821],[134.627,34.821],[134.63,34.828],[134.628,34.838],[134.623,34.84],[134.623,34.843],[134.615,34.846],[134.619,34.85],[134.61,34.852],[134.6,34.852],[134.6,34.856],[134.597,34.858],[134.589,34.856],[134.585,34.86]]]]}},{"type":"Feature","properties":{"name":"赤穂郡上郡町","code":"28481"},"geometry":{"type":"MultiPolygon","coordinates":[[[[134.449,34.909],[134.447,34.913],[134.452,34.92],[134.447,34.927],[134.449,34.932],[134.445,34.934],[134.445,34.939],[134.433,34.945],[134.43,34.945],[134.425,34.942],[134.415,34.938],[134.403,34.938],[134.398,34.938],[134.387,34.937],[134.377,34.942],[134.372,34.94],[134.36,34.942],[134.354,34.941],[134.352,34.934],[134.344,34.931],[134.339,34.925],[134.335,34.925],[134.328,34.933],[134.333,34.937],[134.326,34.938],[134.325,34.934],[134.32,34.932],[134.314,34.928],[134.307,34.926],[134.298,34.921],[134.3,34.914],[134.295,34.907],[134.294,34.903],[134.289,34.898],[134.278,34.895],[134.269,34.889],[134.267,34.883],[134.262,34.882],[134.267,34.875],[134.26,34.867],[134.258,34.863],[134.254,34.857],[134.255,34.849],[134.261,34.847],[134.265,34.837],[134.262,34.831],[134.266,34.826],[134.273,34.827],[134.283,34.83],[134.288,34.827],[134.288,34.822],[134.296,34.818],[134.299,34.823],[134.308,34.825],[134.314,34.823],[134.315,34.826],[134.322,34.827],[134.323,34.833],[134.321,34.839],[134.323,34.846],[134.334,34.85],[134.338,34.853],[134.344,34.845],[134.352,34.847],[134.357,34.846],[134.365,34.842],[134.367,34.847],[134.366,34.856],[134.373,34.856],[134.379,34.85],[134.383,34.841],[134.386,34.84],[134.392,34.844],[134.399,34.846],[134.402,34.85],[134.408,34.854],[134.412,34.852],[134.416,34.855],[134.416,34.864],[134.424,34.879],[134.419,34.882],[134.42,34.887],[134.426,34.895],[134.433,34.897],[134.434,34.904],[134.44,34.903],[134.443,34.905],[134.445,34.909],[134.449,34.909]]]]}},{"type":"Feature","properties":{"name":"佐用郡佐用町","code":"28501"},"geometry":{"type":"MultiPolygon","coordinates":[[[[134.409,35.148],[134.397,35.152],[134.388,35.151],[134.383,35.152],[134.378,35.149],[134.367,35.147],[134.362,35.14],[134.363,35.136],[134.361,35.129],[134.356,35.125],[134.361,35.12],[134.353,35.114],[134.352,35.111],[134.353,35.102],[134.35,35.094],[134.35,35.09],[134.337,35.089],[134.328,35.086],[134.319,35.083],[134.321,35.067],[134.317,35.066],[134.315,35.061],[134.314,35.051],[134.317,35.047],[134.316,35.043],[134.308,35.046],[134.305,35.04],[134.298,35.043],[134.293,35.039],[134.282,35.034],[134.275,35.023],[134.268,35.022],[134.269,35.018],[134.264,35.017],[134.266,35.005],[134.279,35.001],[134.282,34.997],[134.278,34.987],[134.271,34.984],[134.272,34.979],[134.277,34.976],[134.275,34.971],[134.274,34.966],[134.267,34.957],[134.267,34.954],[134.26,34.952],[134.258,34.948],[134.254,34.946],[134.254,34.939],[134.26,34.934],[134.263,34.938],[134.273,34.933],[134.276,34.93],[134.275,34.924],[134.278,34.922],[134.284,34.921],[134.284,34.917],[134.287,34.913],[134.295,34.907],[134.3,34.914],[134.298,34.921],[134.307,34.926],[134.314,34.928],[134.32,34.932],[134.325,34.934],[134.326,34.938],[134.333,34.937],[134.328,34.933],[134.335,34.925],[134.339,34.925],[134.344,34.931],[134.352,34.934],[134.354,34.941],[134.36,34.942],[134.372,34.94],[134.377,34.942],[134.387,34.937],[134.398,34.938],[134.403,34.938],[134.415,34.938],[134.425,34.942],[134.43,34.945],[134.427,34.95],[134.429,34.956],[134.432,34.96],[134.44,34.967],[134.444,34.967],[134.449,34.97],[134.462,34.969],[134.467,34.977],[134.476,34.979],[134.474,34.982],[134.474,34.988],[134.477,34.99],[134.476,34.994],[134.485,35.007],[134.487,35.013],[134.48,35.02],[134.477,35.029],[134.473,35.029],[134.465,35.036],[134.462,35.034],[134.45,35.034],[134.443,35.035],[134.436,35.039],[134.44,35.049],[134.436,35.054],[134.437,35.062],[134.435,35.072],[134.435,35.077],[134.44,35.082],[134.44,35.087],[134.438,35.096],[134.446,35.103],[134.444,35.107],[134.436,35.111],[134.434,35.118],[134.429,35.122],[134.42,35.12],[134.413,35.124],[134.413,35.127],[134.411,35.132],[134.416,35.139],[134.412,35.146],[134.409,35.148]]]]}},{"type":"Feature","properties":{"name":"美方郡新温泉町","code":"28586"},"geometry":{"type":"MultiPolygon","coordinates":[[[[134.517,35.666],[134.519,35.661],[134.512,35.658],[134.506,35.661],[134.501,35.658],[134.49,35.653],[134.48,35.647],[134.478,35.642],[134.472,35.639],[134.463,35.64],[134.46,35.635],[134.457,35.635],[134.453,35.629],[134.447,35.629],[134.435,35.633],[134.432,35.63],[134.436,35.623],[134.425,35.622],[134.421,35.624],[134.418,35.62],[134.403,35.617],[134.395,35.62],[134.388,35.618],[134.387,35.614],[134.375,35.613],[134.37,35.611],[134.382,35.603],[134.387,35.604],[134.393,35.601],[134.393,35.598],[134.402,35.595],[134.408,35.587],[134.407,35.579],[134.405,35.571],[134.41,35.563],[134.414,35.564],[134.421,35.563],[134.422,35.557],[134.425,35.552],[134.421,35.545],[134.423,35.535],[134.42,35.533],[134.421,35.529],[134.413,35.518],[134.414,35.514],[134.419,35.514],[134.424,35.509],[134.428,35.509],[134.431,35.502],[134.427,35.497],[134.43,35.492],[134.438,35.474],[134.434,35.47],[134.435,35.464],[134.438,35.461],[134.438,35.458],[134.44,35.448],[134.44,35.444],[134.446,35.442],[134.448,35.438],[134.452,35.436],[134.463,35.437],[134.472,35.43],[134.477,35.429],[134.485,35.433],[134.487,35.436],[134.491,35.449],[134.488,35.451],[134.49,35.462],[134.485,35.467],[134.485,35.474],[134.492,35.486],[134.497,35.487],[134.498,35.491],[134.517,35.508],[134.525,35.508],[134.529,35.505],[134.536,35.509],[134.541,35.507],[134.549,35.511],[134.551,35.515],[134.547,35.519],[134.549,35.523],[134.544,35.53],[134.543,35.535],[134.546,35.539],[134.543,35.547],[134.543,35.556],[134.549,35.559],[134.551,35.564],[134.564,35.568],[134.569,35.568],[134.576,35.575],[134.584,35.577],[134.583,35.586],[134.587,35.593],[134.579,35.597],[134.579,35.601],[134.573,35.61],[134.575,35.615],[134.572,35.619],[134.564,35.621],[134.557,35.621],[134.548,35.626],[134.544,35.623],[134.535,35.625],[134.523,35.638],[134.526,35.643],[134.524,35.649],[134.528,35.653],[134.523,35.662],[134.519,35.662],[134.517,35.666]]]]}}]}