{"type":"FeatureCollection","features":[{"type":"Feature","properties":{"name":"奈良市","code":"29201"},"geometry":{"type":"MultiPolygon","coordinates":[[[[136.055,34.703],[136.071,34.715],[136.068,34.724],[136.055,34.738],[136.042,34.734],[136.039,34.72],[136.029,34.714],[136.027,34.706],[135.986,34.715],[135.981,34.737],[135.973,34.742],[135.958,34.741],[135.955,34.748],[135.941,34.739],[135.932,34.738],[135.916,34.754],[135.903,34.733],[135.897,34.731],[135.89,34.709],[135.876,34.714],[135.863,34.706],[135.849,34.706],[135.839,34.712],[135.82,34.712],[135.804,34.722],[135.782,34.723],[135.756,34.728],[135.742,34.726],[135.729,34.71],[135.719,34.706],[135.716,34.697],[135.727,34.665],[135.754,34.657],[135.771,34.661],[135.794,34.661],[135.797,34.653],[135.816,34.648],[135.824,34.637],[135.846,34.638],[135.855,34.62],[135.867,34.621],[135.879,34.613],[135.892,34.61],[135.895,34.633],[135.915,34.629],[135.926,34.632],[135.931,34.642],[135.94,34.642],[135.948,34.631],[135.946,34.621],[135.938,34.613],[135.939,34.599],[135.925,34.59],[135.944,34.567],[135.946,34.56],[135.972,34.559],[135.977,34.565],[135.978,34.581],[135.97,34.589],[135.98,34.595],[135.979,34.602],[136.0,34.619],[135.993,34.628],[136.0,34.641],[135.981,34.665],[135.979,34.656],[135.959,34.653],[135.96,34.671],[135.953,34.681],[135.98,34.691],[136.009,34.683],[136.018,34.685],[136.021,34.695],[136.043,34.703],[136.055,34.703]]]]}},{"type":"Feature","properties":{"name":"大和高田市","code":"29202"},"geometry":{"type":"MultiPolygon","coordinates":[[[[135.764,34.529],[135.76,34.532],[135.73,34.529],[135.72,34.531],[135.714,34.519],[135.719,34.51],[135.73,34.51],[135.735,34.492],[135.747,34.492],[135.751,34.482],[135.754,34.477],[135.761,34.484],[135.758,34.498],[135.764,34.529]]]]}},{"type":"Feature","properties":{"name":"大和郡山市","code":"29203"},"geometry":{"type":"MultiPolygon","coordinates":[[[[135.727,34.665],[135.73,34.659],[135.722,34.647],[135.726,34.635],[135.757,34.619],[135.768,34.597],[135.786,34.596],[135.795,34.602],[135.795,34.612],[135.813,34.61],[135.813,34.623],[135.824,34.625],[135.824,34.637],[135.816,34.648],[135.797,34.653],[135.794,34.661],[135.771,34.661],[135.754,34.657],[135.727,34.665]]]]}},{"type":"Feature","properties":{"name":"天理市","code":"29204"},"geometry":{"type":"MultiPolygon","coordinates":[[[[135.824,34.637],[135.824,34.625],[135.813,34.623],[135.813,34.61],[135.795,34.612],[135.795,34.602],[135.786,34.596],[135.794,34.587],[135.787,34.58],[135.79,34.578],[135.805,34.584],[135.814,34.561],[135.826,34.549],[135.862,34.548],[135.882,34.559],[135.886,34.567],[135.896,34.569],[135.914,34.589],[135.925,34.59],[135.939,34.599],[135.938,34.613],[135.946,34.621],[135.948,34.631],[135.94,34.642],[135.931,34.642],[135.926,34.632],[135.915,34.629],[135.895,34.633],[135.892,34.61],[135.879,34.613],[135.867,34.621],[135.855,34.62],[135.846,34.638],[135.824,34.637]]]]}},{"type":"Feature","properties":{"name":"橿原市","code":"29205"},"geometry":{"type":"MultiPolygon","coordinates":[[[[135.754,34.477],[135.754,34.468],[135.764,34.465],[135.775,34.471],[135.788,34.467],[135.808,34.471],[135.811,34.49],[135.827,34.486],[135.826,34.511],[135.819,34.511],[135.818,34.535],[135.796,34.537],[135.77,34.535],[135.764,34.529],[135.758,34.498],[135.761,34.484],[135.754,34.477]]]]}},{"type":"Feature","properties":{"name":"桜井市","code":"29206"},"geometry":{"type":"MultiPolygon","coordinates":[[[[135.925,34.59],[135.914,34.589],[135.896,34.569],[135.886,34.567],[135.882,34.559],[135.862,34.548],[135.826,34.549],[135.818,34.535],[135.819,34.511],[135.826,34.511],[135.827,34.486],[135.828,34.481],[135.856,34.461],[135.867,34.443],[135.887,34.453],[135.893,34.463],[135.887,34.477],[135.899,34.488],[135.913,34.508],[135.912,34.519],[135.929,34.525],[135.929,34.531],[135.943,34.54],[135.94,34.55],[135.946,34.56],[135.944,34.567],[135.925,34.59]]]]}},{"type":"Feature","properties":{"name":"五條市","code":"29207"},"geometry":{"type":"MultiPolygon","coordinates":[[[[135.743,34.389],[135.731,34.386],[135.71,34.399],[135.697,34.398],[135.68,34.408],[135.676,34.399],[135.666,34.397],[135.651,34.383],[135.656,34.366],[135.664,34.355],[135.66,34.327],[135.668,34.326],[135.666,34.309],[135.675,34.288],[135.673,34.281],[135.683,34.27],[135.692,34.278],[135.718,34.263],[135.723,34.24],[135.73,34.232],[135.727,34.221],[135.71,34.209],[135.708,34.2],[135.698,34.196],[135.69,34.185],[135.707,34.174],[135.71,34.166],[135.728,34.161],[135.726,34.148],[135.73,34.139],[135.708,34.13],[135.7,34.12],[135.696,34.104],[135.684,34.095],[135.668,34.09],[135.665,34.084],[135.689,34.083],[135.712,34.09],[135.714,34.099],[135.757,34.153],[135.771,34.15],[135.789,34.134],[135.829,34.143],[135.848,34.139],[135.864,34.149],[135.883,34.151],[135.894,34.144],[135.905,34.144],[135.911,34.156],[135.904,34.17],[135.889,34.185],[135.874,34.179],[135.858,34.176],[135.861,34.19],[135.844,34.191],[135.826,34.181],[135.814,34.185],[135.796,34.176],[135.786,34.183],[135.766,34.185],[135.759,34.192],[135.746,34.195],[135.744,34.205],[135.752,34.222],[135.748,34.232],[135.773,34.241],[135.786,34.239],[135.792,34.232],[135.817,34.24],[135.819,34.25],[135.845,34.265],[135.843,34.27],[135.826,34.274],[135.822,34.28],[135.807,34.285],[135.793,34.283],[135.774,34.29],[135.78,34.308],[135.78,34.325],[135.77,34.326],[135.773,34.367],[135.772,34.38],[135.759,34.377],[135.757,34.385],[135.743,34.389]]]]}},{"type":"Feature","properties":{"name":"御所市","code":"29208"},"geometry":{"type":"MultiPolygon","coordinates":[[[[135.751,34.482],[135.741,34.471],[135.727,34.474],[135.702,34.465],[135.682,34.465],[135.687,34.451],[135.679,34.432],[135.665,34.424],[135.669,34.414],[135.68,34.408],[135.697,34.398],[135.71,34.399],[135.731,34.386],[135.743,34.389],[135.74,34.403],[135.749,34.406],[135.765,34.42],[135.759,34.429],[135.769,34.45],[135.764,34.465],[135.754,34.468],[135.754,34.477],[135.751,34.482]]]]}},{"type":"Feature","properties":{"name":"生駒市","code":"29209"},"geometry":{"type":"MultiPolygon","coordinates":[[[[135.756,34.728],[135.757,34.736],[135.746,34.747],[135.733,34.755],[135.729,34.777],[135.707,34.772],[135.71,34.756],[135.697,34.741],[135.702,34.722],[135.683,34.711],[135.673,34.702],[135.673,34.69],[135.679,34.678],[135.671,34.662],[135.686,34.66],[135.689,34.655],[135.707,34.648],[135.72,34.646],[135.73,34.659],[135.727,34.665],[135.716,34.697],[135.719,34.706],[135.729,34.71],[135.742,34.726],[135.756,34.728]]]]}},{"type":"Feature","properties":{"name":"香芝市","code":"29210"},"geometry":{"type":"MultiPolygon","coordinates":[[[[135.729,34.531],[135.728,34.544],[135.72,34.552],[135.706,34.548],[135.705,34.574],[135.681,34.575],[135.673,34.571],[135.658,34.561],[135.656,34.549],[135.663,34.53],[135.667,34.531],[135.696,34.536],[135.697,34.525],[135.714,34.519],[135.72,34.531],[135.729,34.531]]]]}},{"type":"Feature","properties":{"name":"葛城市","code":"29211"},"geometry":{"type":"MultiPolygon","coordinates":[[[[135.714,34.519],[135.697,34.525],[135.696,34.536],[135.667,34.531],[135.677,34.526],[135.679,34.493],[135.685,34.484],[135.682,34.465],[135.702,34.465],[135.727,34.474],[135.741,34.471],[135.751,34.482],[135.747,34.492],[135.735,34.492],[135.73,34.51],[135.719,34.51],[135.714,34.519]]]]}},{"type":"Feature","properties":{"name":"宇陀市","code":"29212"},"geometry":{"type":"MultiPolygon","coordinates":[[[[135.946,34.56],[135.94,34.55],[135.943,34.54],[135.929,34.531],[135.929,34.525],[135.912,34.519],[135.913,34.508],[135.899,34.488],[135.887,34.477],[135.893,34.463],[135.887,34.453],[135.897,34.443],[135.907,34.448],[135.919,34.445],[135.934,34.43],[135.945,34.427],[135.96,34.436],[135.976,34.437],[135.997,34.444],[136.007,34.444],[136.013,34.454],[136.025,34.455],[136.042,34.463],[136.054,34.479],[136.073,34.477],[136.068,34.486],[136.08,34.494],[136.086,34.509],[136.093,34.517],[136.09,34.526],[136.102,34.529],[136.098,34.54],[136.107,34.556],[136.083,34.559],[136.05,34.58],[136.052,34.593],[136.047,34.601],[136.062,34.62],[136.051,34.621],[136.025,34.635],[136.005,34.626],[135.993,34.628],[136.0,34.619],[135.979,34.602],[135.98,34.595],[135.97,34.589],[135.978,34.581],[135.977,34.565],[135.972,34.559],[135.946,34.56]]]]}},{"type":"Feature","properties":{"name":"山辺郡山添村","code":"29322"},"geometry":{"type":"MultiPolygon","coordinates":[[[[135.993,34.628],[136.005,34.626],[136.025,34.635],[136.051,34.621],[136.062,34.62],[136.074,34.634],[136.065,34.652],[136.078,34.659],[136.086,34.675],[136.075,34.698],[136.055,34.703],[136.043,34.703],[136.021,34.695],[136.018,34.685],[136.009,34.683],[135.98,34.691],[135.953,34.681],[135.96,34.671],[135.959,34.653],[135.979,34.656],[135.981,34.665],[136.0,34.641],[135.993,34.628]]]]}},{"type":"Feature","properties":{"name":"生駒郡平群町","code":"29342"},"geometry":{"type":"MultiPolygon","coordinates":[[[[135.671,34.662],[135.664,34.65],[135.663,34.63],[135.659,34.615],[135.669,34.608],[135.684,34.614],[135.698,34.616],[135.71,34.61],[135.719,34.621],[135.716,34.64],[135.72,34.646],[135.707,34.648],[135.689,34.655],[135.686,34.66],[135.671,34.662]]]]}},{"type":"Feature","properties":{"name":"生駒郡三郷町","code":"29343"},"geometry":{"type":"MultiPolygon","coordinates":[[[[135.659,34.615],[135.652,34.604],[135.675,34.602],[135.682,34.585],[135.709,34.599],[135.71,34.61],[135.698,34.616],[135.684,34.614],[135.669,34.608],[135.659,34.615]]]]}},{"type":"Feature","properties":{"name":"生駒郡斑鳩町","code":"29344"},"geometry":{"type":"MultiPolygon","coordinates":[[[[135.722,34.647],[135.716,34.64],[135.719,34.621],[135.71,34.61],[135.709,34.599],[135.716,34.595],[135.727,34.591],[135.742,34.593],[135.741,34.601],[135.752,34.607],[135.757,34.619],[135.726,34.635],[135.722,34.647]]]]}},{"type":"Feature","properties":{"name":"生駒郡安堵町","code":"29345"},"geometry":{"type":"MultiPolygon","coordinates":[[[[135.757,34.619],[135.752,34.607],[135.741,34.601],[135.742,34.593],[135.752,34.592],[135.768,34.597],[135.757,34.619]]]]}},{"type":"Feature","properties":{"name":"磯城郡川西町","code":"29361"},"geometry":{"type":"MultiPolygon","coordinates":[[[[135.768,34.597],[135.752,34.592],[135.753,34.581],[135.787,34.58],[135.794,34.587],[135.786,34.596],[135.768,34.597]]]]}},{"type":"Feature","properties":{"name":"磯城郡三宅町","code":"29362"},"geometry":{"type":"MultiPolygon","coordinates":[[[[135.787,34.58],[135.753,34.581],[135.763,34.573],[135.763,34.562],[135.783,34.567],[135.79,34.578],[135.787,34.58]]]]}},{"type":"Feature","properties":{"name":"磯城郡田原本町","code":"29363"},"geometry":{"type":"MultiPolygon","coordinates":[[[[135.79,34.578],[135.783,34.567],[135.763,34.562],[135.762,34.553],[135.77,34.535],[135.796,34.537],[135.818,34.535],[135.826,34.549],[135.814,34.561],[135.805,34.584],[135.79,34.578]]]]}},{"type":"Feature","properties":{"name":"宇陀郡曽爾村","code":"29385"},"geometry":{"type":"MultiPolygon","coordinates":[[[[136.073,34.477],[136.082,34.473],[136.099,34.476],[136.107,34.49],[136.117,34.494],[136.147,34.497],[136.158,34.514],[136.167,34.52],[136.172,34.535],[136.16,34.547],[136.155,34.56],[136.14,34.559],[136.119,34.546],[136.107,34.556],[136.098,34.54],[136.102,34.529],[136.09,34.526],[136.093,34.517],[136.086,34.509],[136.08,34.494],[136.068,34.486],[136.073,34.477]]]]}},{"type":"Feature","properties":{"name":"宇陀郡御杖村","code":"29386"},"geometry":{"type":"MultiPolygon","coordinates":[[[[136.082,34.473],[136.088,34.452],[136.096,34.435],[136.111,34.436],[136.118,34.443],[136.131,34.445],[136.151,34.442],[136.158,34.449],[136.178,34.446],[136.189,34.451],[136.205,34.448],[136.209,34.467],[136.216,34.481],[136.229,34.489],[136.229,34.495],[136.215,34.501],[136.22,34.516],[136.21,34.529],[136.182,34.517],[136.167,34.52],[136.158,34.514],[136.147,34.497],[136.117,34.494],[136.107,34.49],[136.099,34.476],[136.082,34.473]]]]}},{"type":"Feature","properties":{"name":"高市郡高取町","code":"29401"},"geometry":{"type":"MultiPolygon","coordinates":[[[[135.764,34.465],[135.769,34.45],[135.759,34.429],[135.765,34.42],[135.782,34.418],[135.812,34.422],[135.818,34.413],[135.83,34.427],[135.847,34.429],[135.826,34.445],[135.813,34.442],[135.788,34.467],[135.775,34.471],[135.764,34.465]]]]}},{"type":"Feature","properties":{"name":"高市郡明日香村","code":"29402"},"geometry":{"type":"MultiPolygon","coordinates":[[[[135.788,34.467],[135.813,34.442],[135.826,34.445],[135.847,34.429],[135.861,34.442],[135.867,34.443],[135.856,34.461],[135.828,34.481],[135.827,34.486],[135.811,34.49],[135.808,34.471],[135.788,34.467]]]]}},{"type":"Feature","properties":{"name":"北葛城郡上牧町","code":"29424"},"geometry":{"type":"MultiPolygon","coordinates":[[[[135.72,34.552],[135.726,34.555],[135.727,34.577],[135.712,34.582],[135.705,34.574],[135.706,34.548],[135.72,34.552]]]]}},{"type":"Feature","properties":{"name":"北葛城郡王寺町","code":"29425"},"geometry":{"type":"MultiPolygon","coordinates":[[[[135.705,34.574],[135.712,34.582],[135.716,34.595],[135.709,34.599],[135.682,34.585],[135.671,34.576],[135.673,34.571],[135.681,34.575],[135.705,34.574]]]]}},{"type":"Feature","properties":{"name":"北葛城郡広陵町","code":"29426"},"geometry":{"type":"MultiPolygon","coordinates":[[[[135.764,34.529],[135.77,34.535],[135.762,34.553],[135.763,34.562],[135.763,34.573],[135.753,34.578],[135.738,34.576],[135.738,34.558],[135.726,34.555],[135.72,34.552],[135.728,34.544],[135.729,34.531],[135.76,34.532],[135.764,34.529]]]]}},{"type":"Feature","properties":{"name":"北葛城郡河合町","code":"29427"},"geometry":{"type":"MultiPolygon","coordinates":[[[[135.716,34.595],[135.712,34.582],[135.727,34.577],[135.726,34.555],[135.738,34.558],[135.738,34.576],[135.753,34.578],[135.752,34.592],[135.742,34.593],[135.727,34.591],[135.716,34.595]]]]}},{"type":"Feature","properties":{"name":"吉野郡吉野町","code":"29441"},"geometry":{"type":"MultiPolygon","coordinates":[[[[135.867,34.443],[135.861,34.442],[135.847,34.429],[135.858,34.415],[135.858,34.406],[135.843,34.393],[135.818,34.387],[135.822,34.373],[135.843,34.359],[135.865,34.355],[135.868,34.346],[135.888,34.34],[135.912,34.363],[135.933,34.369],[135.937,34.375],[135.942,34.386],[135.939,34.397],[135.955,34.405],[135.962,34.418],[135.979,34.429],[135.976,34.437],[135.96,34.436],[135.945,34.427],[135.934,34.43],[135.919,34.445],[135.907,34.448],[135.897,34.443],[135.887,34.453],[135.867,34.443]]]]}},{"type":"Feature","properties":{"name":"吉野郡大淀町","code":"29442"},"geometry":{"type":"MultiPolygon","coordinates":[[[[135.772,34.38],[135.787,34.379],[135.799,34.386],[135.818,34.387],[135.843,34.393],[135.858,34.406],[135.858,34.415],[135.847,34.429],[135.83,34.427],[135.818,34.413],[135.812,34.422],[135.782,34.418],[135.765,34.42],[135.749,34.406],[135.74,34.403],[135.743,34.389],[135.757,34.385],[135.759,34.377],[135.772,34.38]]]]}},{"type":"Feature","properties":{"name":"吉野郡下市町","code":"29443"},"geometry":{"type":"MultiPolygon","coordinates":[[[[135.822,34.28],[135.82,34.292],[135.824,34.304],[135.815,34.312],[135.822,34.323],[135.84,34.332],[135.853,34.33],[135.86,34.342],[135.868,34.346],[135.865,34.355],[135.843,34.359],[135.822,34.373],[135.818,34.387],[135.799,34.386],[135.787,34.379],[135.772,34.38],[135.773,34.367],[135.77,34.326],[135.78,34.325],[135.78,34.308],[135.774,34.29],[135.793,34.283],[135.807,34.285],[135.822,34.28]]]]}},{"type":"Feature","properties":{"name":"吉野郡黒滝村","code":"29444"},"geometry":{"type":"MultiPolygon","coordinates":[[[[135.843,34.27],[135.856,34.283],[135.874,34.288],[135.893,34.289],[135.902,34.293],[135.914,34.285],[135.913,34.314],[135.903,34.331],[135.888,34.34],[135.868,34.346],[135.86,34.342],[135.853,34.33],[135.84,34.332],[135.822,34.323],[135.815,34.312],[135.824,34.304],[135.82,34.292],[135.822,34.28],[135.826,34.274],[135.843,34.27]]]]}},{"type":"Feature","properties":{"name":"吉野郡天川村","code":"29446"},"geometry":{"type":"MultiPolygon","coordinates":[[[[135.904,34.17],[135.915,34.18],[135.931,34.178],[135.944,34.182],[135.945,34.205],[135.951,34.21],[135.956,34.226],[135.963,34.228],[135.963,34.236],[135.973,34.257],[135.965,34.259],[135.963,34.272],[135.954,34.277],[135.943,34.275],[135.914,34.285],[135.902,34.293],[135.893,34.289],[135.874,34.288],[135.856,34.283],[135.843,34.27],[135.845,34.265],[135.819,34.25],[135.817,34.24],[135.792,34.232],[135.786,34.239],[135.773,34.241],[135.748,34.232],[135.752,34.222],[135.744,34.205],[135.746,34.195],[135.759,34.192],[135.766,34.185],[135.786,34.183],[135.796,34.176],[135.814,34.185],[135.826,34.181],[135.844,34.191],[135.861,34.19],[135.858,34.176],[135.874,34.179],[135.889,34.185],[135.904,34.17]]]]}},{"type":"Feature","properties":{"name":"吉野郡野迫川村","code":"29447"},"geometry":{"type":"MultiPolygon","coordinates":[[[[135.71,34.209],[135.678,34.223],[135.668,34.224],[135.655,34.216],[135.648,34.219],[135.634,34.205],[135.642,34.183],[135.629,34.177],[135.621,34.166],[135.622,34.158],[135.591,34.149],[135.585,34.141],[135.579,34.116],[135.566,34.113],[135.55,34.101],[135.55,34.085],[135.54,34.075],[135.551,34.068],[135.574,34.078],[135.593,34.079],[135.623,34.065],[135.636,34.069],[135.641,34.076],[135.665,34.084],[135.668,34.09],[135.684,34.095],[135.696,34.104],[135.7,34.12],[135.708,34.13],[135.73,34.139],[135.726,34.148],[135.728,34.161],[135.71,34.166],[135.707,34.174],[135.69,34.185],[135.698,34.196],[135.708,34.2],[135.71,34.209]]]]}},{"type":"Feature","properties":{"name":"吉野郡十津川村","code":"29449"},"geometry":{"type":"MultiPolygon","coordinates":[[[[135.665,34.084],[135.641,34.076],[135.636,34.069],[135.623,34.065],[135.593,34.079],[135.574,34.078],[135.551,34.068],[135.567,34.057],[135.581,34.056],[135.595,34.044],[135.6,34.032],[135.591,34.019],[135.596,34.012],[135.608,34.014],[135.622,34.01],[135.631,33.991],[135.637,33.99],[135.64,33.967],[135.637,33.951],[135.618,33.955],[135.617,33.937],[135.61,33.913],[135.6,33.908],[135.606,33.899],[135.619,33.899],[135.627,33.885],[135.636,33.877],[135.648,33.877],[135.662,33.889],[135.661,33.898],[135.679,33.898],[135.685,33.904],[135.724,33.903],[135.741,33.891],[135.756,33.885],[135.766,33.891],[135.778,33.888],[135.802,33.896],[135.803,33.903],[135.816,33.906],[135.837,33.895],[135.846,33.897],[135.855,33.888],[135.852,33.882],[135.862,33.863],[135.875,33.862],[135.875,33.873],[135.883,33.879],[135.872,33.889],[135.861,33.887],[135.859,33.901],[135.869,33.914],[135.894,33.906],[135.898,33.913],[135.898,33.934],[135.894,33.95],[135.902,33.954],[135.916,33.968],[135.916,33.973],[135.899,33.983],[135.909,33.999],[135.902,34.02],[135.911,34.03],[135.897,34.042],[135.892,34.052],[135.897,34.058],[135.891,34.067],[135.901,34.078],[135.898,34.086],[135.906,34.099],[135.902,34.114],[135.915,34.126],[135.905,34.144],[135.894,34.144],[135.883,34.151],[135.864,34.149],[135.848,34.139],[135.829,34.143],[135.789,34.134],[135.771,34.15],[135.757,34.153],[135.714,34.099],[135.712,34.09],[135.689,34.083],[135.665,34.084]]]]}},{"type":"Feature","properties":{"name":"吉野郡下北山村","code":"29450"},"geometry":{"type":"MultiPolygon","coordinates":[[[[135.916,33.973],[135.927,33.981],[135.954,33.98],[135.975,33.986],[135.985,33.992],[135.989,34.002],[136.002,34.007],[136.007,34.02],[136.023,34.037],[136.056,34.035],[136.04,34.058],[136.03,34.055],[136.01,34.068],[136.005,34.076],[135.982,34.063],[135.969,34.067],[135.969,34.094],[135.967,34.102],[135.954,34.111],[135.944,34.111],[135.936,34.122],[135.923,34.128],[135.915,34.126],[135.902,34.114],[135.906,34.099],[135.898,34.086],[135.901,34.078],[135.891,34.067],[135.897,34.058],[135.892,34.052],[135.897,34.042],[135.911,34.03],[135.902,34.02],[135.909,33.999],[135.899,33.983],[135.916,33.973]]]]}},{"type":"Feature","properties":{"name":"吉野郡上北山村","code":"29451"},"geometry":{"type":"MultiPolygon","coordinates":[[[[135.905,34.144],[135.915,34.126],[135.923,34.128],[135.936,34.122],[135.944,34.111],[135.954,34.111],[135.967,34.102],[135.969,34.094],[135.969,34.067],[135.982,34.063],[136.005,34.076],[136.01,34.068],[136.03,34.055],[136.04,34.058],[136.056,34.035],[136.073,34.034],[136.096,34.022],[136.104,34.027],[136.098,34.045],[136.094,34.067],[136.096,34.086],[136.116,34.082],[136.102,34.096],[136.104,34.115],[136.108,34.127],[136.102,34.141],[136.106,34.153],[136.115,34.161],[136.106,34.172],[136.109,34.185],[136.096,34.188],[136.093,34.196],[136.087,34.199],[136.063,34.2],[136.058,34.207],[136.035,34.208],[136.025,34.225],[136.025,34.235],[136.004,34.233],[135.996,34.229],[135.973,34.225],[135.963,34.228],[135.956,34.226],[135.951,34.21],[135.945,34.205],[135.944,34.182],[135.931,34.178],[135.915,34.18],[135.904,34.17],[135.911,34.156],[135.905,34.144]]]]}},{"type":"Feature","properties":{"name":"吉野郡川上村","code":"29452"},"geometry":{"type":"MultiPolygon","coordinates":[[[[135.888,34.34],[135.903,34.331],[135.913,34.314],[135.914,34.285],[135.943,34.275],[135.954,34.277],[135.963,34.272],[135.965,34.259],[135.973,34.257],[135.963,34.236],[135.963,34.228],[135.973,34.225],[135.996,34.229],[136.004,34.233],[136.025,34.235],[136.025,34.225],[136.035,34.208],[136.058,34.207],[136.063,34.2],[136.087,34.199],[136.093,34.196],[136.098,34.202],[136.115,34.211],[136.117,34.223],[136.111,34.229],[136.125,34.241],[136.132,34.252],[136.118,34.261],[136.113,34.279],[136.098,34.289],[136.095,34.301],[136.112,34.305],[136.13,34.316],[136.122,34.325],[136.109,34.329],[136.102,34.336],[136.091,34.363],[136.069,34.364],[136.064,34.347],[136.046,34.344],[136.031,34.346],[136.018,34.356],[135.998,34.35],[135.982,34.354],[135.981,34.363],[135.97,34.381],[135.955,34.374],[135.937,34.375],[135.933,34.369],[135.912,34.363],[135.888,34.34]]]]}},{"type":"Feature","properties":{"name":"吉野郡東吉野村","code":"29453"},"geometry":{"type":"MultiPolygon","coordinates":[[[[135.976,34.437],[135.979,34.429],[135.962,34.418],[135.955,34.405],[135.939,34.397],[135.942,34.386],[135.937,34.375],[135.955,34.374],[135.97,34.381],[135.981,34.363],[135.982,34.354],[135.998,34.35],[136.018,34.356],[136.031,34.346],[136.046,34.344],[136.064,34.347],[136.069,34.364],[136.091,34.363],[136.086,34.38],[136.069,34.389],[136.077,34.406],[136.09,34.416],[136.089,34.429],[136.096,34.435],[136.088,34.452],[136.082,34.473],[136.073,34.477],[136.054,34.479],[136.042,34.463],[136.025,34.455],[136.013,34.454],[136.007,34.444],[135.997,34.444],[135.976,34.437]]]]}}]}