{"type":"FeatureCollection","features":[{"type":"Feature","properties":{"name":"和歌山市","code":"30201"},"geometry":{"type":"MultiPolygon","coordinates":[[[[135.021,34.293],[135.017,34.289],[135.012,34.284],[135.008,34.283],[134.999,34.281],[135.005,34.277],[135.012,34.277],[135.012,34.28],[135.017,34.281],[135.018,34.285],[135.021,34.293]]],[[[135.055,34.299],[135.049,34.299],[135.042,34.298],[135.037,34.299],[135.039,34.293],[135.044,34.292],[135.049,34.293],[135.053,34.296],[135.057,34.297]]],[[[135.271,34.312],[135.263,34.313],[135.258,34.316],[135.254,34.316],[135.247,34.313],[135.241,34.308],[135.236,34.305],[135.225,34.301],[135.222,34.304],[135.219,34.305],[135.216,34.305],[135.211,34.306],[135.208,34.306],[135.208,34.303],[135.205,34.301],[135.204,34.291],[135.199,34.288],[135.192,34.286],[135.19,34.283],[135.185,34.281],[135.181,34.28],[135.177,34.28],[135.172,34.281],[135.167,34.28],[135.157,34.277],[135.154,34.274],[135.153,34.279],[135.146,34.284],[135.143,34.28],[135.14,34.282],[135.137,34.274],[135.132,34.272],[135.128,34.276],[135.121,34.274],[135.117,34.273],[135.11,34.274],[135.107,34.278],[135.109,34.283],[135.099,34.289],[135.1,34.293],[135.097,34.297],[135.1,34.3],[135.106,34.306],[135.106,34.309],[135.103,34.311],[135.097,34.308],[135.093,34.311],[135.087,34.307],[135.083,34.306],[135.08,34.308],[135.074,34.305],[135.07,34.298],[135.068,34.291],[135.072,34.288],[135.074,34.284],[135.072,34.275],[135.069,34.276],[135.065,34.273],[135.064,34.268],[135.061,34.265],[135.066,34.261],[135.072,34.261],[135.077,34.261],[135.089,34.261],[135.097,34.258],[135.096,34.253],[135.102,34.25],[135.111,34.245],[135.114,34.245],[135.123,34.242],[135.133,34.23],[135.128,34.227],[135.123,34.23],[135.118,34.235],[135.104,34.237],[135.1,34.236],[135.107,34.228],[135.11,34.227],[135.122,34.225],[135.129,34.225],[135.14,34.225],[135.14,34.221],[135.134,34.219],[135.139,34.219],[135.143,34.219],[135.145,34.215],[135.14,34.214],[135.144,34.212],[135.141,34.209],[135.144,34.203],[135.15,34.2],[135.15,34.195],[135.145,34.196],[135.141,34.202],[135.137,34.201],[135.14,34.194],[135.14,34.189],[135.145,34.19],[135.149,34.188],[135.147,34.184],[135.157,34.185],[135.163,34.188],[135.167,34.187],[135.175,34.178],[135.174,34.181],[135.174,34.188],[135.18,34.187],[135.178,34.181],[135.182,34.172],[135.182,34.167],[135.184,34.157],[135.193,34.159],[135.192,34.163],[135.196,34.165],[135.2,34.166],[135.204,34.167],[135.203,34.173],[135.214,34.174],[135.217,34.175],[135.227,34.174],[135.228,34.179],[135.233,34.179],[135.241,34.182],[135.245,34.182],[135.253,34.181],[135.262,34.178],[135.267,34.176],[135.277,34.176],[135.283,34.179],[135.285,34.183],[135.279,34.185],[135.278,34.191],[135.284,34.197],[135.285,34.203],[135.282,34.207],[135.281,34.213],[135.275,34.217],[135.275,34.222],[135.282,34.226],[135.291,34.23],[135.296,34.231],[135.301,34.234],[135.305,34.236],[135.314,34.237],[135.313,34.244],[135.311,34.247],[135.307,34.249],[135.308,34.252],[135.298,34.255],[135.287,34.254],[135.282,34.254],[135.273,34.254],[135.272,34.257],[135.274,34.26],[135.277,34.271],[135.274,34.271],[135.276,34.278],[135.271,34.292],[135.273,34.297],[135.273,34.301],[135.27,34.305],[135.271,34.312]]]]}},{"type":"Feature","properties":{"name":"海南市","code":"30202"},"geometry":{"type":"MultiPolygon","coordinates":[[[[135.193,34.159],[135.187,34.156],[135.184,34.148],[135.197,34.149],[135.201,34.152],[135.208,34.152],[135.202,34.15],[135.2,34.144],[135.188,34.143],[135.183,34.143],[135.18,34.14],[135.175,34.138],[135.171,34.136],[135.167,34.134],[135.162,34.136],[135.158,34.136],[135.143,34.138],[135.132,34.138],[135.126,34.137],[135.125,34.133],[135.123,34.129],[135.127,34.128],[135.131,34.131],[135.134,34.129],[135.131,34.122],[135.133,34.119],[135.14,34.118],[135.144,34.116],[135.145,34.112],[135.137,34.11],[135.13,34.114],[135.123,34.115],[135.119,34.12],[135.114,34.119],[135.112,34.115],[135.118,34.114],[135.122,34.111],[135.126,34.11],[135.132,34.107],[135.135,34.104],[135.138,34.101],[135.14,34.094],[135.149,34.095],[135.153,34.093],[135.156,34.095],[135.167,34.094],[135.179,34.101],[135.184,34.1],[135.188,34.098],[135.197,34.099],[135.203,34.101],[135.212,34.104],[135.216,34.107],[135.222,34.11],[135.228,34.107],[135.232,34.11],[135.235,34.112],[135.236,34.118],[135.239,34.122],[135.243,34.121],[135.249,34.123],[135.253,34.121],[135.258,34.118],[135.263,34.116],[135.266,34.118],[135.274,34.117],[135.278,34.12],[135.284,34.12],[135.287,34.124],[135.292,34.126],[135.295,34.132],[135.297,34.136],[135.299,34.141],[135.301,34.145],[135.303,34.15],[135.301,34.157],[135.303,34.166],[135.3,34.164],[135.295,34.162],[135.292,34.162],[135.29,34.166],[135.296,34.169],[135.3,34.173],[135.304,34.177],[135.313,34.178],[135.313,34.182],[135.314,34.188],[135.318,34.194],[135.315,34.195],[135.314,34.201],[135.309,34.203],[135.308,34.197],[135.304,34.197],[135.3,34.197],[135.297,34.199],[135.291,34.203],[135.285,34.203],[135.284,34.197],[135.281,34.192],[135.278,34.187],[135.283,34.185],[135.283,34.179],[135.279,34.177],[135.269,34.176],[135.262,34.178],[135.255,34.178],[135.247,34.181],[135.241,34.182],[135.234,34.18],[135.228,34.179],[135.227,34.174],[135.217,34.175],[135.214,34.174],[135.203,34.173],[135.204,34.167],[135.2,34.166],[135.196,34.165],[135.192,34.163],[135.193,34.159]]]]}},{"type":"Feature","properties":{"name":"橋本市","code":"30203"},"geometry":{"type":"MultiPolygon","coordinates":[[[[135.552,34.277],[135.553,34.281],[135.557,34.288],[135.553,34.289],[135.547,34.284],[135.546,34.281],[135.549,34.278]]],[[[135.681,34.272],[135.677,34.275],[135.677,34.278],[135.673,34.281],[135.674,34.286],[135.672,34.296],[135.668,34.305],[135.666,34.309],[135.669,34.315],[135.668,34.319],[135.668,34.326],[135.662,34.327],[135.659,34.334],[135.661,34.338],[135.662,34.343],[135.663,34.347],[135.662,34.351],[135.664,34.355],[135.656,34.366],[135.654,34.373],[135.651,34.38],[135.651,34.383],[135.644,34.384],[135.639,34.383],[135.632,34.383],[135.62,34.384],[135.615,34.378],[135.608,34.378],[135.604,34.377],[135.598,34.38],[135.595,34.375],[135.587,34.375],[135.583,34.377],[135.577,34.376],[135.572,34.372],[135.563,34.369],[135.561,34.365],[135.554,34.359],[135.548,34.357],[135.543,34.357],[135.538,34.356],[135.535,34.352],[135.532,34.351],[135.527,34.345],[135.529,34.342],[135.53,34.336],[135.527,34.329],[135.532,34.327],[135.538,34.321],[135.543,34.311],[135.542,34.304],[135.55,34.298],[135.557,34.295],[135.561,34.294],[135.568,34.299],[135.571,34.3],[135.573,34.294],[135.571,34.29],[135.574,34.284],[135.577,34.286],[135.58,34.284],[135.584,34.286],[135.588,34.281],[135.591,34.278],[135.595,34.281],[135.607,34.283],[135.611,34.283],[135.617,34.281],[135.621,34.284],[135.626,34.284],[135.628,34.28],[135.634,34.276],[135.635,34.272],[135.644,34.268],[135.644,34.265],[135.636,34.263],[135.638,34.258],[135.631,34.254],[135.632,34.249],[135.639,34.248],[135.644,34.249],[135.649,34.245],[135.654,34.246],[135.651,34.243],[135.654,34.241],[135.661,34.245],[135.665,34.248],[135.673,34.255],[135.671,34.263],[135.677,34.267],[135.681,34.272]]]]}},{"type":"Feature","properties":{"name":"有田市","code":"30204"},"geometry":{"type":"MultiPolygon","coordinates":[[[[135.112,34.113],[135.113,34.109],[135.112,34.106],[135.108,34.098],[135.103,34.096],[135.101,34.091],[135.097,34.091],[135.095,34.085],[135.096,34.081],[135.09,34.076],[135.085,34.07],[135.088,34.067],[135.1,34.07],[135.104,34.071],[135.108,34.07],[135.114,34.068],[135.122,34.067],[135.126,34.065],[135.133,34.065],[135.138,34.061],[135.139,34.057],[135.142,34.06],[135.149,34.058],[135.158,34.063],[135.166,34.063],[135.169,34.061],[135.173,34.055],[135.181,34.057],[135.183,34.062],[135.186,34.062],[135.188,34.065],[135.193,34.077],[135.189,34.085],[135.189,34.09],[135.187,34.094],[135.188,34.098],[135.184,34.1],[135.179,34.101],[135.167,34.094],[135.156,34.095],[135.153,34.093],[135.149,34.095],[135.14,34.094],[135.138,34.101],[135.135,34.102],[135.132,34.107],[135.126,34.11],[135.122,34.111],[135.118,34.114],[135.112,34.113]]],[[[135.103,34.118],[135.099,34.117],[135.097,34.112],[135.1,34.108],[135.105,34.11],[135.102,34.114],[135.103,34.118]]]]}},{"type":"Feature","properties":{"name":"東牟婁郡串本町","code":"30428"},"geometry":{"type":"MultiPolygon","coordinates":[[[[135.819,33.453],[135.812,33.45],[135.817,33.448],[135.821,33.451]]],[[[135.812,33.481],[135.808,33.479],[135.805,33.476],[135.8,33.47],[135.8,33.466],[135.801,33.462],[135.805,33.464],[135.808,33.465],[135.815,33.464],[135.819,33.461],[135.825,33.459],[135.822,33.452],[135.825,33.452],[135.831,33.449],[135.831,33.453],[135.829,33.456],[135.835,33.455],[135.839,33.456],[135.84,33.46],[135.846,33.459],[135.85,33.462],[135.854,33.462],[135.853,33.466],[135.857,33.467],[135.861,33.471],[135.856,33.471],[135.852,33.472],[135.848,33.472],[135.846,33.475],[135.841,33.475],[135.838,33.474],[135.832,33.477],[135.828,33.478],[135.823,33.476],[135.819,33.477],[135.814,33.476],[135.814,33.479]]],[[[135.636,33.507],[135.64,33.505],[135.643,33.502],[135.651,33.5],[135.66,33.496],[135.664,33.493],[135.67,33.492],[135.675,33.488],[135.682,33.49],[135.686,33.489],[135.691,33.488],[135.696,33.488],[135.699,33.493],[135.704,33.488],[135.71,33.488],[135.71,33.485],[135.709,33.478],[135.711,33.484],[135.716,33.482],[135.72,33.48],[135.727,33.477],[135.733,33.483],[135.737,33.483],[135.738,33.477],[135.747,33.482],[135.752,33.48],[135.759,33.484],[135.767,33.481],[135.765,33.473],[135.77,33.479],[135.775,33.478],[135.772,33.476],[135.773,33.472],[135.775,33.467],[135.777,33.463],[135.768,33.458],[135.765,33.456],[135.762,33.456],[135.754,33.451],[135.75,33.449],[135.756,33.444],[135.755,33.44],[135.754,33.436],[135.759,33.436],[135.765,33.435],[135.765,33.439],[135.768,33.443],[135.77,33.447],[135.779,33.446],[135.782,33.443],[135.783,33.44],[135.787,33.439],[135.788,33.445],[135.793,33.448],[135.796,33.445],[135.794,33.449],[135.793,33.453],[135.789,33.458],[135.786,33.46],[135.781,33.463],[135.782,33.47],[135.786,33.476],[135.79,33.481],[135.791,33.485],[135.795,33.489],[135.795,33.493],[135.797,33.497],[135.8,33.5],[135.806,33.503],[135.811,33.502],[135.814,33.505],[135.818,33.507],[135.82,33.511],[135.825,33.515],[135.836,33.513],[135.842,33.513],[135.842,33.517],[135.846,33.519],[135.851,33.518],[135.857,33.523],[135.859,33.526],[135.865,33.527],[135.866,33.53],[135.871,33.532],[135.874,33.534],[135.876,33.53],[135.882,33.534],[135.886,33.536],[135.887,33.54],[135.894,33.539],[135.899,33.546],[135.896,33.549],[135.895,33.552],[135.887,33.552],[135.884,33.551],[135.884,33.555],[135.882,33.559],[135.885,33.564],[135.884,33.568],[135.88,33.579],[135.876,33.581],[135.87,33.582],[135.866,33.58],[135.861,33.584],[135.856,33.586],[135.849,33.584],[135.84,33.581],[135.84,33.574],[135.836,33.571],[135.835,33.564],[135.83,33.561],[135.836,33.542],[135.837,33.539],[135.828,33.536],[135.825,33.532],[135.827,33.529],[135.825,33.525],[135.819,33.525],[135.81,33.536],[135.805,33.533],[135.797,33.527],[135.784,33.525],[135.78,33.522],[135.776,33.521],[135.77,33.521],[135.765,33.523],[135.757,33.523],[135.753,33.522],[135.751,33.518],[135.746,33.517],[135.741,33.518],[135.737,33.521],[135.736,33.526],[135.731,33.53],[135.726,33.53],[135.721,33.531],[135.719,33.526],[135.716,33.525],[135.712,33.526],[135.707,33.528],[135.701,33.523],[135.701,33.52],[135.698,33.52],[135.693,33.522],[135.688,33.521],[135.682,33.523],[135.681,33.527],[135.676,33.527],[135.672,33.53],[135.667,33.53],[135.667,33.534],[135.664,33.545],[135.662,33.549],[135.662,33.556],[135.655,33.559],[135.652,33.566],[135.647,33.566],[135.642,33.567],[135.639,33.568],[135.633,33.571],[135.628,33.568],[135.629,33.562],[135.629,33.558],[135.629,33.554],[135.636,33.554],[135.641,33.553],[135.641,33.55],[135.636,33.546],[135.637,33.542],[135.631,33.538],[135.626,33.533],[135.623,33.533],[135.631,33.527],[135.639,33.522],[135.638,33.518],[135.637,33.511],[135.636,33.507]]]]}},{"type":"Feature","properties":{"name":"御坊市","code":"30205"},"geometry":{"type":"MultiPolygon","coordinates":[[[[135.143,33.863],[135.148,33.857],[135.155,33.858],[135.155,33.862],[135.146,33.861],[135.143,33.863]]],[[[135.199,33.882],[135.199,33.893],[135.196,33.895],[135.194,33.9],[135.191,33.904],[135.186,33.906],[135.18,33.909],[135.177,33.913],[135.173,33.914],[135.172,33.919],[135.172,33.924],[135.171,33.929],[135.177,33.932],[135.175,33.943],[135.177,33.947],[135.176,33.951],[135.166,33.95],[135.161,33.95],[135.16,33.945],[135.157,33.942],[135.156,33.939],[135.159,33.933],[135.16,33.93],[135.16,33.923],[135.157,33.919],[135.149,33.918],[135.143,33.915],[135.144,33.909],[135.147,33.896],[135.154,33.88],[135.154,33.877],[135.156,33.873],[135.159,33.867],[135.153,33.865],[135.159,33.864],[135.16,33.86],[135.163,33.854],[135.165,33.85],[135.163,33.845],[135.168,33.843],[135.175,33.84],[135.174,33.833],[135.178,33.829],[135.185,33.827],[135.185,33.823],[135.186,33.82],[135.195,33.816],[135.199,33.813],[135.2,33.817],[135.203,33.824],[135.202,33.83],[135.204,33.834],[135.208,33.835],[135.208,33.838],[135.202,33.842],[135.203,33.85],[135.2,33.854],[135.197,33.854],[135.193,33.855],[135.188,33.857],[135.184,33.858],[135.185,33.862],[135.186,33.866],[135.183,33.867],[135.179,33.869],[135.187,33.87],[135.192,33.868],[135.196,33.867],[135.204,33.867],[135.21,33.864],[135.214,33.865],[135.215,33.872],[135.211,33.874],[135.201,33.873],[135.199,33.88]]]]}},{"type":"Feature","properties":{"name":"田辺市","code":"30206"},"geometry":{"type":"MultiPolygon","coordinates":[[[[135.802,33.896],[135.793,33.895],[135.789,33.893],[135.784,33.892],[135.778,33.888],[135.773,33.89],[135.766,33.891],[135.764,33.887],[135.756,33.885],[135.752,33.89],[135.749,33.888],[135.741,33.891],[135.735,33.896],[135.73,33.9],[135.724,33.903],[135.718,33.903],[135.714,33.903],[135.71,33.904],[135.705,33.904],[135.691,33.903],[135.685,33.904],[135.682,33.9],[135.679,33.898],[135.673,33.899],[135.663,33.899],[135.663,33.894],[135.662,33.889],[135.657,33.886],[135.656,33.882],[135.651,33.881],[135.648,33.877],[135.645,33.877],[135.64,33.878],[135.636,33.877],[135.63,33.874],[135.626,33.873],[135.618,33.872],[135.623,33.879],[135.624,33.883],[135.625,33.889],[135.623,33.895],[135.619,33.899],[135.612,33.899],[135.606,33.899],[135.601,33.903],[135.6,33.908],[135.61,33.913],[135.611,33.919],[135.614,33.925],[135.613,33.93],[135.609,33.932],[135.611,33.937],[135.617,33.937],[135.618,33.941],[135.615,33.948],[135.618,33.955],[135.622,33.953],[135.625,33.95],[135.631,33.949],[135.637,33.951],[135.636,33.959],[135.64,33.967],[135.64,33.973],[135.638,33.977],[135.639,33.983],[135.637,33.99],[135.631,33.991],[135.629,33.998],[135.624,34.002],[135.625,34.007],[135.622,34.01],[135.618,34.009],[135.612,34.01],[135.608,34.014],[135.605,34.012],[135.598,34.012],[135.594,34.013],[135.591,34.019],[135.595,34.024],[135.595,34.028],[135.6,34.032],[135.598,34.036],[135.595,34.04],[135.595,34.044],[135.588,34.047],[135.585,34.05],[135.581,34.056],[135.575,34.059],[135.57,34.058],[135.565,34.06],[135.564,34.063],[135.558,34.064],[135.552,34.066],[135.548,34.068],[135.543,34.064],[135.538,34.06],[135.536,34.051],[135.532,34.049],[135.528,34.048],[135.519,34.048],[135.511,34.046],[135.506,34.045],[135.505,34.038],[135.508,34.036],[135.508,34.032],[135.508,34.024],[135.513,34.022],[135.521,34.024],[135.529,34.022],[135.534,34.017],[135.536,34.013],[135.537,34.008],[135.535,34.004],[135.53,33.999],[135.537,33.994],[135.541,33.986],[135.544,33.98],[135.543,33.976],[135.547,33.974],[135.545,33.968],[135.541,33.962],[135.533,33.958],[135.527,33.955],[135.522,33.952],[135.516,33.953],[135.508,33.95],[135.502,33.946],[135.496,33.946],[135.49,33.943],[135.485,33.94],[135.482,33.942],[135.476,33.942],[135.472,33.938],[135.468,33.936],[135.463,33.937],[135.461,33.941],[135.458,33.945],[135.455,33.946],[135.444,33.946],[135.44,33.947],[135.439,33.944],[135.432,33.94],[135.433,33.944],[135.429,33.944],[135.425,33.946],[135.418,33.937],[135.418,33.933],[135.413,33.93],[135.408,33.93],[135.402,33.931],[135.398,33.929],[135.398,33.925],[135.394,33.923],[135.393,33.917],[135.395,33.908],[135.397,33.904],[135.392,33.902],[135.393,33.898],[135.397,33.895],[135.402,33.895],[135.403,33.891],[135.407,33.881],[135.416,33.879],[135.422,33.88],[135.426,33.88],[135.429,33.88],[135.431,33.877],[135.427,33.871],[135.427,33.867],[135.435,33.867],[135.44,33.866],[135.444,33.863],[135.444,33.858],[135.45,33.856],[135.458,33.853],[135.465,33.853],[135.463,33.849],[135.46,33.843],[135.461,33.839],[135.455,33.838],[135.45,33.841],[135.446,33.84],[135.443,33.841],[135.44,33.839],[135.436,33.839],[135.431,33.838],[135.425,33.839],[135.414,33.834],[135.407,33.834],[135.402,33.838],[135.396,33.836],[135.391,33.838],[135.381,33.833],[135.375,33.829],[135.369,33.822],[135.365,33.814],[135.36,33.812],[135.356,33.809],[135.347,33.809],[135.349,33.804],[135.348,33.8],[135.35,33.795],[135.348,33.788],[135.349,33.784],[135.349,33.78],[135.345,33.775],[135.346,33.77],[135.345,33.764],[135.343,33.759],[135.339,33.753],[135.336,33.746],[135.344,33.746],[135.348,33.747],[135.353,33.743],[135.357,33.74],[135.352,33.735],[135.351,33.73],[135.354,33.726],[135.359,33.73],[135.362,33.732],[135.366,33.732],[135.373,33.73],[135.378,33.725],[135.38,33.721],[135.389,33.716],[135.393,33.715],[135.392,33.72],[135.396,33.722],[135.397,33.718],[135.396,33.714],[135.397,33.711],[135.393,33.71],[135.393,33.706],[135.387,33.701],[135.387,33.696],[135.382,33.697],[135.384,33.703],[135.377,33.695],[135.383,33.691],[135.387,33.688],[135.394,33.686],[135.4,33.69],[135.403,33.695],[135.401,33.699],[135.403,33.703],[135.407,33.707],[135.41,33.711],[135.416,33.714],[135.421,33.713],[135.424,33.717],[135.426,33.72],[135.43,33.722],[135.434,33.724],[135.433,33.73],[135.436,33.729],[135.437,33.734],[135.44,33.735],[135.44,33.739],[135.444,33.743],[135.451,33.744],[135.46,33.747],[135.465,33.748],[135.466,33.752],[135.465,33.756],[135.467,33.76],[135.469,33.768],[135.475,33.766],[135.476,33.763],[135.48,33.759],[135.484,33.755],[135.487,33.751],[135.486,33.748],[135.484,33.743],[135.482,33.736],[135.477,33.729],[135.479,33.725],[135.483,33.724],[135.482,33.718],[135.478,33.716],[135.482,33.713],[135.488,33.706],[135.492,33.702],[135.496,33.701],[135.503,33.704],[135.507,33.705],[135.512,33.701],[135.521,33.705],[135.524,33.698],[135.523,33.692],[135.528,33.691],[135.535,33.692],[135.541,33.69],[135.546,33.691],[135.547,33.688],[135.552,33.682],[135.555,33.68],[135.557,33.67],[135.556,33.662],[135.552,33.661],[135.551,33.658],[135.564,33.656],[135.569,33.658],[135.576,33.66],[135.586,33.657],[135.588,33.651],[135.595,33.649],[135.598,33.646],[135.605,33.644],[135.612,33.65],[135.619,33.649],[135.626,33.652],[135.631,33.645],[135.637,33.645],[135.644,33.649],[135.651,33.649],[135.654,33.655],[135.658,33.657],[135.658,33.66],[135.654,33.662],[135.65,33.663],[135.652,33.671],[135.655,33.674],[135.651,33.677],[135.653,33.681],[135.653,33.686],[135.655,33.689],[135.664,33.69],[135.673,33.69],[135.678,33.692],[135.68,33.695],[135.683,33.697],[135.687,33.702],[135.691,33.711],[135.697,33.714],[135.701,33.714],[135.707,33.715],[135.709,33.711],[135.714,33.715],[135.717,33.72],[135.714,33.724],[135.714,33.727],[135.72,33.727],[135.723,33.73],[135.727,33.732],[135.728,33.735],[135.734,33.738],[135.743,33.735],[135.747,33.737],[135.746,33.745],[135.751,33.747],[135.755,33.749],[135.755,33.753],[135.754,33.757],[135.758,33.762],[135.761,33.762],[135.765,33.765],[135.771,33.769],[135.773,33.772],[135.778,33.771],[135.782,33.767],[135.788,33.768],[135.792,33.766],[135.794,33.769],[135.798,33.77],[135.8,33.774],[135.799,33.777],[135.802,33.779],[135.807,33.781],[135.814,33.786],[135.818,33.785],[135.822,33.793],[135.824,33.801],[135.827,33.802],[135.83,33.805],[135.83,33.812],[135.826,33.815],[135.824,33.818],[135.82,33.82],[135.814,33.824],[135.812,33.832],[135.806,33.833],[135.802,33.835],[135.794,33.845],[135.793,33.85],[135.791,33.854],[135.793,33.86],[135.795,33.865],[135.795,33.871],[135.801,33.871],[135.804,33.866],[135.806,33.87],[135.803,33.878],[135.807,33.885],[135.803,33.889],[135.801,33.892],[135.802,33.896]]]]}},{"type":"Feature","properties":{"name":"新宮市","code":"30207"},"geometry":{"type":"MultiPolygon","coordinates":[[[[135.722,33.728],[135.727,33.726],[135.734,33.725],[135.738,33.723],[135.739,33.719],[135.742,33.715],[135.747,33.716],[135.751,33.709],[135.749,33.705],[135.749,33.7],[135.754,33.697],[135.758,33.698],[135.758,33.702],[135.762,33.703],[135.766,33.7],[135.772,33.7],[135.774,33.704],[135.778,33.703],[135.782,33.7],[135.788,33.7],[135.789,33.706],[135.794,33.706],[135.797,33.702],[135.801,33.701],[135.806,33.708],[135.81,33.7],[135.815,33.698],[135.82,33.694],[135.823,33.692],[135.826,33.694],[135.832,33.693],[135.838,33.695],[135.839,33.7],[135.833,33.702],[135.833,33.705],[135.837,33.707],[135.845,33.711],[135.849,33.715],[135.85,33.718],[135.855,33.721],[135.862,33.722],[135.866,33.718],[135.864,33.715],[135.871,33.711],[135.874,33.712],[135.879,33.711],[135.882,33.709],[135.881,33.705],[135.884,33.701],[135.889,33.699],[135.894,33.697],[135.901,33.696],[135.907,33.687],[135.906,33.682],[135.911,33.681],[135.917,33.68],[135.92,33.681],[135.922,33.684],[135.927,33.687],[135.93,33.691],[135.933,33.687],[135.942,33.685],[135.946,33.685],[135.953,33.679],[135.956,33.672],[135.962,33.672],[135.968,33.67],[135.973,33.67],[135.976,33.673],[135.979,33.68],[135.983,33.681],[135.988,33.685],[135.987,33.689],[135.991,33.693],[135.993,33.698],[135.995,33.704],[135.998,33.709],[136.011,33.722],[136.008,33.727],[135.997,33.731],[135.983,33.736],[135.979,33.737],[135.973,33.735],[135.972,33.732],[135.976,33.729],[135.977,33.725],[135.973,33.723],[135.964,33.724],[135.955,33.728],[135.946,33.732],[135.942,33.735],[135.94,33.739],[135.939,33.751],[135.939,33.756],[135.935,33.757],[135.93,33.754],[135.921,33.759],[135.919,33.764],[135.916,33.767],[135.909,33.767],[135.906,33.768],[135.902,33.78],[135.897,33.787],[135.898,33.79],[135.895,33.798],[135.891,33.802],[135.886,33.802],[135.88,33.803],[135.877,33.806],[135.872,33.809],[135.864,33.81],[135.858,33.816],[135.856,33.82],[135.858,33.827],[135.859,33.83],[135.856,33.834],[135.856,33.837],[135.857,33.843],[135.861,33.849],[135.856,33.855],[135.853,33.858],[135.853,33.862],[135.857,33.865],[135.859,33.868],[135.858,33.873],[135.853,33.877],[135.852,33.882],[135.855,33.888],[135.852,33.893],[135.846,33.897],[135.839,33.897],[135.831,33.898],[135.82,33.903],[135.816,33.906],[135.809,33.906],[135.803,33.903],[135.802,33.896],[135.801,33.892],[135.803,33.889],[135.807,33.885],[135.806,33.88],[135.806,33.87],[135.805,33.866],[135.801,33.871],[135.795,33.871],[135.795,33.865],[135.793,33.86],[135.791,33.854],[135.793,33.85],[135.792,33.846],[135.802,33.835],[135.806,33.833],[135.81,33.831],[135.812,33.826],[135.82,33.82],[135.824,33.818],[135.826,33.815],[135.83,33.812],[135.83,33.805],[135.827,33.802],[135.824,33.801],[135.822,33.793],[135.818,33.788],[135.814,33.786],[135.809,33.78],[135.802,33.779],[135.799,33.777],[135.8,33.774],[135.798,33.77],[135.794,33.769],[135.792,33.766],[135.788,33.768],[135.782,33.767],[135.78,33.77],[135.773,33.772],[135.771,33.769],[135.767,33.765],[135.761,33.762],[135.758,33.762],[135.754,33.757],[135.755,33.753],[135.755,33.749],[135.753,33.746],[135.746,33.745],[135.747,33.737],[135.743,33.735],[135.736,33.737],[135.728,33.735],[135.727,33.732],[135.723,33.73]]],[[[135.875,33.918],[135.867,33.921],[135.869,33.914],[135.863,33.908],[135.86,33.903],[135.86,33.899],[135.861,33.887],[135.865,33.889],[135.872,33.889],[135.875,33.884],[135.878,33.884],[135.882,33.881],[135.881,33.876],[135.875,33.873],[135.873,33.868],[135.875,33.862],[135.878,33.865],[135.878,33.871],[135.881,33.873],[135.886,33.872],[135.891,33.868],[135.894,33.868],[135.898,33.87],[135.899,33.878],[135.902,33.882],[135.901,33.885],[135.893,33.893],[135.89,33.89],[135.892,33.884],[135.891,33.881],[135.887,33.883],[135.884,33.887],[135.885,33.891],[135.888,33.896],[135.885,33.898],[135.881,33.902],[135.879,33.908],[135.88,33.912],[135.88,33.918],[135.877,33.917]]]]}},{"type":"Feature","properties":{"name":"紀の川市","code":"30208"},"geometry":{"type":"MultiPolygon","coordinates":[[[[135.285,34.203],[135.291,34.203],[135.297,34.2],[135.3,34.197],[135.304,34.197],[135.308,34.197],[135.309,34.203],[135.314,34.201],[135.315,34.195],[135.318,34.194],[135.327,34.188],[135.335,34.194],[135.339,34.195],[135.343,34.194],[135.35,34.195],[135.351,34.189],[135.354,34.187],[135.363,34.183],[135.376,34.186],[135.387,34.186],[135.394,34.185],[135.398,34.186],[135.406,34.19],[135.407,34.185],[135.413,34.185],[135.417,34.183],[135.421,34.183],[135.425,34.179],[135.43,34.179],[135.438,34.177],[135.443,34.178],[135.451,34.18],[135.454,34.18],[135.462,34.188],[135.467,34.192],[135.466,34.196],[135.472,34.199],[135.478,34.202],[135.48,34.208],[135.481,34.214],[135.482,34.219],[135.485,34.22],[135.485,34.227],[135.488,34.232],[135.484,34.242],[135.475,34.248],[135.47,34.253],[135.467,34.253],[135.465,34.258],[135.467,34.265],[135.46,34.271],[135.455,34.272],[135.451,34.277],[135.448,34.279],[135.448,34.285],[135.451,34.291],[135.453,34.295],[135.458,34.3],[135.461,34.305],[135.464,34.308],[135.464,34.311],[135.469,34.313],[135.464,34.319],[135.461,34.322],[135.46,34.325],[135.457,34.328],[135.455,34.335],[135.447,34.335],[135.447,34.34],[135.444,34.348],[135.436,34.349],[135.432,34.347],[135.427,34.341],[135.416,34.34],[135.412,34.342],[135.409,34.342],[135.407,34.335],[135.399,34.332],[135.394,34.331],[135.391,34.333],[135.387,34.329],[135.383,34.329],[135.378,34.33],[135.374,34.331],[135.368,34.331],[135.362,34.329],[135.359,34.333],[135.356,34.333],[135.349,34.332],[135.346,34.331],[135.342,34.335],[135.339,34.334],[135.339,34.329],[135.334,34.326],[135.33,34.325],[135.329,34.321],[135.33,34.317],[135.327,34.314],[135.332,34.309],[135.334,34.305],[135.332,34.299],[135.334,34.296],[135.333,34.288],[135.333,34.281],[135.333,34.277],[135.335,34.273],[135.338,34.27],[135.338,34.265],[135.336,34.26],[135.334,34.248],[135.329,34.247],[135.322,34.249],[135.325,34.242],[135.318,34.241],[135.315,34.239],[135.307,34.238],[135.302,34.236],[135.296,34.231],[135.293,34.232],[135.285,34.228],[135.275,34.222],[135.275,34.217],[135.281,34.213],[135.28,34.208],[135.283,34.203]]]]}},{"type":"Feature","properties":{"name":"岩出市","code":"30209"},"geometry":{"type":"MultiPolygon","coordinates":[[[[135.315,34.239],[135.318,34.241],[135.322,34.241],[135.321,34.247],[135.329,34.247],[135.334,34.248],[135.336,34.26],[135.338,34.265],[135.338,34.27],[135.335,34.273],[135.333,34.277],[135.333,34.281],[135.334,34.287],[135.334,34.296],[135.332,34.299],[135.337,34.304],[135.334,34.308],[135.329,34.311],[135.33,34.317],[135.324,34.319],[135.313,34.314],[135.31,34.313],[135.304,34.314],[135.304,34.31],[135.303,34.305],[135.298,34.301],[135.292,34.3],[135.287,34.307],[135.286,34.31],[135.283,34.318],[135.277,34.316],[135.273,34.312],[135.271,34.307],[135.273,34.301],[135.273,34.297],[135.271,34.292],[135.276,34.278],[135.274,34.271],[135.277,34.271],[135.274,34.262],[135.272,34.257],[135.273,34.254],[135.282,34.254],[135.287,34.254],[135.298,34.255],[135.308,34.252],[135.307,34.249],[135.311,34.247],[135.313,34.244],[135.315,34.239]]]]}},{"type":"Feature","properties":{"name":"海草郡紀美野町","code":"30304"},"geometry":{"type":"MultiPolygon","coordinates":[[[[135.297,34.136],[135.301,34.132],[135.304,34.128],[135.309,34.122],[135.306,34.117],[135.311,34.115],[135.312,34.11],[135.315,34.108],[135.317,34.104],[135.325,34.104],[135.329,34.106],[135.332,34.105],[135.338,34.114],[135.346,34.116],[135.356,34.113],[135.365,34.113],[135.37,34.114],[135.375,34.113],[135.374,34.121],[135.381,34.121],[135.385,34.121],[135.392,34.122],[135.398,34.121],[135.404,34.122],[135.413,34.12],[135.417,34.12],[135.421,34.117],[135.425,34.118],[135.431,34.115],[135.435,34.117],[135.439,34.122],[135.443,34.124],[135.449,34.126],[135.452,34.13],[135.458,34.133],[135.459,34.136],[135.468,34.142],[135.474,34.146],[135.485,34.153],[135.489,34.155],[135.493,34.159],[135.492,34.165],[135.499,34.167],[135.503,34.171],[135.508,34.173],[135.502,34.18],[135.495,34.185],[135.487,34.191],[135.482,34.198],[135.48,34.202],[135.473,34.199],[135.466,34.196],[135.467,34.192],[135.462,34.188],[135.455,34.183],[135.451,34.18],[135.443,34.178],[135.438,34.177],[135.432,34.176],[135.427,34.18],[135.421,34.183],[135.417,34.183],[135.413,34.185],[135.407,34.185],[135.406,34.19],[135.399,34.189],[135.394,34.185],[135.387,34.186],[135.376,34.186],[135.363,34.183],[135.356,34.184],[135.351,34.189],[135.348,34.193],[135.345,34.196],[135.339,34.195],[135.335,34.194],[135.327,34.188],[135.32,34.191],[135.314,34.188],[135.314,34.185],[135.313,34.178],[135.306,34.177],[135.3,34.175],[135.296,34.169],[135.291,34.168],[135.292,34.162],[135.295,34.162],[135.3,34.164],[135.303,34.166],[135.301,34.157],[135.301,34.153],[135.301,34.145],[135.298,34.144],[135.297,34.138]]]]}},{"type":"Feature","properties":{"name":"伊都郡かつらぎ町","code":"30341"},"geometry":{"type":"MultiPolygon","coordinates":[[[[135.529,34.351],[135.524,34.348],[135.517,34.342],[135.512,34.338],[135.509,34.337],[135.503,34.337],[135.505,34.341],[135.502,34.345],[135.502,34.35],[135.498,34.352],[135.489,34.356],[135.485,34.363],[135.479,34.358],[135.478,34.354],[135.472,34.352],[135.467,34.35],[135.463,34.348],[135.458,34.347],[135.453,34.35],[135.45,34.35],[135.444,34.348],[135.446,34.342],[135.447,34.335],[135.455,34.335],[135.457,34.328],[135.46,34.325],[135.461,34.322],[135.464,34.319],[135.466,34.316],[135.464,34.311],[135.464,34.308],[135.461,34.305],[135.458,34.3],[135.453,34.295],[135.451,34.291],[135.45,34.287],[135.449,34.282],[135.451,34.277],[135.455,34.272],[135.46,34.271],[135.466,34.267],[135.465,34.261],[135.467,34.253],[135.47,34.253],[135.474,34.25],[135.484,34.242],[135.488,34.232],[135.487,34.229],[135.485,34.22],[135.482,34.219],[135.481,34.214],[135.482,34.211],[135.48,34.202],[135.482,34.198],[135.485,34.192],[135.495,34.186],[135.5,34.181],[135.508,34.173],[135.505,34.17],[135.499,34.167],[135.492,34.165],[135.491,34.16],[135.489,34.155],[135.498,34.152],[135.504,34.144],[135.507,34.138],[135.515,34.13],[135.516,34.125],[135.522,34.121],[135.529,34.116],[135.533,34.115],[135.533,34.11],[135.534,34.104],[135.538,34.099],[135.544,34.097],[135.547,34.1],[135.558,34.103],[135.557,34.108],[135.562,34.11],[135.566,34.113],[135.571,34.114],[135.579,34.116],[135.579,34.12],[135.582,34.126],[135.585,34.132],[135.586,34.139],[135.588,34.144],[135.591,34.149],[135.596,34.151],[135.605,34.154],[135.601,34.159],[135.593,34.159],[135.587,34.158],[135.582,34.158],[135.577,34.161],[135.581,34.167],[135.573,34.169],[135.57,34.174],[135.572,34.179],[135.569,34.183],[135.567,34.187],[135.566,34.192],[135.561,34.192],[135.562,34.187],[135.561,34.184],[135.562,34.179],[135.562,34.175],[135.559,34.171],[135.557,34.167],[135.554,34.163],[135.547,34.161],[135.539,34.157],[135.529,34.16],[135.523,34.161],[135.515,34.171],[135.513,34.175],[135.515,34.179],[135.513,34.185],[135.52,34.191],[135.521,34.198],[135.525,34.202],[135.529,34.204],[135.523,34.206],[135.519,34.209],[135.52,34.214],[135.52,34.22],[135.524,34.221],[135.52,34.223],[135.52,34.23],[135.522,34.235],[135.522,34.238],[135.533,34.239],[135.531,34.245],[135.53,34.25],[135.526,34.255],[135.528,34.259],[135.53,34.263],[135.532,34.268],[135.532,34.278],[135.537,34.283],[135.543,34.284],[135.542,34.288],[135.536,34.297],[135.532,34.298],[135.538,34.304],[135.542,34.304],[135.543,34.311],[135.538,34.321],[135.532,34.327],[135.527,34.329],[135.528,34.334],[135.528,34.339],[135.527,34.345],[135.529,34.351]]]]}},{"type":"Feature","properties":{"name":"伊都郡九度山町","code":"30343"},"geometry":{"type":"MultiPolygon","coordinates":[[[[135.542,34.304],[135.538,34.304],[135.532,34.298],[135.536,34.297],[135.542,34.288],[135.543,34.284],[135.537,34.283],[135.532,34.278],[135.531,34.271],[135.53,34.263],[135.528,34.259],[135.526,34.255],[135.528,34.251],[135.531,34.245],[135.533,34.239],[135.545,34.239],[135.551,34.24],[135.553,34.247],[135.558,34.247],[135.562,34.249],[135.565,34.249],[135.569,34.246],[135.573,34.248],[135.571,34.257],[135.574,34.266],[135.573,34.271],[135.577,34.27],[135.578,34.273],[135.581,34.271],[135.582,34.263],[135.584,34.26],[135.585,34.255],[135.589,34.245],[135.594,34.244],[135.6,34.244],[135.603,34.242],[135.604,34.238],[135.607,34.236],[135.611,34.236],[135.615,34.234],[135.62,34.237],[135.621,34.242],[135.625,34.245],[135.629,34.247],[135.632,34.249],[135.631,34.254],[135.638,34.258],[135.636,34.263],[135.642,34.264],[135.644,34.268],[135.635,34.272],[135.634,34.276],[135.629,34.278],[135.628,34.283],[135.621,34.284],[135.617,34.281],[135.613,34.281],[135.607,34.283],[135.596,34.28],[135.591,34.278],[135.588,34.281],[135.586,34.285],[135.58,34.284],[135.577,34.286],[135.574,34.284],[135.573,34.288],[135.573,34.294],[135.571,34.3],[135.568,34.299],[135.561,34.294],[135.557,34.295],[135.55,34.298],[135.542,34.304]],[[135.552,34.277],[135.546,34.281],[135.547,34.284],[135.552,34.287],[135.556,34.29],[135.553,34.281],[135.553,34.278]]]]}},{"type":"Feature","properties":{"name":"伊都郡高野町","code":"30344"},"geometry":{"type":"MultiPolygon","coordinates":[[[[135.632,34.249],[135.629,34.247],[135.625,34.245],[135.621,34.242],[135.62,34.237],[135.615,34.234],[135.611,34.236],[135.607,34.236],[135.604,34.238],[135.603,34.242],[135.6,34.244],[135.596,34.245],[135.589,34.245],[135.585,34.253],[135.584,34.26],[135.582,34.263],[135.581,34.271],[135.578,34.273],[135.577,34.27],[135.573,34.271],[135.572,34.268],[135.571,34.257],[135.574,34.25],[135.569,34.246],[135.565,34.249],[135.562,34.249],[135.558,34.247],[135.553,34.247],[135.551,34.24],[135.545,34.239],[135.533,34.239],[135.524,34.239],[135.522,34.235],[135.52,34.23],[135.52,34.223],[135.524,34.221],[135.52,34.22],[135.52,34.214],[135.519,34.209],[135.523,34.206],[135.529,34.204],[135.525,34.202],[135.521,34.198],[135.52,34.194],[135.513,34.185],[135.513,34.182],[135.513,34.175],[135.515,34.171],[135.523,34.161],[135.529,34.16],[135.536,34.157],[135.547,34.161],[135.553,34.163],[135.558,34.165],[135.559,34.171],[135.562,34.175],[135.562,34.179],[135.561,34.184],[135.562,34.187],[135.561,34.192],[135.566,34.192],[135.567,34.187],[135.569,34.183],[135.572,34.179],[135.57,34.174],[135.573,34.169],[135.578,34.167],[135.577,34.161],[135.582,34.158],[135.587,34.158],[135.593,34.159],[135.601,34.159],[135.605,34.154],[135.608,34.155],[135.612,34.155],[135.617,34.156],[135.622,34.158],[135.623,34.163],[135.621,34.166],[135.623,34.17],[135.628,34.175],[135.632,34.177],[135.638,34.179],[135.642,34.183],[135.645,34.191],[135.641,34.191],[135.636,34.196],[135.635,34.202],[135.641,34.209],[135.641,34.213],[135.646,34.216],[135.652,34.217],[135.659,34.218],[135.668,34.224],[135.673,34.224],[135.678,34.223],[135.685,34.22],[135.688,34.217],[135.694,34.217],[135.698,34.212],[135.702,34.212],[135.708,34.208],[135.714,34.214],[135.718,34.215],[135.723,34.22],[135.727,34.221],[135.73,34.232],[135.729,34.235],[135.723,34.24],[135.72,34.25],[135.719,34.255],[135.72,34.259],[135.718,34.263],[135.708,34.269],[135.708,34.272],[135.704,34.272],[135.701,34.275],[135.692,34.278],[135.689,34.272],[135.683,34.27],[135.677,34.267],[135.672,34.264],[135.674,34.258],[135.666,34.251],[135.663,34.247],[135.654,34.241],[135.651,34.243],[135.654,34.246],[135.649,34.245],[135.644,34.249],[135.639,34.248],[135.635,34.25]]]]}},{"type":"Feature","properties":{"name":"有田郡湯浅町","code":"30361"},"geometry":{"type":"MultiPolygon","coordinates":[[[[135.139,34.057],[135.146,34.056],[135.148,34.049],[135.146,34.045],[135.152,34.045],[135.158,34.047],[135.161,34.046],[135.162,34.037],[135.168,34.037],[135.171,34.032],[135.181,34.029],[135.182,34.026],[135.188,34.025],[135.197,34.025],[135.201,34.023],[135.203,34.018],[135.211,34.01],[135.214,34.01],[135.218,34.008],[135.223,34.007],[135.227,34.008],[135.236,34.009],[135.239,34.009],[135.242,34.014],[135.237,34.02],[135.234,34.026],[135.232,34.031],[135.228,34.033],[135.224,34.033],[135.217,34.031],[135.214,34.035],[135.21,34.037],[135.207,34.036],[135.199,34.034],[135.195,34.037],[135.195,34.04],[135.195,34.045],[135.19,34.052],[135.186,34.059],[135.183,34.062],[135.181,34.057],[135.173,34.055],[135.169,34.061],[135.166,34.063],[135.158,34.063],[135.149,34.058],[135.144,34.059],[135.139,34.057]]]]}},{"type":"Feature","properties":{"name":"有田郡広川町","code":"30362"},"geometry":{"type":"MultiPolygon","coordinates":[[[[135.171,34.032],[135.17,34.026],[135.166,34.029],[135.158,34.026],[135.155,34.026],[135.151,34.025],[135.152,34.02],[135.148,34.018],[135.141,34.02],[135.137,34.017],[135.143,34.016],[135.147,34.011],[135.151,34.009],[135.148,34.005],[135.145,34.005],[135.141,34.006],[135.137,34.0],[135.138,33.997],[135.142,33.991],[135.154,33.993],[135.164,33.996],[135.167,33.995],[135.175,33.995],[135.175,33.99],[135.175,33.984],[135.178,33.979],[135.176,33.975],[135.174,33.968],[135.175,33.965],[135.177,33.958],[135.185,33.958],[135.19,33.956],[135.194,33.956],[135.198,33.954],[135.206,33.954],[135.222,33.953],[135.223,33.949],[135.228,33.948],[135.233,33.948],[135.233,33.951],[135.236,33.954],[135.236,33.959],[135.244,33.96],[135.249,33.963],[135.255,33.965],[135.259,33.973],[135.257,33.976],[135.258,33.981],[135.258,33.986],[135.259,33.99],[135.268,33.995],[135.273,33.998],[135.276,34.003],[135.27,34.01],[135.269,34.015],[135.261,34.014],[135.255,34.015],[135.249,34.014],[135.244,34.014],[135.24,34.017],[135.239,34.009],[135.236,34.009],[135.227,34.008],[135.223,34.007],[135.218,34.008],[135.214,34.01],[135.211,34.01],[135.205,34.018],[135.201,34.023],[135.197,34.025],[135.188,34.025],[135.182,34.026],[135.181,34.029],[135.174,34.032]]]]}},{"type":"Feature","properties":{"name":"有田郡有田川町","code":"30366"},"geometry":{"type":"MultiPolygon","coordinates":[[[[135.188,34.098],[135.187,34.094],[135.189,34.09],[135.189,34.085],[135.193,34.077],[135.191,34.066],[135.186,34.062],[135.19,34.055],[135.195,34.045],[135.193,34.041],[135.195,34.037],[135.199,34.034],[135.207,34.036],[135.21,34.037],[135.214,34.035],[135.217,34.031],[135.222,34.031],[135.228,34.033],[135.232,34.031],[135.234,34.028],[135.237,34.023],[135.24,34.017],[135.244,34.014],[135.249,34.014],[135.255,34.015],[135.261,34.014],[135.269,34.015],[135.27,34.01],[135.278,34.006],[135.284,34.004],[135.288,34.004],[135.294,34.007],[135.298,34.004],[135.302,34.004],[135.306,34.005],[135.31,34.005],[135.319,34.007],[135.325,34.009],[135.329,34.006],[135.333,34.007],[135.346,34.005],[135.357,34.005],[135.364,34.008],[135.367,34.013],[135.372,34.014],[135.376,34.012],[135.389,34.011],[135.398,34.013],[135.401,34.015],[135.402,34.019],[135.407,34.02],[135.411,34.023],[135.417,34.025],[135.427,34.027],[135.434,34.031],[135.437,34.031],[135.441,34.034],[135.446,34.038],[135.452,34.041],[135.459,34.038],[135.467,34.032],[135.482,34.033],[135.487,34.034],[135.496,34.037],[135.499,34.043],[135.505,34.042],[135.509,34.047],[135.517,34.047],[135.528,34.048],[135.532,34.049],[135.536,34.051],[135.538,34.058],[135.543,34.062],[135.548,34.068],[135.544,34.072],[135.54,34.075],[135.543,34.082],[135.549,34.084],[135.55,34.091],[135.549,34.097],[135.544,34.097],[135.538,34.099],[135.533,34.101],[135.534,34.109],[135.533,34.115],[135.529,34.116],[135.522,34.119],[135.516,34.125],[135.514,34.128],[135.509,34.138],[135.506,34.144],[135.498,34.152],[135.489,34.155],[135.485,34.153],[135.474,34.146],[135.47,34.144],[135.462,34.138],[135.458,34.133],[135.452,34.13],[135.449,34.126],[135.445,34.123],[135.439,34.122],[135.435,34.117],[135.431,34.115],[135.425,34.118],[135.421,34.117],[135.417,34.12],[135.413,34.12],[135.405,34.121],[135.398,34.121],[135.392,34.122],[135.385,34.121],[135.381,34.121],[135.374,34.121],[135.375,34.113],[135.37,34.114],[135.365,34.113],[135.359,34.115],[135.346,34.116],[135.338,34.114],[135.335,34.105],[135.329,34.106],[135.325,34.104],[135.317,34.104],[135.315,34.108],[135.312,34.11],[135.311,34.115],[135.308,34.115],[135.309,34.122],[135.304,34.128],[135.301,34.132],[135.297,34.136],[135.295,34.132],[135.292,34.126],[135.287,34.124],[135.284,34.12],[135.28,34.119],[135.274,34.117],[135.268,34.116],[135.263,34.116],[135.258,34.118],[135.253,34.121],[135.249,34.123],[135.243,34.121],[135.239,34.122],[135.236,34.118],[135.235,34.112],[135.232,34.11],[135.231,34.107],[135.224,34.108],[135.217,34.11],[135.213,34.106],[135.205,34.1],[135.197,34.099],[135.188,34.098]]]]}},{"type":"Feature","properties":{"name":"日高郡美浜町","code":"30381"},"geometry":{"type":"MultiPolygon","coordinates":[[[[135.141,33.914],[135.137,33.916],[135.133,33.916],[135.133,33.912],[135.133,33.907],[135.131,33.904],[135.124,33.903],[135.117,33.903],[135.109,33.904],[135.104,33.903],[135.094,33.901],[135.087,33.903],[135.083,33.9],[135.078,33.9],[135.075,33.897],[135.072,33.897],[135.072,33.889],[135.066,33.888],[135.064,33.884],[135.058,33.88],[135.061,33.88],[135.066,33.881],[135.07,33.883],[135.073,33.887],[135.076,33.888],[135.08,33.891],[135.084,33.887],[135.091,33.887],[135.096,33.888],[135.1,33.889],[135.112,33.893],[135.12,33.892],[135.132,33.889],[135.142,33.885],[135.15,33.879],[135.152,33.876],[135.154,33.88],[135.149,33.896],[135.144,33.907],[135.141,33.914]]]]}},{"type":"Feature","properties":{"name":"日高郡日高町","code":"30382"},"geometry":{"type":"MultiPolygon","coordinates":[[[[135.174,33.953],[135.178,33.956],[135.178,33.964],[135.174,33.968],[135.174,33.975],[135.178,33.979],[135.175,33.984],[135.172,33.983],[135.161,33.977],[135.154,33.976],[135.145,33.968],[135.141,33.964],[135.139,33.957],[135.135,33.954],[135.131,33.952],[135.122,33.946],[135.117,33.945],[135.113,33.946],[135.108,33.945],[135.106,33.95],[135.103,33.954],[135.101,33.95],[135.096,33.948],[135.093,33.949],[135.089,33.949],[135.088,33.946],[135.089,33.942],[135.086,33.944],[135.087,33.938],[135.084,33.935],[135.08,33.936],[135.076,33.935],[135.073,33.931],[135.068,33.932],[135.066,33.928],[135.07,33.925],[135.074,33.928],[135.079,33.926],[135.076,33.92],[135.082,33.919],[135.079,33.913],[135.083,33.913],[135.082,33.907],[135.076,33.903],[135.073,33.903],[135.07,33.905],[135.063,33.906],[135.059,33.905],[135.06,33.899],[135.065,33.896],[135.064,33.892],[135.057,33.889],[135.058,33.883],[135.058,33.88],[135.064,33.884],[135.066,33.888],[135.069,33.889],[135.073,33.894],[135.075,33.897],[135.078,33.9],[135.083,33.9],[135.087,33.903],[135.092,33.9],[135.103,33.901],[135.109,33.903],[135.117,33.903],[135.121,33.903],[135.131,33.904],[135.133,33.907],[135.133,33.912],[135.133,33.916],[135.137,33.916],[135.141,33.914],[135.147,33.917],[135.157,33.919],[135.16,33.923],[135.159,33.928],[135.159,33.933],[135.156,33.936],[135.157,33.942],[135.16,33.945],[135.161,33.95],[135.166,33.95],[135.174,33.953]]]]}},{"type":"Feature","properties":{"name":"日高郡由良町","code":"30383"},"geometry":{"type":"MultiPolygon","coordinates":[[[[135.135,34.0],[135.129,34.001],[135.126,33.998],[135.12,33.999],[135.115,33.997],[135.113,33.991],[135.108,33.989],[135.105,33.993],[135.098,33.993],[135.094,33.993],[135.092,33.987],[135.091,33.983],[135.088,33.979],[135.084,33.98],[135.078,33.979],[135.075,33.979],[135.078,33.973],[135.079,33.97],[135.085,33.97],[135.084,33.961],[135.08,33.961],[135.074,33.959],[135.08,33.956],[135.088,33.956],[135.095,33.958],[135.099,33.96],[135.102,33.964],[135.107,33.964],[135.111,33.963],[135.114,33.957],[135.105,33.956],[135.106,33.95],[135.108,33.945],[135.113,33.946],[135.117,33.945],[135.122,33.946],[135.131,33.951],[135.135,33.954],[135.139,33.957],[135.141,33.964],[135.145,33.968],[135.154,33.976],[135.159,33.975],[135.172,33.983],[135.175,33.984],[135.176,33.987],[135.175,33.995],[135.167,33.995],[135.164,33.996],[135.155,33.992],[135.144,33.989],[135.138,33.997],[135.135,34.0]]]]}},{"type":"Feature","properties":{"name":"日高郡印南町","code":"30390"},"geometry":{"type":"MultiPolygon","coordinates":[[[[135.199,33.813],[135.205,33.812],[135.207,33.809],[135.216,33.814],[135.216,33.81],[135.221,33.808],[135.221,33.805],[135.225,33.803],[135.231,33.801],[135.236,33.798],[135.237,33.795],[135.237,33.791],[135.234,33.79],[135.233,33.784],[135.238,33.78],[135.246,33.78],[135.253,33.783],[135.263,33.782],[135.266,33.783],[135.262,33.792],[135.26,33.799],[135.264,33.803],[135.264,33.806],[135.269,33.812],[135.278,33.818],[135.286,33.818],[135.291,33.819],[135.297,33.819],[135.301,33.827],[135.3,33.83],[135.304,33.833],[135.309,33.836],[135.309,33.84],[135.307,33.844],[135.312,33.848],[135.312,33.852],[135.313,33.857],[135.31,33.857],[135.31,33.861],[135.315,33.862],[135.318,33.866],[135.322,33.869],[135.322,33.874],[135.327,33.877],[135.333,33.878],[135.34,33.879],[135.346,33.878],[135.351,33.88],[135.352,33.883],[135.356,33.888],[135.369,33.886],[135.379,33.885],[135.384,33.886],[135.387,33.885],[135.394,33.885],[135.4,33.888],[135.403,33.891],[135.402,33.895],[135.397,33.895],[135.393,33.896],[135.392,33.902],[135.397,33.904],[135.395,33.908],[135.396,33.915],[135.387,33.917],[135.383,33.917],[135.38,33.919],[135.375,33.916],[135.368,33.916],[135.364,33.915],[135.355,33.915],[135.35,33.913],[135.342,33.912],[135.335,33.912],[135.33,33.91],[135.325,33.904],[135.315,33.905],[135.31,33.902],[135.301,33.896],[135.299,33.892],[135.296,33.893],[135.289,33.892],[135.284,33.89],[135.276,33.888],[135.275,33.883],[135.271,33.877],[135.265,33.872],[135.262,33.873],[135.256,33.873],[135.252,33.874],[135.247,33.873],[135.242,33.876],[135.236,33.878],[135.232,33.877],[135.216,33.878],[135.213,33.879],[135.208,33.88],[135.201,33.882],[135.201,33.873],[135.21,33.873],[135.215,33.872],[135.216,33.867],[135.21,33.864],[135.206,33.865],[135.197,33.869],[135.192,33.868],[135.189,33.868],[135.179,33.869],[135.183,33.867],[135.186,33.866],[135.185,33.862],[135.184,33.858],[135.188,33.857],[135.192,33.857],[135.197,33.854],[135.2,33.854],[135.203,33.85],[135.204,33.845],[135.208,33.838],[135.208,33.835],[135.204,33.834],[135.202,33.83],[135.203,33.824],[135.201,33.819],[135.199,33.813]]]]}},{"type":"Feature","properties":{"name":"日高郡みなべ町","code":"30391"},"geometry":{"type":"MultiPolygon","coordinates":[[[[135.401,33.888],[135.394,33.885],[135.387,33.885],[135.384,33.886],[135.379,33.885],[135.371,33.886],[135.356,33.888],[135.352,33.883],[135.351,33.88],[135.346,33.878],[135.34,33.879],[135.335,33.88],[135.327,33.877],[135.322,33.874],[135.322,33.869],[135.318,33.866],[135.315,33.862],[135.31,33.861],[135.31,33.857],[135.313,33.857],[135.314,33.853],[135.312,33.848],[135.308,33.846],[135.309,33.84],[135.309,33.836],[135.304,33.833],[135.3,33.83],[135.301,33.827],[135.297,33.822],[135.291,33.819],[135.288,33.817],[135.278,33.818],[135.27,33.815],[135.264,33.806],[135.264,33.803],[135.26,33.799],[135.26,33.794],[135.266,33.783],[135.271,33.783],[135.274,33.78],[135.281,33.778],[135.287,33.773],[135.293,33.772],[135.298,33.767],[135.301,33.767],[135.307,33.769],[135.312,33.77],[135.317,33.768],[135.322,33.763],[135.325,33.76],[135.325,33.754],[135.326,33.751],[135.33,33.744],[135.336,33.746],[135.336,33.753],[135.34,33.756],[135.343,33.761],[135.345,33.768],[135.345,33.775],[135.349,33.777],[135.349,33.784],[135.348,33.788],[135.35,33.795],[135.348,33.8],[135.349,33.804],[135.346,33.807],[135.353,33.81],[135.36,33.812],[135.365,33.814],[135.37,33.821],[135.374,33.827],[135.378,33.83],[135.391,33.838],[135.396,33.836],[135.402,33.838],[135.405,33.837],[135.413,33.836],[135.422,33.836],[135.431,33.838],[135.436,33.839],[135.44,33.839],[135.443,33.841],[135.446,33.84],[135.45,33.841],[135.455,33.838],[135.461,33.839],[135.46,33.843],[135.463,33.849],[135.465,33.853],[135.458,33.853],[135.451,33.855],[135.444,33.858],[135.444,33.863],[135.44,33.866],[135.435,33.867],[135.429,33.864],[135.427,33.871],[135.431,33.877],[135.429,33.88],[135.426,33.88],[135.422,33.88],[135.416,33.879],[135.41,33.882],[135.401,33.888]]]]}},{"type":"Feature","properties":{"name":"日高郡日高川町","code":"30392"},"geometry":{"type":"MultiPolygon","coordinates":[[[[135.199,33.882],[135.208,33.88],[135.212,33.88],[135.216,33.878],[135.232,33.877],[135.236,33.878],[135.242,33.876],[135.247,33.873],[135.252,33.874],[135.256,33.873],[135.262,33.873],[135.265,33.872],[135.271,33.877],[135.275,33.883],[135.276,33.888],[135.282,33.888],[135.289,33.892],[135.294,33.892],[135.299,33.892],[135.301,33.896],[135.311,33.901],[135.315,33.905],[135.325,33.904],[135.329,33.907],[135.333,33.91],[135.34,33.913],[135.35,33.913],[135.355,33.915],[135.364,33.915],[135.368,33.916],[135.375,33.916],[135.38,33.919],[135.383,33.917],[135.387,33.917],[135.393,33.917],[135.394,33.923],[135.398,33.925],[135.398,33.929],[135.402,33.931],[135.408,33.93],[135.413,33.93],[135.418,33.933],[135.418,33.937],[135.423,33.945],[135.429,33.944],[135.433,33.944],[135.432,33.94],[135.439,33.944],[135.44,33.947],[135.444,33.946],[135.452,33.946],[135.458,33.945],[135.459,33.942],[135.463,33.937],[135.468,33.936],[135.472,33.938],[135.476,33.942],[135.482,33.942],[135.485,33.94],[135.489,33.941],[135.496,33.946],[135.502,33.946],[135.508,33.95],[135.514,33.951],[135.522,33.952],[135.527,33.955],[135.53,33.956],[135.541,33.962],[135.544,33.966],[135.547,33.971],[135.543,33.976],[135.544,33.98],[135.541,33.985],[135.537,33.992],[135.53,33.999],[135.533,34.003],[135.537,34.008],[135.538,34.012],[135.534,34.017],[135.529,34.022],[135.521,34.024],[135.513,34.022],[135.508,34.024],[135.508,34.032],[135.508,34.036],[135.505,34.038],[135.505,34.042],[135.499,34.043],[135.496,34.037],[135.487,34.034],[135.482,34.033],[135.467,34.032],[135.459,34.038],[135.453,34.04],[135.446,34.038],[135.441,34.034],[135.437,34.031],[135.434,34.031],[135.428,34.029],[135.417,34.027],[135.411,34.023],[135.407,34.02],[135.402,34.019],[135.401,34.015],[135.398,34.013],[135.392,34.01],[135.379,34.013],[135.372,34.014],[135.367,34.013],[135.364,34.008],[135.357,34.005],[135.347,34.006],[135.336,34.006],[135.329,34.006],[135.325,34.009],[135.319,34.007],[135.313,34.008],[135.306,34.005],[135.302,34.004],[135.298,34.004],[135.294,34.007],[135.29,34.001],[135.284,34.004],[135.279,34.004],[135.273,33.998],[135.268,33.995],[135.259,33.99],[135.258,33.986],[135.258,33.981],[135.257,33.976],[135.259,33.973],[135.255,33.967],[135.249,33.963],[135.244,33.96],[135.239,33.96],[135.236,33.954],[135.233,33.951],[135.233,33.948],[135.228,33.948],[135.223,33.949],[135.222,33.953],[135.209,33.952],[135.198,33.954],[135.194,33.956],[135.19,33.956],[135.185,33.958],[135.178,33.956],[135.175,33.955],[135.176,33.951],[135.177,33.947],[135.175,33.943],[135.178,33.935],[135.174,33.932],[135.172,33.924],[135.172,33.919],[135.173,33.914],[135.177,33.913],[135.18,33.909],[135.186,33.906],[135.191,33.904],[135.194,33.9],[135.196,33.895],[135.199,33.893],[135.198,33.885]]]]}},{"type":"Feature","properties":{"name":"西牟婁郡白浜町","code":"30401"},"geometry":{"type":"MultiPolygon","coordinates":[[[[135.512,33.701],[135.512,33.696],[135.508,33.694],[135.507,33.69],[135.499,33.686],[135.496,33.683],[135.498,33.68],[135.499,33.676],[135.5,33.669],[135.49,33.667],[135.483,33.668],[135.477,33.669],[135.47,33.668],[135.465,33.672],[135.46,33.675],[135.452,33.675],[135.449,33.675],[135.441,33.674],[135.433,33.678],[135.429,33.679],[135.424,33.683],[135.416,33.687],[135.41,33.681],[135.406,33.677],[135.403,33.681],[135.399,33.683],[135.397,33.687],[135.387,33.686],[135.383,33.691],[135.376,33.691],[135.376,33.684],[135.37,33.686],[135.365,33.683],[135.364,33.679],[135.359,33.68],[135.36,33.684],[135.355,33.686],[135.359,33.688],[135.356,33.689],[135.349,33.694],[135.343,33.694],[135.338,33.694],[135.334,33.692],[135.339,33.692],[135.344,33.689],[135.344,33.682],[135.343,33.678],[135.338,33.677],[135.332,33.674],[135.33,33.67],[135.332,33.666],[135.335,33.666],[135.341,33.661],[135.347,33.658],[135.353,33.655],[135.362,33.653],[135.367,33.652],[135.371,33.652],[135.375,33.652],[135.382,33.651],[135.383,33.648],[135.387,33.647],[135.391,33.643],[135.393,33.64],[135.393,33.634],[135.394,33.63],[135.396,33.626],[135.394,33.623],[135.39,33.617],[135.396,33.618],[135.393,33.614],[135.394,33.61],[135.39,33.609],[135.389,33.605],[135.386,33.6],[135.391,33.598],[135.39,33.593],[135.393,33.589],[135.396,33.586],[135.4,33.584],[135.402,33.587],[135.403,33.583],[135.406,33.578],[135.41,33.576],[135.417,33.581],[135.419,33.575],[135.419,33.57],[135.424,33.571],[135.428,33.571],[135.432,33.568],[135.437,33.567],[135.444,33.563],[135.447,33.559],[135.447,33.553],[135.446,33.549],[135.45,33.55],[135.458,33.553],[135.459,33.546],[135.469,33.552],[135.471,33.556],[135.475,33.561],[135.475,33.567],[135.481,33.571],[135.483,33.575],[135.485,33.58],[135.489,33.583],[135.491,33.587],[135.487,33.593],[135.486,33.597],[135.493,33.605],[135.499,33.607],[135.504,33.613],[135.509,33.612],[135.513,33.612],[135.517,33.609],[135.521,33.61],[135.528,33.609],[135.528,33.612],[135.531,33.616],[135.528,33.62],[135.53,33.625],[135.539,33.627],[135.543,33.631],[135.544,33.636],[135.55,33.635],[135.553,33.634],[135.559,33.636],[135.566,33.636],[135.57,33.633],[135.573,33.633],[135.578,33.63],[135.585,33.631],[135.589,33.629],[135.594,33.629],[135.597,33.627],[135.601,33.629],[135.606,33.633],[135.611,33.633],[135.614,33.63],[135.614,33.626],[135.617,33.623],[135.619,33.62],[135.622,33.62],[135.626,33.623],[135.63,33.623],[135.636,33.621],[135.644,33.623],[135.64,33.631],[135.642,33.635],[135.645,33.635],[135.648,33.637],[135.653,33.638],[135.656,33.639],[135.659,33.642],[135.662,33.646],[135.666,33.648],[135.667,33.653],[135.658,33.657],[135.654,33.655],[135.651,33.649],[135.644,33.649],[135.639,33.648],[135.631,33.645],[135.628,33.65],[135.62,33.651],[135.612,33.65],[135.605,33.644],[135.598,33.646],[135.595,33.649],[135.588,33.651],[135.586,33.657],[135.576,33.66],[135.571,33.658],[135.564,33.656],[135.553,33.657],[135.552,33.661],[135.556,33.662],[135.555,33.668],[135.556,33.678],[135.552,33.682],[135.55,33.686],[135.546,33.691],[135.541,33.69],[135.535,33.692],[135.53,33.692],[135.524,33.691],[135.524,33.698],[135.521,33.705],[135.512,33.701]]]]}},{"type":"Feature","properties":{"name":"西牟婁郡上富田町","code":"30404"},"geometry":{"type":"MultiPolygon","coordinates":[[[[135.397,33.687],[135.401,33.686],[135.4,33.681],[135.406,33.677],[135.41,33.681],[135.416,33.687],[135.422,33.683],[135.429,33.679],[135.433,33.678],[135.438,33.677],[135.446,33.673],[135.452,33.675],[135.457,33.676],[135.462,33.673],[135.468,33.668],[135.474,33.667],[135.483,33.668],[135.488,33.669],[135.499,33.667],[135.498,33.674],[135.498,33.68],[135.496,33.683],[135.499,33.686],[135.507,33.69],[135.508,33.694],[135.512,33.696],[135.512,33.701],[135.507,33.705],[135.503,33.704],[135.496,33.701],[135.492,33.702],[135.488,33.706],[135.482,33.713],[135.478,33.716],[135.482,33.718],[135.483,33.724],[135.479,33.725],[135.477,33.729],[135.482,33.736],[135.484,33.743],[135.487,33.745],[135.487,33.751],[135.484,33.755],[135.48,33.758],[135.476,33.763],[135.475,33.766],[135.469,33.768],[135.467,33.76],[135.465,33.756],[135.466,33.752],[135.465,33.748],[135.461,33.749],[135.453,33.747],[135.445,33.744],[135.44,33.741],[135.44,33.735],[135.437,33.734],[135.437,33.731],[135.433,33.73],[135.434,33.724],[135.43,33.722],[135.426,33.72],[135.424,33.717],[135.421,33.713],[135.416,33.714],[135.41,33.711],[135.41,33.707],[135.405,33.704],[135.401,33.699],[135.403,33.695],[135.4,33.693],[135.397,33.687]]]]}},{"type":"Feature","properties":{"name":"西牟婁郡すさみ町","code":"30406"},"geometry":{"type":"MultiPolygon","coordinates":[[[[135.632,33.573],[135.63,33.576],[135.632,33.58],[135.637,33.58],[135.645,33.578],[135.652,33.576],[135.656,33.577],[135.661,33.576],[135.663,33.58],[135.662,33.586],[135.662,33.59],[135.668,33.59],[135.667,33.595],[135.663,33.597],[135.66,33.598],[135.656,33.606],[135.655,33.609],[135.65,33.616],[135.647,33.621],[135.644,33.623],[135.636,33.621],[135.63,33.623],[135.626,33.623],[135.622,33.62],[135.619,33.62],[135.617,33.623],[135.614,33.626],[135.614,33.63],[135.611,33.633],[135.606,33.633],[135.601,33.629],[135.597,33.627],[135.594,33.629],[135.589,33.629],[135.585,33.631],[135.578,33.63],[135.573,33.633],[135.57,33.633],[135.566,33.636],[135.562,33.634],[135.553,33.634],[135.55,33.635],[135.544,33.636],[135.543,33.631],[135.539,33.627],[135.53,33.625],[135.528,33.62],[135.531,33.616],[135.528,33.612],[135.528,33.609],[135.521,33.61],[135.517,33.609],[135.513,33.612],[135.509,33.612],[135.504,33.613],[135.501,33.61],[135.493,33.605],[135.489,33.6],[135.488,33.594],[135.489,33.589],[135.489,33.583],[135.485,33.58],[135.483,33.575],[135.481,33.571],[135.475,33.567],[135.476,33.563],[135.472,33.558],[135.469,33.552],[135.461,33.548],[135.468,33.546],[135.472,33.548],[135.475,33.551],[135.48,33.551],[135.479,33.546],[135.484,33.548],[135.488,33.55],[135.492,33.549],[135.493,33.544],[135.49,33.543],[135.496,33.542],[135.499,33.541],[135.5,33.536],[135.509,33.535],[135.514,33.532],[135.514,33.528],[135.518,33.522],[135.523,33.522],[135.53,33.522],[135.537,33.521],[135.54,33.519],[135.545,33.52],[135.547,33.516],[135.551,33.517],[135.555,33.515],[135.558,33.516],[135.565,33.515],[135.569,33.517],[135.575,33.516],[135.578,33.51],[135.579,33.507],[135.583,33.508],[135.587,33.506],[135.592,33.507],[135.597,33.507],[135.602,33.504],[135.604,33.509],[135.611,33.506],[135.617,33.506],[135.626,33.503],[135.628,33.508],[135.636,33.507],[135.637,33.511],[135.637,33.516],[135.639,33.522],[135.631,33.527],[135.622,33.53],[135.626,33.533],[135.631,33.538],[135.637,33.542],[135.636,33.546],[135.638,33.55],[135.641,33.553],[135.636,33.554],[135.629,33.554],[135.629,33.558],[135.629,33.562],[135.628,33.568],[135.632,33.573]]]]}},{"type":"Feature","properties":{"name":"東牟婁郡那智勝浦町","code":"30421"},"geometry":{"type":"MultiPolygon","coordinates":[[[[135.899,33.546],[135.906,33.547],[135.912,33.55],[135.916,33.553],[135.915,33.557],[135.918,33.559],[135.924,33.56],[135.916,33.562],[135.909,33.562],[135.905,33.56],[135.892,33.556],[135.901,33.563],[135.906,33.563],[135.909,33.566],[135.912,33.569],[135.916,33.571],[135.919,33.569],[135.921,33.575],[135.928,33.577],[135.931,33.576],[135.934,33.573],[135.939,33.574],[135.94,33.578],[135.939,33.584],[135.934,33.587],[135.931,33.588],[135.923,33.592],[135.922,33.599],[135.929,33.598],[135.93,33.601],[135.926,33.605],[135.925,33.609],[135.929,33.612],[135.928,33.615],[135.931,33.619],[135.937,33.617],[135.944,33.617],[135.943,33.622],[135.945,33.628],[135.949,33.627],[135.95,33.622],[135.953,33.626],[135.953,33.631],[135.948,33.633],[135.941,33.634],[135.938,33.637],[135.937,33.64],[135.939,33.645],[135.945,33.647],[135.949,33.65],[135.958,33.65],[135.961,33.654],[135.97,33.653],[135.972,33.656],[135.979,33.655],[135.98,33.651],[135.986,33.655],[135.986,33.659],[135.989,33.661],[135.985,33.661],[135.981,33.659],[135.976,33.66],[135.976,33.663],[135.974,33.667],[135.968,33.67],[135.962,33.672],[135.956,33.672],[135.953,33.679],[135.946,33.685],[135.942,33.685],[135.936,33.685],[135.932,33.69],[135.927,33.687],[135.922,33.684],[135.92,33.681],[135.917,33.68],[135.911,33.681],[135.906,33.682],[135.907,33.687],[135.901,33.694],[135.894,33.697],[135.889,33.699],[135.884,33.701],[135.881,33.705],[135.882,33.709],[135.879,33.711],[135.874,33.712],[135.871,33.711],[135.865,33.714],[135.866,33.718],[135.864,33.721],[135.855,33.721],[135.852,33.719],[135.849,33.715],[135.845,33.713],[135.84,33.709],[135.833,33.705],[135.833,33.702],[135.836,33.702],[135.84,33.697],[135.833,33.695],[135.826,33.694],[135.823,33.692],[135.82,33.694],[135.815,33.698],[135.81,33.7],[135.806,33.708],[135.801,33.701],[135.797,33.702],[135.794,33.706],[135.791,33.708],[135.788,33.7],[135.784,33.7],[135.781,33.703],[135.777,33.699],[135.781,33.697],[135.779,33.69],[135.779,33.683],[135.786,33.68],[135.794,33.677],[135.797,33.675],[135.795,33.67],[135.797,33.662],[135.797,33.659],[135.801,33.654],[135.8,33.651],[135.803,33.646],[135.805,33.642],[135.804,33.639],[135.805,33.636],[135.808,33.632],[135.812,33.631],[135.812,33.627],[135.817,33.625],[135.82,33.621],[135.821,33.617],[135.824,33.612],[135.818,33.609],[135.818,33.606],[135.825,33.594],[135.823,33.591],[135.822,33.587],[135.828,33.586],[135.836,33.584],[135.84,33.581],[135.849,33.584],[135.853,33.588],[135.858,33.586],[135.863,33.579],[135.868,33.58],[135.876,33.581],[135.88,33.579],[135.882,33.569],[135.885,33.564],[135.88,33.561],[135.884,33.555],[135.884,33.551],[135.887,33.552],[135.895,33.552],[135.896,33.549],[135.899,33.546]]]]}},{"type":"Feature","properties":{"name":"東牟婁郡太地町","code":"30422"},"geometry":{"type":"MultiPolygon","coordinates":[[[[135.94,33.578],[135.949,33.579],[135.954,33.578],[135.96,33.582],[135.961,33.593],[135.956,33.592],[135.95,33.59],[135.945,33.591],[135.948,33.595],[135.946,33.599],[135.949,33.602],[135.944,33.604],[135.936,33.599],[135.935,33.594],[135.931,33.595],[135.932,33.599],[135.929,33.598],[135.924,33.6],[135.922,33.595],[135.928,33.589],[135.934,33.59],[135.939,33.584],[135.937,33.579]]],[[[135.928,33.609],[135.936,33.615],[135.931,33.619],[135.928,33.615],[135.929,33.612]]]]}},{"type":"Feature","properties":{"name":"東牟婁郡古座川町","code":"30424"},"geometry":{"type":"MultiPolygon","coordinates":[[[[135.84,33.581],[135.836,33.584],[135.831,33.583],[135.825,33.585],[135.823,33.591],[135.825,33.594],[135.82,33.604],[135.818,33.609],[135.822,33.61],[135.821,33.617],[135.82,33.621],[135.817,33.625],[135.812,33.627],[135.812,33.631],[135.808,33.632],[135.805,33.636],[135.804,33.639],[135.805,33.642],[135.803,33.646],[135.8,33.651],[135.801,33.654],[135.797,33.659],[135.797,33.662],[135.798,33.667],[135.797,33.675],[135.794,33.677],[135.788,33.678],[135.779,33.683],[135.781,33.687],[135.782,33.695],[135.777,33.699],[135.778,33.703],[135.774,33.704],[135.772,33.7],[135.766,33.7],[135.762,33.703],[135.758,33.702],[135.758,33.698],[135.754,33.697],[135.749,33.7],[135.749,33.705],[135.751,33.709],[135.747,33.716],[135.742,33.715],[135.739,33.719],[135.738,33.723],[135.734,33.725],[135.727,33.726],[135.722,33.728],[135.716,33.728],[135.714,33.724],[135.717,33.72],[135.714,33.715],[135.711,33.711],[135.707,33.715],[135.701,33.714],[135.697,33.714],[135.691,33.711],[135.689,33.703],[135.683,33.697],[135.68,33.695],[135.678,33.692],[135.673,33.69],[135.666,33.69],[135.655,33.689],[135.653,33.686],[135.653,33.681],[135.651,33.677],[135.655,33.674],[135.652,33.671],[135.65,33.663],[135.654,33.662],[135.658,33.66],[135.658,33.657],[135.667,33.653],[135.668,33.65],[135.662,33.646],[135.659,33.642],[135.656,33.639],[135.653,33.638],[135.648,33.637],[135.645,33.635],[135.642,33.635],[135.64,33.631],[135.644,33.625],[135.647,33.621],[135.65,33.616],[135.655,33.609],[135.656,33.606],[135.66,33.6],[135.663,33.597],[135.667,33.595],[135.668,33.592],[135.662,33.59],[135.662,33.586],[135.663,33.58],[135.661,33.576],[135.656,33.577],[135.652,33.576],[135.646,33.576],[135.637,33.58],[135.632,33.58],[135.63,33.576],[135.632,33.573],[135.638,33.57],[135.642,33.567],[135.647,33.566],[135.652,33.566],[135.655,33.559],[135.662,33.556],[135.662,33.549],[135.664,33.545],[135.667,33.534],[135.667,33.53],[135.672,33.53],[135.676,33.527],[135.681,33.527],[135.682,33.523],[135.686,33.521],[135.693,33.522],[135.698,33.52],[135.701,33.52],[135.701,33.523],[135.705,33.528],[135.709,33.525],[135.716,33.525],[135.719,33.526],[135.721,33.531],[135.726,33.53],[135.731,33.53],[135.734,33.526],[135.737,33.521],[135.74,33.519],[135.746,33.517],[135.751,33.518],[135.753,33.522],[135.757,33.523],[135.763,33.522],[135.77,33.521],[135.774,33.523],[135.78,33.522],[135.784,33.525],[135.797,33.527],[135.803,33.533],[135.808,33.536],[135.819,33.525],[135.822,33.523],[135.827,33.529],[135.825,33.532],[135.826,33.536],[135.835,33.536],[135.836,33.542],[135.829,33.559],[135.834,33.562],[135.836,33.571],[135.84,33.574],[135.84,33.581]]]]}},{"type":"Feature","properties":{"name":"東牟婁郡北山村","code":"30427"},"geometry":{"type":"MultiPolygon","coordinates":[[[[136.007,34.007],[136.004,34.01],[136.001,34.006],[135.994,34.005],[135.989,34.002],[135.989,33.999],[135.985,33.995],[135.985,33.992],[135.977,33.99],[135.975,33.986],[135.968,33.986],[135.961,33.985],[135.958,33.982],[135.954,33.98],[135.947,33.981],[135.944,33.977],[135.94,33.978],[135.938,33.981],[135.929,33.98],[135.925,33.98],[135.916,33.973],[135.916,33.968],[135.912,33.964],[135.907,33.963],[135.907,33.959],[135.905,33.956],[135.898,33.954],[135.894,33.95],[135.892,33.946],[135.893,33.939],[135.898,33.934],[135.898,33.927],[135.903,33.924],[135.91,33.923],[135.909,33.918],[135.916,33.92],[135.921,33.917],[135.932,33.917],[135.935,33.92],[135.928,33.922],[135.924,33.92],[135.92,33.921],[135.917,33.925],[135.919,33.932],[135.928,33.935],[135.931,33.934],[135.928,33.94],[135.933,33.94],[135.937,33.939],[135.944,33.94],[135.947,33.938],[135.952,33.937],[135.958,33.934],[135.965,33.928],[135.97,33.93],[135.976,33.941],[135.977,33.947],[135.978,33.951],[135.977,33.957],[135.975,33.961],[135.975,33.964],[135.978,33.967],[135.985,33.969],[135.991,33.965],[135.993,33.961],[135.997,33.957],[136.001,33.957],[136.003,33.961],[136.01,33.966],[136.013,33.969],[136.013,33.974],[136.008,33.979],[136.004,33.986],[136.004,33.992],[135.997,33.998],[135.996,34.002],[136.002,34.001],[136.005,34.003],[136.007,34.007]]]]}}]}