{"type":"FeatureCollection","features":[{"type":"Feature","properties":{"name":"鳥取市","code":"31201"},"geometry":{"type":"MultiPolygon","coordinates":[[[[134.278,35.573],[134.273,35.561],[134.258,35.555],[134.231,35.546],[134.208,35.542],[134.197,35.541],[134.187,35.543],[134.186,35.538],[134.169,35.534],[134.152,35.531],[134.098,35.524],[134.083,35.525],[134.077,35.521],[134.057,35.519],[134.034,35.518],[134.022,35.52],[134.008,35.538],[134.002,35.532],[134.001,35.526],[133.989,35.523],[133.965,35.523],[133.971,35.518],[133.971,35.512],[133.964,35.503],[133.957,35.499],[133.954,35.488],[133.946,35.462],[133.954,35.451],[133.947,35.441],[133.951,35.437],[133.951,35.428],[133.965,35.427],[133.971,35.422],[133.983,35.425],[133.989,35.421],[133.994,35.424],[133.995,35.414],[134.001,35.406],[133.995,35.403],[133.991,35.394],[134.0,35.389],[134.003,35.391],[134.017,35.387],[134.032,35.379],[134.042,35.376],[134.032,35.366],[134.018,35.361],[134.02,35.356],[134.015,35.35],[134.015,35.345],[134.011,35.34],[134.015,35.334],[134.004,35.325],[133.999,35.315],[134.008,35.308],[134.022,35.306],[134.03,35.307],[134.034,35.304],[134.044,35.303],[134.048,35.298],[134.055,35.298],[134.062,35.303],[134.071,35.299],[134.082,35.302],[134.086,35.307],[134.098,35.303],[134.103,35.296],[134.122,35.281],[134.139,35.279],[134.148,35.278],[134.157,35.272],[134.198,35.281],[134.199,35.287],[134.208,35.29],[134.22,35.301],[134.224,35.297],[134.236,35.296],[134.244,35.298],[134.252,35.296],[134.257,35.303],[134.266,35.305],[134.271,35.309],[134.269,35.312],[134.257,35.315],[134.254,35.327],[134.245,35.328],[134.239,35.341],[134.238,35.348],[134.241,35.356],[134.234,35.361],[134.231,35.372],[134.236,35.386],[134.232,35.391],[134.225,35.393],[134.216,35.403],[134.216,35.412],[134.227,35.414],[134.238,35.421],[134.238,35.425],[134.248,35.429],[134.262,35.431],[134.265,35.44],[134.28,35.444],[134.289,35.442],[134.297,35.445],[134.304,35.44],[134.31,35.439],[134.33,35.428],[134.341,35.43],[134.348,35.425],[134.363,35.426],[134.377,35.432],[134.38,35.438],[134.405,35.44],[134.416,35.434],[134.428,35.435],[134.441,35.44],[134.438,35.461],[134.435,35.464],[134.434,35.471],[134.427,35.482],[134.427,35.486],[134.414,35.49],[134.409,35.487],[134.4,35.49],[134.393,35.501],[134.387,35.498],[134.379,35.501],[134.361,35.484],[134.353,35.482],[134.35,35.478],[134.336,35.478],[134.329,35.485],[134.319,35.487],[134.319,35.492],[134.324,35.498],[134.323,35.502],[134.327,35.51],[134.323,35.513],[134.329,35.528],[134.327,35.534],[134.309,35.538],[134.306,35.547],[134.299,35.549],[134.295,35.562],[134.278,35.573]]]]}},{"type":"Feature","properties":{"name":"米子市","code":"31202"},"geometry":{"type":"MultiPolygon","coordinates":[[[[133.374,35.456],[133.354,35.461],[133.348,35.461],[133.323,35.466],[133.293,35.478],[133.28,35.486],[133.263,35.501],[133.251,35.497],[133.243,35.492],[133.227,35.477],[133.26,35.454],[133.272,35.446],[133.301,35.436],[133.309,35.431],[133.321,35.41],[133.321,35.396],[133.314,35.387],[133.319,35.383],[133.324,35.374],[133.329,35.375],[133.339,35.385],[133.356,35.386],[133.36,35.381],[133.373,35.379],[133.387,35.386],[133.389,35.397],[133.403,35.398],[133.415,35.39],[133.43,35.392],[133.44,35.39],[133.445,35.392],[133.446,35.398],[133.442,35.415],[133.451,35.417],[133.466,35.416],[133.47,35.423],[133.48,35.43],[133.48,35.437],[133.471,35.44],[133.465,35.445],[133.458,35.447],[133.459,35.452],[133.453,35.462],[133.434,35.46],[133.435,35.469],[133.429,35.47],[133.428,35.463],[133.423,35.458],[133.402,35.453],[133.392,35.454],[133.391,35.446],[133.387,35.441],[133.385,35.433],[133.368,35.434],[133.374,35.456]]]]}},{"type":"Feature","properties":{"name":"倉吉市","code":"31203"},"geometry":{"type":"MultiPolygon","coordinates":[[[[133.847,35.478],[133.839,35.477],[133.828,35.481],[133.825,35.464],[133.818,35.458],[133.804,35.461],[133.804,35.465],[133.796,35.47],[133.784,35.463],[133.777,35.469],[133.766,35.468],[133.761,35.471],[133.752,35.466],[133.747,35.46],[133.75,35.455],[133.737,35.447],[133.731,35.441],[133.726,35.44],[133.717,35.434],[133.71,35.433],[133.699,35.427],[133.682,35.421],[133.671,35.42],[133.666,35.419],[133.65,35.407],[133.644,35.401],[133.644,35.396],[133.639,35.387],[133.626,35.379],[133.615,35.377],[133.601,35.371],[133.594,35.371],[133.588,35.367],[133.576,35.366],[133.577,35.36],[133.585,35.352],[133.594,35.35],[133.596,35.345],[133.606,35.341],[133.618,35.34],[133.622,35.337],[133.632,35.34],[133.641,35.337],[133.649,35.336],[133.666,35.324],[133.674,35.323],[133.677,35.319],[133.692,35.321],[133.696,35.327],[133.709,35.325],[133.717,35.32],[133.727,35.317],[133.749,35.317],[133.751,35.311],[133.757,35.308],[133.762,35.311],[133.765,35.317],[133.772,35.32],[133.775,35.327],[133.783,35.328],[133.787,35.334],[133.797,35.337],[133.808,35.347],[133.82,35.349],[133.83,35.357],[133.831,35.371],[133.835,35.385],[133.842,35.392],[133.851,35.408],[133.86,35.41],[133.867,35.422],[133.871,35.419],[133.887,35.423],[133.887,35.427],[133.881,35.433],[133.871,35.435],[133.868,35.441],[133.86,35.444],[133.863,35.452],[133.863,35.459],[133.867,35.463],[133.866,35.472],[133.859,35.478],[133.847,35.478]]]]}},{"type":"Feature","properties":{"name":"境港市","code":"31204"},"geometry":{"type":"MultiPolygon","coordinates":[[[[133.263,35.501],[133.253,35.513],[133.253,35.517],[133.261,35.52],[133.256,35.528],[133.246,35.528],[133.25,35.537],[133.259,35.542],[133.265,35.549],[133.259,35.55],[133.25,35.546],[133.245,35.549],[133.228,35.549],[133.219,35.546],[133.201,35.535],[133.199,35.526],[133.216,35.496],[133.222,35.48],[133.227,35.477],[133.243,35.492],[133.251,35.497],[133.263,35.501]]]]}},{"type":"Feature","properties":{"name":"岩美郡岩美町","code":"31302"},"geometry":{"type":"MultiPolygon","coordinates":[[[[134.434,35.471],[134.438,35.474],[134.427,35.497],[134.431,35.502],[134.413,35.518],[134.421,35.529],[134.424,35.542],[134.425,35.552],[134.421,35.563],[134.41,35.563],[134.405,35.571],[134.408,35.587],[134.402,35.595],[134.393,35.598],[134.387,35.604],[134.382,35.603],[134.375,35.608],[134.366,35.602],[134.36,35.6],[134.348,35.601],[134.344,35.606],[134.338,35.6],[134.337,35.593],[134.324,35.591],[134.316,35.594],[134.302,35.589],[134.297,35.59],[134.287,35.574],[134.278,35.573],[134.295,35.562],[134.299,35.549],[134.306,35.547],[134.309,35.538],[134.327,35.534],[134.329,35.528],[134.323,35.513],[134.327,35.51],[134.323,35.502],[134.324,35.498],[134.319,35.492],[134.319,35.487],[134.329,35.485],[134.336,35.478],[134.35,35.478],[134.353,35.482],[134.361,35.484],[134.379,35.501],[134.387,35.498],[134.393,35.501],[134.4,35.49],[134.409,35.487],[134.414,35.49],[134.427,35.486],[134.427,35.482],[134.434,35.471]]]]}},{"type":"Feature","properties":{"name":"八頭郡若桜町","code":"31325"},"geometry":{"type":"MultiPolygon","coordinates":[[[[134.441,35.44],[134.447,35.432],[134.444,35.412],[134.438,35.408],[134.434,35.396],[134.425,35.391],[134.408,35.388],[134.398,35.38],[134.388,35.377],[134.392,35.372],[134.387,35.363],[134.386,35.354],[134.378,35.36],[134.374,35.357],[134.375,35.343],[134.365,35.338],[134.361,35.332],[134.359,35.32],[134.355,35.314],[134.354,35.307],[134.369,35.295],[134.376,35.296],[134.384,35.292],[134.382,35.287],[134.387,35.279],[134.387,35.256],[134.381,35.249],[134.394,35.252],[134.402,35.246],[134.402,35.242],[134.415,35.239],[134.435,35.229],[134.448,35.238],[134.464,35.237],[134.462,35.243],[134.477,35.249],[134.482,35.255],[134.484,35.26],[134.49,35.261],[134.495,35.267],[134.515,35.277],[134.509,35.294],[134.512,35.305],[134.515,35.308],[134.505,35.316],[134.502,35.327],[134.505,35.337],[134.509,35.342],[134.51,35.351],[134.513,35.354],[134.505,35.359],[134.503,35.366],[134.487,35.369],[134.483,35.373],[134.475,35.375],[134.471,35.38],[134.474,35.392],[134.481,35.41],[134.477,35.415],[134.48,35.425],[134.463,35.437],[134.452,35.436],[134.446,35.442],[134.44,35.443]]]]}},{"type":"Feature","properties":{"name":"八頭郡智頭町","code":"31328"},"geometry":{"type":"MultiPolygon","coordinates":[[[[134.139,35.279],[134.141,35.275],[134.138,35.27],[134.151,35.258],[134.143,35.249],[134.145,35.243],[134.137,35.239],[134.144,35.231],[134.158,35.235],[134.164,35.228],[134.162,35.216],[134.154,35.206],[134.154,35.195],[134.165,35.188],[134.169,35.18],[134.167,35.172],[134.178,35.169],[134.19,35.176],[134.194,35.184],[134.193,35.189],[134.213,35.191],[134.222,35.19],[134.228,35.197],[134.235,35.199],[134.244,35.198],[134.25,35.201],[134.254,35.208],[134.261,35.21],[134.268,35.208],[134.269,35.204],[134.278,35.197],[134.299,35.202],[134.314,35.201],[134.323,35.203],[134.335,35.213],[134.337,35.219],[134.35,35.223],[134.355,35.227],[134.369,35.232],[134.375,35.237],[134.373,35.246],[134.381,35.249],[134.387,35.256],[134.387,35.279],[134.382,35.287],[134.384,35.292],[134.376,35.296],[134.369,35.295],[134.354,35.307],[134.34,35.307],[134.331,35.309],[134.32,35.314],[134.307,35.314],[134.29,35.308],[134.283,35.302],[134.275,35.303],[134.271,35.309],[134.266,35.305],[134.257,35.303],[134.252,35.296],[134.244,35.298],[134.236,35.296],[134.224,35.297],[134.22,35.301],[134.208,35.29],[134.199,35.287],[134.198,35.281],[134.157,35.272],[134.148,35.278],[134.139,35.279]]]]}},{"type":"Feature","properties":{"name":"八頭郡八頭町","code":"31329"},"geometry":{"type":"MultiPolygon","coordinates":[[[[134.271,35.309],[134.275,35.303],[134.283,35.302],[134.29,35.308],[134.307,35.314],[134.317,35.312],[134.331,35.309],[134.34,35.307],[134.354,35.307],[134.355,35.314],[134.359,35.32],[134.361,35.332],[134.365,35.338],[134.375,35.343],[134.374,35.357],[134.378,35.36],[134.386,35.354],[134.387,35.363],[134.392,35.372],[134.388,35.377],[134.398,35.38],[134.408,35.388],[134.425,35.391],[134.434,35.396],[134.438,35.408],[134.444,35.412],[134.447,35.432],[134.441,35.44],[134.428,35.435],[134.416,35.434],[134.405,35.44],[134.38,35.438],[134.377,35.432],[134.363,35.426],[134.348,35.425],[134.341,35.43],[134.33,35.428],[134.31,35.439],[134.304,35.44],[134.297,35.445],[134.289,35.442],[134.28,35.444],[134.265,35.44],[134.262,35.431],[134.248,35.429],[134.238,35.425],[134.238,35.421],[134.227,35.414],[134.216,35.412],[134.216,35.403],[134.225,35.393],[134.232,35.391],[134.236,35.386],[134.231,35.372],[134.234,35.361],[134.241,35.356],[134.238,35.348],[134.239,35.341],[134.245,35.328],[134.254,35.327],[134.257,35.315],[134.269,35.312],[134.271,35.309]]]]}},{"type":"Feature","properties":{"name":"東伯郡三朝町","code":"31364"},"geometry":{"type":"MultiPolygon","coordinates":[[[[133.951,35.428],[133.945,35.432],[133.932,35.43],[133.921,35.427],[133.909,35.428],[133.896,35.422],[133.887,35.423],[133.871,35.419],[133.867,35.422],[133.86,35.41],[133.851,35.408],[133.842,35.392],[133.835,35.385],[133.831,35.371],[133.83,35.357],[133.82,35.349],[133.808,35.347],[133.797,35.337],[133.787,35.334],[133.783,35.328],[133.775,35.327],[133.772,35.32],[133.765,35.317],[133.762,35.311],[133.776,35.3],[133.793,35.293],[133.8,35.293],[133.801,35.285],[133.809,35.277],[133.808,35.27],[133.815,35.265],[133.818,35.253],[133.832,35.249],[133.844,35.253],[133.856,35.268],[133.866,35.272],[133.863,35.277],[133.865,35.286],[133.862,35.292],[133.881,35.294],[133.907,35.307],[133.925,35.307],[133.932,35.318],[133.928,35.322],[133.932,35.333],[133.937,35.336],[133.945,35.333],[133.954,35.341],[133.97,35.348],[133.98,35.343],[133.998,35.353],[134.01,35.35],[134.015,35.35],[134.02,35.356],[134.018,35.361],[134.032,35.366],[134.042,35.376],[134.032,35.379],[134.017,35.387],[134.003,35.391],[134.0,35.389],[133.991,35.394],[133.995,35.403],[134.001,35.406],[133.995,35.414],[133.994,35.424],[133.989,35.421],[133.983,35.425],[133.971,35.422],[133.965,35.427],[133.951,35.428]]]]}},{"type":"Feature","properties":{"name":"東伯郡湯梨浜町","code":"31370"},"geometry":{"type":"MultiPolygon","coordinates":[[[[133.965,35.523],[133.953,35.517],[133.946,35.519],[133.933,35.512],[133.925,35.51],[133.91,35.509],[133.902,35.51],[133.897,35.508],[133.877,35.507],[133.856,35.505],[133.855,35.499],[133.847,35.478],[133.859,35.478],[133.866,35.472],[133.867,35.463],[133.863,35.459],[133.863,35.452],[133.86,35.444],[133.868,35.441],[133.871,35.435],[133.881,35.433],[133.887,35.427],[133.887,35.423],[133.896,35.422],[133.909,35.428],[133.921,35.427],[133.932,35.43],[133.945,35.432],[133.951,35.428],[133.951,35.437],[133.947,35.441],[133.954,35.451],[133.946,35.462],[133.956,35.486],[133.957,35.499],[133.964,35.503],[133.971,35.512],[133.971,35.518],[133.965,35.523]]]]}},{"type":"Feature","properties":{"name":"東伯郡琴浦町","code":"31371"},"geometry":{"type":"MultiPolygon","coordinates":[[[[133.671,35.42],[133.692,35.436],[133.7,35.445],[133.711,35.45],[133.714,35.455],[133.724,35.462],[133.725,35.466],[133.718,35.477],[133.721,35.482],[133.722,35.495],[133.717,35.504],[133.689,35.507],[133.672,35.506],[133.656,35.51],[133.633,35.519],[133.623,35.52],[133.608,35.522],[133.6,35.512],[133.602,35.506],[133.601,35.489],[133.598,35.475],[133.6,35.459],[133.597,35.446],[133.589,35.44],[133.586,35.431],[133.576,35.429],[133.584,35.409],[133.581,35.396],[133.583,35.389],[133.577,35.382],[133.561,35.381],[133.559,35.364],[133.566,35.362],[133.572,35.355],[133.577,35.36],[133.576,35.366],[133.588,35.367],[133.594,35.371],[133.601,35.371],[133.615,35.377],[133.626,35.379],[133.639,35.387],[133.644,35.396],[133.644,35.401],[133.65,35.407],[133.666,35.419],[133.671,35.42]]]]}},{"type":"Feature","properties":{"name":"東伯郡北栄町","code":"31372"},"geometry":{"type":"MultiPolygon","coordinates":[[[[133.847,35.478],[133.855,35.499],[133.856,35.505],[133.846,35.503],[133.8,35.501],[133.755,35.501],[133.725,35.503],[133.717,35.504],[133.722,35.495],[133.721,35.482],[133.718,35.477],[133.725,35.466],[133.724,35.462],[133.714,35.455],[133.711,35.45],[133.7,35.445],[133.692,35.436],[133.671,35.42],[133.682,35.421],[133.699,35.427],[133.71,35.433],[133.717,35.434],[133.726,35.44],[133.731,35.441],[133.737,35.447],[133.75,35.455],[133.747,35.46],[133.752,35.466],[133.761,35.471],[133.766,35.468],[133.777,35.469],[133.784,35.463],[133.796,35.47],[133.804,35.465],[133.804,35.461],[133.818,35.458],[133.825,35.464],[133.828,35.481],[133.839,35.477],[133.847,35.478]]]]}},{"type":"Feature","properties":{"name":"西伯郡日吉津村","code":"31384"},"geometry":{"type":"MultiPolygon","coordinates":[[[[133.392,35.454],[133.374,35.456],[133.368,35.434],[133.385,35.433],[133.387,35.441],[133.391,35.446],[133.392,35.454]]]]}},{"type":"Feature","properties":{"name":"西伯郡大山町","code":"31386"},"geometry":{"type":"MultiPolygon","coordinates":[[[[133.446,35.398],[133.45,35.396],[133.471,35.399],[133.476,35.398],[133.491,35.4],[133.514,35.397],[133.524,35.387],[133.521,35.37],[133.527,35.36],[133.537,35.355],[133.543,35.35],[133.551,35.352],[133.556,35.357],[133.559,35.364],[133.561,35.381],[133.577,35.382],[133.583,35.389],[133.581,35.396],[133.584,35.409],[133.576,35.429],[133.586,35.431],[133.589,35.44],[133.597,35.446],[133.6,35.459],[133.598,35.475],[133.601,35.489],[133.602,35.506],[133.6,35.512],[133.608,35.522],[133.595,35.526],[133.59,35.532],[133.579,35.53],[133.568,35.53],[133.557,35.524],[133.546,35.521],[133.535,35.524],[133.531,35.52],[133.519,35.521],[133.515,35.517],[133.502,35.515],[133.485,35.505],[133.473,35.499],[133.46,35.499],[133.446,35.494],[133.443,35.487],[133.433,35.482],[133.429,35.47],[133.435,35.469],[133.434,35.46],[133.453,35.462],[133.459,35.452],[133.458,35.447],[133.465,35.445],[133.471,35.44],[133.48,35.437],[133.48,35.43],[133.47,35.423],[133.466,35.416],[133.451,35.417],[133.442,35.415],[133.446,35.398]]]]}},{"type":"Feature","properties":{"name":"西伯郡南部町","code":"31389"},"geometry":{"type":"MultiPolygon","coordinates":[[[[133.324,35.374],[133.318,35.372],[133.316,35.365],[133.309,35.366],[133.296,35.349],[133.297,35.339],[133.296,35.329],[133.299,35.325],[133.293,35.321],[133.307,35.303],[133.3,35.292],[133.307,35.282],[133.31,35.268],[133.318,35.265],[133.327,35.263],[133.332,35.257],[133.333,35.249],[133.33,35.245],[133.337,35.234],[133.343,35.232],[133.346,35.238],[133.352,35.236],[133.357,35.24],[133.36,35.247],[133.354,35.257],[133.358,35.261],[133.376,35.27],[133.384,35.271],[133.386,35.281],[133.382,35.29],[133.385,35.294],[133.38,35.306],[133.384,35.315],[133.384,35.323],[133.406,35.322],[133.412,35.324],[133.408,35.332],[133.417,35.335],[133.418,35.339],[133.427,35.345],[133.428,35.349],[133.422,35.354],[133.415,35.352],[133.41,35.356],[133.404,35.357],[133.402,35.366],[133.393,35.37],[133.391,35.374],[133.382,35.372],[133.374,35.375],[133.373,35.379],[133.36,35.381],[133.356,35.386],[133.339,35.385],[133.329,35.375],[133.324,35.374]]]]}},{"type":"Feature","properties":{"name":"西伯郡伯耆町","code":"31390"},"geometry":{"type":"MultiPolygon","coordinates":[[[[133.373,35.379],[133.374,35.375],[133.382,35.372],[133.391,35.374],[133.393,35.37],[133.402,35.366],[133.404,35.357],[133.41,35.356],[133.415,35.352],[133.422,35.354],[133.428,35.349],[133.427,35.345],[133.418,35.339],[133.417,35.335],[133.408,35.332],[133.412,35.324],[133.406,35.322],[133.384,35.323],[133.384,35.315],[133.38,35.306],[133.385,35.294],[133.382,35.29],[133.386,35.281],[133.384,35.271],[133.376,35.27],[133.358,35.261],[133.362,35.254],[133.37,35.253],[133.38,35.235],[133.392,35.236],[133.4,35.24],[133.4,35.244],[133.411,35.252],[133.412,35.255],[133.424,35.258],[133.43,35.265],[133.445,35.271],[133.449,35.28],[133.449,35.285],[133.444,35.291],[133.445,35.296],[133.45,35.301],[133.459,35.303],[133.464,35.309],[133.476,35.314],[133.48,35.32],[133.488,35.324],[133.505,35.327],[133.509,35.335],[133.519,35.347],[133.519,35.352],[133.527,35.36],[133.521,35.37],[133.524,35.387],[133.514,35.397],[133.491,35.4],[133.476,35.398],[133.471,35.399],[133.45,35.396],[133.446,35.398],[133.445,35.392],[133.44,35.39],[133.43,35.392],[133.415,35.39],[133.403,35.398],[133.389,35.397],[133.387,35.386],[133.373,35.379]]]]}},{"type":"Feature","properties":{"name":"日野郡日南町","code":"31401"},"geometry":{"type":"MultiPolygon","coordinates":[[[[133.31,35.268],[133.303,35.263],[133.292,35.261],[133.282,35.262],[133.275,35.258],[133.264,35.258],[133.259,35.261],[133.252,35.259],[133.243,35.25],[133.228,35.247],[133.212,35.242],[133.206,35.242],[133.194,35.237],[133.182,35.234],[133.177,35.23],[133.163,35.223],[133.152,35.219],[133.153,35.204],[133.158,35.204],[133.172,35.209],[133.181,35.203],[133.185,35.195],[133.182,35.188],[133.189,35.185],[133.194,35.178],[133.195,35.17],[133.192,35.163],[133.184,35.157],[133.171,35.154],[133.166,35.149],[133.157,35.149],[133.148,35.14],[133.145,35.132],[133.147,35.124],[133.14,35.117],[133.146,35.105],[133.14,35.1],[133.137,35.089],[133.141,35.083],[133.141,35.076],[133.136,35.07],[133.142,35.065],[133.161,35.074],[133.168,35.067],[133.18,35.067],[133.199,35.073],[133.215,35.074],[133.227,35.068],[133.233,35.075],[133.24,35.079],[133.249,35.079],[133.254,35.075],[133.261,35.063],[133.269,35.058],[133.277,35.066],[133.283,35.066],[133.291,35.071],[133.289,35.074],[133.291,35.084],[133.288,35.096],[133.291,35.1],[133.299,35.104],[133.319,35.094],[133.328,35.095],[133.338,35.107],[133.347,35.106],[133.355,35.101],[133.367,35.11],[133.379,35.115],[133.387,35.113],[133.403,35.114],[133.412,35.121],[133.413,35.133],[133.411,35.139],[133.405,35.143],[133.4,35.153],[133.399,35.164],[133.393,35.169],[133.395,35.177],[133.386,35.174],[133.375,35.176],[133.37,35.161],[133.359,35.162],[133.353,35.167],[133.344,35.163],[133.335,35.166],[133.329,35.177],[133.312,35.184],[133.304,35.19],[133.3,35.19],[133.294,35.197],[133.294,35.203],[133.299,35.21],[133.307,35.212],[133.308,35.203],[133.317,35.207],[133.331,35.209],[133.335,35.215],[133.345,35.214],[133.354,35.219],[133.351,35.226],[133.352,35.236],[133.346,35.238],[133.343,35.232],[133.337,35.234],[133.33,35.245],[133.333,35.249],[133.332,35.257],[133.327,35.263],[133.318,35.265],[133.31,35.268]]]]}},{"type":"Feature","properties":{"name":"日野郡日野町","code":"31402"},"geometry":{"type":"MultiPolygon","coordinates":[[[[133.352,35.236],[133.351,35.226],[133.354,35.219],[133.345,35.214],[133.335,35.215],[133.331,35.209],[133.317,35.207],[133.308,35.203],[133.307,35.212],[133.299,35.21],[133.294,35.203],[133.294,35.197],[133.3,35.19],[133.304,35.19],[133.312,35.184],[133.329,35.177],[133.335,35.166],[133.344,35.163],[133.353,35.167],[133.359,35.162],[133.37,35.161],[133.375,35.176],[133.386,35.174],[133.395,35.177],[133.407,35.186],[133.416,35.185],[133.421,35.181],[133.438,35.173],[133.448,35.171],[133.457,35.173],[133.46,35.178],[133.467,35.175],[133.475,35.182],[133.483,35.182],[133.485,35.186],[133.498,35.188],[133.5,35.192],[133.508,35.193],[133.516,35.191],[133.519,35.183],[133.526,35.183],[133.529,35.187],[133.521,35.206],[133.522,35.211],[133.515,35.221],[133.506,35.228],[133.508,35.233],[133.495,35.24],[133.488,35.234],[133.47,35.23],[133.466,35.243],[133.469,35.245],[133.461,35.258],[133.455,35.254],[133.445,35.266],[133.445,35.271],[133.43,35.265],[133.424,35.258],[133.412,35.255],[133.411,35.252],[133.4,35.244],[133.4,35.24],[133.392,35.236],[133.38,35.235],[133.37,35.253],[133.362,35.254],[133.358,35.261],[133.354,35.257],[133.36,35.247],[133.357,35.24],[133.352,35.236]]]]}},{"type":"Feature","properties":{"name":"日野郡江府町","code":"31403"},"geometry":{"type":"MultiPolygon","coordinates":[[[[133.577,35.36],[133.572,35.355],[133.566,35.362],[133.559,35.364],[133.556,35.357],[133.551,35.352],[133.543,35.35],[133.537,35.355],[133.527,35.36],[133.519,35.352],[133.519,35.347],[133.509,35.335],[133.505,35.327],[133.488,35.324],[133.48,35.32],[133.476,35.314],[133.464,35.309],[133.459,35.303],[133.45,35.301],[133.445,35.296],[133.444,35.291],[133.449,35.285],[133.449,35.28],[133.445,35.271],[133.445,35.266],[133.455,35.254],[133.461,35.258],[133.469,35.245],[133.466,35.243],[133.47,35.23],[133.488,35.234],[133.495,35.24],[133.508,35.233],[133.514,35.235],[133.517,35.241],[133.535,35.237],[133.546,35.244],[133.555,35.242],[133.562,35.249],[133.562,35.254],[133.568,35.257],[133.567,35.266],[133.572,35.273],[133.569,35.277],[133.572,35.282],[133.571,35.287],[133.578,35.297],[133.576,35.301],[133.577,35.314],[133.592,35.331],[133.589,35.338],[133.596,35.345],[133.594,35.35],[133.585,35.352],[133.577,35.36]]]]}}]}