{"type":"FeatureCollection","features":[{"type":"Feature","properties":{"name":"松江市","code":"32201"},"geometry":{"type":"MultiPolygon","coordinates":[[[[133.126,35.596],[133.122,35.595],[133.122,35.592],[133.123,35.587],[133.125,35.593],[133.126,35.596]]],[[[133.222,35.481],[133.216,35.496],[133.208,35.51],[133.204,35.516],[133.199,35.526],[133.201,35.535],[133.21,35.54],[133.219,35.546],[133.228,35.549],[133.234,35.549],[133.239,35.549],[133.245,35.549],[133.254,35.554],[133.263,35.554],[133.27,35.556],[133.275,35.555],[133.284,35.557],[133.298,35.559],[133.306,35.559],[133.31,35.562],[133.319,35.563],[133.325,35.566],[133.318,35.57],[133.311,35.572],[133.307,35.576],[133.303,35.573],[133.297,35.576],[133.293,35.577],[133.287,35.574],[133.282,35.578],[133.278,35.573],[133.275,35.577],[133.268,35.579],[133.263,35.575],[133.259,35.575],[133.255,35.57],[133.25,35.571],[133.254,35.573],[133.25,35.575],[133.245,35.57],[133.237,35.57],[133.225,35.571],[133.226,35.575],[133.232,35.577],[133.226,35.578],[133.218,35.58],[133.216,35.57],[133.211,35.567],[133.207,35.567],[133.198,35.57],[133.195,35.568],[133.195,35.575],[133.193,35.58],[133.187,35.578],[133.187,35.572],[133.192,35.562],[133.189,35.562],[133.184,35.567],[133.178,35.567],[133.168,35.563],[133.165,35.564],[133.166,35.568],[133.161,35.572],[133.158,35.567],[133.156,35.561],[133.151,35.56],[133.147,35.561],[133.141,35.561],[133.14,35.568],[133.134,35.572],[133.133,35.576],[133.134,35.582],[133.128,35.58],[133.122,35.578],[133.119,35.58],[133.114,35.588],[133.114,35.594],[133.104,35.598],[133.097,35.599],[133.097,35.603],[133.093,35.603],[133.084,35.602],[133.089,35.599],[133.094,35.592],[133.098,35.589],[133.092,35.588],[133.093,35.584],[133.097,35.583],[133.096,35.578],[133.093,35.579],[133.089,35.582],[133.085,35.58],[133.076,35.583],[133.069,35.584],[133.066,35.578],[133.059,35.582],[133.054,35.578],[133.048,35.577],[133.051,35.574],[133.056,35.573],[133.06,35.572],[133.061,35.567],[133.054,35.564],[133.051,35.559],[133.048,35.559],[133.049,35.554],[133.044,35.553],[133.04,35.555],[133.039,35.559],[133.035,35.559],[133.034,35.556],[133.031,35.553],[133.027,35.552],[133.031,35.545],[133.028,35.54],[133.024,35.541],[133.021,35.54],[133.015,35.542],[133.01,35.538],[133.003,35.542],[132.998,35.539],[132.998,35.544],[132.993,35.544],[132.99,35.545],[132.986,35.544],[132.98,35.546],[132.979,35.541],[132.972,35.545],[132.968,35.543],[132.969,35.539],[132.97,35.532],[132.974,35.528],[132.975,35.521],[132.971,35.516],[132.965,35.515],[132.961,35.515],[132.955,35.518],[132.949,35.518],[132.942,35.516],[132.935,35.517],[132.925,35.516],[132.921,35.517],[132.918,35.517],[132.912,35.513],[132.905,35.512],[132.903,35.508],[132.907,35.499],[132.905,35.494],[132.905,35.489],[132.908,35.481],[132.91,35.476],[132.91,35.471],[132.913,35.465],[132.934,35.445],[132.93,35.435],[132.896,35.412],[132.89,35.405],[132.877,35.4],[132.877,35.392],[132.876,35.387],[132.882,35.386],[132.885,35.38],[132.882,35.377],[132.892,35.374],[132.895,35.372],[132.903,35.371],[132.908,35.377],[132.91,35.381],[132.914,35.377],[132.914,35.372],[132.92,35.369],[132.923,35.37],[132.928,35.375],[132.934,35.376],[132.937,35.371],[132.939,35.374],[132.942,35.377],[132.946,35.375],[132.952,35.373],[132.957,35.372],[132.973,35.37],[132.976,35.372],[132.982,35.371],[132.989,35.371],[132.996,35.373],[132.998,35.37],[133.002,35.368],[133.006,35.367],[133.011,35.369],[133.009,35.374],[133.011,35.378],[133.017,35.375],[133.022,35.379],[133.03,35.377],[133.035,35.375],[133.042,35.373],[133.045,35.375],[133.048,35.375],[133.05,35.367],[133.045,35.361],[133.046,35.356],[133.045,35.353],[133.05,35.349],[133.05,35.345],[133.053,35.343],[133.053,35.34],[133.056,35.337],[133.06,35.335],[133.065,35.33],[133.069,35.331],[133.083,35.34],[133.086,35.343],[133.091,35.35],[133.094,35.352],[133.1,35.356],[133.106,35.359],[133.115,35.359],[133.12,35.36],[133.131,35.367],[133.137,35.372],[133.139,35.377],[133.143,35.379],[133.151,35.384],[133.159,35.385],[133.164,35.387],[133.169,35.39],[133.17,35.395],[133.175,35.398],[133.178,35.399],[133.182,35.404],[133.181,35.411],[133.181,35.415],[133.182,35.42],[133.185,35.425],[133.191,35.432],[133.191,35.44],[133.187,35.445],[133.185,35.461],[133.19,35.464],[133.2,35.466],[133.222,35.481]]]]}},{"type":"Feature","properties":{"name":"浜田市","code":"32202"},"geometry":{"type":"MultiPolygon","coordinates":[[[[132.308,34.896],[132.304,34.898],[132.301,34.898],[132.296,34.901],[132.293,34.904],[132.29,34.907],[132.281,34.906],[132.277,34.908],[132.276,34.904],[132.274,34.9],[132.271,34.902],[132.266,34.903],[132.264,34.9],[132.258,34.904],[132.263,34.907],[132.263,34.911],[132.258,34.919],[132.251,34.919],[132.252,34.923],[132.25,34.928],[132.251,34.934],[132.246,34.935],[132.242,34.937],[132.239,34.941],[132.236,34.934],[132.233,34.931],[132.229,34.926],[132.228,34.923],[132.228,34.919],[132.226,34.915],[132.221,34.919],[132.215,34.918],[132.211,34.923],[132.205,34.922],[132.2,34.926],[132.196,34.928],[132.191,34.929],[132.191,34.934],[132.195,34.939],[132.195,34.945],[132.191,34.95],[132.187,34.955],[132.184,34.954],[132.18,34.952],[132.179,34.948],[132.172,34.947],[132.168,34.947],[132.164,34.947],[132.162,34.95],[132.157,34.952],[132.155,34.948],[132.149,34.947],[132.146,34.955],[132.143,34.958],[132.147,34.962],[132.144,34.964],[132.138,34.961],[132.128,34.955],[132.118,34.951],[132.111,34.951],[132.105,34.945],[132.109,34.94],[132.106,34.936],[132.1,34.933],[132.095,34.935],[132.09,34.933],[132.084,34.928],[132.082,34.924],[132.075,34.919],[132.071,34.913],[132.076,34.911],[132.078,34.906],[132.072,34.908],[132.068,34.908],[132.064,34.904],[132.064,34.899],[132.071,34.892],[132.065,34.892],[132.058,34.889],[132.059,34.884],[132.054,34.883],[132.056,34.879],[132.06,34.878],[132.057,34.873],[132.051,34.871],[132.044,34.872],[132.046,34.877],[132.041,34.879],[132.036,34.882],[132.033,34.878],[132.031,34.875],[132.027,34.875],[132.026,34.872],[132.022,34.871],[132.018,34.872],[132.014,34.87],[132.008,34.865],[132.009,34.861],[132.015,34.859],[132.011,34.853],[132.008,34.849],[132.001,34.844],[131.995,34.842],[131.994,34.835],[131.99,34.829],[131.986,34.827],[131.976,34.821],[131.973,34.823],[131.968,34.821],[131.964,34.82],[131.957,34.817],[131.956,34.813],[131.954,34.809],[131.953,34.806],[131.952,34.803],[131.949,34.798],[131.947,34.793],[131.943,34.791],[131.938,34.788],[131.935,34.79],[131.932,34.785],[131.925,34.782],[131.923,34.789],[131.917,34.783],[131.916,34.778],[131.914,34.774],[131.91,34.773],[131.903,34.776],[131.897,34.776],[131.894,34.77],[131.895,34.766],[131.894,34.762],[131.895,34.759],[131.902,34.756],[131.908,34.753],[131.913,34.754],[131.918,34.753],[131.922,34.751],[131.929,34.749],[131.933,34.745],[131.932,34.74],[131.935,34.736],[131.942,34.738],[131.947,34.732],[131.947,34.727],[131.948,34.724],[131.956,34.727],[131.959,34.723],[131.961,34.718],[131.967,34.72],[131.974,34.715],[131.982,34.715],[131.981,34.712],[131.989,34.712],[131.989,34.716],[131.994,34.715],[132.001,34.714],[132.001,34.717],[132.006,34.714],[132.009,34.714],[132.011,34.71],[132.015,34.704],[132.021,34.701],[132.03,34.706],[132.038,34.706],[132.04,34.709],[132.036,34.711],[132.035,34.716],[132.04,34.719],[132.046,34.718],[132.049,34.713],[132.053,34.714],[132.058,34.714],[132.061,34.71],[132.065,34.712],[132.065,34.709],[132.07,34.706],[132.077,34.706],[132.084,34.705],[132.091,34.71],[132.099,34.715],[132.107,34.719],[132.11,34.719],[132.115,34.712],[132.118,34.712],[132.121,34.715],[132.13,34.713],[132.129,34.709],[132.135,34.707],[132.142,34.71],[132.143,34.716],[132.154,34.72],[132.156,34.723],[132.16,34.725],[132.164,34.726],[132.171,34.73],[132.177,34.734],[132.185,34.734],[132.192,34.737],[132.197,34.739],[132.196,34.744],[132.203,34.749],[132.207,34.746],[132.21,34.745],[132.215,34.746],[132.223,34.75],[132.225,34.758],[132.227,34.765],[132.225,34.77],[132.229,34.771],[132.233,34.773],[132.236,34.777],[132.241,34.78],[132.243,34.784],[132.241,34.788],[132.243,34.792],[132.243,34.798],[132.239,34.799],[132.243,34.807],[132.247,34.806],[132.256,34.807],[132.26,34.807],[132.264,34.804],[132.268,34.802],[132.275,34.8],[132.279,34.798],[132.275,34.792],[132.279,34.79],[132.28,34.784],[132.285,34.781],[132.29,34.778],[132.293,34.779],[132.299,34.777],[132.302,34.785],[132.307,34.79],[132.306,34.793],[132.313,34.797],[132.316,34.801],[132.319,34.801],[132.32,34.797],[132.325,34.793],[132.328,34.792],[132.334,34.79],[132.338,34.79],[132.347,34.793],[132.352,34.798],[132.357,34.797],[132.36,34.8],[132.373,34.801],[132.378,34.799],[132.383,34.795],[132.384,34.8],[132.385,34.806],[132.383,34.811],[132.387,34.818],[132.391,34.829],[132.39,34.832],[132.393,34.836],[132.39,34.839],[132.388,34.843],[132.385,34.845],[132.38,34.85],[132.381,34.854],[132.381,34.858],[132.376,34.858],[132.371,34.861],[132.366,34.862],[132.359,34.86],[132.354,34.86],[132.351,34.858],[132.347,34.858],[132.339,34.861],[132.336,34.865],[132.331,34.871],[132.326,34.878],[132.316,34.885],[132.31,34.887],[132.306,34.894]]]]}},{"type":"Feature","properties":{"name":"出雲市","code":"32203"},"geometry":{"type":"MultiPolygon","coordinates":[[[[132.903,35.512],[132.896,35.513],[132.89,35.511],[132.882,35.511],[132.877,35.51],[132.869,35.511],[132.862,35.511],[132.86,35.507],[132.856,35.51],[132.847,35.506],[132.842,35.503],[132.838,35.503],[132.831,35.505],[132.827,35.501],[132.826,35.498],[132.819,35.497],[132.813,35.497],[132.806,35.493],[132.802,35.488],[132.802,35.485],[132.795,35.484],[132.791,35.483],[132.783,35.481],[132.775,35.481],[132.77,35.478],[132.767,35.478],[132.758,35.475],[132.747,35.472],[132.741,35.472],[132.732,35.469],[132.736,35.466],[132.748,35.461],[132.752,35.458],[132.757,35.456],[132.756,35.453],[132.753,35.448],[132.747,35.451],[132.739,35.446],[132.722,35.447],[132.716,35.443],[132.71,35.442],[132.706,35.442],[132.703,35.445],[132.701,35.449],[132.694,35.451],[132.685,35.452],[132.688,35.442],[132.684,35.441],[132.679,35.444],[132.676,35.448],[132.668,35.445],[132.664,35.445],[132.659,35.445],[132.655,35.44],[132.651,35.441],[132.647,35.438],[132.644,35.442],[132.646,35.438],[132.642,35.435],[132.641,35.431],[132.637,35.433],[132.632,35.435],[132.628,35.433],[132.628,35.429],[132.624,35.425],[132.624,35.42],[132.631,35.417],[132.636,35.418],[132.64,35.416],[132.645,35.416],[132.648,35.414],[132.65,35.411],[132.656,35.411],[132.662,35.407],[132.669,35.403],[132.674,35.394],[132.675,35.387],[132.675,35.372],[132.671,35.355],[132.669,35.349],[132.663,35.331],[132.656,35.319],[132.652,35.313],[132.643,35.302],[132.639,35.299],[132.637,35.296],[132.632,35.292],[132.629,35.288],[132.624,35.286],[132.616,35.281],[132.608,35.279],[132.604,35.278],[132.6,35.277],[132.593,35.276],[132.586,35.275],[132.581,35.271],[132.576,35.272],[132.577,35.265],[132.58,35.258],[132.581,35.25],[132.585,35.246],[132.583,35.242],[132.58,35.234],[132.585,35.229],[132.59,35.228],[132.594,35.224],[132.598,35.221],[132.6,35.217],[132.609,35.217],[132.61,35.212],[132.616,35.213],[132.62,35.209],[132.624,35.208],[132.628,35.207],[132.628,35.204],[132.639,35.203],[132.639,35.206],[132.641,35.209],[132.646,35.211],[132.65,35.209],[132.656,35.205],[132.66,35.2],[132.662,35.194],[132.666,35.186],[132.665,35.182],[132.668,35.176],[132.666,35.17],[132.67,35.171],[132.675,35.175],[132.678,35.173],[132.688,35.171],[132.69,35.162],[132.695,35.16],[132.701,35.162],[132.71,35.162],[132.711,35.167],[132.717,35.171],[132.722,35.172],[132.726,35.17],[132.73,35.172],[132.734,35.169],[132.741,35.169],[132.737,35.176],[132.742,35.183],[132.747,35.182],[132.754,35.191],[132.757,35.195],[132.763,35.198],[132.764,35.205],[132.767,35.212],[132.766,35.216],[132.763,35.217],[132.764,35.22],[132.764,35.225],[132.768,35.228],[132.776,35.23],[132.781,35.236],[132.782,35.24],[132.785,35.244],[132.79,35.245],[132.793,35.254],[132.789,35.258],[132.787,35.262],[132.79,35.266],[132.792,35.269],[132.794,35.274],[132.795,35.279],[132.799,35.281],[132.8,35.285],[132.805,35.288],[132.809,35.288],[132.815,35.289],[132.813,35.298],[132.818,35.298],[132.824,35.3],[132.829,35.299],[132.843,35.298],[132.842,35.304],[132.837,35.314],[132.84,35.319],[132.846,35.317],[132.85,35.318],[132.854,35.319],[132.858,35.32],[132.86,35.323],[132.866,35.325],[132.869,35.33],[132.867,35.337],[132.863,35.34],[132.867,35.343],[132.869,35.347],[132.865,35.354],[132.87,35.358],[132.873,35.364],[132.878,35.364],[132.884,35.366],[132.88,35.37],[132.883,35.375],[132.885,35.38],[132.882,35.386],[132.876,35.387],[132.877,35.392],[132.877,35.4],[132.888,35.403],[132.896,35.412],[132.93,35.435],[132.934,35.445],[132.913,35.465],[132.91,35.471],[132.912,35.475],[132.908,35.481],[132.905,35.489],[132.907,35.492],[132.907,35.499],[132.903,35.508],[132.903,35.512]]]]}},{"type":"Feature","properties":{"name":"益田市","code":"32204"},"geometry":{"type":"MultiPolygon","coordinates":[[[[131.894,34.762],[131.889,34.762],[131.886,34.757],[131.879,34.759],[131.87,34.759],[131.865,34.755],[131.867,34.751],[131.869,34.745],[131.874,34.744],[131.869,34.737],[131.869,34.731],[131.865,34.728],[131.865,34.725],[131.861,34.722],[131.854,34.723],[131.855,34.717],[131.849,34.711],[131.838,34.705],[131.829,34.699],[131.821,34.697],[131.816,34.694],[131.812,34.694],[131.8,34.689],[131.79,34.686],[131.784,34.686],[131.776,34.683],[131.772,34.682],[131.763,34.679],[131.752,34.677],[131.74,34.675],[131.724,34.674],[131.719,34.676],[131.715,34.673],[131.709,34.676],[131.705,34.673],[131.699,34.676],[131.693,34.677],[131.684,34.667],[131.69,34.663],[131.688,34.66],[131.689,34.657],[131.695,34.656],[131.697,34.653],[131.695,34.649],[131.699,34.649],[131.697,34.642],[131.698,34.636],[131.698,34.632],[131.694,34.628],[131.696,34.623],[131.7,34.616],[131.707,34.613],[131.718,34.613],[131.717,34.606],[131.72,34.601],[131.719,34.597],[131.72,34.589],[131.72,34.586],[131.721,34.582],[131.725,34.58],[131.727,34.576],[131.724,34.572],[131.726,34.568],[131.732,34.566],[131.735,34.561],[131.745,34.564],[131.749,34.569],[131.754,34.57],[131.758,34.568],[131.764,34.571],[131.767,34.577],[131.766,34.583],[131.771,34.583],[131.776,34.58],[131.781,34.583],[131.788,34.583],[131.789,34.586],[131.796,34.585],[131.799,34.588],[131.807,34.586],[131.811,34.581],[131.815,34.579],[131.82,34.582],[131.826,34.587],[131.826,34.584],[131.831,34.578],[131.837,34.577],[131.841,34.575],[131.844,34.574],[131.849,34.575],[131.853,34.575],[131.858,34.57],[131.863,34.572],[131.863,34.587],[131.866,34.585],[131.869,34.587],[131.868,34.596],[131.874,34.595],[131.879,34.598],[131.885,34.596],[131.891,34.598],[131.894,34.601],[131.899,34.601],[131.902,34.599],[131.902,34.594],[131.904,34.588],[131.903,34.584],[131.912,34.586],[131.92,34.581],[131.914,34.575],[131.913,34.568],[131.917,34.567],[131.921,34.572],[131.926,34.564],[131.922,34.561],[131.919,34.556],[131.912,34.555],[131.908,34.547],[131.904,34.546],[131.905,34.541],[131.908,34.535],[131.907,34.53],[131.905,34.525],[131.908,34.525],[131.912,34.521],[131.92,34.516],[131.921,34.512],[131.927,34.511],[131.939,34.508],[131.943,34.508],[131.947,34.513],[131.951,34.516],[131.957,34.516],[131.963,34.509],[131.966,34.505],[131.964,34.502],[131.965,34.498],[131.966,34.491],[131.971,34.484],[131.967,34.482],[131.967,34.478],[131.967,34.475],[131.974,34.471],[131.977,34.473],[131.981,34.473],[131.984,34.475],[131.989,34.473],[131.995,34.473],[131.997,34.469],[131.994,34.466],[131.993,34.461],[131.99,34.455],[131.996,34.45],[132.001,34.452],[132.006,34.454],[132.007,34.46],[132.012,34.463],[132.016,34.467],[132.022,34.467],[132.028,34.471],[132.033,34.472],[132.037,34.474],[132.04,34.475],[132.05,34.474],[132.054,34.471],[132.055,34.468],[132.06,34.468],[132.064,34.469],[132.067,34.472],[132.061,34.479],[132.058,34.48],[132.057,34.487],[132.06,34.49],[132.056,34.495],[132.052,34.499],[132.048,34.5],[132.044,34.499],[132.039,34.499],[132.041,34.506],[132.047,34.512],[132.049,34.516],[132.048,34.521],[132.053,34.53],[132.058,34.53],[132.063,34.532],[132.068,34.534],[132.074,34.535],[132.08,34.537],[132.084,34.538],[132.088,34.542],[132.095,34.548],[132.1,34.555],[132.107,34.557],[132.109,34.561],[132.114,34.563],[132.116,34.568],[132.119,34.573],[132.118,34.578],[132.126,34.583],[132.124,34.588],[132.127,34.592],[132.13,34.595],[132.125,34.598],[132.121,34.601],[132.117,34.607],[132.117,34.612],[132.119,34.616],[132.122,34.619],[132.127,34.627],[132.131,34.629],[132.131,34.634],[132.127,34.639],[132.134,34.645],[132.136,34.65],[132.146,34.662],[132.148,34.668],[132.155,34.677],[132.157,34.681],[132.161,34.682],[132.16,34.685],[132.161,34.688],[132.158,34.693],[132.152,34.693],[132.145,34.694],[132.137,34.695],[132.13,34.7],[132.131,34.708],[132.13,34.713],[132.123,34.715],[132.118,34.712],[132.115,34.712],[132.11,34.717],[132.107,34.719],[132.101,34.715],[132.093,34.713],[132.084,34.705],[132.079,34.707],[132.07,34.706],[132.065,34.709],[132.065,34.712],[132.061,34.71],[132.058,34.712],[132.053,34.714],[132.049,34.713],[132.046,34.718],[132.04,34.719],[132.035,34.716],[132.036,34.711],[132.04,34.709],[132.038,34.706],[132.03,34.706],[132.021,34.701],[132.015,34.704],[132.014,34.709],[132.009,34.714],[132.006,34.714],[132.001,34.717],[132.001,34.714],[131.997,34.713],[131.989,34.716],[131.989,34.712],[131.981,34.712],[131.982,34.715],[131.976,34.716],[131.969,34.718],[131.963,34.72],[131.958,34.72],[131.958,34.726],[131.948,34.724],[131.947,34.727],[131.947,34.732],[131.945,34.737],[131.935,34.736],[131.932,34.74],[131.933,34.745],[131.932,34.749],[131.922,34.751],[131.918,34.753],[131.913,34.754],[131.908,34.753],[131.904,34.754],[131.898,34.757],[131.894,34.762]]],[[[131.834,34.837],[131.838,34.834],[131.842,34.834],[131.836,34.838]]]]}},{"type":"Feature","properties":{"name":"大田市","code":"32205"},"geometry":{"type":"MultiPolygon","coordinates":[[[[132.576,35.272],[132.566,35.267],[132.562,35.264],[132.555,35.265],[132.551,35.26],[132.543,35.259],[132.539,35.257],[132.535,35.254],[132.53,35.253],[132.527,35.247],[132.527,35.242],[132.524,35.241],[132.52,35.24],[132.508,35.237],[132.503,35.232],[132.498,35.228],[132.494,35.228],[132.489,35.231],[132.488,35.225],[132.483,35.221],[132.476,35.218],[132.468,35.217],[132.465,35.209],[132.459,35.205],[132.451,35.199],[132.445,35.196],[132.437,35.193],[132.433,35.191],[132.425,35.189],[132.421,35.189],[132.422,35.183],[132.416,35.183],[132.417,35.177],[132.412,35.176],[132.407,35.173],[132.403,35.17],[132.402,35.165],[132.404,35.16],[132.401,35.157],[132.396,35.157],[132.393,35.155],[132.391,35.146],[132.384,35.147],[132.383,35.144],[132.388,35.144],[132.391,35.14],[132.391,35.137],[132.389,35.132],[132.385,35.128],[132.381,35.126],[132.378,35.127],[132.364,35.12],[132.366,35.115],[132.359,35.112],[132.353,35.106],[132.35,35.108],[132.344,35.104],[132.337,35.101],[132.339,35.096],[132.345,35.092],[132.339,35.093],[132.334,35.097],[132.331,35.093],[132.325,35.09],[132.323,35.084],[132.327,35.082],[132.328,35.078],[132.318,35.073],[132.316,35.069],[132.314,35.064],[132.32,35.058],[132.321,35.055],[132.324,35.052],[132.325,35.057],[132.331,35.054],[132.334,35.054],[132.335,35.051],[132.339,35.049],[132.344,35.051],[132.35,35.047],[132.354,35.047],[132.354,35.041],[132.358,35.036],[132.361,35.035],[132.362,35.03],[132.361,35.022],[132.364,35.017],[132.365,35.012],[132.369,35.01],[132.372,35.006],[132.379,35.005],[132.38,35.002],[132.384,34.998],[132.387,35.004],[132.388,35.009],[132.396,35.01],[132.402,35.012],[132.404,35.016],[132.409,35.019],[132.415,35.019],[132.422,35.02],[132.427,35.019],[132.431,35.017],[132.437,35.018],[132.437,35.024],[132.44,35.022],[132.446,35.023],[132.457,35.017],[132.459,35.023],[132.458,35.026],[132.46,35.03],[132.464,35.03],[132.47,35.035],[132.476,35.043],[132.475,35.049],[132.479,35.052],[132.484,35.058],[132.485,35.064],[132.48,35.067],[132.475,35.073],[132.48,35.076],[132.483,35.075],[132.48,35.08],[132.482,35.086],[132.485,35.089],[132.487,35.094],[132.492,35.099],[132.495,35.098],[132.5,35.095],[132.505,35.098],[132.509,35.098],[132.518,35.101],[132.522,35.103],[132.525,35.106],[132.531,35.111],[132.534,35.114],[132.538,35.114],[132.539,35.117],[132.543,35.116],[132.548,35.123],[132.551,35.123],[132.556,35.121],[132.559,35.118],[132.565,35.118],[132.572,35.118],[132.578,35.118],[132.585,35.12],[132.589,35.12],[132.591,35.116],[132.595,35.113],[132.6,35.113],[132.601,35.117],[132.606,35.116],[132.614,35.109],[132.615,35.106],[132.613,35.101],[132.613,35.097],[132.61,35.093],[132.613,35.09],[132.617,35.09],[132.622,35.091],[132.627,35.094],[132.631,35.098],[132.636,35.096],[132.642,35.093],[132.649,35.092],[132.652,35.093],[132.659,35.09],[132.661,35.093],[132.666,35.097],[132.668,35.103],[132.664,35.107],[132.668,35.112],[132.672,35.117],[132.667,35.121],[132.664,35.118],[132.656,35.118],[132.651,35.12],[132.652,35.124],[132.646,35.127],[132.633,35.135],[132.629,35.136],[132.632,35.142],[132.638,35.147],[132.642,35.148],[132.649,35.149],[132.654,35.161],[132.659,35.164],[132.661,35.17],[132.666,35.17],[132.668,35.176],[132.665,35.182],[132.666,35.186],[132.661,35.191],[132.66,35.2],[132.655,35.203],[132.65,35.207],[132.646,35.211],[132.641,35.209],[132.639,35.206],[132.639,35.203],[132.631,35.202],[132.628,35.207],[132.624,35.208],[132.62,35.209],[132.616,35.213],[132.61,35.212],[132.609,35.217],[132.6,35.217],[132.598,35.221],[132.594,35.224],[132.59,35.228],[132.585,35.229],[132.58,35.234],[132.581,35.24],[132.585,35.246],[132.581,35.25],[132.581,35.255],[132.579,35.264],[132.576,35.272]]]]}},{"type":"Feature","properties":{"name":"安来市","code":"32206"},"geometry":{"type":"MultiPolygon","coordinates":[[[[133.065,35.33],[133.063,35.326],[133.064,35.321],[133.064,35.31],[133.061,35.303],[133.064,35.3],[133.064,35.297],[133.063,35.292],[133.067,35.291],[133.065,35.286],[133.065,35.279],[133.069,35.276],[133.071,35.271],[133.07,35.266],[133.073,35.259],[133.071,35.255],[133.073,35.25],[133.086,35.249],[133.092,35.25],[133.095,35.247],[133.098,35.242],[133.107,35.239],[133.109,35.236],[133.108,35.233],[133.105,35.229],[133.103,35.223],[133.107,35.214],[133.115,35.214],[133.123,35.209],[133.13,35.209],[133.14,35.211],[133.144,35.211],[133.15,35.214],[133.152,35.219],[133.159,35.223],[133.163,35.223],[133.172,35.228],[133.177,35.23],[133.182,35.234],[133.19,35.237],[133.194,35.237],[133.198,35.24],[133.205,35.241],[133.212,35.242],[133.215,35.244],[133.22,35.246],[133.223,35.249],[133.228,35.247],[133.233,35.247],[133.243,35.25],[133.246,35.254],[133.25,35.257],[133.259,35.261],[133.264,35.258],[133.269,35.259],[133.275,35.258],[133.279,35.259],[133.282,35.262],[133.29,35.262],[133.299,35.265],[133.303,35.263],[133.311,35.268],[133.309,35.276],[133.307,35.282],[133.304,35.286],[133.3,35.292],[133.302,35.296],[133.307,35.303],[133.303,35.305],[133.301,35.309],[133.293,35.321],[133.296,35.322],[133.299,35.325],[133.296,35.329],[133.297,35.332],[133.297,35.339],[133.296,35.345],[133.296,35.349],[133.302,35.357],[133.309,35.366],[133.316,35.365],[133.319,35.369],[133.318,35.372],[133.324,35.373],[133.324,35.377],[133.32,35.381],[133.314,35.387],[133.315,35.392],[133.321,35.396],[133.321,35.4],[133.321,35.404],[133.322,35.408],[133.309,35.431],[133.301,35.436],[133.291,35.439],[133.272,35.446],[133.26,35.454],[133.222,35.48],[133.2,35.466],[133.19,35.464],[133.185,35.461],[133.187,35.445],[133.191,35.44],[133.191,35.432],[133.185,35.425],[133.182,35.42],[133.181,35.415],[133.181,35.411],[133.18,35.405],[133.178,35.399],[133.175,35.398],[133.17,35.395],[133.169,35.39],[133.164,35.387],[133.159,35.385],[133.151,35.384],[133.143,35.379],[133.139,35.377],[133.137,35.372],[133.133,35.368],[133.12,35.36],[133.116,35.36],[133.108,35.36],[133.1,35.356],[133.094,35.352],[133.091,35.35],[133.086,35.343],[133.083,35.34],[133.069,35.331],[133.065,35.33]]]]}},{"type":"Feature","properties":{"name":"江津市","code":"32207"},"geometry":{"type":"MultiPolygon","coordinates":[[[[132.308,34.896],[132.309,34.9],[132.311,34.903],[132.31,34.909],[132.315,34.911],[132.323,34.91],[132.321,34.914],[132.324,34.917],[132.329,34.918],[132.333,34.919],[132.337,34.917],[132.34,34.92],[132.347,34.92],[132.351,34.922],[132.352,34.925],[132.359,34.929],[132.365,34.933],[132.368,34.941],[132.373,34.94],[132.379,34.941],[132.382,34.939],[132.384,34.936],[132.394,34.936],[132.398,34.937],[132.412,34.928],[132.416,34.93],[132.42,34.926],[132.426,34.928],[132.43,34.932],[132.434,34.937],[132.435,34.941],[132.441,34.945],[132.445,34.947],[132.45,34.948],[132.454,34.946],[132.459,34.95],[132.463,34.947],[132.463,34.951],[132.462,34.957],[132.453,34.964],[132.448,34.966],[132.443,34.965],[132.44,34.958],[132.438,34.965],[132.434,34.966],[132.428,34.969],[132.426,34.977],[132.42,34.977],[132.416,34.976],[132.409,34.974],[132.403,34.976],[132.396,34.977],[132.388,34.977],[132.386,34.983],[132.389,34.986],[132.388,34.993],[132.386,34.997],[132.38,35.002],[132.379,35.005],[132.374,35.008],[132.368,35.007],[132.365,35.012],[132.364,35.017],[132.361,35.022],[132.364,35.028],[132.364,35.033],[132.358,35.036],[132.354,35.041],[132.354,35.047],[132.35,35.047],[132.344,35.051],[132.339,35.049],[132.335,35.051],[132.334,35.054],[132.331,35.054],[132.328,35.059],[132.326,35.054],[132.321,35.055],[132.32,35.058],[132.314,35.064],[132.311,35.058],[132.304,35.053],[132.29,35.048],[132.286,35.048],[132.28,35.043],[132.269,35.039],[132.264,35.038],[132.26,35.039],[132.256,35.041],[132.252,35.038],[132.248,35.038],[132.24,35.035],[132.236,35.035],[132.233,35.032],[132.231,35.027],[132.226,35.025],[132.222,35.022],[132.215,35.016],[132.206,35.009],[132.202,35.005],[132.195,35.002],[132.194,34.999],[132.189,34.994],[132.183,34.99],[132.169,34.982],[132.155,34.976],[132.152,34.974],[132.148,34.966],[132.144,34.964],[132.147,34.962],[132.143,34.958],[132.146,34.955],[132.149,34.947],[132.155,34.948],[132.157,34.952],[132.162,34.95],[132.164,34.947],[132.168,34.947],[132.172,34.947],[132.179,34.948],[132.18,34.952],[132.184,34.954],[132.187,34.955],[132.191,34.952],[132.194,34.948],[132.193,34.94],[132.191,34.934],[132.19,34.931],[132.196,34.928],[132.2,34.926],[132.205,34.922],[132.211,34.923],[132.213,34.92],[132.221,34.919],[132.226,34.915],[132.228,34.919],[132.228,34.923],[132.229,34.926],[132.233,34.929],[132.236,34.934],[132.236,34.941],[132.242,34.937],[132.246,34.935],[132.25,34.937],[132.249,34.931],[132.25,34.925],[132.251,34.919],[132.258,34.919],[132.261,34.913],[132.263,34.907],[132.258,34.904],[132.261,34.897],[132.266,34.903],[132.271,34.902],[132.274,34.9],[132.276,34.904],[132.277,34.908],[132.281,34.906],[132.288,34.908],[132.293,34.904],[132.296,34.904],[132.301,34.898],[132.304,34.898],[132.308,34.896]]]]}},{"type":"Feature","properties":{"name":"雲南市","code":"32209"},"geometry":{"type":"MultiPolygon","coordinates":[[[[132.883,35.375],[132.88,35.37],[132.883,35.368],[132.878,35.364],[132.873,35.364],[132.87,35.358],[132.865,35.354],[132.866,35.35],[132.869,35.343],[132.863,35.34],[132.867,35.337],[132.872,35.332],[132.866,35.325],[132.86,35.323],[132.858,35.32],[132.854,35.319],[132.851,35.32],[132.846,35.317],[132.84,35.319],[132.837,35.314],[132.842,35.304],[132.843,35.298],[132.832,35.298],[132.824,35.3],[132.818,35.298],[132.813,35.298],[132.816,35.291],[132.809,35.288],[132.805,35.288],[132.8,35.285],[132.799,35.281],[132.795,35.279],[132.794,35.274],[132.792,35.269],[132.79,35.266],[132.787,35.262],[132.787,35.258],[132.793,35.254],[132.792,35.246],[132.785,35.244],[132.782,35.24],[132.781,35.236],[132.776,35.23],[132.768,35.228],[132.764,35.225],[132.764,35.22],[132.763,35.217],[132.766,35.216],[132.767,35.212],[132.764,35.205],[132.763,35.198],[132.757,35.197],[132.754,35.191],[132.75,35.183],[132.742,35.183],[132.739,35.177],[132.741,35.169],[132.734,35.169],[132.73,35.172],[132.726,35.17],[132.722,35.172],[132.717,35.171],[132.711,35.167],[132.71,35.162],[132.703,35.163],[132.701,35.158],[132.702,35.152],[132.703,35.149],[132.708,35.147],[132.711,35.143],[132.71,35.139],[132.711,35.135],[132.716,35.132],[132.712,35.128],[132.714,35.125],[132.718,35.126],[132.722,35.125],[132.726,35.126],[132.73,35.124],[132.739,35.122],[132.742,35.114],[132.745,35.113],[132.753,35.118],[132.758,35.114],[132.761,35.114],[132.769,35.112],[132.771,35.118],[132.774,35.122],[132.779,35.124],[132.787,35.128],[132.79,35.131],[132.796,35.13],[132.799,35.131],[132.806,35.13],[132.81,35.131],[132.811,35.127],[132.812,35.118],[132.81,35.114],[132.814,35.105],[132.821,35.103],[132.828,35.103],[132.833,35.105],[132.837,35.108],[132.842,35.11],[132.845,35.107],[132.852,35.098],[132.858,35.096],[132.86,35.092],[132.861,35.096],[132.866,35.098],[132.87,35.099],[132.873,35.102],[132.877,35.102],[132.884,35.105],[132.889,35.106],[132.893,35.105],[132.894,35.111],[132.895,35.118],[132.897,35.123],[132.901,35.124],[132.907,35.126],[132.911,35.133],[132.907,35.135],[132.903,35.139],[132.9,35.139],[132.9,35.143],[132.898,35.147],[132.904,35.152],[132.906,35.155],[132.911,35.154],[132.915,35.152],[132.926,35.149],[132.937,35.154],[132.941,35.154],[132.946,35.157],[132.95,35.161],[132.947,35.167],[132.945,35.17],[132.944,35.175],[132.948,35.178],[132.948,35.181],[132.945,35.185],[132.943,35.189],[132.943,35.192],[132.943,35.196],[132.943,35.201],[132.951,35.206],[132.95,35.21],[132.951,35.213],[132.956,35.218],[132.963,35.217],[132.966,35.225],[132.962,35.225],[132.959,35.23],[132.963,35.238],[132.959,35.239],[132.959,35.246],[132.965,35.246],[132.971,35.247],[132.974,35.249],[132.98,35.246],[132.984,35.25],[132.987,35.249],[132.991,35.25],[133.001,35.249],[133.014,35.246],[133.019,35.244],[133.028,35.246],[133.031,35.249],[133.038,35.247],[133.047,35.245],[133.055,35.244],[133.064,35.248],[133.071,35.249],[133.071,35.255],[133.073,35.259],[133.073,35.264],[133.069,35.268],[133.069,35.276],[133.065,35.279],[133.065,35.286],[133.067,35.289],[133.063,35.292],[133.064,35.297],[133.064,35.3],[133.061,35.303],[133.062,35.307],[133.066,35.319],[133.063,35.326],[133.065,35.33],[133.06,35.335],[133.056,35.337],[133.053,35.34],[133.053,35.343],[133.05,35.345],[133.05,35.349],[133.047,35.351],[133.046,35.356],[133.045,35.361],[133.05,35.367],[133.048,35.375],[133.045,35.375],[133.042,35.373],[133.037,35.373],[133.032,35.375],[133.024,35.377],[133.019,35.377],[133.011,35.378],[133.009,35.374],[133.011,35.369],[133.006,35.367],[133.002,35.368],[132.998,35.37],[132.996,35.373],[132.989,35.371],[132.982,35.371],[132.976,35.372],[132.973,35.37],[132.957,35.372],[132.954,35.374],[132.948,35.375],[132.942,35.377],[132.939,35.374],[132.937,35.371],[132.934,35.376],[132.928,35.375],[132.926,35.367],[132.92,35.369],[132.914,35.372],[132.914,35.377],[132.91,35.381],[132.908,35.377],[132.903,35.371],[132.895,35.372],[132.892,35.374],[132.883,35.375]]]]}},{"type":"Feature","properties":{"name":"仁多郡奥出雲町","code":"32343"},"geometry":{"type":"MultiPolygon","coordinates":[[[[133.073,35.25],[133.064,35.248],[133.056,35.245],[133.047,35.245],[133.038,35.247],[133.031,35.249],[133.028,35.246],[133.022,35.246],[133.014,35.246],[133.003,35.247],[132.993,35.249],[132.987,35.249],[132.984,35.25],[132.98,35.246],[132.977,35.246],[132.971,35.247],[132.968,35.248],[132.961,35.248],[132.959,35.239],[132.963,35.238],[132.962,35.232],[132.962,35.225],[132.966,35.225],[132.966,35.218],[132.958,35.217],[132.951,35.213],[132.95,35.21],[132.951,35.206],[132.943,35.201],[132.943,35.196],[132.945,35.193],[132.943,35.189],[132.945,35.185],[132.948,35.181],[132.948,35.178],[132.944,35.175],[132.945,35.17],[132.945,35.167],[132.948,35.162],[132.946,35.157],[132.941,35.154],[132.937,35.154],[132.929,35.151],[132.916,35.15],[132.911,35.154],[132.906,35.155],[132.904,35.152],[132.898,35.147],[132.9,35.143],[132.9,35.139],[132.903,35.139],[132.907,35.135],[132.911,35.133],[132.909,35.127],[132.903,35.126],[132.897,35.123],[132.895,35.118],[132.894,35.111],[132.892,35.106],[132.897,35.104],[132.903,35.097],[132.905,35.092],[132.909,35.086],[132.92,35.084],[132.924,35.084],[132.927,35.081],[132.934,35.084],[132.943,35.079],[132.948,35.076],[132.955,35.078],[132.966,35.08],[132.971,35.082],[132.975,35.083],[132.978,35.087],[132.979,35.091],[132.982,35.098],[132.987,35.101],[132.991,35.101],[132.997,35.099],[133.0,35.097],[133.003,35.093],[133.007,35.09],[133.015,35.088],[133.016,35.078],[133.024,35.078],[133.029,35.073],[133.033,35.068],[133.043,35.068],[133.052,35.07],[133.055,35.075],[133.06,35.081],[133.067,35.081],[133.071,35.082],[133.081,35.081],[133.085,35.078],[133.093,35.084],[133.1,35.083],[133.107,35.082],[133.111,35.086],[133.12,35.085],[133.126,35.08],[133.127,35.077],[133.134,35.076],[133.141,35.076],[133.14,35.08],[133.141,35.083],[133.137,35.085],[133.137,35.089],[133.139,35.096],[133.14,35.1],[133.146,35.105],[133.144,35.111],[133.14,35.117],[133.147,35.124],[133.145,35.132],[133.148,35.14],[133.155,35.144],[133.155,35.147],[133.162,35.148],[133.166,35.149],[133.171,35.154],[133.176,35.154],[133.184,35.157],[133.189,35.162],[133.192,35.163],[133.195,35.17],[133.194,35.178],[133.189,35.185],[133.186,35.185],[133.182,35.188],[133.183,35.193],[133.184,35.198],[133.181,35.203],[133.176,35.205],[133.172,35.209],[133.164,35.206],[133.16,35.207],[133.153,35.204],[133.153,35.21],[133.152,35.216],[133.144,35.211],[133.14,35.211],[133.132,35.211],[133.123,35.209],[133.117,35.212],[133.107,35.214],[133.103,35.223],[133.106,35.227],[133.108,35.233],[133.109,35.236],[133.107,35.239],[133.1,35.24],[133.095,35.247],[133.092,35.25],[133.086,35.249],[133.076,35.251]]]]}},{"type":"Feature","properties":{"name":"飯石郡飯南町","code":"32386"},"geometry":{"type":"MultiPolygon","coordinates":[[[[132.666,35.17],[132.661,35.17],[132.659,35.164],[132.654,35.161],[132.649,35.149],[132.642,35.148],[132.638,35.147],[132.632,35.142],[132.629,35.136],[132.633,35.135],[132.646,35.127],[132.652,35.124],[132.651,35.12],[132.656,35.118],[132.664,35.118],[132.667,35.121],[132.672,35.117],[132.671,35.112],[132.664,35.107],[132.667,35.103],[132.666,35.097],[132.661,35.093],[132.659,35.09],[132.658,35.085],[132.662,35.086],[132.666,35.083],[132.669,35.084],[132.67,35.079],[132.677,35.077],[132.68,35.074],[132.684,35.07],[132.688,35.073],[132.692,35.072],[132.699,35.065],[132.703,35.059],[132.71,35.056],[132.715,35.058],[132.722,35.051],[132.719,35.05],[132.713,35.038],[132.717,35.033],[132.715,35.029],[132.718,35.024],[132.714,35.022],[132.71,35.026],[132.701,35.025],[132.698,35.026],[132.691,35.026],[132.686,35.025],[132.687,35.021],[132.677,35.016],[132.675,35.011],[132.664,35.009],[132.663,35.006],[132.665,35.0],[132.663,34.995],[132.668,34.992],[132.662,34.986],[132.656,34.99],[132.649,34.986],[132.652,34.982],[132.657,34.981],[132.655,34.975],[132.657,34.969],[132.662,34.967],[132.667,34.967],[132.673,34.966],[132.679,34.966],[132.683,34.967],[132.682,34.96],[132.683,34.952],[132.69,34.952],[132.694,34.952],[132.698,34.954],[132.702,34.951],[132.706,34.955],[132.714,34.953],[132.717,34.95],[132.72,34.948],[132.727,34.953],[132.728,34.956],[132.733,34.957],[132.741,34.961],[132.741,34.957],[132.744,34.958],[132.75,34.96],[132.751,34.967],[132.751,34.97],[132.745,34.977],[132.753,34.979],[132.76,34.979],[132.769,34.984],[132.765,34.989],[132.763,34.993],[132.77,34.998],[132.777,34.999],[132.781,35.003],[132.788,35.005],[132.787,35.009],[132.787,35.013],[132.793,35.02],[132.799,35.021],[132.802,35.024],[132.806,35.028],[132.811,35.032],[132.813,35.036],[132.814,35.041],[132.827,35.047],[132.831,35.046],[132.837,35.047],[132.838,35.051],[132.833,35.055],[132.831,35.059],[132.831,35.066],[132.835,35.069],[132.839,35.071],[132.841,35.074],[132.845,35.077],[132.846,35.081],[132.849,35.083],[132.852,35.085],[132.858,35.089],[132.86,35.092],[132.858,35.096],[132.852,35.098],[132.847,35.104],[132.842,35.11],[132.837,35.108],[132.833,35.105],[132.828,35.103],[132.823,35.104],[132.814,35.105],[132.813,35.111],[132.812,35.118],[132.811,35.127],[132.81,35.131],[132.806,35.13],[132.799,35.131],[132.796,35.13],[132.79,35.131],[132.787,35.128],[132.779,35.124],[132.774,35.122],[132.771,35.118],[132.769,35.112],[132.761,35.114],[132.758,35.114],[132.753,35.118],[132.747,35.115],[132.742,35.114],[132.741,35.12],[132.73,35.124],[132.726,35.126],[132.722,35.125],[132.718,35.126],[132.714,35.125],[132.712,35.128],[132.716,35.132],[132.711,35.135],[132.71,35.139],[132.711,35.143],[132.708,35.145],[132.703,35.149],[132.702,35.152],[132.704,35.158],[132.701,35.162],[132.695,35.16],[132.69,35.162],[132.691,35.168],[132.678,35.173],[132.675,35.175],[132.67,35.171],[132.666,35.17]]]]}},{"type":"Feature","properties":{"name":"邑智郡川本町","code":"32441"},"geometry":{"type":"MultiPolygon","coordinates":[[[[132.384,34.998],[132.388,34.993],[132.389,34.986],[132.386,34.983],[132.388,34.977],[132.393,34.978],[132.4,34.976],[132.409,34.974],[132.413,34.973],[132.42,34.977],[132.426,34.977],[132.429,34.971],[132.434,34.966],[132.438,34.965],[132.437,34.96],[132.441,34.963],[132.448,34.966],[132.453,34.964],[132.462,34.957],[132.463,34.951],[132.47,34.948],[132.474,34.946],[132.48,34.946],[132.485,34.948],[132.491,34.951],[132.495,34.95],[132.503,34.943],[132.508,34.941],[132.516,34.942],[132.521,34.948],[132.522,34.954],[132.528,34.961],[132.534,34.961],[132.541,34.962],[132.542,34.957],[132.546,34.957],[132.552,34.958],[132.553,34.953],[132.553,34.948],[132.558,34.951],[132.563,34.952],[132.561,34.961],[132.565,34.962],[132.572,34.968],[132.567,34.972],[132.57,34.974],[132.57,34.98],[132.564,34.985],[132.564,34.994],[132.56,34.993],[132.552,34.996],[132.544,34.993],[132.537,34.991],[132.534,34.988],[132.53,34.988],[132.525,34.992],[132.524,34.996],[132.525,35.002],[132.524,35.008],[132.518,35.009],[132.514,35.016],[132.51,35.017],[132.507,35.02],[132.504,35.021],[132.501,35.025],[132.506,35.029],[132.5,35.03],[132.494,35.034],[132.493,35.039],[132.498,35.039],[132.499,35.046],[132.501,35.052],[132.487,35.056],[132.484,35.058],[132.479,35.052],[132.475,35.049],[132.476,35.043],[132.473,35.036],[132.464,35.03],[132.46,35.03],[132.458,35.026],[132.459,35.023],[132.457,35.017],[132.446,35.023],[132.44,35.022],[132.437,35.024],[132.437,35.018],[132.431,35.017],[132.427,35.019],[132.423,35.022],[132.418,35.018],[132.409,35.019],[132.404,35.016],[132.402,35.012],[132.396,35.01],[132.388,35.009],[132.387,35.004],[132.384,34.998]]]]}},{"type":"Feature","properties":{"name":"邑智郡美郷町","code":"32448"},"geometry":{"type":"MultiPolygon","coordinates":[[[[132.484,35.058],[132.487,35.056],[132.501,35.052],[132.501,35.047],[132.501,35.04],[132.493,35.039],[132.494,35.034],[132.5,35.032],[132.506,35.029],[132.501,35.025],[132.504,35.021],[132.507,35.02],[132.51,35.017],[132.514,35.016],[132.518,35.012],[132.524,35.009],[132.523,35.004],[132.524,34.996],[132.525,34.992],[132.53,34.988],[132.534,34.988],[132.537,34.991],[132.544,34.993],[132.552,34.996],[132.56,34.993],[132.564,34.994],[132.565,34.988],[132.568,34.983],[132.57,34.974],[132.567,34.972],[132.572,34.968],[132.578,34.966],[132.576,34.962],[132.578,34.956],[132.577,34.953],[132.58,34.95],[132.578,34.946],[132.582,34.945],[132.583,34.942],[132.592,34.938],[132.592,34.932],[132.593,34.927],[132.598,34.931],[132.602,34.931],[132.606,34.932],[132.616,34.931],[132.621,34.926],[132.625,34.927],[132.625,34.92],[132.633,34.918],[132.632,34.912],[132.634,34.908],[132.634,34.905],[132.641,34.904],[132.643,34.909],[132.647,34.91],[132.649,34.915],[132.651,34.92],[132.656,34.923],[132.661,34.923],[132.666,34.928],[132.667,34.931],[132.672,34.931],[132.676,34.933],[132.679,34.939],[132.682,34.944],[132.685,34.951],[132.683,34.957],[132.685,34.965],[132.679,34.966],[132.673,34.966],[132.67,34.964],[132.662,34.967],[132.657,34.969],[132.655,34.975],[132.658,34.979],[132.652,34.982],[132.649,34.986],[132.656,34.99],[132.66,34.988],[132.668,34.992],[132.663,34.995],[132.665,35.0],[132.663,35.006],[132.664,35.009],[132.675,35.011],[132.677,35.016],[132.687,35.021],[132.686,35.025],[132.691,35.026],[132.695,35.029],[132.701,35.025],[132.708,35.024],[132.714,35.022],[132.718,35.024],[132.715,35.029],[132.717,35.033],[132.713,35.038],[132.719,35.05],[132.722,35.051],[132.717,35.057],[132.71,35.056],[132.705,35.057],[132.699,35.063],[132.693,35.07],[132.688,35.073],[132.684,35.07],[132.681,35.072],[132.677,35.077],[132.67,35.079],[132.672,35.083],[132.666,35.083],[132.662,35.086],[132.658,35.085],[132.659,35.09],[132.652,35.093],[132.649,35.092],[132.642,35.092],[132.637,35.095],[132.631,35.098],[132.628,35.094],[132.622,35.091],[132.617,35.09],[132.613,35.09],[132.61,35.093],[132.613,35.097],[132.613,35.101],[132.615,35.106],[132.614,35.109],[132.608,35.113],[132.605,35.114],[132.601,35.117],[132.6,35.113],[132.595,35.113],[132.591,35.116],[132.589,35.12],[132.585,35.12],[132.581,35.12],[132.572,35.118],[132.567,35.12],[132.559,35.118],[132.556,35.121],[132.551,35.123],[132.548,35.123],[132.546,35.119],[132.539,35.117],[132.538,35.114],[132.534,35.114],[132.531,35.111],[132.525,35.106],[132.524,35.103],[132.521,35.1],[132.509,35.098],[132.505,35.098],[132.503,35.095],[132.495,35.098],[132.492,35.099],[132.486,35.096],[132.485,35.089],[132.482,35.086],[132.48,35.08],[132.484,35.077],[132.48,35.076],[132.474,35.075],[132.48,35.069],[132.485,35.064],[132.484,35.058]]]]}},{"type":"Feature","properties":{"name":"邑智郡邑南町","code":"32449"},"geometry":{"type":"MultiPolygon","coordinates":[[[[132.383,34.795],[132.381,34.786],[132.385,34.785],[132.393,34.784],[132.397,34.779],[132.399,34.783],[132.404,34.787],[132.407,34.79],[132.414,34.797],[132.42,34.797],[132.425,34.799],[132.424,34.803],[132.424,34.807],[132.421,34.812],[132.426,34.812],[132.43,34.814],[132.437,34.821],[132.44,34.818],[132.446,34.815],[132.454,34.809],[132.457,34.804],[132.462,34.802],[132.466,34.802],[132.472,34.802],[132.48,34.8],[132.484,34.797],[132.495,34.801],[132.498,34.799],[132.505,34.796],[132.509,34.797],[132.511,34.801],[132.518,34.804],[132.527,34.799],[132.533,34.797],[132.538,34.795],[132.544,34.797],[132.547,34.803],[132.554,34.808],[132.559,34.807],[132.562,34.808],[132.568,34.807],[132.568,34.811],[132.58,34.816],[132.586,34.823],[132.59,34.821],[132.592,34.827],[132.597,34.831],[132.6,34.832],[132.605,34.831],[132.612,34.833],[132.611,34.838],[132.614,34.841],[132.62,34.844],[132.625,34.843],[132.631,34.843],[132.633,34.84],[132.639,34.84],[132.643,34.838],[132.648,34.84],[132.653,34.84],[132.653,34.837],[132.657,34.835],[132.66,34.832],[132.667,34.832],[132.671,34.838],[132.671,34.842],[132.675,34.848],[132.684,34.851],[132.69,34.85],[132.694,34.844],[132.699,34.843],[132.703,34.847],[132.711,34.85],[132.71,34.858],[132.706,34.862],[132.705,34.871],[132.702,34.88],[132.692,34.883],[132.688,34.885],[132.682,34.884],[132.679,34.891],[132.675,34.894],[132.667,34.89],[132.659,34.892],[132.658,34.897],[132.651,34.901],[132.646,34.899],[132.637,34.899],[132.633,34.902],[132.634,34.905],[132.634,34.908],[132.632,34.912],[132.633,34.918],[132.625,34.92],[132.627,34.925],[132.621,34.926],[132.616,34.931],[132.606,34.932],[132.602,34.931],[132.598,34.931],[132.593,34.927],[132.592,34.932],[132.592,34.938],[132.583,34.942],[132.582,34.945],[132.578,34.946],[132.58,34.95],[132.577,34.953],[132.578,34.956],[132.576,34.962],[132.578,34.966],[132.572,34.968],[132.567,34.965],[132.561,34.961],[132.563,34.952],[132.558,34.951],[132.555,34.948],[132.553,34.953],[132.552,34.958],[132.546,34.957],[132.542,34.957],[132.541,34.962],[132.536,34.959],[132.528,34.961],[132.52,34.956],[132.521,34.951],[132.516,34.942],[132.511,34.943],[132.503,34.943],[132.495,34.95],[132.491,34.951],[132.486,34.95],[132.48,34.946],[132.474,34.946],[132.47,34.948],[132.465,34.949],[132.459,34.95],[132.454,34.946],[132.45,34.948],[132.445,34.947],[132.441,34.945],[132.438,34.942],[132.434,34.937],[132.43,34.932],[132.429,34.927],[132.42,34.926],[132.416,34.93],[132.412,34.928],[132.398,34.937],[132.394,34.936],[132.384,34.936],[132.382,34.939],[132.379,34.941],[132.373,34.94],[132.368,34.941],[132.365,34.935],[132.359,34.929],[132.352,34.925],[132.351,34.922],[132.347,34.92],[132.34,34.92],[132.34,34.917],[132.333,34.919],[132.328,34.92],[132.324,34.917],[132.321,34.914],[132.323,34.91],[132.315,34.911],[132.31,34.909],[132.311,34.903],[132.309,34.9],[132.308,34.896],[132.31,34.887],[132.316,34.885],[132.324,34.878],[132.331,34.871],[132.336,34.868],[132.339,34.861],[132.345,34.861],[132.351,34.858],[132.354,34.86],[132.359,34.86],[132.366,34.862],[132.371,34.861],[132.376,34.858],[132.381,34.858],[132.381,34.854],[132.38,34.85],[132.384,34.848],[132.388,34.843],[132.39,34.839],[132.393,34.836],[132.39,34.832],[132.391,34.829],[132.39,34.819],[132.383,34.811],[132.385,34.806],[132.383,34.803],[132.383,34.795]]]]}},{"type":"Feature","properties":{"name":"鹿足郡津和野町","code":"32501"},"geometry":{"type":"MultiPolygon","coordinates":[[[[131.724,34.572],[131.72,34.572],[131.714,34.566],[131.713,34.563],[131.706,34.563],[131.705,34.56],[131.701,34.551],[131.705,34.542],[131.701,34.539],[131.707,34.533],[131.701,34.531],[131.695,34.524],[131.688,34.521],[131.685,34.517],[131.678,34.517],[131.673,34.511],[131.669,34.511],[131.668,34.504],[131.676,34.501],[131.68,34.493],[131.682,34.488],[131.682,34.481],[131.689,34.479],[131.693,34.482],[131.7,34.475],[131.699,34.47],[131.694,34.466],[131.694,34.462],[131.696,34.458],[131.696,34.455],[131.699,34.451],[131.697,34.446],[131.694,34.444],[131.695,34.439],[131.697,34.435],[131.702,34.436],[131.706,34.433],[131.71,34.432],[131.713,34.428],[131.717,34.43],[131.721,34.429],[131.726,34.43],[131.73,34.433],[131.733,34.43],[131.738,34.429],[131.741,34.429],[131.745,34.435],[131.748,34.436],[131.752,34.439],[131.757,34.439],[131.759,34.434],[131.771,34.437],[131.777,34.435],[131.78,34.436],[131.787,34.434],[131.794,34.436],[131.799,34.447],[131.804,34.448],[131.812,34.453],[131.817,34.452],[131.819,34.456],[131.826,34.455],[131.83,34.456],[131.832,34.462],[131.837,34.465],[131.839,34.469],[131.84,34.476],[131.844,34.474],[131.848,34.475],[131.85,34.478],[131.849,34.482],[131.855,34.483],[131.863,34.484],[131.869,34.48],[131.875,34.48],[131.88,34.479],[131.884,34.476],[131.893,34.477],[131.894,34.473],[131.907,34.469],[131.909,34.472],[131.913,34.475],[131.917,34.477],[131.921,34.472],[131.925,34.471],[131.93,34.467],[131.933,34.467],[131.936,34.464],[131.94,34.463],[131.949,34.471],[131.955,34.472],[131.96,34.476],[131.967,34.478],[131.967,34.482],[131.971,34.484],[131.966,34.491],[131.967,34.496],[131.964,34.502],[131.966,34.505],[131.963,34.509],[131.957,34.516],[131.951,34.516],[131.947,34.513],[131.943,34.508],[131.939,34.508],[131.927,34.511],[131.921,34.512],[131.92,34.516],[131.913,34.519],[131.909,34.523],[131.905,34.525],[131.907,34.53],[131.908,34.535],[131.907,34.539],[131.904,34.546],[131.908,34.547],[131.912,34.555],[131.919,34.556],[131.922,34.561],[131.926,34.564],[131.921,34.572],[131.92,34.568],[131.913,34.568],[131.914,34.575],[131.922,34.58],[131.913,34.584],[131.903,34.584],[131.904,34.588],[131.902,34.594],[131.902,34.599],[131.899,34.601],[131.894,34.601],[131.891,34.598],[131.887,34.598],[131.879,34.598],[131.874,34.595],[131.871,34.594],[131.868,34.589],[131.866,34.585],[131.863,34.587],[131.863,34.572],[131.858,34.57],[131.853,34.575],[131.849,34.575],[131.844,34.574],[131.841,34.575],[131.837,34.577],[131.831,34.578],[131.826,34.584],[131.826,34.587],[131.82,34.582],[131.815,34.579],[131.811,34.581],[131.807,34.586],[131.799,34.588],[131.796,34.585],[131.789,34.586],[131.788,34.583],[131.781,34.583],[131.776,34.58],[131.771,34.583],[131.766,34.583],[131.767,34.577],[131.764,34.574],[131.758,34.568],[131.754,34.57],[131.749,34.569],[131.745,34.564],[131.738,34.561],[131.733,34.564],[131.728,34.567],[131.724,34.572]]]]}},{"type":"Feature","properties":{"name":"鹿足郡吉賀町","code":"32505"},"geometry":{"type":"MultiPolygon","coordinates":[[[[131.967,34.478],[131.96,34.476],[131.955,34.472],[131.949,34.471],[131.942,34.466],[131.936,34.464],[131.933,34.467],[131.93,34.467],[131.925,34.469],[131.921,34.472],[131.917,34.477],[131.913,34.475],[131.909,34.472],[131.907,34.469],[131.894,34.473],[131.893,34.477],[131.884,34.476],[131.88,34.479],[131.877,34.479],[131.869,34.48],[131.864,34.482],[131.858,34.485],[131.849,34.484],[131.85,34.478],[131.848,34.475],[131.844,34.474],[131.84,34.476],[131.839,34.469],[131.837,34.465],[131.832,34.462],[131.83,34.456],[131.826,34.455],[131.819,34.456],[131.817,34.452],[131.812,34.453],[131.804,34.448],[131.799,34.447],[131.795,34.438],[131.795,34.433],[131.794,34.427],[131.793,34.422],[131.787,34.412],[131.788,34.408],[131.785,34.4],[131.779,34.399],[131.775,34.395],[131.773,34.387],[131.769,34.387],[131.765,34.383],[131.764,34.377],[131.767,34.375],[131.766,34.372],[131.767,34.367],[131.77,34.36],[131.771,34.356],[131.778,34.353],[131.779,34.345],[131.775,34.338],[131.778,34.333],[131.784,34.332],[131.788,34.329],[131.796,34.327],[131.796,34.319],[131.802,34.317],[131.806,34.312],[131.813,34.312],[131.817,34.31],[131.819,34.303],[131.823,34.305],[131.831,34.303],[131.834,34.311],[131.838,34.309],[131.845,34.311],[131.851,34.307],[131.855,34.306],[131.86,34.305],[131.865,34.306],[131.87,34.305],[131.873,34.308],[131.88,34.31],[131.885,34.311],[131.884,34.321],[131.888,34.327],[131.896,34.322],[131.9,34.319],[131.904,34.323],[131.909,34.325],[131.913,34.33],[131.915,34.335],[131.919,34.338],[131.928,34.335],[131.935,34.328],[131.942,34.325],[131.945,34.321],[131.95,34.315],[131.955,34.31],[131.959,34.306],[131.964,34.314],[131.963,34.317],[131.961,34.321],[131.97,34.324],[131.974,34.329],[131.975,34.333],[131.975,34.337],[131.974,34.341],[131.98,34.343],[131.981,34.347],[131.984,34.351],[131.99,34.352],[131.994,34.358],[131.995,34.362],[131.998,34.365],[132.001,34.366],[132.007,34.365],[132.012,34.367],[132.012,34.375],[132.014,34.382],[132.009,34.386],[132.007,34.391],[132.0,34.397],[131.998,34.404],[131.995,34.408],[131.99,34.414],[131.995,34.422],[131.997,34.428],[132.006,34.432],[132.01,34.431],[132.016,34.437],[132.015,34.452],[132.019,34.457],[132.023,34.461],[132.035,34.463],[132.039,34.469],[132.046,34.469],[132.05,34.466],[132.055,34.468],[132.054,34.471],[132.05,34.474],[132.04,34.475],[132.037,34.474],[132.033,34.472],[132.028,34.471],[132.022,34.467],[132.016,34.467],[132.012,34.463],[132.007,34.46],[132.006,34.454],[132.003,34.454],[131.996,34.45],[131.991,34.452],[131.991,34.459],[131.995,34.464],[131.997,34.469],[131.995,34.473],[131.989,34.473],[131.984,34.475],[131.981,34.473],[131.977,34.473],[131.974,34.471],[131.967,34.475],[131.967,34.478]]]]}},{"type":"Feature","properties":{"name":"隠岐郡海士町","code":"32525"},"geometry":{"type":"MultiPolygon","coordinates":[[[[133.164,36.114],[133.156,36.105],[133.163,36.103],[133.166,36.1],[133.168,36.106],[133.167,36.113]]],[[[133.113,36.12],[133.105,36.117],[133.1,36.118],[133.094,36.117],[133.091,36.111],[133.094,36.109],[133.092,36.104],[133.091,36.096],[133.088,36.096],[133.088,36.1],[133.087,36.106],[133.088,36.11],[133.083,36.114],[133.08,36.113],[133.077,36.109],[133.081,36.107],[133.082,36.103],[133.077,36.103],[133.075,36.106],[133.071,36.106],[133.07,36.101],[133.064,36.101],[133.066,36.092],[133.07,36.087],[133.07,36.084],[133.073,36.081],[133.071,36.076],[133.068,36.077],[133.069,36.074],[133.072,36.073],[133.079,36.073],[133.075,36.064],[133.074,36.059],[133.07,36.059],[133.07,36.054],[133.07,36.05],[133.071,36.047],[133.068,36.042],[133.07,36.038],[133.078,36.037],[133.082,36.041],[133.077,36.044],[133.081,36.047],[133.088,36.046],[133.086,36.051],[133.097,36.049],[133.104,36.05],[133.105,36.053],[133.1,36.055],[133.103,36.058],[133.106,36.061],[133.108,36.065],[133.1,36.069],[133.097,36.072],[133.109,36.068],[133.116,36.066],[133.118,36.071],[133.116,36.076],[133.116,36.079],[133.122,36.077],[133.126,36.075],[133.131,36.073],[133.134,36.077],[133.137,36.082],[133.14,36.082],[133.144,36.075],[133.151,36.075],[133.146,36.08],[133.137,36.084],[133.131,36.086],[133.119,36.081],[133.118,36.085],[133.122,36.086],[133.128,36.091],[133.126,36.094],[133.126,36.098],[133.13,36.1],[133.134,36.101],[133.129,36.107],[133.13,36.111],[133.126,36.111],[133.122,36.115],[133.117,36.115],[133.113,36.12]]]]}},{"type":"Feature","properties":{"name":"隠岐郡西ノ島町","code":"32526"},"geometry":{"type":"MultiPolygon","coordinates":[[[[133.069,36.143],[133.066,36.137],[133.062,36.134],[133.055,36.13],[133.047,36.129],[133.043,36.134],[133.036,36.135],[133.031,36.138],[133.026,36.137],[133.02,36.134],[133.015,36.138],[133.014,36.131],[133.014,36.126],[133.012,36.121],[133.013,36.115],[133.006,36.112],[133.005,36.108],[132.999,36.114],[132.993,36.114],[132.99,36.109],[132.987,36.114],[132.979,36.114],[132.977,36.111],[132.972,36.108],[132.969,36.103],[132.965,36.098],[132.968,36.093],[132.96,36.092],[132.954,36.086],[132.952,36.082],[132.947,36.08],[132.947,36.077],[132.953,36.077],[132.95,36.073],[132.949,36.068],[132.946,36.067],[132.954,36.061],[132.961,36.06],[132.965,36.06],[132.969,36.058],[132.973,36.057],[132.975,36.053],[132.986,36.049],[132.99,36.043],[132.995,36.041],[133.0,36.04],[133.0,36.044],[132.997,36.046],[132.993,36.052],[132.994,36.057],[132.99,36.06],[132.989,36.064],[132.983,36.069],[132.982,36.076],[132.979,36.079],[132.977,36.083],[132.98,36.086],[132.984,36.092],[132.985,36.086],[132.989,36.085],[132.992,36.088],[132.991,36.092],[132.995,36.093],[132.999,36.091],[133.003,36.092],[133.007,36.095],[133.008,36.099],[133.007,36.103],[133.012,36.101],[133.013,36.098],[133.011,36.093],[133.007,36.093],[133.008,36.087],[133.012,36.075],[133.015,36.074],[133.02,36.068],[133.022,36.064],[133.027,36.065],[133.034,36.063],[133.037,36.065],[133.043,36.063],[133.048,36.064],[133.051,36.066],[133.053,36.069],[133.052,36.076],[133.05,36.079],[133.055,36.081],[133.056,36.088],[133.05,36.096],[133.045,36.095],[133.046,36.099],[133.042,36.102],[133.04,36.106],[133.042,36.111],[133.048,36.113],[133.053,36.112],[133.06,36.113],[133.063,36.113],[133.07,36.114],[133.074,36.118],[133.081,36.121],[133.086,36.127],[133.088,36.132],[133.091,36.134],[133.09,36.137],[133.085,36.139],[133.08,36.138],[133.081,36.142],[133.078,36.143],[133.073,36.141],[133.069,36.143]]]]}},{"type":"Feature","properties":{"name":"隠岐郡知夫村","code":"32527"},"geometry":{"type":"MultiPolygon","coordinates":[[[[133.004,36.033],[133.0,36.032],[133.001,36.027],[133.004,36.023],[133.008,36.019],[133.003,36.016],[133.008,36.01],[133.008,36.006],[133.009,36.002],[133.016,36.003],[133.02,36.006],[133.023,36.007],[133.027,36.006],[133.027,36.002],[133.031,36.003],[133.031,36.006],[133.038,36.003],[133.042,36.008],[133.041,36.013],[133.048,36.009],[133.048,36.004],[133.054,36.004],[133.057,36.001],[133.055,35.997],[133.062,35.994],[133.066,35.996],[133.066,36.003],[133.069,36.007],[133.073,36.011],[133.065,36.012],[133.062,36.01],[133.055,36.013],[133.051,36.017],[133.045,36.019],[133.042,36.024],[133.035,36.029],[133.031,36.029],[133.027,36.032],[133.022,36.03],[133.017,36.031],[133.014,36.031],[133.007,36.032],[133.004,36.033]]]]}},{"type":"Feature","properties":{"name":"隠岐郡隠岐の島町","code":"32528"},"geometry":{"type":"MultiPolygon","coordinates":[[[[133.279,36.349],[133.281,36.345],[133.28,36.34],[133.276,36.337],[133.271,36.332],[133.268,36.332],[133.263,36.328],[133.26,36.33],[133.256,36.327],[133.253,36.329],[133.247,36.334],[133.239,36.332],[133.234,36.329],[133.226,36.329],[133.226,36.323],[133.232,36.319],[133.225,36.313],[133.219,36.314],[133.214,36.311],[133.21,36.311],[133.208,36.307],[133.211,36.302],[133.205,36.301],[133.201,36.299],[133.196,36.302],[133.196,36.298],[133.194,36.291],[133.205,36.291],[133.201,36.288],[133.2,36.283],[133.204,36.28],[133.198,36.28],[133.193,36.284],[133.186,36.29],[133.183,36.29],[133.182,36.287],[133.185,36.286],[133.188,36.282],[133.188,36.274],[133.186,36.268],[133.182,36.261],[133.178,36.259],[133.178,36.25],[133.186,36.249],[133.193,36.245],[133.191,36.238],[133.191,36.231],[133.188,36.227],[133.184,36.224],[133.185,36.215],[133.192,36.215],[133.195,36.211],[133.198,36.212],[133.208,36.21],[133.208,36.203],[133.209,36.198],[133.215,36.194],[133.224,36.188],[133.229,36.188],[133.235,36.19],[133.238,36.192],[133.245,36.19],[133.246,36.184],[133.243,36.182],[133.239,36.183],[133.238,36.177],[133.241,36.175],[133.236,36.172],[133.235,36.169],[133.24,36.166],[133.245,36.168],[133.244,36.176],[133.249,36.175],[133.253,36.171],[133.251,36.168],[133.248,36.161],[133.253,36.162],[133.256,36.165],[133.256,36.169],[133.263,36.17],[133.261,36.166],[133.265,36.167],[133.274,36.169],[133.278,36.17],[133.277,36.178],[133.277,36.181],[133.279,36.188],[133.282,36.187],[133.28,36.182],[133.281,36.178],[133.289,36.174],[133.289,36.179],[133.293,36.179],[133.301,36.177],[133.303,36.172],[133.309,36.174],[133.314,36.171],[133.318,36.171],[133.325,36.167],[133.331,36.168],[133.335,36.17],[133.339,36.17],[133.338,36.176],[133.337,36.184],[133.339,36.188],[133.335,36.194],[133.336,36.197],[133.332,36.197],[133.329,36.198],[133.323,36.2],[133.315,36.199],[133.309,36.2],[133.314,36.204],[133.321,36.203],[133.325,36.204],[133.328,36.202],[133.332,36.201],[133.335,36.203],[133.338,36.208],[133.339,36.213],[133.34,36.216],[133.34,36.222],[133.345,36.225],[133.344,36.22],[133.345,36.215],[133.351,36.213],[133.348,36.209],[133.342,36.2],[133.34,36.196],[133.344,36.197],[133.349,36.196],[133.355,36.203],[133.36,36.203],[133.368,36.204],[133.37,36.211],[133.37,36.217],[133.372,36.223],[133.375,36.228],[133.377,36.237],[133.373,36.243],[133.376,36.247],[133.373,36.251],[133.379,36.262],[133.383,36.264],[133.385,36.268],[133.379,36.271],[133.379,36.277],[133.373,36.278],[133.37,36.281],[133.363,36.279],[133.362,36.284],[133.363,36.289],[133.358,36.289],[133.358,36.295],[133.362,36.295],[133.357,36.299],[133.349,36.297],[133.345,36.299],[133.34,36.304],[133.338,36.309],[133.335,36.312],[133.329,36.309],[133.324,36.309],[133.326,36.314],[133.322,36.316],[133.316,36.324],[133.309,36.319],[133.306,36.324],[133.31,36.328],[133.307,36.33],[133.303,36.326],[133.297,36.328],[133.295,36.334],[133.288,36.337],[133.285,36.343],[133.283,36.348],[133.279,36.349]]]]}}]}