{"type":"FeatureCollection","features":[{"type":"Feature","properties":{"name":"岡山市中区","code":"33102"},"geometry":{"type":"MultiPolygon","coordinates":[[[[133.939,34.636],[133.945,34.631],[133.971,34.602],[133.977,34.6],[133.983,34.607],[133.996,34.614],[133.989,34.618],[133.986,34.626],[133.986,34.645],[133.993,34.664],[133.987,34.669],[134.005,34.674],[134.004,34.682],[133.989,34.683],[133.989,34.697],[133.984,34.708],[133.986,34.713],[133.958,34.713],[133.948,34.696],[133.939,34.69],[133.934,34.682],[133.933,34.67],[133.939,34.663],[133.932,34.656],[133.931,34.646],[133.939,34.636]]]]}},{"type":"Feature","properties":{"name":"岡山市北区","code":"33101"},"geometry":{"type":"MultiPolygon","coordinates":[[[[133.986,34.713],[133.994,34.72],[133.994,34.727],[133.987,34.733],[133.984,34.739],[133.971,34.749],[133.986,34.761],[133.977,34.769],[133.981,34.779],[133.97,34.784],[133.962,34.786],[133.974,34.803],[133.986,34.807],[133.987,34.818],[133.991,34.827],[133.988,34.836],[133.993,34.841],[133.994,34.85],[133.982,34.855],[133.978,34.847],[133.968,34.853],[133.961,34.868],[133.955,34.873],[133.937,34.871],[133.928,34.875],[133.938,34.884],[133.931,34.888],[133.922,34.901],[133.909,34.907],[133.903,34.901],[133.894,34.91],[133.906,34.918],[133.901,34.923],[133.909,34.927],[133.906,34.938],[133.91,34.944],[133.888,34.944],[133.883,34.948],[133.875,34.94],[133.864,34.937],[133.861,34.944],[133.854,34.945],[133.85,34.934],[133.852,34.927],[133.847,34.922],[133.85,34.916],[133.859,34.912],[133.867,34.905],[133.874,34.907],[133.878,34.903],[133.865,34.896],[133.857,34.895],[133.848,34.884],[133.85,34.879],[133.843,34.869],[133.848,34.854],[133.843,34.845],[133.828,34.842],[133.818,34.835],[133.819,34.807],[133.808,34.808],[133.799,34.815],[133.789,34.814],[133.781,34.809],[133.774,34.797],[133.773,34.786],[133.753,34.786],[133.74,34.768],[133.74,34.762],[133.749,34.748],[133.756,34.749],[133.768,34.742],[133.773,34.742],[133.791,34.731],[133.796,34.723],[133.8,34.711],[133.792,34.699],[133.804,34.685],[133.796,34.677],[133.797,34.667],[133.801,34.663],[133.813,34.668],[133.825,34.669],[133.835,34.662],[133.838,34.655],[133.832,34.651],[133.838,34.635],[133.83,34.628],[133.836,34.62],[133.843,34.621],[133.852,34.634],[133.86,34.637],[133.868,34.633],[133.873,34.634],[133.884,34.63],[133.892,34.631],[133.897,34.636],[133.904,34.636],[133.91,34.641],[133.918,34.638],[133.916,34.63],[133.925,34.628],[133.927,34.635],[133.939,34.636],[133.931,34.646],[133.932,34.656],[133.939,34.663],[133.933,34.67],[133.934,34.682],[133.939,34.69],[133.948,34.696],[133.958,34.713],[133.986,34.713]]]]}},{"type":"Feature","properties":{"name":"岡山市東区","code":"33103"},"geometry":{"type":"MultiPolygon","coordinates":[[[[133.996,34.614],[134.019,34.61],[134.029,34.606],[134.032,34.609],[134.042,34.608],[134.047,34.598],[134.053,34.596],[134.054,34.586],[134.069,34.584],[134.08,34.586],[134.084,34.581],[134.097,34.583],[134.104,34.59],[134.112,34.588],[134.113,34.601],[134.11,34.606],[134.116,34.627],[134.101,34.64],[134.086,34.633],[134.08,34.632],[134.073,34.638],[134.077,34.65],[134.067,34.648],[134.058,34.652],[134.052,34.659],[134.06,34.67],[134.073,34.677],[134.078,34.682],[134.084,34.699],[134.083,34.706],[134.093,34.714],[134.102,34.727],[134.106,34.742],[134.12,34.748],[134.123,34.753],[134.119,34.757],[134.109,34.761],[134.09,34.763],[134.093,34.77],[134.087,34.782],[134.081,34.783],[134.065,34.78],[134.058,34.768],[134.049,34.767],[134.051,34.761],[134.045,34.749],[134.035,34.744],[134.029,34.738],[134.0,34.726],[133.994,34.72],[133.986,34.713],[133.984,34.708],[133.989,34.697],[133.989,34.683],[134.004,34.682],[134.005,34.674],[133.987,34.669],[133.993,34.664],[133.986,34.645],[133.986,34.626],[133.989,34.618],[133.996,34.614]]]]}},{"type":"Feature","properties":{"name":"岡山市南区","code":"33104"},"geometry":{"type":"MultiPolygon","coordinates":[[[[133.939,34.636],[133.927,34.635],[133.925,34.628],[133.916,34.63],[133.918,34.638],[133.91,34.641],[133.904,34.636],[133.897,34.636],[133.892,34.631],[133.884,34.63],[133.873,34.634],[133.868,34.633],[133.86,34.637],[133.852,34.634],[133.843,34.621],[133.836,34.62],[133.834,34.612],[133.838,34.599],[133.844,34.59],[133.843,34.58],[133.833,34.568],[133.833,34.555],[133.819,34.551],[133.828,34.535],[133.838,34.535],[133.85,34.527],[133.854,34.52],[133.866,34.519],[133.875,34.524],[133.887,34.525],[133.885,34.538],[133.893,34.543],[133.902,34.537],[133.92,34.545],[133.939,34.576],[133.962,34.566],[133.966,34.559],[133.977,34.56],[133.983,34.567],[133.982,34.572],[133.987,34.578],[134.01,34.575],[134.014,34.578],[134.023,34.575],[134.029,34.578],[134.034,34.574],[134.041,34.576],[134.041,34.587],[134.026,34.599],[134.005,34.595],[133.974,34.594],[133.96,34.588],[133.948,34.594],[133.946,34.599],[133.952,34.602],[133.957,34.597],[133.971,34.602],[133.945,34.631],[133.939,34.636]]]]}},{"type":"Feature","properties":{"name":"倉敷市","code":"33202"},"geometry":{"type":"MultiPolygon","coordinates":[[[[133.761,34.431],[133.764,34.42],[133.77,34.419],[133.775,34.426],[133.764,34.427],[133.761,34.431]]],[[[133.684,34.504],[133.669,34.502],[133.669,34.491],[133.684,34.491],[133.684,34.504]]],[[[133.801,34.663],[133.799,34.654],[133.799,34.641],[133.793,34.639],[133.78,34.644],[133.771,34.64],[133.763,34.643],[133.751,34.634],[133.757,34.631],[133.746,34.622],[133.739,34.624],[133.731,34.622],[133.726,34.631],[133.727,34.647],[133.723,34.648],[133.717,34.656],[133.711,34.656],[133.697,34.659],[133.693,34.664],[133.682,34.658],[133.669,34.654],[133.667,34.649],[133.659,34.65],[133.649,34.645],[133.645,34.647],[133.632,34.642],[133.634,34.638],[133.633,34.623],[133.639,34.606],[133.649,34.596],[133.632,34.584],[133.623,34.58],[133.637,34.569],[133.64,34.561],[133.648,34.557],[133.643,34.548],[133.649,34.545],[133.641,34.539],[133.629,34.521],[133.623,34.519],[133.623,34.513],[133.608,34.506],[133.603,34.501],[133.604,34.495],[133.612,34.495],[133.619,34.492],[133.625,34.501],[133.638,34.501],[133.647,34.504],[133.648,34.512],[133.659,34.52],[133.67,34.518],[133.67,34.507],[133.684,34.507],[133.69,34.512],[133.691,34.523],[133.705,34.523],[133.704,34.478],[133.719,34.473],[133.743,34.471],[133.737,34.491],[133.719,34.496],[133.722,34.501],[133.735,34.499],[133.743,34.501],[133.748,34.489],[133.76,34.486],[133.757,34.482],[133.76,34.47],[133.767,34.472],[133.767,34.463],[133.771,34.455],[133.781,34.445],[133.785,34.436],[133.792,34.439],[133.807,34.436],[133.814,34.438],[133.811,34.445],[133.809,34.461],[133.815,34.46],[133.817,34.467],[133.83,34.473],[133.867,34.467],[133.88,34.457],[133.881,34.463],[133.876,34.473],[133.864,34.476],[133.862,34.481],[133.865,34.492],[133.87,34.493],[133.866,34.511],[133.866,34.519],[133.854,34.52],[133.85,34.527],[133.838,34.535],[133.828,34.535],[133.819,34.551],[133.833,34.555],[133.833,34.568],[133.843,34.58],[133.844,34.59],[133.838,34.599],[133.828,34.592],[133.824,34.596],[133.805,34.6],[133.802,34.609],[133.814,34.613],[133.818,34.621],[133.83,34.628],[133.838,34.635],[133.832,34.651],[133.838,34.655],[133.835,34.662],[133.825,34.669],[133.813,34.668],[133.801,34.663]]]]}},{"type":"Feature","properties":{"name":"津山市","code":"33203"},"geometry":{"type":"MultiPolygon","coordinates":[[[[134.168,35.172],[134.169,35.18],[134.165,35.188],[134.154,35.195],[134.154,35.206],[134.162,35.216],[134.164,35.228],[134.158,35.235],[134.144,35.231],[134.137,35.239],[134.145,35.243],[134.143,35.249],[134.151,35.258],[134.138,35.27],[134.141,35.275],[134.136,35.282],[134.122,35.281],[134.103,35.296],[134.098,35.303],[134.086,35.307],[134.082,35.302],[134.071,35.299],[134.062,35.303],[134.055,35.298],[134.044,35.303],[134.03,35.305],[134.025,35.296],[134.019,35.29],[134.022,35.274],[134.017,35.267],[134.01,35.264],[134.005,35.257],[134.0,35.256],[134.004,35.241],[134.012,35.231],[134.001,35.225],[133.997,35.218],[133.998,35.201],[133.996,35.178],[133.988,35.172],[133.984,35.161],[133.978,35.159],[133.974,35.151],[133.975,35.143],[133.969,35.137],[133.968,35.124],[133.963,35.116],[133.963,35.107],[133.956,35.103],[133.949,35.088],[133.943,35.085],[133.944,35.071],[133.937,35.063],[133.922,35.063],[133.913,35.067],[133.896,35.08],[133.88,35.081],[133.874,35.086],[133.868,35.102],[133.855,35.105],[133.846,35.102],[133.837,35.099],[133.832,35.088],[133.835,35.082],[133.829,35.077],[133.822,35.066],[133.824,35.059],[133.823,35.047],[133.826,35.045],[133.835,35.047],[133.843,35.038],[133.865,35.042],[133.874,35.042],[133.877,35.037],[133.877,35.027],[133.88,35.014],[133.872,35.007],[133.877,34.999],[133.878,34.992],[133.885,34.994],[133.896,34.984],[133.909,34.994],[133.91,34.999],[133.919,35.004],[133.92,35.01],[133.93,35.014],[133.938,35.03],[133.935,35.042],[133.957,35.045],[133.955,35.035],[133.95,35.029],[133.948,35.018],[133.951,35.009],[133.963,35.012],[133.971,35.011],[133.977,35.02],[133.988,35.027],[133.998,35.023],[134.005,35.016],[134.01,35.015],[134.017,35.006],[134.025,35.006],[134.032,35.002],[134.04,35.002],[134.033,35.013],[134.046,35.026],[134.058,35.025],[134.061,35.021],[134.077,35.025],[134.084,35.019],[134.082,35.036],[134.084,35.04],[134.083,35.051],[134.092,35.054],[134.102,35.051],[134.105,35.067],[134.101,35.07],[134.104,35.084],[134.109,35.084],[134.131,35.103],[134.134,35.117],[134.137,35.123],[134.143,35.141],[134.143,35.157],[134.15,35.167],[134.165,35.17]]]]}},{"type":"Feature","properties":{"name":"玉野市","code":"33204"},"geometry":{"type":"MultiPolygon","coordinates":[[[[134.021,34.507],[134.008,34.499],[134.019,34.498],[134.021,34.507]]],[[[133.866,34.519],[133.866,34.511],[133.87,34.493],[133.865,34.492],[133.862,34.481],[133.864,34.476],[133.876,34.473],[133.881,34.463],[133.88,34.457],[133.9,34.457],[133.91,34.451],[133.935,34.451],[133.943,34.455],[133.944,34.464],[133.934,34.473],[133.938,34.481],[133.948,34.485],[133.95,34.493],[133.962,34.492],[133.965,34.495],[133.956,34.506],[133.962,34.514],[133.959,34.523],[133.969,34.53],[133.978,34.533],[133.987,34.531],[133.993,34.518],[133.998,34.521],[133.996,34.534],[134.001,34.546],[134.01,34.551],[134.016,34.545],[134.029,34.555],[134.031,34.57],[134.034,34.574],[134.029,34.578],[134.023,34.575],[134.014,34.578],[134.01,34.575],[133.987,34.578],[133.982,34.572],[133.983,34.567],[133.977,34.56],[133.966,34.559],[133.962,34.566],[133.939,34.576],[133.92,34.545],[133.902,34.537],[133.893,34.543],[133.885,34.538],[133.887,34.525],[133.875,34.524],[133.866,34.519]]]]}},{"type":"Feature","properties":{"name":"笠岡市","code":"33205"},"geometry":{"type":"MultiPolygon","coordinates":[[[[133.538,34.31],[133.526,34.304],[133.534,34.298],[133.537,34.301],[133.538,34.31]]],[[[133.498,34.351],[133.497,34.34],[133.507,34.335],[133.509,34.341],[133.498,34.351]]],[[[133.587,34.364],[133.582,34.362],[133.567,34.351],[133.572,34.348],[133.581,34.351],[133.587,34.364]]],[[[133.543,34.402],[133.527,34.388],[133.519,34.39],[133.518,34.383],[133.548,34.369],[133.559,34.367],[133.557,34.375],[133.545,34.377],[133.551,34.392],[133.547,34.401],[133.543,34.402]]],[[[133.525,34.416],[133.519,34.408],[133.506,34.407],[133.505,34.403],[133.514,34.39],[133.52,34.398],[133.526,34.4],[133.524,34.406],[133.525,34.416]]],[[[133.512,34.435],[133.507,34.433],[133.5,34.426],[133.512,34.426],[133.516,34.432],[133.512,34.435]]],[[[133.57,34.585],[133.564,34.587],[133.555,34.594],[133.552,34.6],[133.545,34.603],[133.529,34.6],[133.524,34.593],[133.512,34.591],[133.51,34.582],[133.505,34.579],[133.505,34.563],[133.49,34.557],[133.477,34.547],[133.449,34.543],[133.454,34.53],[133.447,34.519],[133.453,34.507],[133.455,34.495],[133.446,34.483],[133.449,34.478],[133.455,34.477],[133.456,34.455],[133.463,34.454],[133.484,34.465],[133.49,34.46],[133.473,34.448],[133.478,34.443],[133.489,34.441],[133.501,34.452],[133.514,34.449],[133.524,34.451],[133.528,34.468],[133.519,34.473],[133.518,34.479],[133.529,34.477],[133.532,34.469],[133.54,34.461],[133.554,34.464],[133.561,34.468],[133.573,34.466],[133.568,34.486],[133.56,34.494],[133.546,34.492],[133.53,34.497],[133.538,34.509],[133.544,34.511],[133.55,34.528],[133.543,34.536],[133.544,34.545],[133.559,34.556],[133.561,34.568],[133.57,34.585]]]]}},{"type":"Feature","properties":{"name":"井原市","code":"33207"},"geometry":{"type":"MultiPolygon","coordinates":[[[[133.529,34.6],[133.532,34.608],[133.527,34.622],[133.519,34.63],[133.526,34.632],[133.534,34.63],[133.536,34.641],[133.531,34.646],[133.544,34.649],[133.554,34.643],[133.561,34.646],[133.561,34.659],[133.57,34.67],[133.571,34.679],[133.583,34.68],[133.594,34.687],[133.593,34.698],[133.609,34.706],[133.594,34.713],[133.587,34.71],[133.582,34.719],[133.572,34.72],[133.561,34.723],[133.555,34.733],[133.559,34.738],[133.547,34.74],[133.536,34.743],[133.527,34.739],[133.52,34.733],[133.521,34.726],[133.53,34.718],[133.517,34.709],[133.508,34.708],[133.503,34.704],[133.5,34.695],[133.49,34.696],[133.473,34.69],[133.462,34.684],[133.447,34.686],[133.438,34.69],[133.434,34.696],[133.427,34.696],[133.419,34.71],[133.413,34.714],[133.41,34.726],[133.398,34.736],[133.388,34.738],[133.384,34.743],[133.37,34.745],[133.361,34.735],[133.361,34.727],[133.369,34.724],[133.373,34.708],[133.374,34.695],[133.386,34.685],[133.385,34.678],[133.401,34.674],[133.403,34.667],[133.388,34.643],[133.387,34.636],[133.392,34.631],[133.385,34.625],[133.385,34.617],[133.396,34.605],[133.397,34.595],[133.406,34.589],[133.423,34.586],[133.423,34.579],[133.427,34.569],[133.435,34.566],[133.446,34.556],[133.449,34.543],[133.477,34.547],[133.49,34.557],[133.505,34.563],[133.505,34.579],[133.51,34.582],[133.512,34.591],[133.524,34.593],[133.529,34.6]]]]}},{"type":"Feature","properties":{"name":"総社市","code":"33208"},"geometry":{"type":"MultiPolygon","coordinates":[[[[133.74,34.768],[133.72,34.775],[133.719,34.77],[133.692,34.756],[133.689,34.745],[133.68,34.751],[133.674,34.766],[133.666,34.773],[133.661,34.782],[133.655,34.781],[133.649,34.775],[133.646,34.766],[133.636,34.759],[133.629,34.762],[133.62,34.754],[133.622,34.75],[133.6,34.735],[133.591,34.726],[133.586,34.725],[133.582,34.719],[133.587,34.71],[133.594,34.713],[133.609,34.706],[133.619,34.706],[133.626,34.702],[133.628,34.696],[133.623,34.686],[133.615,34.683],[133.617,34.663],[133.623,34.658],[133.622,34.649],[133.632,34.642],[133.645,34.647],[133.649,34.645],[133.659,34.65],[133.667,34.649],[133.669,34.654],[133.679,34.66],[133.693,34.664],[133.697,34.659],[133.711,34.656],[133.717,34.656],[133.723,34.648],[133.727,34.647],[133.726,34.631],[133.731,34.622],[133.739,34.624],[133.746,34.622],[133.757,34.631],[133.751,34.634],[133.763,34.643],[133.771,34.64],[133.78,34.644],[133.793,34.639],[133.799,34.641],[133.799,34.654],[133.801,34.663],[133.797,34.667],[133.796,34.677],[133.804,34.685],[133.792,34.699],[133.8,34.711],[133.796,34.723],[133.791,34.731],[133.773,34.742],[133.768,34.742],[133.756,34.749],[133.749,34.748],[133.74,34.762],[133.74,34.768]]]]}},{"type":"Feature","properties":{"name":"高梁市","code":"33209"},"geometry":{"type":"MultiPolygon","coordinates":[[[[133.582,34.719],[133.586,34.725],[133.591,34.726],[133.6,34.735],[133.622,34.75],[133.62,34.754],[133.629,34.762],[133.636,34.759],[133.646,34.766],[133.649,34.775],[133.655,34.781],[133.661,34.782],[133.661,34.796],[133.657,34.805],[133.648,34.814],[133.648,34.824],[133.641,34.829],[133.641,34.836],[133.648,34.848],[133.654,34.851],[133.665,34.865],[133.663,34.874],[133.681,34.882],[133.694,34.891],[133.705,34.893],[133.712,34.905],[133.718,34.909],[133.712,34.92],[133.72,34.933],[133.719,34.946],[133.714,34.953],[133.705,34.96],[133.703,34.954],[133.688,34.947],[133.681,34.952],[133.676,34.95],[133.672,34.943],[133.658,34.938],[133.648,34.941],[133.65,34.915],[133.633,34.909],[133.632,34.904],[133.619,34.9],[133.621,34.916],[133.617,34.932],[133.613,34.933],[133.604,34.946],[133.601,34.953],[133.591,34.951],[133.584,34.947],[133.59,34.936],[133.586,34.93],[133.572,34.929],[133.562,34.914],[133.57,34.898],[133.562,34.887],[133.553,34.882],[133.544,34.882],[133.536,34.877],[133.526,34.877],[133.522,34.87],[133.514,34.866],[133.496,34.874],[133.484,34.872],[133.476,34.878],[133.473,34.886],[133.465,34.877],[133.451,34.874],[133.445,34.879],[133.428,34.883],[133.425,34.887],[133.415,34.877],[133.405,34.874],[133.399,34.875],[133.393,34.87],[133.374,34.874],[133.348,34.875],[133.331,34.856],[133.333,34.841],[133.342,34.83],[133.353,34.831],[133.359,34.82],[133.368,34.819],[133.378,34.808],[133.378,34.797],[133.37,34.79],[133.372,34.78],[133.365,34.767],[133.366,34.755],[133.37,34.745],[133.384,34.743],[133.388,34.738],[133.398,34.736],[133.41,34.726],[133.413,34.714],[133.419,34.71],[133.427,34.696],[133.434,34.696],[133.438,34.69],[133.447,34.686],[133.462,34.684],[133.473,34.69],[133.49,34.696],[133.5,34.695],[133.503,34.704],[133.508,34.708],[133.517,34.709],[133.53,34.718],[133.521,34.726],[133.52,34.733],[133.527,34.739],[133.536,34.743],[133.547,34.74],[133.559,34.738],[133.555,34.733],[133.561,34.723],[133.572,34.72],[133.582,34.719]]]]}},{"type":"Feature","properties":{"name":"新見市","code":"33210"},"geometry":{"type":"MultiPolygon","coordinates":[[[[133.601,34.953],[133.607,34.959],[133.622,34.962],[133.619,34.973],[133.607,34.988],[133.608,34.994],[133.595,35.0],[133.591,34.993],[133.584,34.996],[133.587,35.005],[133.594,35.008],[133.6,35.015],[133.6,35.021],[133.588,35.025],[133.584,35.031],[133.584,35.04],[133.591,35.048],[133.585,35.055],[133.59,35.073],[133.589,35.079],[133.583,35.087],[133.576,35.091],[133.574,35.1],[133.576,35.112],[133.584,35.116],[133.586,35.128],[133.591,35.137],[133.568,35.149],[133.557,35.149],[133.539,35.151],[133.536,35.158],[133.541,35.163],[133.526,35.183],[133.519,35.183],[133.516,35.191],[133.508,35.193],[133.498,35.188],[133.485,35.186],[133.475,35.182],[133.467,35.175],[133.46,35.178],[133.457,35.173],[133.448,35.171],[133.438,35.173],[133.416,35.185],[133.407,35.186],[133.396,35.181],[133.393,35.169],[133.399,35.164],[133.4,35.153],[133.405,35.143],[133.411,35.139],[133.412,35.121],[133.403,35.114],[133.387,35.113],[133.379,35.115],[133.367,35.11],[133.355,35.101],[133.347,35.106],[133.338,35.107],[133.328,35.095],[133.319,35.094],[133.299,35.104],[133.291,35.1],[133.288,35.096],[133.291,35.084],[133.291,35.071],[133.283,35.066],[133.277,35.066],[133.267,35.052],[133.274,35.045],[133.285,35.041],[133.303,35.021],[133.305,35.015],[133.316,35.012],[133.321,35.004],[133.319,34.998],[133.322,34.988],[133.313,34.98],[133.311,34.975],[133.303,34.972],[133.305,34.965],[133.297,34.956],[133.309,34.937],[133.302,34.929],[133.305,34.922],[133.303,34.913],[133.296,34.904],[133.298,34.889],[133.306,34.882],[133.309,34.874],[133.317,34.867],[133.324,34.864],[133.323,34.859],[133.331,34.856],[133.348,34.875],[133.374,34.874],[133.393,34.87],[133.399,34.875],[133.405,34.874],[133.415,34.877],[133.425,34.887],[133.428,34.883],[133.445,34.879],[133.451,34.874],[133.465,34.877],[133.473,34.886],[133.476,34.878],[133.484,34.872],[133.496,34.874],[133.514,34.866],[133.522,34.87],[133.526,34.877],[133.536,34.877],[133.544,34.882],[133.553,34.882],[133.562,34.887],[133.57,34.898],[133.562,34.914],[133.572,34.929],[133.586,34.93],[133.59,34.936],[133.584,34.947],[133.591,34.951],[133.601,34.953]]]]}},{"type":"Feature","properties":{"name":"備前市","code":"33211"},"geometry":{"type":"MultiPolygon","coordinates":[[[[134.259,34.707],[134.25,34.696],[134.255,34.69],[134.261,34.692],[134.269,34.701],[134.259,34.707]]],[[[134.298,34.73],[134.293,34.73],[134.28,34.722],[134.275,34.713],[134.282,34.707],[134.303,34.708],[134.307,34.712],[134.313,34.704],[134.321,34.703],[134.327,34.712],[134.347,34.708],[134.339,34.72],[134.332,34.723],[134.323,34.714],[134.318,34.716],[134.311,34.727],[134.298,34.73]]],[[[134.102,34.727],[134.111,34.727],[134.108,34.713],[134.119,34.706],[134.128,34.717],[134.136,34.718],[134.144,34.726],[134.165,34.715],[134.159,34.701],[134.162,34.684],[134.175,34.685],[134.185,34.689],[134.203,34.702],[134.212,34.704],[134.222,34.703],[134.232,34.707],[134.229,34.715],[134.22,34.709],[134.206,34.711],[134.194,34.72],[134.204,34.723],[134.208,34.73],[134.229,34.731],[134.232,34.723],[134.244,34.715],[134.252,34.718],[134.269,34.719],[134.271,34.726],[134.279,34.734],[134.298,34.737],[134.315,34.732],[134.313,34.738],[134.317,34.744],[134.318,34.756],[134.322,34.762],[134.333,34.766],[134.33,34.774],[134.323,34.774],[134.316,34.781],[134.319,34.788],[134.316,34.803],[134.311,34.803],[134.307,34.811],[134.288,34.822],[134.283,34.83],[134.266,34.826],[134.262,34.831],[134.265,34.837],[134.261,34.847],[134.255,34.849],[134.254,34.857],[134.267,34.875],[134.269,34.889],[134.278,34.895],[134.289,34.898],[134.295,34.907],[134.284,34.917],[134.284,34.921],[134.275,34.924],[134.276,34.93],[134.263,34.938],[134.254,34.939],[134.254,34.946],[134.236,34.937],[134.236,34.93],[134.226,34.924],[134.226,34.91],[134.224,34.907],[134.205,34.91],[134.202,34.915],[134.195,34.911],[134.195,34.901],[134.2,34.894],[134.197,34.891],[134.195,34.883],[134.184,34.873],[134.18,34.86],[134.206,34.856],[134.211,34.849],[134.208,34.844],[134.212,34.837],[134.205,34.822],[134.197,34.816],[134.197,34.811],[134.191,34.8],[134.192,34.795],[134.2,34.791],[134.197,34.776],[134.202,34.767],[134.192,34.763],[134.182,34.765],[134.177,34.76],[134.155,34.76],[134.147,34.767],[134.142,34.766],[134.123,34.753],[134.12,34.748],[134.106,34.742],[134.102,34.727]]]]}},{"type":"Feature","properties":{"name":"瀬戸内市","code":"33212"},"geometry":{"type":"MultiPolygon","coordinates":[[[[134.199,34.617],[134.188,34.615],[134.178,34.609],[134.168,34.61],[134.168,34.602],[134.184,34.606],[134.195,34.607],[134.199,34.617]]],[[[134.242,34.678],[134.229,34.679],[134.218,34.676],[134.225,34.668],[134.237,34.673],[134.242,34.678]]],[[[134.257,34.687],[134.244,34.681],[134.256,34.68],[134.257,34.687]]],[[[134.112,34.588],[134.118,34.59],[134.128,34.599],[134.138,34.6],[134.134,34.608],[134.141,34.608],[134.154,34.615],[134.162,34.616],[134.167,34.613],[134.173,34.617],[134.179,34.632],[134.175,34.634],[134.172,34.65],[134.177,34.654],[134.189,34.651],[134.195,34.658],[134.193,34.665],[134.203,34.664],[134.207,34.67],[134.218,34.676],[134.228,34.688],[134.235,34.692],[134.238,34.698],[134.245,34.701],[134.229,34.715],[134.232,34.707],[134.222,34.703],[134.212,34.704],[134.203,34.702],[134.185,34.689],[134.175,34.685],[134.162,34.684],[134.159,34.701],[134.165,34.715],[134.144,34.726],[134.136,34.718],[134.128,34.717],[134.119,34.706],[134.108,34.713],[134.111,34.727],[134.102,34.727],[134.093,34.714],[134.083,34.706],[134.084,34.699],[134.078,34.682],[134.073,34.677],[134.06,34.67],[134.052,34.659],[134.058,34.652],[134.067,34.648],[134.077,34.65],[134.073,34.638],[134.08,34.632],[134.086,34.633],[134.101,34.64],[134.116,34.627],[134.11,34.606],[134.113,34.601],[134.112,34.588]]]]}},{"type":"Feature","properties":{"name":"赤磐市","code":"33213"},"geometry":{"type":"MultiPolygon","coordinates":[[[[133.994,34.72],[134.0,34.726],[134.029,34.738],[134.035,34.744],[134.045,34.749],[134.051,34.761],[134.049,34.767],[134.058,34.768],[134.065,34.78],[134.081,34.783],[134.087,34.782],[134.093,34.77],[134.09,34.763],[134.109,34.761],[134.119,34.757],[134.123,34.753],[134.142,34.766],[134.147,34.767],[134.152,34.772],[134.15,34.784],[134.134,34.793],[134.119,34.794],[134.109,34.802],[134.101,34.803],[134.09,34.812],[134.088,34.821],[134.065,34.828],[134.061,34.825],[134.055,34.833],[134.046,34.828],[134.039,34.833],[134.039,34.843],[134.045,34.849],[134.043,34.858],[134.054,34.857],[134.06,34.854],[134.077,34.863],[134.081,34.875],[134.096,34.876],[134.104,34.881],[134.093,34.885],[134.098,34.893],[134.095,34.897],[134.085,34.897],[134.093,34.906],[134.1,34.919],[134.099,34.923],[134.088,34.929],[134.091,34.936],[134.086,34.943],[134.073,34.941],[134.067,34.937],[134.059,34.939],[134.052,34.937],[134.041,34.943],[134.034,34.944],[134.025,34.951],[134.016,34.938],[134.012,34.921],[134.001,34.902],[134.004,34.896],[133.999,34.891],[133.988,34.887],[133.979,34.886],[133.976,34.88],[133.964,34.874],[133.955,34.873],[133.961,34.868],[133.968,34.853],[133.978,34.847],[133.982,34.855],[133.994,34.85],[133.993,34.841],[133.988,34.836],[133.991,34.827],[133.987,34.818],[133.986,34.807],[133.974,34.803],[133.962,34.786],[133.97,34.784],[133.981,34.779],[133.977,34.769],[133.986,34.761],[133.971,34.749],[133.984,34.739],[133.987,34.733],[133.994,34.727],[133.994,34.72]]]]}},{"type":"Feature","properties":{"name":"真庭市","code":"33214"},"geometry":{"type":"MultiPolygon","coordinates":[[[[133.846,35.102],[133.844,35.117],[133.835,35.121],[133.834,35.126],[133.822,35.127],[133.817,35.132],[133.803,35.132],[133.793,35.138],[133.782,35.148],[133.781,35.153],[133.77,35.156],[133.77,35.171],[133.779,35.176],[133.777,35.181],[133.78,35.189],[133.778,35.197],[133.773,35.206],[133.781,35.213],[133.779,35.222],[133.8,35.214],[133.808,35.22],[133.817,35.219],[133.81,35.229],[133.814,35.231],[133.821,35.242],[133.818,35.253],[133.815,35.265],[133.808,35.27],[133.809,35.277],[133.801,35.285],[133.8,35.293],[133.793,35.293],[133.776,35.3],[133.767,35.309],[133.757,35.308],[133.751,35.311],[133.749,35.317],[133.727,35.317],[133.717,35.32],[133.709,35.325],[133.696,35.327],[133.692,35.321],[133.677,35.319],[133.674,35.323],[133.666,35.324],[133.649,35.336],[133.632,35.34],[133.622,35.337],[133.618,35.34],[133.606,35.341],[133.597,35.345],[133.589,35.338],[133.592,35.331],[133.577,35.314],[133.576,35.301],[133.578,35.297],[133.571,35.287],[133.569,35.277],[133.572,35.273],[133.567,35.266],[133.567,35.256],[133.576,35.252],[133.581,35.247],[133.593,35.244],[133.592,35.236],[133.6,35.225],[133.597,35.215],[133.606,35.206],[133.608,35.195],[133.606,35.185],[133.589,35.184],[133.588,35.176],[133.582,35.173],[133.582,35.164],[133.586,35.158],[133.577,35.15],[133.568,35.149],[133.591,35.137],[133.586,35.128],[133.584,35.116],[133.576,35.112],[133.574,35.1],[133.576,35.091],[133.583,35.087],[133.589,35.079],[133.59,35.073],[133.585,35.055],[133.591,35.048],[133.584,35.04],[133.584,35.031],[133.588,35.025],[133.6,35.021],[133.6,35.015],[133.594,35.008],[133.587,35.005],[133.584,34.996],[133.591,34.993],[133.595,35.0],[133.608,34.994],[133.607,34.988],[133.619,34.973],[133.622,34.962],[133.607,34.959],[133.601,34.953],[133.604,34.946],[133.613,34.933],[133.617,34.932],[133.621,34.916],[133.619,34.9],[133.632,34.904],[133.633,34.909],[133.65,34.915],[133.648,34.941],[133.658,34.938],[133.672,34.943],[133.676,34.95],[133.681,34.952],[133.688,34.947],[133.703,34.954],[133.705,34.96],[133.717,34.955],[133.724,34.949],[133.734,34.95],[133.742,34.946],[133.75,34.946],[133.755,34.952],[133.762,34.952],[133.771,34.96],[133.781,34.961],[133.799,34.959],[133.801,34.953],[133.809,34.951],[133.808,34.959],[133.802,34.966],[133.804,34.978],[133.794,34.983],[133.787,34.989],[133.786,35.003],[133.79,35.01],[133.785,35.02],[133.802,35.022],[133.805,35.026],[133.819,35.036],[133.817,35.042],[133.826,35.045],[133.823,35.047],[133.824,35.059],[133.822,35.066],[133.829,35.077],[133.835,35.082],[133.832,35.088],[133.837,35.099],[133.846,35.102]]]]}},{"type":"Feature","properties":{"name":"美作市","code":"33215"},"geometry":{"type":"MultiPolygon","coordinates":[[[[134.254,34.946],[134.26,34.952],[134.277,34.963],[134.277,34.976],[134.271,34.984],[134.278,34.987],[134.282,34.997],[134.279,35.001],[134.266,35.005],[134.264,35.017],[134.268,35.022],[134.275,35.023],[134.282,35.034],[134.298,35.043],[134.305,35.04],[134.308,35.046],[134.316,35.043],[134.315,35.061],[134.321,35.067],[134.319,35.083],[134.337,35.089],[134.35,35.09],[134.355,35.099],[134.352,35.111],[134.361,35.12],[134.356,35.125],[134.363,35.136],[134.362,35.14],[134.367,35.147],[134.383,35.152],[134.397,35.152],[134.407,35.147],[134.413,35.159],[134.406,35.166],[134.413,35.178],[134.411,35.187],[134.4,35.188],[134.395,35.191],[134.383,35.194],[134.379,35.187],[134.369,35.178],[134.36,35.174],[134.355,35.165],[134.346,35.161],[134.339,35.148],[134.335,35.145],[134.32,35.148],[134.302,35.157],[134.294,35.158],[134.287,35.173],[134.289,35.177],[134.283,35.182],[134.281,35.197],[134.269,35.204],[134.261,35.21],[134.254,35.208],[134.25,35.201],[134.228,35.197],[134.222,35.19],[134.217,35.189],[134.222,35.174],[134.222,35.165],[134.229,35.156],[134.229,35.149],[134.224,35.137],[134.231,35.131],[134.226,35.117],[134.231,35.11],[134.222,35.107],[134.215,35.1],[134.199,35.1],[134.19,35.098],[134.19,35.093],[134.183,35.089],[134.176,35.092],[134.17,35.077],[134.183,35.068],[134.177,35.062],[134.179,35.054],[134.176,35.045],[134.172,35.044],[134.156,35.047],[134.137,35.049],[134.14,35.022],[134.122,35.019],[134.111,35.015],[134.1,35.017],[134.088,35.012],[134.09,35.0],[134.086,34.995],[134.087,34.988],[134.094,34.987],[134.1,34.996],[134.1,34.975],[134.105,34.972],[134.1,34.966],[134.092,34.965],[134.094,34.955],[134.101,34.954],[134.108,34.943],[134.122,34.935],[134.112,34.933],[134.109,34.925],[134.102,34.923],[134.111,34.911],[134.12,34.916],[134.127,34.914],[134.125,34.908],[134.124,34.891],[134.139,34.887],[134.154,34.888],[134.161,34.881],[134.166,34.881],[134.172,34.899],[134.186,34.897],[134.192,34.89],[134.197,34.891],[134.2,34.894],[134.195,34.901],[134.195,34.911],[134.202,34.915],[134.205,34.91],[134.224,34.907],[134.226,34.91],[134.226,34.924],[134.236,34.93],[134.236,34.937],[134.254,34.946]]]]}},{"type":"Feature","properties":{"name":"浅口市","code":"33216"},"geometry":{"type":"MultiPolygon","coordinates":[[[[133.623,34.58],[133.61,34.574],[133.601,34.577],[133.595,34.577],[133.583,34.583],[133.585,34.59],[133.578,34.59],[133.57,34.585],[133.561,34.568],[133.559,34.556],[133.544,34.545],[133.543,34.536],[133.55,34.528],[133.561,34.531],[133.56,34.538],[133.568,34.536],[133.573,34.53],[133.581,34.534],[133.584,34.528],[133.575,34.525],[133.577,34.517],[133.569,34.514],[133.563,34.506],[133.568,34.498],[133.56,34.494],[133.568,34.486],[133.573,34.466],[133.579,34.471],[133.592,34.471],[133.596,34.476],[133.589,34.482],[133.594,34.491],[133.604,34.495],[133.603,34.501],[133.608,34.506],[133.623,34.513],[133.623,34.519],[133.629,34.521],[133.641,34.539],[133.649,34.545],[133.643,34.548],[133.648,34.557],[133.64,34.561],[133.637,34.569],[133.623,34.58]]]]}},{"type":"Feature","properties":{"name":"和気郡和気町","code":"33346"},"geometry":{"type":"MultiPolygon","coordinates":[[[[134.197,34.891],[134.192,34.89],[134.186,34.897],[134.172,34.899],[134.166,34.881],[134.161,34.881],[134.154,34.888],[134.139,34.887],[134.124,34.891],[134.125,34.908],[134.127,34.914],[134.12,34.916],[134.111,34.911],[134.102,34.923],[134.099,34.923],[134.1,34.919],[134.093,34.906],[134.085,34.897],[134.095,34.897],[134.098,34.893],[134.093,34.885],[134.104,34.881],[134.096,34.876],[134.081,34.875],[134.077,34.863],[134.06,34.854],[134.054,34.857],[134.043,34.858],[134.045,34.849],[134.039,34.843],[134.039,34.833],[134.046,34.828],[134.055,34.833],[134.061,34.825],[134.065,34.828],[134.088,34.821],[134.09,34.812],[134.101,34.803],[134.109,34.802],[134.119,34.794],[134.134,34.793],[134.15,34.784],[134.152,34.772],[134.147,34.767],[134.155,34.76],[134.177,34.76],[134.182,34.765],[134.192,34.763],[134.202,34.767],[134.197,34.776],[134.2,34.791],[134.192,34.795],[134.191,34.8],[134.197,34.811],[134.197,34.816],[134.205,34.822],[134.212,34.837],[134.208,34.844],[134.211,34.849],[134.206,34.856],[134.18,34.86],[134.184,34.873],[134.195,34.883],[134.197,34.891]]]]}},{"type":"Feature","properties":{"name":"都窪郡早島町","code":"33423"},"geometry":{"type":"MultiPolygon","coordinates":[[[[133.83,34.628],[133.818,34.621],[133.814,34.613],[133.802,34.609],[133.805,34.6],[133.824,34.596],[133.828,34.592],[133.838,34.599],[133.834,34.612],[133.836,34.62],[133.83,34.628]]]]}},{"type":"Feature","properties":{"name":"浅口郡里庄町","code":"33445"},"geometry":{"type":"MultiPolygon","coordinates":[[[[133.56,34.494],[133.568,34.498],[133.563,34.506],[133.569,34.514],[133.577,34.517],[133.575,34.525],[133.584,34.528],[133.581,34.534],[133.573,34.53],[133.568,34.536],[133.56,34.538],[133.561,34.531],[133.55,34.528],[133.544,34.511],[133.538,34.509],[133.53,34.497],[133.546,34.492],[133.56,34.494]]]]}},{"type":"Feature","properties":{"name":"小田郡矢掛町","code":"33461"},"geometry":{"type":"MultiPolygon","coordinates":[[[[133.632,34.642],[133.622,34.649],[133.623,34.658],[133.617,34.663],[133.615,34.683],[133.623,34.686],[133.628,34.696],[133.626,34.702],[133.619,34.706],[133.609,34.706],[133.593,34.698],[133.594,34.687],[133.583,34.68],[133.571,34.679],[133.57,34.67],[133.561,34.659],[133.561,34.646],[133.554,34.643],[133.544,34.649],[133.531,34.646],[133.536,34.641],[133.534,34.63],[133.526,34.632],[133.519,34.63],[133.527,34.622],[133.532,34.608],[133.529,34.6],[133.545,34.603],[133.552,34.6],[133.555,34.594],[133.564,34.587],[133.57,34.585],[133.578,34.59],[133.585,34.59],[133.583,34.583],[133.595,34.577],[133.601,34.577],[133.61,34.574],[133.623,34.58],[133.632,34.584],[133.649,34.596],[133.639,34.606],[133.633,34.623],[133.634,34.638],[133.632,34.642]]]]}},{"type":"Feature","properties":{"name":"真庭郡新庄村","code":"33586"},"geometry":{"type":"MultiPolygon","coordinates":[[[[133.568,35.149],[133.577,35.15],[133.586,35.158],[133.582,35.164],[133.582,35.173],[133.588,35.176],[133.589,35.184],[133.606,35.185],[133.608,35.195],[133.606,35.206],[133.597,35.215],[133.6,35.225],[133.592,35.236],[133.593,35.244],[133.581,35.247],[133.576,35.252],[133.567,35.256],[133.555,35.242],[133.546,35.244],[133.535,35.237],[133.517,35.241],[133.514,35.235],[133.506,35.228],[133.515,35.221],[133.522,35.211],[133.521,35.206],[133.529,35.187],[133.526,35.183],[133.541,35.163],[133.536,35.158],[133.539,35.151],[133.557,35.149],[133.568,35.149]]]]}},{"type":"Feature","properties":{"name":"苫田郡鏡野町","code":"33606"},"geometry":{"type":"MultiPolygon","coordinates":[[[[134.03,35.305],[134.008,35.308],[133.999,35.315],[134.004,35.325],[134.015,35.334],[134.011,35.34],[134.016,35.349],[133.998,35.353],[133.98,35.343],[133.97,35.348],[133.954,35.341],[133.945,35.333],[133.937,35.336],[133.932,35.333],[133.928,35.322],[133.932,35.318],[133.925,35.307],[133.907,35.307],[133.881,35.294],[133.862,35.292],[133.865,35.286],[133.863,35.277],[133.866,35.272],[133.856,35.268],[133.844,35.253],[133.832,35.249],[133.818,35.253],[133.821,35.242],[133.814,35.231],[133.81,35.229],[133.817,35.219],[133.808,35.22],[133.8,35.214],[133.779,35.222],[133.781,35.213],[133.773,35.206],[133.778,35.197],[133.78,35.189],[133.777,35.181],[133.779,35.176],[133.77,35.171],[133.77,35.156],[133.781,35.153],[133.782,35.148],[133.793,35.138],[133.803,35.132],[133.817,35.132],[133.822,35.127],[133.834,35.126],[133.835,35.121],[133.844,35.117],[133.846,35.102],[133.855,35.105],[133.868,35.102],[133.874,35.086],[133.88,35.081],[133.896,35.08],[133.913,35.067],[133.922,35.063],[133.937,35.063],[133.944,35.071],[133.943,35.085],[133.949,35.088],[133.956,35.103],[133.963,35.107],[133.963,35.116],[133.968,35.124],[133.969,35.137],[133.975,35.143],[133.974,35.151],[133.978,35.159],[133.984,35.161],[133.988,35.172],[133.996,35.178],[133.998,35.201],[133.997,35.218],[134.001,35.225],[134.012,35.231],[134.004,35.241],[134.0,35.256],[134.005,35.257],[134.01,35.264],[134.017,35.267],[134.022,35.274],[134.019,35.29],[134.025,35.296],[134.03,35.305]]]]}},{"type":"Feature","properties":{"name":"勝田郡勝央町","code":"33622"},"geometry":{"type":"MultiPolygon","coordinates":[[[[134.084,35.019],[134.088,35.012],[134.1,35.017],[134.111,35.015],[134.122,35.019],[134.137,35.019],[134.137,35.049],[134.156,35.047],[134.172,35.044],[134.176,35.045],[134.179,35.054],[134.177,35.062],[134.183,35.068],[134.17,35.077],[134.176,35.092],[134.166,35.095],[134.151,35.095],[134.146,35.103],[134.131,35.103],[134.109,35.084],[134.104,35.084],[134.101,35.07],[134.105,35.067],[134.102,35.051],[134.092,35.054],[134.083,35.051],[134.084,35.04],[134.082,35.036],[134.084,35.019]]]]}},{"type":"Feature","properties":{"name":"勝田郡奈義町","code":"33623"},"geometry":{"type":"MultiPolygon","coordinates":[[[[134.131,35.103],[134.146,35.103],[134.151,35.095],[134.166,35.095],[134.176,35.092],[134.183,35.089],[134.19,35.093],[134.19,35.098],[134.199,35.1],[134.215,35.1],[134.222,35.107],[134.231,35.11],[134.226,35.117],[134.231,35.131],[134.224,35.137],[134.229,35.149],[134.229,35.156],[134.222,35.165],[134.222,35.174],[134.217,35.189],[134.213,35.191],[134.193,35.189],[134.19,35.176],[134.178,35.169],[134.168,35.172],[134.15,35.167],[134.143,35.157],[134.143,35.141],[134.137,35.123],[134.134,35.117],[134.131,35.103]]]]}},{"type":"Feature","properties":{"name":"英田郡西粟倉村","code":"33643"},"geometry":{"type":"MultiPolygon","coordinates":[[[[134.383,35.194],[134.381,35.206],[134.383,35.222],[134.397,35.228],[134.403,35.241],[134.402,35.246],[134.39,35.252],[134.373,35.246],[134.375,35.237],[134.369,35.232],[134.355,35.227],[134.35,35.223],[134.337,35.219],[134.335,35.213],[134.323,35.203],[134.314,35.201],[134.299,35.202],[134.281,35.197],[134.283,35.182],[134.289,35.177],[134.287,35.173],[134.294,35.158],[134.302,35.157],[134.32,35.148],[134.335,35.145],[134.339,35.148],[134.346,35.161],[134.355,35.165],[134.36,35.174],[134.369,35.178],[134.379,35.187],[134.383,35.194]]]]}},{"type":"Feature","properties":{"name":"久米郡久米南町","code":"33663"},"geometry":{"type":"MultiPolygon","coordinates":[[[[133.955,34.873],[133.964,34.874],[133.976,34.88],[133.979,34.886],[133.988,34.887],[133.999,34.891],[134.004,34.896],[134.001,34.902],[134.012,34.921],[134.016,34.938],[134.008,34.937],[134.003,34.942],[134.004,34.965],[133.987,34.963],[133.978,34.964],[133.964,34.96],[133.95,34.964],[133.935,34.974],[133.934,34.966],[133.927,34.964],[133.922,34.951],[133.91,34.944],[133.906,34.938],[133.909,34.927],[133.901,34.923],[133.906,34.918],[133.894,34.91],[133.903,34.901],[133.909,34.907],[133.922,34.901],[133.931,34.888],[133.938,34.884],[133.928,34.875],[133.937,34.871],[133.955,34.873]]]]}},{"type":"Feature","properties":{"name":"久米郡美咲町","code":"33666"},"geometry":{"type":"MultiPolygon","coordinates":[[[[133.91,34.944],[133.922,34.951],[133.927,34.964],[133.934,34.966],[133.935,34.974],[133.95,34.964],[133.964,34.96],[133.978,34.964],[133.987,34.963],[134.004,34.965],[134.003,34.942],[134.008,34.937],[134.016,34.938],[134.025,34.951],[134.034,34.944],[134.041,34.943],[134.052,34.937],[134.059,34.939],[134.067,34.937],[134.073,34.941],[134.086,34.943],[134.091,34.936],[134.088,34.929],[134.099,34.923],[134.102,34.923],[134.109,34.925],[134.112,34.933],[134.122,34.935],[134.108,34.943],[134.101,34.954],[134.094,34.955],[134.092,34.965],[134.1,34.966],[134.105,34.972],[134.1,34.975],[134.1,34.996],[134.094,34.987],[134.087,34.988],[134.086,34.995],[134.09,35.0],[134.088,35.012],[134.084,35.019],[134.077,35.025],[134.061,35.021],[134.058,35.025],[134.046,35.026],[134.033,35.013],[134.04,35.002],[134.032,35.002],[134.025,35.006],[134.017,35.006],[134.01,35.015],[134.005,35.016],[133.998,35.023],[133.988,35.027],[133.977,35.02],[133.971,35.011],[133.963,35.012],[133.951,35.009],[133.948,35.018],[133.95,35.029],[133.955,35.035],[133.957,35.045],[133.935,35.042],[133.938,35.03],[133.93,35.014],[133.92,35.01],[133.919,35.004],[133.91,34.999],[133.909,34.994],[133.896,34.984],[133.885,34.994],[133.878,34.992],[133.877,34.999],[133.872,35.007],[133.88,35.014],[133.877,35.027],[133.877,35.037],[133.874,35.042],[133.865,35.042],[133.843,35.038],[133.835,35.047],[133.826,35.045],[133.817,35.042],[133.819,35.036],[133.805,35.026],[133.802,35.022],[133.785,35.02],[133.79,35.01],[133.786,35.003],[133.787,34.989],[133.794,34.983],[133.804,34.978],[133.805,34.969],[133.808,34.959],[133.809,34.951],[133.801,34.953],[133.799,34.959],[133.781,34.961],[133.771,34.96],[133.762,34.952],[133.766,34.937],[133.775,34.933],[133.793,34.929],[133.798,34.933],[133.799,34.939],[133.807,34.94],[133.811,34.946],[133.822,34.953],[133.831,34.952],[133.836,34.945],[133.844,34.945],[133.85,34.934],[133.854,34.945],[133.861,34.944],[133.864,34.937],[133.875,34.94],[133.883,34.948],[133.888,34.944],[133.91,34.944]]]]}},{"type":"Feature","properties":{"name":"加賀郡吉備中央町","code":"33681"},"geometry":{"type":"MultiPolygon","coordinates":[[[[133.85,34.934],[133.844,34.945],[133.836,34.945],[133.831,34.952],[133.822,34.953],[133.811,34.946],[133.807,34.94],[133.799,34.939],[133.798,34.933],[133.793,34.929],[133.775,34.933],[133.766,34.937],[133.762,34.952],[133.755,34.952],[133.75,34.946],[133.742,34.946],[133.734,34.95],[133.724,34.949],[133.717,34.955],[133.719,34.946],[133.72,34.933],[133.712,34.92],[133.718,34.909],[133.712,34.905],[133.705,34.893],[133.694,34.891],[133.681,34.882],[133.663,34.874],[133.665,34.865],[133.654,34.851],[133.648,34.848],[133.641,34.836],[133.641,34.829],[133.648,34.824],[133.648,34.814],[133.657,34.805],[133.661,34.796],[133.661,34.782],[133.666,34.773],[133.674,34.766],[133.68,34.751],[133.689,34.745],[133.692,34.756],[133.719,34.77],[133.72,34.775],[133.74,34.768],[133.753,34.786],[133.773,34.786],[133.774,34.797],[133.781,34.809],[133.789,34.814],[133.799,34.815],[133.808,34.808],[133.819,34.807],[133.818,34.835],[133.828,34.842],[133.843,34.845],[133.848,34.854],[133.843,34.869],[133.85,34.879],[133.848,34.884],[133.857,34.895],[133.865,34.896],[133.878,34.903],[133.874,34.907],[133.867,34.905],[133.859,34.912],[133.85,34.916],[133.847,34.922],[133.852,34.927],[133.85,34.934]]]]}}]}