{"type":"FeatureCollection","features":[{"type":"Feature","properties":{"name":"広島市中区","code":"34101"},"geometry":{"type":"MultiPolygon","coordinates":[[[[132.425,34.366],[132.423,34.363],[132.42,34.359],[132.437,34.353],[132.446,34.357],[132.459,34.369],[132.463,34.378],[132.47,34.387],[132.471,34.397],[132.468,34.404],[132.465,34.413],[132.462,34.415],[132.459,34.409],[132.452,34.405],[132.449,34.405],[132.443,34.399],[132.442,34.389],[132.438,34.384],[132.425,34.366]]]]}},{"type":"Feature","properties":{"name":"広島市東区","code":"34102"},"geometry":{"type":"MultiPolygon","coordinates":[[[[132.468,34.404],[132.481,34.395],[132.492,34.394],[132.5,34.389],[132.496,34.395],[132.504,34.404],[132.514,34.407],[132.517,34.414],[132.531,34.421],[132.541,34.418],[132.547,34.422],[132.567,34.43],[132.572,34.436],[132.567,34.439],[132.563,34.445],[132.563,34.452],[132.553,34.458],[132.551,34.463],[132.544,34.461],[132.532,34.462],[132.528,34.456],[132.526,34.448],[132.517,34.449],[132.511,34.445],[132.506,34.447],[132.497,34.44],[132.49,34.443],[132.475,34.436],[132.464,34.426],[132.462,34.415],[132.465,34.413],[132.47,34.406]]]]}},{"type":"Feature","properties":{"name":"広島市南区","code":"34103"},"geometry":{"type":"MultiPolygon","coordinates":[[[[132.441,34.326],[132.433,34.32],[132.434,34.315],[132.424,34.303],[132.432,34.298],[132.442,34.302],[132.446,34.318],[132.444,34.325],[132.441,34.326]]],[[[132.481,34.347],[132.477,34.346],[132.481,34.331],[132.487,34.336],[132.486,34.344],[132.481,34.347]]],[[[132.46,34.352],[132.459,34.344],[132.465,34.342],[132.463,34.35]]],[[[132.437,34.353],[132.438,34.346],[132.444,34.341],[132.45,34.341],[132.449,34.347],[132.452,34.353],[132.469,34.353],[132.479,34.357],[132.483,34.354],[132.492,34.353],[132.496,34.357],[132.506,34.356],[132.518,34.365],[132.515,34.37],[132.516,34.375],[132.501,34.376],[132.5,34.389],[132.492,34.394],[132.481,34.395],[132.468,34.404],[132.471,34.397],[132.47,34.387],[132.463,34.378],[132.459,34.369],[132.446,34.357],[132.437,34.353]]]]}},{"type":"Feature","properties":{"name":"広島市西区","code":"34104"},"geometry":{"type":"MultiPolygon","coordinates":[[[[132.462,34.415],[132.464,34.426],[132.455,34.424],[132.451,34.426],[132.442,34.423],[132.421,34.429],[132.415,34.425],[132.414,34.421],[132.408,34.414],[132.406,34.407],[132.402,34.403],[132.391,34.409],[132.383,34.403],[132.382,34.4],[132.393,34.395],[132.387,34.389],[132.387,34.384],[132.38,34.385],[132.371,34.378],[132.371,34.37],[132.378,34.361],[132.397,34.363],[132.413,34.357],[132.42,34.359],[132.423,34.363],[132.425,34.366],[132.438,34.384],[132.442,34.389],[132.443,34.399],[132.449,34.405],[132.452,34.405],[132.459,34.409],[132.462,34.415]]]]}},{"type":"Feature","properties":{"name":"広島市安佐南区","code":"34105"},"geometry":{"type":"MultiPolygon","coordinates":[[[[132.49,34.443],[132.488,34.452],[132.496,34.473],[132.51,34.486],[132.511,34.5],[132.508,34.508],[132.502,34.514],[132.497,34.515],[132.487,34.512],[132.487,34.504],[132.482,34.502],[132.486,34.491],[132.483,34.488],[132.472,34.488],[132.457,34.491],[132.452,34.495],[132.449,34.493],[132.432,34.497],[132.423,34.494],[132.423,34.489],[132.409,34.488],[132.403,34.485],[132.389,34.487],[132.387,34.491],[132.391,34.505],[132.38,34.511],[132.38,34.515],[132.348,34.516],[132.344,34.52],[132.341,34.515],[132.343,34.511],[132.342,34.499],[132.336,34.493],[132.329,34.49],[132.331,34.486],[132.324,34.481],[132.317,34.478],[132.309,34.477],[132.308,34.474],[132.314,34.469],[132.315,34.463],[132.31,34.457],[132.32,34.451],[132.332,34.438],[132.339,34.441],[132.351,34.44],[132.359,34.443],[132.359,34.449],[132.366,34.448],[132.377,34.448],[132.378,34.445],[132.389,34.446],[132.387,34.44],[132.388,34.434],[132.395,34.435],[132.4,34.431],[132.414,34.429],[132.415,34.425],[132.421,34.429],[132.442,34.423],[132.451,34.426],[132.455,34.424],[132.464,34.426],[132.475,34.436],[132.49,34.443]]]]}},{"type":"Feature","properties":{"name":"広島市安佐北区","code":"34106"},"geometry":{"type":"MultiPolygon","coordinates":[[[[132.572,34.436],[132.577,34.443],[132.585,34.448],[132.594,34.452],[132.601,34.457],[132.603,34.468],[132.606,34.472],[132.607,34.481],[132.601,34.483],[132.603,34.487],[132.609,34.49],[132.619,34.491],[132.628,34.498],[132.633,34.507],[132.644,34.505],[132.649,34.515],[132.656,34.523],[132.663,34.527],[132.665,34.532],[132.674,34.53],[132.684,34.527],[132.693,34.529],[132.696,34.536],[132.687,34.541],[132.692,34.546],[132.688,34.557],[132.69,34.562],[132.683,34.566],[132.686,34.572],[132.694,34.584],[132.693,34.59],[132.679,34.604],[132.672,34.607],[132.665,34.607],[132.654,34.6],[132.646,34.602],[132.632,34.597],[132.624,34.6],[132.62,34.599],[132.614,34.601],[132.609,34.596],[132.61,34.592],[132.608,34.586],[132.596,34.585],[132.59,34.582],[132.591,34.575],[132.578,34.564],[132.573,34.563],[132.569,34.573],[132.566,34.572],[132.561,34.577],[132.551,34.578],[132.544,34.584],[132.539,34.583],[132.531,34.588],[132.525,34.606],[132.519,34.607],[132.512,34.596],[132.499,34.594],[132.498,34.599],[132.488,34.606],[132.481,34.606],[132.48,34.612],[132.472,34.615],[132.464,34.614],[132.457,34.603],[132.45,34.6],[132.439,34.592],[132.431,34.597],[132.426,34.603],[132.421,34.603],[132.415,34.599],[132.405,34.602],[132.4,34.604],[132.395,34.599],[132.39,34.592],[132.392,34.585],[132.387,34.583],[132.388,34.573],[132.39,34.562],[132.375,34.548],[132.368,34.545],[132.367,34.54],[132.36,34.538],[132.352,34.531],[132.344,34.527],[132.344,34.52],[132.348,34.516],[132.38,34.515],[132.38,34.511],[132.391,34.505],[132.387,34.491],[132.389,34.487],[132.403,34.485],[132.409,34.488],[132.423,34.489],[132.423,34.494],[132.432,34.497],[132.449,34.493],[132.452,34.495],[132.457,34.491],[132.472,34.488],[132.483,34.488],[132.486,34.491],[132.482,34.502],[132.487,34.504],[132.487,34.512],[132.497,34.515],[132.502,34.514],[132.508,34.508],[132.511,34.5],[132.51,34.486],[132.496,34.473],[132.488,34.452],[132.49,34.443],[132.497,34.44],[132.506,34.447],[132.511,34.445],[132.517,34.449],[132.526,34.448],[132.528,34.456],[132.532,34.462],[132.544,34.461],[132.551,34.463],[132.553,34.458],[132.563,34.452],[132.563,34.445],[132.567,34.439],[132.572,34.436]]]]}},{"type":"Feature","properties":{"name":"広島市安芸区","code":"34107"},"geometry":{"type":"MultiPolygon","coordinates":[[[[132.519,34.357],[132.523,34.342],[132.53,34.334],[132.534,34.316],[132.554,34.313],[132.557,34.323],[132.552,34.332],[132.551,34.34],[132.554,34.344],[132.549,34.357],[132.539,34.362],[132.538,34.358],[132.528,34.36],[132.519,34.357]]],[[[132.541,34.418],[132.536,34.41],[132.528,34.393],[132.528,34.388],[132.524,34.387],[132.515,34.378],[132.515,34.37],[132.518,34.365],[132.527,34.368],[132.531,34.376],[132.546,34.386],[132.558,34.385],[132.567,34.382],[132.566,34.376],[132.579,34.374],[132.581,34.381],[132.592,34.38],[132.598,34.378],[132.601,34.38],[132.614,34.375],[132.623,34.373],[132.631,34.362],[132.628,34.353],[132.643,34.353],[132.644,34.362],[132.651,34.365],[132.654,34.369],[132.65,34.377],[132.649,34.384],[132.644,34.389],[132.646,34.396],[132.64,34.399],[132.644,34.413],[132.652,34.422],[132.66,34.423],[132.666,34.428],[132.664,34.437],[132.655,34.443],[132.647,34.438],[132.642,34.442],[132.636,34.443],[132.633,34.45],[132.624,34.446],[132.615,34.447],[132.614,34.451],[132.608,34.457],[132.601,34.457],[132.594,34.452],[132.585,34.448],[132.577,34.443],[132.572,34.436],[132.567,34.43],[132.547,34.422],[132.541,34.418]]]]}},{"type":"Feature","properties":{"name":"広島市佐伯区","code":"34108"},"geometry":{"type":"MultiPolygon","coordinates":[[[[132.415,34.425],[132.414,34.429],[132.4,34.431],[132.395,34.435],[132.388,34.434],[132.387,34.44],[132.389,34.446],[132.378,34.445],[132.377,34.448],[132.366,34.448],[132.359,34.449],[132.359,34.443],[132.351,34.44],[132.339,34.441],[132.332,34.438],[132.32,34.451],[132.31,34.457],[132.315,34.463],[132.314,34.469],[132.308,34.474],[132.309,34.477],[132.317,34.478],[132.324,34.481],[132.331,34.486],[132.329,34.49],[132.336,34.493],[132.342,34.499],[132.343,34.511],[132.341,34.515],[132.344,34.52],[132.344,34.527],[132.352,34.531],[132.36,34.538],[132.364,34.547],[132.353,34.555],[132.343,34.552],[132.34,34.555],[132.331,34.555],[132.305,34.551],[132.292,34.547],[132.279,34.542],[132.27,34.535],[132.266,34.536],[132.249,34.53],[132.24,34.517],[132.242,34.51],[132.239,34.507],[132.233,34.511],[132.23,34.509],[132.215,34.514],[132.206,34.51],[132.204,34.499],[132.196,34.496],[132.189,34.498],[132.2,34.491],[132.203,34.485],[132.197,34.478],[132.193,34.468],[132.194,34.457],[132.196,34.453],[132.179,34.443],[132.191,34.435],[132.194,34.431],[132.191,34.424],[132.196,34.416],[132.218,34.416],[132.219,34.42],[132.229,34.431],[132.236,34.431],[132.245,34.423],[132.249,34.424],[132.254,34.418],[132.255,34.414],[132.281,34.41],[132.285,34.402],[132.284,34.39],[132.293,34.385],[132.3,34.384],[132.303,34.393],[132.3,34.399],[132.3,34.407],[132.305,34.414],[132.311,34.419],[132.314,34.416],[132.313,34.41],[132.317,34.406],[132.324,34.406],[132.321,34.397],[132.321,34.388],[132.317,34.381],[132.324,34.38],[132.335,34.372],[132.335,34.368],[132.342,34.366],[132.347,34.357],[132.36,34.356],[132.365,34.347],[132.377,34.352],[132.375,34.36],[132.378,34.361],[132.371,34.37],[132.371,34.378],[132.38,34.385],[132.387,34.384],[132.387,34.389],[132.393,34.395],[132.382,34.4],[132.383,34.403],[132.391,34.409],[132.402,34.403],[132.406,34.407],[132.408,34.414],[132.414,34.421],[132.415,34.425]]]]}},{"type":"Feature","properties":{"name":"呉市","code":"34202"},"geometry":{"type":"MultiPolygon","coordinates":[[[[132.533,34.074],[132.527,34.058],[132.52,34.052],[132.524,34.049],[132.534,34.047],[132.539,34.068],[132.533,34.074]]],[[[132.549,34.079],[132.541,34.069],[132.551,34.072],[132.549,34.079]]],[[[132.789,34.123],[132.786,34.114],[132.795,34.114],[132.789,34.123]]],[[[132.775,34.156],[132.77,34.156],[132.758,34.152],[132.76,34.148],[132.775,34.156]]],[[[132.671,34.16],[132.666,34.155],[132.673,34.151],[132.671,34.16]]],[[[132.578,34.168],[132.571,34.163],[132.57,34.157],[132.579,34.159],[132.578,34.168]]],[[[132.795,34.168],[132.799,34.176],[132.792,34.185],[132.787,34.189],[132.781,34.188],[132.778,34.182],[132.771,34.176],[132.772,34.161],[132.782,34.161],[132.793,34.165]]],[[[132.849,34.196],[132.843,34.192],[132.834,34.19],[132.831,34.186],[132.824,34.187],[132.819,34.183],[132.807,34.177],[132.803,34.173],[132.806,34.162],[132.801,34.159],[132.803,34.155],[132.811,34.154],[132.818,34.151],[132.827,34.153],[132.839,34.158],[132.846,34.16],[132.859,34.168],[132.869,34.177],[132.86,34.182],[132.847,34.193],[132.849,34.196]]],[[[132.82,34.195],[132.812,34.195],[132.809,34.189],[132.82,34.191],[132.82,34.195]]],[[[132.535,34.2],[132.527,34.2],[132.518,34.192],[132.508,34.189],[132.503,34.185],[132.495,34.17],[132.493,34.163],[132.493,34.154],[132.497,34.147],[132.504,34.148],[132.508,34.144],[132.504,34.133],[132.496,34.133],[132.489,34.131],[132.477,34.123],[132.472,34.118],[132.458,34.115],[132.452,34.112],[132.448,34.104],[132.448,34.094],[132.454,34.094],[132.457,34.085],[132.462,34.082],[132.472,34.088],[132.484,34.091],[132.499,34.091],[132.502,34.103],[132.506,34.104],[132.514,34.099],[132.512,34.096],[132.525,34.095],[132.533,34.104],[132.538,34.095],[132.541,34.099],[132.546,34.098],[132.543,34.091],[132.548,34.09],[132.55,34.08],[132.556,34.082],[132.568,34.097],[132.57,34.115],[132.576,34.116],[132.583,34.123],[132.574,34.127],[132.561,34.117],[132.549,34.117],[132.547,34.112],[132.54,34.11],[132.54,34.116],[132.538,34.121],[132.543,34.123],[132.547,34.129],[132.549,34.149],[132.546,34.15],[132.531,34.147],[132.53,34.153],[132.522,34.157],[132.531,34.165],[132.534,34.162],[132.54,34.164],[132.541,34.173],[132.556,34.178],[132.552,34.182],[132.553,34.187],[132.547,34.19],[132.536,34.188],[132.533,34.192],[132.538,34.199],[132.535,34.2]]],[[[132.675,34.202],[132.657,34.196],[132.649,34.186],[132.649,34.181],[132.645,34.173],[132.65,34.171],[132.657,34.176],[132.668,34.171],[132.676,34.175],[132.681,34.184],[132.684,34.188],[132.683,34.192],[132.675,34.196],[132.675,34.202]]],[[[132.712,34.204],[132.699,34.204],[132.693,34.201],[132.69,34.196],[132.686,34.183],[132.695,34.182],[132.704,34.179],[132.713,34.181],[132.717,34.173],[132.723,34.169],[132.728,34.173],[132.739,34.173],[132.744,34.164],[132.749,34.163],[132.76,34.168],[132.76,34.172],[132.765,34.177],[132.765,34.182],[132.755,34.183],[132.759,34.192],[132.753,34.194],[132.745,34.193],[132.739,34.197],[132.729,34.198],[132.721,34.197],[132.712,34.204]]],[[[132.536,34.315],[132.531,34.313],[132.53,34.305],[132.519,34.297],[132.513,34.3],[132.508,34.297],[132.509,34.293],[132.519,34.282],[132.514,34.268],[132.517,34.264],[132.515,34.257],[132.523,34.258],[132.53,34.252],[132.529,34.244],[132.535,34.244],[132.545,34.24],[132.552,34.242],[132.559,34.238],[132.548,34.229],[132.538,34.229],[132.532,34.222],[132.544,34.21],[132.538,34.196],[132.553,34.194],[132.569,34.201],[132.588,34.214],[132.594,34.213],[132.596,34.217],[132.59,34.22],[132.596,34.229],[132.606,34.227],[132.603,34.22],[132.609,34.219],[132.616,34.221],[132.615,34.215],[132.626,34.211],[132.627,34.206],[132.632,34.206],[132.638,34.203],[132.651,34.205],[132.661,34.209],[132.658,34.214],[132.66,34.218],[132.667,34.219],[132.68,34.211],[132.686,34.214],[132.685,34.222],[132.689,34.224],[132.7,34.236],[132.72,34.241],[132.728,34.24],[132.733,34.243],[132.74,34.243],[132.75,34.242],[132.754,34.239],[132.76,34.241],[132.758,34.247],[132.768,34.25],[132.772,34.253],[132.772,34.259],[132.765,34.263],[132.758,34.26],[132.76,34.268],[132.754,34.276],[132.756,34.282],[132.766,34.282],[132.785,34.277],[132.781,34.281],[132.781,34.286],[132.775,34.288],[132.771,34.287],[132.759,34.296],[132.762,34.3],[132.756,34.308],[132.756,34.32],[132.755,34.329],[132.752,34.333],[132.743,34.331],[132.74,34.327],[132.727,34.322],[132.714,34.308],[132.704,34.313],[132.691,34.303],[132.678,34.298],[132.664,34.288],[132.66,34.293],[132.65,34.311],[132.645,34.31],[132.639,34.315],[132.63,34.311],[132.622,34.313],[132.607,34.317],[132.597,34.305],[132.593,34.307],[132.587,34.315],[132.581,34.316],[132.571,34.32],[132.568,34.319],[132.565,34.325],[132.557,34.323],[132.554,34.313],[132.536,34.315]]]]}},{"type":"Feature","properties":{"name":"竹原市","code":"34203"},"geometry":{"type":"MultiPolygon","coordinates":[[[[132.989,34.316],[132.99,34.307],[132.994,34.305],[132.999,34.308],[132.995,34.313],[132.989,34.316]]],[[[132.937,34.325],[132.947,34.31],[132.949,34.316],[132.943,34.324],[132.937,34.325]]],[[[133.011,34.329],[133.009,34.334],[133.011,34.34],[133.01,34.344],[133.002,34.349],[132.994,34.349],[132.99,34.352],[132.985,34.347],[132.979,34.348],[132.961,34.357],[132.95,34.352],[132.946,34.356],[132.94,34.357],[132.94,34.374],[132.932,34.382],[132.927,34.382],[132.923,34.387],[132.917,34.385],[132.911,34.387],[132.913,34.392],[132.905,34.399],[132.908,34.405],[132.907,34.416],[132.904,34.429],[132.897,34.428],[132.891,34.416],[132.894,34.412],[132.882,34.406],[132.877,34.406],[132.868,34.411],[132.852,34.415],[132.85,34.419],[132.837,34.419],[132.835,34.423],[132.822,34.418],[132.813,34.424],[132.806,34.42],[132.794,34.42],[132.788,34.424],[132.782,34.421],[132.788,34.409],[132.804,34.406],[132.811,34.403],[132.816,34.392],[132.803,34.392],[132.796,34.389],[132.796,34.386],[132.788,34.382],[132.785,34.376],[132.788,34.371],[132.795,34.37],[132.809,34.374],[132.813,34.369],[132.817,34.369],[132.836,34.362],[132.854,34.356],[132.856,34.348],[132.857,34.333],[132.853,34.327],[132.851,34.315],[132.851,34.308],[132.855,34.302],[132.855,34.297],[132.862,34.298],[132.868,34.305],[132.875,34.307],[132.869,34.312],[132.874,34.315],[132.884,34.316],[132.887,34.322],[132.894,34.327],[132.9,34.326],[132.911,34.328],[132.916,34.333],[132.92,34.326],[132.931,34.326],[132.945,34.336],[132.953,34.337],[132.963,34.335],[132.983,34.331],[132.99,34.333],[132.994,34.338],[133.002,34.335],[133.006,34.33],[133.011,34.329]]]]}},{"type":"Feature","properties":{"name":"三原市","code":"34204"},"geometry":{"type":"MultiPolygon","coordinates":[[[[133.112,34.36],[133.105,34.357],[133.104,34.347],[133.099,34.339],[133.099,34.328],[133.096,34.324],[133.104,34.322],[133.11,34.317],[133.116,34.319],[133.125,34.331],[133.127,34.338],[133.122,34.353],[133.112,34.36]]],[[[133.107,34.368],[133.099,34.363],[133.106,34.362],[133.107,34.368]]],[[[133.011,34.329],[133.03,34.333],[133.04,34.332],[133.045,34.334],[133.052,34.342],[133.06,34.345],[133.073,34.343],[133.079,34.345],[133.081,34.349],[133.084,34.366],[133.093,34.389],[133.099,34.39],[133.107,34.389],[133.117,34.383],[133.128,34.383],[133.139,34.389],[133.154,34.395],[133.162,34.403],[133.157,34.406],[133.149,34.401],[133.144,34.403],[133.146,34.41],[133.138,34.413],[133.143,34.422],[133.153,34.428],[133.15,34.432],[133.156,34.437],[133.15,34.445],[133.134,34.448],[133.134,34.456],[133.126,34.459],[133.121,34.471],[133.114,34.471],[133.114,34.48],[133.117,34.486],[133.107,34.495],[133.099,34.497],[133.096,34.49],[133.083,34.485],[133.075,34.486],[133.071,34.494],[133.065,34.494],[133.06,34.491],[133.055,34.494],[133.051,34.5],[133.053,34.507],[133.063,34.516],[133.064,34.521],[133.069,34.523],[133.068,34.528],[133.08,34.529],[133.08,34.535],[133.086,34.539],[133.082,34.543],[133.08,34.55],[133.061,34.554],[133.057,34.559],[133.046,34.561],[133.041,34.564],[133.033,34.56],[133.033,34.557],[133.023,34.552],[133.02,34.554],[133.011,34.554],[133.0,34.551],[132.991,34.552],[132.989,34.557],[132.979,34.561],[132.973,34.567],[132.971,34.57],[132.961,34.568],[132.958,34.577],[132.948,34.58],[132.945,34.579],[132.935,34.585],[132.923,34.585],[132.924,34.59],[132.913,34.591],[132.903,34.587],[132.902,34.581],[132.896,34.583],[132.886,34.575],[132.879,34.575],[132.881,34.565],[132.884,34.559],[132.879,34.554],[132.872,34.551],[132.865,34.55],[132.86,34.547],[132.853,34.55],[132.851,34.545],[132.856,34.524],[132.868,34.52],[132.886,34.518],[132.894,34.507],[132.894,34.502],[132.906,34.483],[132.912,34.485],[132.912,34.475],[132.919,34.471],[132.921,34.467],[132.916,34.458],[132.912,34.46],[132.905,34.46],[132.899,34.465],[132.89,34.463],[132.902,34.448],[132.903,34.443],[132.896,34.438],[132.894,34.435],[132.897,34.428],[132.904,34.429],[132.907,34.416],[132.908,34.405],[132.905,34.399],[132.913,34.392],[132.911,34.387],[132.917,34.385],[132.923,34.387],[132.927,34.382],[132.932,34.382],[132.94,34.374],[132.94,34.357],[132.946,34.356],[132.95,34.352],[132.961,34.357],[132.979,34.348],[132.985,34.347],[132.99,34.352],[132.994,34.349],[133.002,34.349],[133.01,34.344],[133.011,34.34],[133.009,34.334],[133.011,34.329]]]]}},{"type":"Feature","properties":{"name":"尾道市","code":"34205"},"geometry":{"type":"MultiPolygon","coordinates":[[[[133.133,34.317],[133.126,34.315],[133.118,34.31],[133.108,34.311],[133.102,34.307],[133.096,34.307],[133.095,34.313],[133.089,34.313],[133.084,34.308],[133.084,34.303],[133.074,34.286],[133.072,34.279],[133.068,34.274],[133.067,34.266],[133.073,34.26],[133.082,34.256],[133.102,34.261],[133.104,34.264],[133.112,34.266],[133.114,34.272],[133.125,34.279],[133.134,34.28],[133.146,34.287],[133.149,34.301],[133.141,34.315],[133.133,34.317]]],[[[133.079,34.333],[133.072,34.331],[133.066,34.326],[133.062,34.315],[133.063,34.308],[133.069,34.303],[133.077,34.301],[133.082,34.303],[133.083,34.31],[133.087,34.313],[133.083,34.322],[133.082,34.328],[133.079,34.333]]],[[[133.152,34.359],[133.148,34.358],[133.148,34.349],[133.138,34.344],[133.134,34.333],[133.135,34.329],[133.141,34.326],[133.149,34.315],[133.152,34.306],[133.156,34.299],[133.174,34.292],[133.181,34.281],[133.191,34.275],[133.199,34.279],[133.196,34.286],[133.205,34.292],[133.203,34.296],[133.195,34.298],[133.199,34.308],[133.211,34.314],[133.211,34.319],[133.203,34.319],[133.204,34.323],[133.198,34.33],[133.196,34.338],[133.189,34.336],[133.177,34.344],[133.173,34.358],[133.163,34.358],[133.156,34.357],[133.152,34.359]]],[[[133.146,34.371],[133.138,34.367],[133.139,34.363],[133.145,34.363],[133.146,34.371]]],[[[133.242,34.38],[133.238,34.375],[133.244,34.371],[133.246,34.375],[133.242,34.38]]],[[[133.261,34.384],[133.257,34.379],[133.264,34.365],[133.272,34.365],[133.277,34.37],[133.279,34.38],[133.273,34.378],[133.261,34.384]]],[[[133.162,34.392],[133.153,34.386],[133.156,34.374],[133.163,34.376],[133.173,34.374],[133.172,34.381],[133.168,34.387],[133.162,34.392]]],[[[133.215,34.409],[133.2,34.405],[133.19,34.397],[133.178,34.396],[133.172,34.393],[133.17,34.387],[133.174,34.381],[133.177,34.371],[133.174,34.366],[133.182,34.364],[133.184,34.359],[133.189,34.357],[133.194,34.36],[133.2,34.359],[133.213,34.363],[133.218,34.37],[133.218,34.377],[133.221,34.383],[133.237,34.391],[133.238,34.399],[133.235,34.407],[133.222,34.407],[133.215,34.409]]],[[[133.285,34.388],[133.297,34.398],[133.289,34.412],[133.273,34.414],[133.272,34.407],[133.267,34.404],[133.26,34.404],[133.256,34.4],[133.245,34.398],[133.245,34.391],[133.255,34.389],[133.263,34.395],[133.271,34.392],[133.276,34.395],[133.286,34.39],[133.284,34.387]]],[[[133.154,34.395],[133.169,34.396],[133.188,34.401],[133.21,34.411],[133.22,34.409],[133.233,34.412],[133.238,34.421],[133.245,34.423],[133.239,34.441],[133.235,34.444],[133.229,34.443],[133.226,34.448],[133.237,34.447],[133.24,34.455],[133.235,34.459],[133.229,34.455],[133.216,34.463],[133.211,34.47],[133.218,34.476],[133.228,34.477],[133.227,34.483],[133.231,34.49],[133.235,34.492],[133.233,34.497],[133.239,34.505],[133.239,34.511],[133.235,34.514],[133.228,34.514],[133.219,34.509],[133.214,34.509],[133.211,34.519],[133.219,34.524],[133.221,34.532],[133.219,34.536],[133.208,34.536],[133.2,34.54],[133.196,34.537],[133.197,34.532],[133.19,34.533],[133.188,34.539],[133.182,34.538],[133.177,34.541],[133.176,34.547],[133.172,34.547],[133.166,34.551],[133.161,34.562],[133.161,34.566],[133.154,34.565],[133.15,34.569],[133.142,34.573],[133.14,34.566],[133.135,34.564],[133.133,34.558],[133.126,34.547],[133.121,34.548],[133.11,34.545],[133.102,34.539],[133.093,34.537],[133.086,34.539],[133.08,34.535],[133.08,34.529],[133.068,34.528],[133.069,34.523],[133.064,34.521],[133.063,34.516],[133.053,34.507],[133.051,34.5],[133.055,34.494],[133.06,34.491],[133.065,34.494],[133.071,34.494],[133.075,34.486],[133.083,34.485],[133.096,34.49],[133.099,34.497],[133.107,34.495],[133.117,34.486],[133.114,34.48],[133.114,34.471],[133.121,34.471],[133.126,34.459],[133.134,34.456],[133.134,34.448],[133.15,34.445],[133.156,34.437],[133.15,34.432],[133.153,34.428],[133.143,34.422],[133.138,34.413],[133.146,34.41],[133.144,34.403],[133.149,34.401],[133.157,34.406],[133.162,34.403],[133.154,34.395]]]]}},{"type":"Feature","properties":{"name":"福山市","code":"34207"},"geometry":{"type":"MultiPolygon","coordinates":[[[[133.436,34.351],[133.431,34.349],[133.428,34.345],[133.43,34.339],[133.437,34.339],[133.446,34.336],[133.449,34.34],[133.442,34.348],[133.436,34.351]]],[[[133.287,34.358],[133.272,34.353],[133.264,34.348],[133.269,34.334],[133.279,34.335],[133.285,34.338],[133.287,34.358]]],[[[133.319,34.373],[133.302,34.368],[133.296,34.364],[133.289,34.356],[133.292,34.353],[133.296,34.345],[133.302,34.342],[133.321,34.354],[133.335,34.355],[133.343,34.37],[133.334,34.369],[133.324,34.361],[133.319,34.373]]],[[[133.399,34.389],[133.391,34.388],[133.39,34.385],[133.398,34.378],[133.403,34.382],[133.399,34.389]]],[[[133.285,34.388],[133.292,34.383],[133.306,34.388],[133.315,34.381],[133.324,34.38],[133.335,34.381],[133.347,34.376],[133.352,34.366],[133.358,34.369],[133.367,34.369],[133.371,34.374],[133.378,34.377],[133.378,34.382],[133.385,34.384],[133.38,34.392],[133.382,34.408],[133.385,34.42],[133.391,34.422],[133.396,34.427],[133.408,34.429],[133.405,34.435],[133.413,34.436],[133.431,34.424],[133.441,34.436],[133.433,34.44],[133.435,34.443],[133.421,34.45],[133.408,34.457],[133.406,34.46],[133.411,34.47],[133.409,34.478],[133.415,34.477],[133.414,34.459],[133.418,34.457],[133.443,34.445],[133.446,34.472],[133.443,34.48],[133.449,34.486],[133.455,34.495],[133.456,34.5],[133.453,34.507],[133.445,34.506],[133.449,34.513],[133.447,34.519],[133.45,34.527],[133.454,34.53],[133.45,34.539],[133.446,34.556],[133.44,34.559],[133.435,34.566],[133.427,34.569],[133.423,34.579],[133.423,34.586],[133.413,34.587],[133.406,34.589],[133.397,34.595],[133.396,34.605],[133.385,34.617],[133.385,34.625],[133.392,34.631],[133.387,34.636],[133.388,34.643],[133.392,34.649],[133.396,34.652],[133.396,34.656],[133.403,34.667],[133.401,34.674],[133.385,34.678],[133.386,34.685],[133.383,34.69],[133.374,34.695],[133.373,34.708],[133.371,34.712],[133.36,34.708],[133.367,34.7],[133.368,34.69],[133.357,34.69],[133.352,34.684],[133.346,34.682],[133.346,34.678],[133.338,34.68],[133.336,34.676],[133.34,34.669],[133.334,34.662],[133.329,34.66],[133.32,34.653],[133.317,34.645],[133.318,34.64],[133.314,34.637],[133.309,34.638],[133.305,34.644],[133.299,34.647],[133.295,34.644],[133.29,34.648],[133.292,34.657],[133.286,34.663],[133.276,34.666],[133.27,34.666],[133.265,34.663],[133.264,34.658],[133.259,34.649],[133.255,34.652],[133.251,34.646],[133.247,34.647],[133.24,34.641],[133.236,34.642],[133.236,34.637],[133.23,34.631],[133.236,34.624],[133.236,34.618],[133.232,34.614],[133.237,34.608],[133.239,34.599],[133.247,34.595],[133.256,34.584],[133.266,34.576],[133.267,34.57],[133.263,34.567],[133.27,34.556],[133.263,34.548],[133.251,34.546],[133.246,34.538],[133.24,34.536],[133.235,34.529],[133.227,34.527],[133.221,34.532],[133.219,34.524],[133.211,34.519],[133.214,34.509],[133.219,34.509],[133.228,34.514],[133.235,34.514],[133.239,34.511],[133.239,34.505],[133.233,34.497],[133.235,34.492],[133.231,34.49],[133.227,34.483],[133.228,34.477],[133.221,34.474],[133.211,34.47],[133.216,34.463],[133.229,34.455],[133.235,34.459],[133.24,34.455],[133.237,34.447],[133.226,34.448],[133.229,34.443],[133.235,34.444],[133.239,34.441],[133.245,34.423],[133.242,34.436],[133.247,34.436],[133.251,34.423],[133.256,34.427],[133.252,34.441],[133.256,34.441],[133.257,34.436],[133.27,34.433],[133.27,34.425],[133.274,34.419],[133.273,34.414],[133.289,34.412],[133.297,34.398],[133.285,34.388]]]]}},{"type":"Feature","properties":{"name":"府中市","code":"34208"},"geometry":{"type":"MultiPolygon","coordinates":[[[[133.221,34.532],[133.227,34.527],[133.235,34.529],[133.24,34.536],[133.246,34.538],[133.251,34.546],[133.263,34.548],[133.27,34.556],[133.263,34.567],[133.267,34.57],[133.266,34.576],[133.256,34.584],[133.247,34.595],[133.239,34.599],[133.237,34.608],[133.232,34.614],[133.236,34.618],[133.236,34.624],[133.23,34.631],[133.236,34.637],[133.236,34.642],[133.23,34.648],[133.225,34.649],[133.222,34.646],[133.213,34.648],[133.206,34.655],[133.198,34.659],[133.188,34.662],[133.192,34.672],[133.183,34.673],[133.183,34.678],[133.187,34.685],[133.193,34.687],[133.201,34.695],[133.193,34.706],[133.178,34.714],[133.172,34.714],[133.164,34.72],[133.16,34.729],[133.166,34.741],[133.165,34.748],[133.166,34.755],[133.16,34.757],[133.149,34.754],[133.136,34.756],[133.12,34.74],[133.118,34.735],[133.105,34.735],[133.1,34.729],[133.098,34.719],[133.102,34.711],[133.097,34.704],[133.098,34.698],[133.102,34.693],[133.097,34.69],[133.091,34.683],[133.092,34.679],[133.086,34.676],[133.084,34.668],[133.086,34.663],[133.105,34.657],[133.115,34.648],[133.123,34.645],[133.124,34.639],[133.14,34.637],[133.156,34.632],[133.159,34.629],[133.159,34.612],[133.155,34.611],[133.158,34.605],[133.152,34.596],[133.146,34.593],[133.147,34.589],[133.135,34.585],[133.143,34.578],[133.142,34.573],[133.15,34.569],[133.154,34.565],[133.161,34.566],[133.161,34.562],[133.166,34.551],[133.172,34.547],[133.176,34.547],[133.177,34.541],[133.182,34.538],[133.188,34.539],[133.19,34.533],[133.197,34.532],[133.196,34.537],[133.2,34.54],[133.208,34.536],[133.219,34.536],[133.221,34.532]]]]}},{"type":"Feature","properties":{"name":"三次市","code":"34209"},"geometry":{"type":"MultiPolygon","coordinates":[[[[133.105,34.735],[133.104,34.742],[133.109,34.749],[133.106,34.757],[133.107,34.765],[133.094,34.768],[133.088,34.767],[133.08,34.773],[133.079,34.768],[133.068,34.768],[133.061,34.774],[133.055,34.771],[133.06,34.763],[133.057,34.756],[133.037,34.751],[133.034,34.753],[133.032,34.759],[133.017,34.762],[133.017,34.767],[133.023,34.77],[133.028,34.776],[133.026,34.787],[133.02,34.789],[133.007,34.794],[133.004,34.799],[132.998,34.803],[132.995,34.807],[132.985,34.809],[132.979,34.816],[132.977,34.822],[132.968,34.812],[132.969,34.809],[132.96,34.803],[132.959,34.799],[132.949,34.796],[132.95,34.803],[132.942,34.81],[132.934,34.813],[132.931,34.819],[132.919,34.826],[132.913,34.833],[132.902,34.842],[132.895,34.847],[132.891,34.851],[132.884,34.856],[132.886,34.862],[132.882,34.872],[132.89,34.878],[132.892,34.89],[132.877,34.892],[132.877,34.903],[132.874,34.912],[132.864,34.921],[132.857,34.923],[132.85,34.921],[132.845,34.928],[132.85,34.932],[132.852,34.94],[132.851,34.944],[132.844,34.942],[132.84,34.944],[132.838,34.949],[132.834,34.95],[132.837,34.958],[132.832,34.962],[132.83,34.978],[132.838,34.98],[132.841,34.988],[132.839,34.993],[132.843,34.995],[132.841,35.004],[132.833,35.005],[132.826,34.999],[132.816,34.993],[132.812,34.987],[132.801,34.989],[132.795,34.988],[132.791,34.993],[132.784,34.995],[132.771,34.99],[132.767,34.991],[132.769,34.984],[132.756,34.977],[132.745,34.977],[132.751,34.97],[132.75,34.96],[132.741,34.957],[132.741,34.961],[132.728,34.956],[132.727,34.953],[132.72,34.948],[132.714,34.953],[132.706,34.955],[132.685,34.951],[132.676,34.933],[132.667,34.931],[132.661,34.923],[132.651,34.92],[132.647,34.91],[132.643,34.909],[132.641,34.904],[132.634,34.905],[132.637,34.899],[132.651,34.901],[132.658,34.897],[132.659,34.892],[132.664,34.89],[132.675,34.894],[132.679,34.891],[132.682,34.884],[132.688,34.885],[132.7,34.882],[132.706,34.862],[132.71,34.858],[132.711,34.85],[132.714,34.845],[132.721,34.842],[132.723,34.834],[132.721,34.83],[132.713,34.828],[132.7,34.827],[132.695,34.818],[132.704,34.815],[132.713,34.818],[132.729,34.814],[132.748,34.811],[132.762,34.808],[132.767,34.809],[132.781,34.806],[132.778,34.793],[132.779,34.783],[132.776,34.777],[132.778,34.774],[132.771,34.77],[132.766,34.762],[132.771,34.758],[132.765,34.755],[132.768,34.749],[132.778,34.751],[132.788,34.743],[132.785,34.74],[132.783,34.729],[132.773,34.721],[132.773,34.715],[132.769,34.709],[132.77,34.702],[132.776,34.699],[132.787,34.698],[132.807,34.692],[132.806,34.683],[132.799,34.678],[132.803,34.672],[132.797,34.67],[132.789,34.657],[132.782,34.653],[132.783,34.641],[132.791,34.633],[132.797,34.63],[132.798,34.622],[132.809,34.623],[132.815,34.617],[132.822,34.616],[132.828,34.61],[132.835,34.606],[132.845,34.606],[132.845,34.611],[132.852,34.61],[132.859,34.614],[132.864,34.611],[132.871,34.614],[132.876,34.614],[132.871,34.62],[132.877,34.634],[132.872,34.637],[132.873,34.647],[132.879,34.65],[132.878,34.664],[132.884,34.668],[132.889,34.675],[132.891,34.684],[132.896,34.684],[132.924,34.678],[132.934,34.682],[132.938,34.682],[132.94,34.673],[132.943,34.669],[132.941,34.664],[132.948,34.66],[132.945,34.657],[132.954,34.655],[132.959,34.659],[132.967,34.657],[132.971,34.661],[132.969,34.665],[132.977,34.669],[132.982,34.669],[132.985,34.677],[132.996,34.675],[133.0,34.678],[133.018,34.679],[133.021,34.673],[133.032,34.67],[133.046,34.661],[133.048,34.658],[133.06,34.659],[133.062,34.652],[133.073,34.658],[133.078,34.657],[133.086,34.663],[133.084,34.668],[133.086,34.676],[133.092,34.679],[133.091,34.683],[133.097,34.69],[133.102,34.693],[133.098,34.698],[133.097,34.704],[133.102,34.711],[133.098,34.719],[133.1,34.729],[133.105,34.735]]]]}},{"type":"Feature","properties":{"name":"庄原市","code":"34210"},"geometry":{"type":"MultiPolygon","coordinates":[[[[133.166,34.755],[133.168,34.766],[133.161,34.774],[133.148,34.783],[133.138,34.786],[133.141,34.804],[133.145,34.81],[133.14,34.815],[133.135,34.824],[133.142,34.829],[133.142,34.839],[133.149,34.841],[133.157,34.845],[133.163,34.854],[133.167,34.854],[133.176,34.849],[133.186,34.852],[133.199,34.852],[133.21,34.861],[133.217,34.858],[133.225,34.847],[133.23,34.837],[133.235,34.833],[133.235,34.828],[133.23,34.824],[133.243,34.814],[133.246,34.82],[133.254,34.822],[133.27,34.831],[133.274,34.835],[133.273,34.838],[133.277,34.847],[133.273,34.851],[133.278,34.854],[133.284,34.852],[133.289,34.854],[133.3,34.848],[133.314,34.848],[133.32,34.853],[133.329,34.853],[133.323,34.859],[133.324,34.864],[133.317,34.867],[133.314,34.873],[133.309,34.874],[133.306,34.882],[133.298,34.889],[133.296,34.904],[133.298,34.909],[133.303,34.913],[133.305,34.922],[133.302,34.929],[133.309,34.937],[133.308,34.941],[133.298,34.953],[133.297,34.956],[133.305,34.965],[133.303,34.972],[133.311,34.975],[133.313,34.98],[133.32,34.983],[133.322,34.988],[133.319,34.998],[133.321,35.004],[133.316,35.012],[133.305,35.015],[133.303,35.021],[133.297,35.025],[133.296,35.029],[133.285,35.041],[133.274,35.045],[133.267,35.052],[133.267,35.06],[133.261,35.063],[133.254,35.075],[133.249,35.079],[133.24,35.079],[133.233,35.075],[133.232,35.069],[133.227,35.068],[133.215,35.074],[133.199,35.073],[133.186,35.07],[133.18,35.067],[133.173,35.069],[133.168,35.067],[133.161,35.074],[133.142,35.065],[133.136,35.07],[133.134,35.076],[133.127,35.077],[133.122,35.084],[133.111,35.086],[133.107,35.082],[133.096,35.085],[133.085,35.078],[133.081,35.081],[133.071,35.082],[133.06,35.081],[133.052,35.07],[133.043,35.068],[133.033,35.068],[133.031,35.073],[133.024,35.078],[133.016,35.078],[133.015,35.088],[133.003,35.093],[133.0,35.097],[132.992,35.098],[132.982,35.098],[132.975,35.083],[132.966,35.08],[132.948,35.076],[132.934,35.084],[132.927,35.081],[132.92,35.084],[132.909,35.086],[132.897,35.104],[132.889,35.106],[132.861,35.096],[132.858,35.089],[132.846,35.081],[132.839,35.071],[132.831,35.066],[132.828,35.061],[132.838,35.051],[132.837,35.047],[132.827,35.047],[132.814,35.041],[132.813,35.036],[132.809,35.029],[132.799,35.021],[132.793,35.02],[132.787,35.013],[132.788,35.005],[132.781,35.003],[132.777,34.999],[132.77,34.998],[132.767,34.991],[132.771,34.99],[132.784,34.995],[132.791,34.993],[132.795,34.988],[132.801,34.989],[132.812,34.987],[132.816,34.993],[132.826,34.999],[132.833,35.005],[132.841,35.004],[132.843,34.995],[132.839,34.993],[132.841,34.988],[132.838,34.98],[132.83,34.978],[132.832,34.962],[132.837,34.958],[132.834,34.95],[132.838,34.949],[132.84,34.944],[132.844,34.942],[132.851,34.944],[132.852,34.94],[132.85,34.932],[132.845,34.928],[132.85,34.921],[132.857,34.923],[132.864,34.921],[132.874,34.912],[132.877,34.903],[132.877,34.892],[132.892,34.89],[132.89,34.878],[132.882,34.872],[132.886,34.862],[132.884,34.856],[132.891,34.851],[132.895,34.847],[132.902,34.842],[132.913,34.833],[132.919,34.826],[132.931,34.819],[132.934,34.813],[132.942,34.81],[132.95,34.803],[132.949,34.796],[132.959,34.799],[132.96,34.803],[132.969,34.809],[132.968,34.812],[132.977,34.822],[132.979,34.816],[132.985,34.809],[132.995,34.807],[132.998,34.803],[133.004,34.799],[133.007,34.794],[133.02,34.789],[133.026,34.787],[133.028,34.776],[133.023,34.77],[133.017,34.767],[133.017,34.762],[133.032,34.759],[133.034,34.753],[133.037,34.751],[133.057,34.756],[133.06,34.763],[133.055,34.771],[133.061,34.774],[133.068,34.768],[133.079,34.768],[133.08,34.773],[133.088,34.767],[133.094,34.768],[133.107,34.765],[133.106,34.757],[133.109,34.749],[133.104,34.742],[133.105,34.735],[133.118,34.735],[133.12,34.74],[133.136,34.756],[133.149,34.754],[133.16,34.757],[133.166,34.755]]]]}},{"type":"Feature","properties":{"name":"大竹市","code":"34211"},"geometry":{"type":"MultiPolygon","coordinates":[[[[132.296,34.199],[132.292,34.189],[132.302,34.186],[132.315,34.187],[132.32,34.19],[132.312,34.198],[132.301,34.197],[132.296,34.199]]],[[[132.239,34.261],[132.233,34.271],[132.233,34.276],[132.229,34.28],[132.219,34.284],[132.217,34.291],[132.209,34.289],[132.197,34.288],[132.193,34.281],[132.188,34.28],[132.184,34.282],[132.168,34.287],[132.163,34.294],[132.167,34.304],[132.172,34.307],[132.167,34.312],[132.17,34.317],[132.17,34.324],[132.165,34.33],[132.148,34.329],[132.149,34.324],[132.148,34.317],[132.142,34.312],[132.137,34.317],[132.127,34.313],[132.125,34.306],[132.128,34.296],[132.138,34.288],[132.14,34.282],[132.136,34.278],[132.134,34.272],[132.135,34.267],[132.141,34.26],[132.146,34.257],[132.147,34.25],[132.145,34.236],[132.15,34.237],[132.157,34.229],[132.162,34.234],[132.17,34.234],[132.171,34.225],[132.18,34.23],[132.184,34.228],[132.193,34.226],[132.202,34.223],[132.193,34.207],[132.201,34.208],[132.207,34.204],[132.214,34.204],[132.222,34.208],[132.246,34.211],[132.247,34.215],[132.239,34.227],[132.236,34.227],[132.221,34.233],[132.227,34.235],[132.229,34.249],[132.234,34.259],[132.239,34.261]]]]}},{"type":"Feature","properties":{"name":"東広島市","code":"34212"},"geometry":{"type":"MultiPolygon","coordinates":[[[[132.806,34.281],[132.793,34.277],[132.792,34.272],[132.803,34.269],[132.811,34.276],[132.806,34.281]]],[[[132.601,34.457],[132.608,34.457],[132.614,34.451],[132.615,34.447],[132.624,34.446],[132.633,34.45],[132.636,34.443],[132.642,34.442],[132.647,34.438],[132.655,34.443],[132.664,34.437],[132.666,34.428],[132.66,34.423],[132.652,34.422],[132.644,34.413],[132.64,34.399],[132.646,34.396],[132.644,34.389],[132.649,34.384],[132.65,34.377],[132.654,34.369],[132.651,34.365],[132.644,34.362],[132.643,34.353],[132.628,34.353],[132.624,34.354],[132.608,34.342],[132.613,34.329],[132.612,34.325],[132.606,34.322],[132.607,34.317],[132.622,34.313],[132.63,34.311],[132.639,34.315],[132.645,34.31],[132.65,34.311],[132.66,34.293],[132.664,34.288],[132.678,34.298],[132.691,34.303],[132.704,34.313],[132.714,34.308],[132.727,34.322],[132.74,34.327],[132.743,34.331],[132.752,34.333],[132.755,34.329],[132.756,34.32],[132.756,34.308],[132.762,34.3],[132.759,34.296],[132.771,34.287],[132.775,34.288],[132.781,34.286],[132.781,34.281],[132.785,34.277],[132.789,34.279],[132.787,34.286],[132.791,34.293],[132.795,34.296],[132.797,34.304],[132.802,34.309],[132.813,34.312],[132.82,34.317],[132.828,34.316],[132.836,34.312],[132.835,34.305],[132.847,34.297],[132.851,34.292],[132.855,34.297],[132.855,34.302],[132.851,34.308],[132.851,34.315],[132.853,34.327],[132.857,34.333],[132.856,34.348],[132.854,34.356],[132.836,34.362],[132.817,34.369],[132.813,34.369],[132.809,34.374],[132.795,34.37],[132.788,34.371],[132.785,34.376],[132.788,34.382],[132.796,34.386],[132.796,34.389],[132.803,34.392],[132.816,34.392],[132.811,34.403],[132.804,34.406],[132.788,34.409],[132.782,34.421],[132.788,34.424],[132.794,34.42],[132.806,34.42],[132.813,34.424],[132.822,34.418],[132.835,34.423],[132.837,34.419],[132.85,34.419],[132.852,34.415],[132.868,34.411],[132.877,34.406],[132.882,34.406],[132.894,34.412],[132.891,34.416],[132.897,34.428],[132.894,34.435],[132.896,34.438],[132.903,34.443],[132.902,34.448],[132.89,34.463],[132.899,34.465],[132.905,34.46],[132.912,34.46],[132.916,34.458],[132.921,34.467],[132.919,34.471],[132.912,34.475],[132.912,34.485],[132.906,34.483],[132.894,34.502],[132.894,34.507],[132.886,34.518],[132.868,34.52],[132.856,34.524],[132.851,34.545],[132.853,34.55],[132.86,34.547],[132.865,34.55],[132.872,34.551],[132.879,34.554],[132.884,34.559],[132.881,34.565],[132.879,34.575],[132.886,34.575],[132.896,34.583],[132.894,34.595],[132.887,34.598],[132.881,34.606],[132.885,34.611],[132.876,34.614],[132.871,34.614],[132.864,34.611],[132.859,34.614],[132.852,34.61],[132.845,34.611],[132.845,34.606],[132.835,34.606],[132.828,34.61],[132.822,34.616],[132.815,34.617],[132.809,34.623],[132.798,34.622],[132.793,34.615],[132.792,34.607],[132.784,34.597],[132.785,34.583],[132.772,34.576],[132.763,34.576],[132.754,34.575],[132.747,34.571],[132.746,34.566],[132.736,34.558],[132.727,34.558],[132.724,34.555],[132.715,34.553],[132.711,34.555],[132.705,34.548],[132.705,34.543],[132.7,34.536],[132.696,34.536],[132.693,34.529],[132.684,34.527],[132.674,34.53],[132.665,34.532],[132.663,34.527],[132.656,34.523],[132.649,34.515],[132.644,34.505],[132.633,34.507],[132.628,34.498],[132.619,34.491],[132.609,34.49],[132.603,34.487],[132.601,34.483],[132.607,34.481],[132.606,34.472],[132.603,34.468],[132.601,34.457]]]]}},{"type":"Feature","properties":{"name":"廿日市市","code":"34213"},"geometry":{"type":"MultiPolygon","coordinates":[[[[132.334,34.311],[132.322,34.302],[132.315,34.296],[132.31,34.296],[132.302,34.294],[132.299,34.29],[132.29,34.287],[132.283,34.278],[132.283,34.272],[132.277,34.263],[132.262,34.252],[132.267,34.25],[132.273,34.234],[132.277,34.233],[132.285,34.235],[132.304,34.245],[132.311,34.252],[132.314,34.258],[132.33,34.267],[132.335,34.272],[132.341,34.275],[132.348,34.282],[132.349,34.292],[132.34,34.298],[132.341,34.302],[132.335,34.305],[132.334,34.311]]],[[[132.35,34.353],[132.347,34.357],[132.342,34.366],[132.335,34.368],[132.335,34.372],[132.324,34.38],[132.317,34.381],[132.321,34.388],[132.321,34.397],[132.324,34.406],[132.317,34.406],[132.313,34.41],[132.314,34.416],[132.311,34.419],[132.305,34.414],[132.3,34.407],[132.3,34.399],[132.303,34.393],[132.3,34.384],[132.293,34.385],[132.284,34.39],[132.283,34.4],[132.281,34.41],[132.255,34.414],[132.254,34.418],[132.249,34.424],[132.245,34.423],[132.236,34.431],[132.229,34.431],[132.219,34.42],[132.218,34.416],[132.196,34.416],[132.191,34.424],[132.194,34.431],[132.191,34.435],[132.179,34.443],[132.196,34.453],[132.194,34.457],[132.193,34.468],[132.197,34.478],[132.203,34.485],[132.2,34.491],[132.189,34.498],[132.186,34.503],[132.179,34.51],[132.17,34.518],[132.167,34.525],[132.184,34.538],[132.179,34.541],[132.167,34.541],[132.156,34.549],[132.157,34.554],[132.149,34.565],[132.143,34.563],[132.137,34.573],[132.128,34.579],[132.126,34.583],[132.118,34.578],[132.119,34.573],[132.114,34.563],[132.107,34.557],[132.1,34.555],[132.095,34.548],[132.089,34.544],[132.084,34.538],[132.076,34.537],[132.059,34.531],[132.053,34.53],[132.048,34.521],[132.047,34.512],[132.036,34.501],[132.048,34.5],[132.052,34.499],[132.06,34.492],[132.057,34.487],[132.058,34.48],[132.061,34.479],[132.067,34.472],[132.071,34.458],[132.075,34.454],[132.081,34.444],[132.077,34.438],[132.074,34.42],[132.069,34.416],[132.07,34.41],[132.075,34.402],[132.07,34.392],[132.077,34.389],[132.077,34.384],[132.07,34.371],[132.072,34.367],[132.071,34.355],[132.085,34.358],[132.086,34.354],[132.093,34.351],[132.101,34.345],[132.101,34.336],[132.106,34.33],[132.119,34.331],[132.125,34.334],[132.129,34.327],[132.129,34.322],[132.124,34.319],[132.123,34.312],[132.125,34.306],[132.127,34.313],[132.137,34.317],[132.142,34.312],[132.148,34.317],[132.149,34.324],[132.148,34.329],[132.165,34.33],[132.17,34.324],[132.17,34.317],[132.167,34.312],[132.172,34.307],[132.167,34.304],[132.163,34.294],[132.168,34.287],[132.184,34.282],[132.188,34.28],[132.193,34.281],[132.197,34.288],[132.209,34.289],[132.217,34.291],[132.219,34.284],[132.229,34.28],[132.233,34.276],[132.233,34.271],[132.239,34.261],[132.25,34.265],[132.253,34.269],[132.26,34.274],[132.264,34.273],[132.282,34.286],[132.287,34.297],[132.297,34.304],[132.31,34.318],[132.318,34.324],[132.321,34.332],[132.32,34.338],[132.327,34.344],[132.333,34.344],[132.337,34.338],[132.348,34.341],[132.346,34.345],[132.339,34.346],[132.351,34.351],[132.355,34.349],[132.35,34.353]]]]}},{"type":"Feature","properties":{"name":"安芸高田市","code":"34214"},"geometry":{"type":"MultiPolygon","coordinates":[[[[132.696,34.536],[132.7,34.536],[132.705,34.543],[132.705,34.548],[132.711,34.555],[132.715,34.553],[132.724,34.555],[132.727,34.558],[132.736,34.558],[132.746,34.566],[132.747,34.571],[132.754,34.575],[132.763,34.576],[132.772,34.576],[132.785,34.583],[132.784,34.597],[132.792,34.607],[132.793,34.615],[132.798,34.622],[132.797,34.63],[132.791,34.633],[132.783,34.641],[132.782,34.653],[132.789,34.657],[132.797,34.67],[132.803,34.672],[132.799,34.678],[132.806,34.683],[132.807,34.692],[132.787,34.698],[132.776,34.699],[132.77,34.702],[132.769,34.709],[132.773,34.715],[132.773,34.721],[132.783,34.729],[132.785,34.74],[132.788,34.743],[132.778,34.751],[132.768,34.749],[132.765,34.755],[132.771,34.758],[132.766,34.762],[132.771,34.77],[132.778,34.774],[132.776,34.777],[132.779,34.783],[132.778,34.793],[132.781,34.806],[132.767,34.809],[132.762,34.808],[132.748,34.811],[132.729,34.814],[132.713,34.818],[132.704,34.815],[132.695,34.818],[132.7,34.827],[132.713,34.828],[132.721,34.83],[132.723,34.834],[132.721,34.842],[132.714,34.845],[132.711,34.85],[132.703,34.847],[132.699,34.843],[132.694,34.844],[132.69,34.85],[132.684,34.851],[132.675,34.848],[132.671,34.842],[132.667,34.832],[132.66,34.832],[132.648,34.84],[132.643,34.838],[132.633,34.84],[132.631,34.843],[132.62,34.844],[132.611,34.838],[132.612,34.833],[132.605,34.831],[132.6,34.832],[132.586,34.823],[132.58,34.816],[132.568,34.811],[132.568,34.807],[132.554,34.808],[132.547,34.803],[132.544,34.797],[132.538,34.795],[132.541,34.791],[132.55,34.785],[132.55,34.78],[132.555,34.777],[132.559,34.771],[132.569,34.764],[132.571,34.76],[132.568,34.752],[132.569,34.745],[132.579,34.742],[132.587,34.734],[132.582,34.728],[132.577,34.718],[132.58,34.707],[132.576,34.703],[132.575,34.697],[132.585,34.693],[132.588,34.684],[132.594,34.689],[132.601,34.689],[132.604,34.685],[132.598,34.681],[132.598,34.675],[132.592,34.675],[132.583,34.665],[132.592,34.655],[132.588,34.646],[132.584,34.645],[132.583,34.638],[132.577,34.634],[132.573,34.624],[132.576,34.62],[132.57,34.613],[132.571,34.605],[132.574,34.602],[132.565,34.592],[132.561,34.592],[132.554,34.588],[132.544,34.584],[132.551,34.578],[132.561,34.577],[132.566,34.572],[132.569,34.573],[132.573,34.563],[132.578,34.564],[132.591,34.575],[132.59,34.582],[132.596,34.585],[132.608,34.586],[132.61,34.592],[132.609,34.596],[132.614,34.601],[132.62,34.599],[132.624,34.6],[132.632,34.597],[132.646,34.602],[132.654,34.6],[132.665,34.607],[132.672,34.607],[132.679,34.604],[132.693,34.59],[132.694,34.584],[132.686,34.572],[132.683,34.566],[132.69,34.562],[132.688,34.557],[132.692,34.546],[132.687,34.541],[132.696,34.536]]]]}},{"type":"Feature","properties":{"name":"江田島市","code":"34215"},"geometry":{"type":"MultiPolygon","coordinates":[[[[132.439,34.161],[132.431,34.155],[132.43,34.149],[132.441,34.151],[132.439,34.161]]],[[[132.385,34.177],[132.382,34.171],[132.384,34.165],[132.383,34.157],[132.387,34.15],[132.405,34.148],[132.414,34.151],[132.417,34.159],[132.41,34.168],[132.407,34.168],[132.392,34.175],[132.385,34.177]]],[[[132.48,34.296],[132.481,34.287],[132.474,34.284],[132.472,34.287],[132.46,34.288],[132.446,34.286],[132.442,34.289],[132.435,34.285],[132.434,34.279],[132.437,34.274],[132.445,34.269],[132.443,34.261],[132.433,34.254],[132.436,34.247],[132.445,34.246],[132.451,34.248],[132.452,34.255],[132.456,34.257],[132.46,34.252],[132.469,34.247],[132.479,34.232],[132.479,34.227],[132.477,34.221],[132.474,34.209],[132.466,34.215],[132.459,34.229],[132.445,34.223],[132.439,34.225],[132.438,34.232],[132.429,34.245],[132.425,34.254],[132.42,34.258],[132.39,34.261],[132.384,34.257],[132.377,34.262],[132.372,34.258],[132.385,34.248],[132.389,34.241],[132.389,34.231],[132.388,34.224],[132.407,34.204],[132.421,34.197],[132.423,34.192],[132.422,34.181],[132.434,34.179],[132.437,34.195],[132.443,34.195],[132.443,34.191],[132.448,34.184],[132.454,34.182],[132.455,34.178],[132.446,34.179],[132.444,34.17],[132.449,34.169],[132.443,34.157],[132.445,34.152],[132.437,34.143],[132.438,34.14],[132.431,34.132],[132.438,34.132],[132.442,34.136],[132.452,34.136],[132.462,34.135],[132.483,34.145],[132.487,34.148],[132.49,34.155],[132.488,34.161],[132.481,34.169],[132.48,34.175],[132.472,34.183],[132.474,34.195],[132.48,34.196],[132.482,34.199],[132.49,34.202],[132.49,34.22],[132.492,34.229],[132.496,34.232],[132.493,34.248],[132.496,34.253],[132.496,34.262],[132.499,34.268],[132.494,34.277],[132.482,34.288],[132.48,34.296]]]]}},{"type":"Feature","properties":{"name":"安芸郡府中町","code":"34302"},"geometry":{"type":"MultiPolygon","coordinates":[[[[132.5,34.389],[132.501,34.376],[132.516,34.375],[132.524,34.387],[132.528,34.388],[132.528,34.393],[132.536,34.41],[132.541,34.418],[132.531,34.421],[132.517,34.414],[132.514,34.407],[132.507,34.403],[132.496,34.395],[132.5,34.389]]]]}},{"type":"Feature","properties":{"name":"安芸郡海田町","code":"34304"},"geometry":{"type":"MultiPolygon","coordinates":[[[[132.518,34.362],[132.519,34.358],[132.528,34.36],[132.538,34.358],[132.539,34.362],[132.549,34.357],[132.554,34.344],[132.561,34.344],[132.576,34.358],[132.575,34.362],[132.579,34.374],[132.566,34.376],[132.567,34.382],[132.558,34.385],[132.546,34.386],[132.531,34.376],[132.527,34.368],[132.518,34.362]]]]}},{"type":"Feature","properties":{"name":"安芸郡熊野町","code":"34307"},"geometry":{"type":"MultiPolygon","coordinates":[[[[132.557,34.323],[132.565,34.325],[132.568,34.319],[132.571,34.32],[132.581,34.316],[132.587,34.315],[132.593,34.307],[132.597,34.305],[132.607,34.317],[132.606,34.322],[132.612,34.325],[132.613,34.329],[132.608,34.342],[132.624,34.354],[132.628,34.353],[132.631,34.362],[132.623,34.373],[132.614,34.375],[132.601,34.38],[132.598,34.378],[132.592,34.38],[132.581,34.381],[132.579,34.374],[132.575,34.362],[132.576,34.358],[132.561,34.344],[132.554,34.344],[132.551,34.34],[132.552,34.332],[132.557,34.323]]]]}},{"type":"Feature","properties":{"name":"安芸郡坂町","code":"34309"},"geometry":{"type":"MultiPolygon","coordinates":[[[[132.51,34.354],[132.508,34.349],[132.496,34.348],[132.492,34.336],[132.499,34.338],[132.505,34.334],[132.503,34.325],[132.494,34.316],[132.496,34.31],[132.505,34.303],[132.508,34.297],[132.513,34.3],[132.519,34.297],[132.53,34.305],[132.531,34.313],[132.536,34.315],[132.53,34.334],[132.523,34.342],[132.519,34.357],[132.51,34.354]]]]}},{"type":"Feature","properties":{"name":"山県郡安芸太田町","code":"34368"},"geometry":{"type":"MultiPolygon","coordinates":[[[[132.405,34.602],[132.401,34.611],[132.394,34.612],[132.391,34.609],[132.378,34.611],[132.373,34.607],[132.368,34.614],[132.359,34.614],[132.357,34.619],[132.36,34.634],[132.35,34.642],[132.354,34.647],[132.347,34.652],[132.345,34.656],[132.355,34.664],[132.355,34.667],[132.359,34.675],[132.355,34.678],[132.352,34.69],[132.356,34.694],[132.354,34.697],[132.345,34.701],[132.34,34.709],[132.332,34.715],[132.327,34.715],[132.319,34.709],[132.317,34.702],[132.311,34.695],[132.308,34.683],[132.304,34.679],[132.296,34.681],[132.29,34.684],[132.284,34.679],[132.28,34.679],[132.277,34.674],[132.264,34.663],[132.25,34.672],[132.251,34.676],[132.247,34.679],[132.238,34.678],[132.234,34.68],[132.226,34.68],[132.219,34.672],[132.215,34.664],[132.206,34.663],[132.201,34.667],[132.198,34.673],[132.189,34.674],[132.185,34.662],[132.182,34.657],[132.178,34.655],[132.176,34.646],[132.161,34.642],[132.156,34.643],[132.149,34.641],[132.14,34.654],[132.134,34.648],[132.127,34.639],[132.131,34.634],[132.117,34.612],[132.117,34.607],[132.121,34.601],[132.13,34.595],[132.124,34.588],[132.126,34.583],[132.128,34.579],[132.137,34.573],[132.143,34.563],[132.149,34.565],[132.157,34.554],[132.156,34.549],[132.167,34.541],[132.179,34.541],[132.184,34.538],[132.167,34.525],[132.17,34.518],[132.179,34.513],[132.186,34.503],[132.189,34.498],[132.196,34.496],[132.204,34.499],[132.206,34.51],[132.215,34.514],[132.23,34.509],[132.233,34.511],[132.239,34.507],[132.242,34.51],[132.24,34.517],[132.249,34.53],[132.266,34.536],[132.27,34.535],[132.279,34.542],[132.292,34.545],[132.305,34.551],[132.331,34.555],[132.34,34.555],[132.343,34.552],[132.353,34.555],[132.364,34.547],[132.36,34.538],[132.367,34.54],[132.368,34.545],[132.375,34.548],[132.39,34.562],[132.391,34.571],[132.387,34.583],[132.392,34.585],[132.39,34.592],[132.395,34.599],[132.4,34.604],[132.405,34.602]]]]}},{"type":"Feature","properties":{"name":"山県郡北広島町","code":"34369"},"geometry":{"type":"MultiPolygon","coordinates":[[[[132.544,34.584],[132.554,34.588],[132.561,34.592],[132.565,34.592],[132.574,34.602],[132.571,34.605],[132.57,34.613],[132.576,34.62],[132.573,34.624],[132.577,34.634],[132.583,34.638],[132.584,34.645],[132.588,34.646],[132.592,34.655],[132.583,34.665],[132.592,34.675],[132.598,34.675],[132.598,34.681],[132.604,34.685],[132.601,34.689],[132.594,34.689],[132.588,34.684],[132.585,34.693],[132.575,34.697],[132.576,34.703],[132.58,34.707],[132.577,34.718],[132.582,34.728],[132.587,34.734],[132.579,34.742],[132.569,34.745],[132.568,34.752],[132.571,34.76],[132.569,34.764],[132.559,34.771],[132.555,34.777],[132.55,34.78],[132.55,34.785],[132.541,34.791],[132.538,34.795],[132.527,34.799],[132.521,34.804],[132.505,34.796],[132.495,34.801],[132.484,34.797],[132.472,34.802],[132.466,34.802],[132.457,34.804],[132.457,34.807],[132.445,34.813],[132.437,34.821],[132.43,34.814],[132.421,34.812],[132.424,34.807],[132.425,34.799],[132.414,34.797],[132.399,34.783],[132.387,34.783],[132.381,34.786],[132.383,34.795],[132.373,34.801],[132.352,34.798],[132.347,34.793],[132.334,34.79],[132.325,34.793],[132.316,34.801],[132.313,34.797],[132.306,34.793],[132.307,34.79],[132.302,34.785],[132.299,34.777],[132.29,34.778],[132.28,34.784],[132.279,34.79],[132.275,34.792],[132.279,34.798],[132.268,34.802],[132.26,34.807],[132.243,34.807],[132.238,34.802],[132.243,34.798],[132.241,34.788],[132.243,34.784],[132.233,34.773],[132.225,34.77],[132.227,34.765],[132.223,34.75],[132.21,34.745],[132.203,34.749],[132.196,34.744],[132.197,34.739],[132.185,34.734],[132.178,34.737],[132.171,34.73],[132.156,34.723],[132.154,34.72],[132.143,34.716],[132.142,34.71],[132.13,34.706],[132.13,34.7],[132.142,34.692],[132.158,34.693],[132.161,34.688],[132.155,34.677],[132.148,34.668],[132.146,34.662],[132.14,34.654],[132.149,34.641],[132.156,34.643],[132.161,34.642],[132.176,34.646],[132.178,34.655],[132.182,34.657],[132.185,34.662],[132.189,34.674],[132.198,34.673],[132.201,34.667],[132.206,34.663],[132.215,34.664],[132.219,34.672],[132.226,34.68],[132.234,34.68],[132.238,34.678],[132.247,34.679],[132.251,34.676],[132.25,34.672],[132.264,34.663],[132.277,34.674],[132.28,34.679],[132.284,34.679],[132.29,34.684],[132.296,34.681],[132.304,34.679],[132.308,34.683],[132.311,34.695],[132.317,34.702],[132.319,34.709],[132.327,34.715],[132.332,34.715],[132.34,34.709],[132.345,34.701],[132.354,34.697],[132.356,34.694],[132.352,34.69],[132.355,34.678],[132.359,34.675],[132.355,34.667],[132.355,34.664],[132.345,34.656],[132.347,34.652],[132.354,34.647],[132.35,34.642],[132.36,34.634],[132.357,34.619],[132.359,34.614],[132.368,34.614],[132.373,34.607],[132.378,34.611],[132.391,34.609],[132.394,34.612],[132.401,34.611],[132.405,34.602],[132.415,34.599],[132.421,34.603],[132.426,34.603],[132.431,34.597],[132.439,34.592],[132.45,34.6],[132.457,34.603],[132.464,34.614],[132.472,34.615],[132.48,34.612],[132.481,34.606],[132.488,34.606],[132.498,34.599],[132.499,34.594],[132.512,34.596],[132.519,34.607],[132.525,34.606],[132.533,34.591],[132.539,34.583],[132.544,34.584]]]]}},{"type":"Feature","properties":{"name":"豊田郡大崎上島町","code":"34431"},"geometry":{"type":"MultiPolygon","coordinates":[[[[132.931,34.285],[132.926,34.282],[132.919,34.275],[132.908,34.265],[132.904,34.25],[132.899,34.248],[132.892,34.255],[132.891,34.262],[132.887,34.262],[132.872,34.248],[132.865,34.248],[132.857,34.24],[132.847,34.244],[132.84,34.24],[132.846,34.235],[132.846,34.23],[132.841,34.228],[132.842,34.223],[132.849,34.214],[132.856,34.208],[132.864,34.206],[132.88,34.206],[132.893,34.212],[132.907,34.214],[132.914,34.212],[132.918,34.217],[132.916,34.224],[132.917,34.234],[132.929,34.247],[132.933,34.254],[132.938,34.273],[132.939,34.28],[132.931,34.285]]],[[[132.916,34.3],[132.907,34.295],[132.907,34.288],[132.914,34.284],[132.915,34.28],[132.925,34.285],[132.926,34.295],[132.918,34.291],[132.914,34.294],[132.916,34.3]]]]}},{"type":"Feature","properties":{"name":"世羅郡世羅町","code":"34462"},"geometry":{"type":"MultiPolygon","coordinates":[[[[133.086,34.539],[133.093,34.537],[133.102,34.539],[133.11,34.545],[133.121,34.548],[133.126,34.547],[133.133,34.558],[133.135,34.564],[133.14,34.566],[133.142,34.573],[133.143,34.578],[133.135,34.582],[133.147,34.589],[133.146,34.593],[133.152,34.596],[133.158,34.605],[133.155,34.611],[133.159,34.612],[133.159,34.629],[133.156,34.632],[133.142,34.639],[133.124,34.639],[133.123,34.645],[133.115,34.648],[133.105,34.657],[133.086,34.663],[133.078,34.657],[133.073,34.658],[133.062,34.652],[133.06,34.659],[133.048,34.658],[133.046,34.661],[133.032,34.67],[133.021,34.673],[133.018,34.679],[133.0,34.678],[132.996,34.675],[132.985,34.677],[132.982,34.669],[132.977,34.669],[132.969,34.665],[132.971,34.661],[132.967,34.657],[132.959,34.659],[132.954,34.655],[132.945,34.657],[132.948,34.66],[132.941,34.664],[132.943,34.669],[132.94,34.673],[132.938,34.682],[132.934,34.682],[132.924,34.678],[132.896,34.684],[132.891,34.684],[132.889,34.675],[132.884,34.668],[132.878,34.664],[132.879,34.65],[132.873,34.647],[132.872,34.637],[132.877,34.634],[132.871,34.62],[132.876,34.614],[132.885,34.611],[132.881,34.606],[132.887,34.598],[132.894,34.595],[132.896,34.583],[132.902,34.581],[132.903,34.587],[132.913,34.591],[132.924,34.59],[132.923,34.585],[132.935,34.585],[132.945,34.579],[132.948,34.58],[132.958,34.577],[132.961,34.568],[132.971,34.57],[132.973,34.567],[132.979,34.561],[132.989,34.557],[132.991,34.552],[132.997,34.548],[133.011,34.554],[133.02,34.554],[133.023,34.552],[133.033,34.557],[133.033,34.56],[133.041,34.564],[133.046,34.561],[133.057,34.559],[133.061,34.554],[133.08,34.55],[133.082,34.543],[133.086,34.539]]]]}},{"type":"Feature","properties":{"name":"神石郡神石高原町","code":"34545"},"geometry":{"type":"MultiPolygon","coordinates":[[[[133.371,34.712],[133.369,34.724],[133.361,34.727],[133.361,34.735],[133.369,34.744],[133.366,34.755],[133.367,34.761],[133.365,34.767],[133.367,34.774],[133.372,34.78],[133.37,34.79],[133.378,34.797],[133.378,34.808],[133.375,34.814],[133.369,34.815],[133.368,34.819],[133.359,34.82],[133.353,34.831],[133.342,34.83],[133.336,34.835],[133.333,34.841],[133.335,34.845],[133.329,34.853],[133.32,34.853],[133.314,34.848],[133.3,34.848],[133.289,34.854],[133.284,34.852],[133.278,34.854],[133.273,34.851],[133.277,34.847],[133.273,34.838],[133.274,34.835],[133.27,34.831],[133.254,34.825],[133.246,34.82],[133.243,34.814],[133.23,34.824],[133.235,34.828],[133.235,34.833],[133.23,34.837],[133.225,34.847],[133.217,34.858],[133.21,34.861],[133.199,34.852],[133.186,34.852],[133.176,34.849],[133.167,34.854],[133.163,34.854],[133.157,34.845],[133.149,34.841],[133.142,34.839],[133.142,34.829],[133.135,34.824],[133.14,34.815],[133.145,34.81],[133.141,34.804],[133.138,34.786],[133.148,34.783],[133.161,34.774],[133.168,34.766],[133.166,34.755],[133.165,34.748],[133.166,34.741],[133.16,34.729],[133.166,34.723],[133.172,34.714],[133.178,34.714],[133.193,34.706],[133.201,34.695],[133.193,34.687],[133.187,34.685],[133.183,34.678],[133.183,34.673],[133.192,34.672],[133.188,34.662],[133.198,34.659],[133.206,34.655],[133.213,34.648],[133.222,34.646],[133.225,34.649],[133.23,34.648],[133.236,34.642],[133.24,34.641],[133.247,34.647],[133.251,34.646],[133.255,34.652],[133.259,34.649],[133.264,34.658],[133.265,34.663],[133.27,34.666],[133.276,34.666],[133.286,34.663],[133.292,34.657],[133.29,34.648],[133.295,34.644],[133.299,34.647],[133.305,34.644],[133.309,34.638],[133.314,34.637],[133.318,34.64],[133.317,34.645],[133.32,34.653],[133.329,34.66],[133.334,34.662],[133.34,34.669],[133.336,34.676],[133.338,34.68],[133.346,34.678],[133.346,34.682],[133.352,34.684],[133.357,34.69],[133.368,34.69],[133.367,34.7],[133.36,34.708],[133.371,34.712]]]]}}]}