{"type":"FeatureCollection","features":[{"type":"Feature","properties":{"name":"下関市","code":"35201"},"geometry":{"type":"MultiPolygon","coordinates":[[[[130.912,33.954],[130.908,33.95],[130.902,33.95],[130.901,33.946],[130.895,33.944],[130.884,33.953],[130.88,33.949],[130.877,33.944],[130.888,33.938],[130.896,33.936],[130.893,33.932],[130.899,33.928],[130.899,33.923],[130.902,33.922],[130.91,33.925],[130.908,33.921],[130.901,33.918],[130.913,33.911],[130.923,33.914],[130.925,33.919],[130.928,33.926],[130.924,33.936],[130.915,33.938],[130.913,33.943],[130.917,33.948],[130.917,33.952],[130.912,33.954]]],[[[130.865,33.981],[130.861,33.98],[130.86,33.972],[130.866,33.97],[130.867,33.974],[130.869,33.978],[130.865,33.981]]],[[[130.898,33.991],[130.894,33.994],[130.89,33.988],[130.896,33.988],[130.898,33.991]]],[[[130.779,34.115],[130.775,34.113],[130.776,34.105],[130.781,34.102],[130.783,34.098],[130.79,34.101],[130.793,34.1],[130.795,34.094],[130.8,34.1],[130.794,34.106],[130.783,34.107],[130.783,34.113],[130.779,34.115]]],[[[130.98,34.363],[130.975,34.362],[130.967,34.358],[130.964,34.358],[130.958,34.356],[130.953,34.355],[130.949,34.353],[130.94,34.351],[130.935,34.352],[130.935,34.348],[130.932,34.347],[130.931,34.343],[130.925,34.342],[130.926,34.348],[130.919,34.354],[130.912,34.354],[130.906,34.362],[130.9,34.361],[130.901,34.355],[130.899,34.351],[130.894,34.347],[130.891,34.347],[130.892,34.338],[130.89,34.334],[130.892,34.33],[130.892,34.326],[130.896,34.32],[130.892,34.32],[130.891,34.312],[130.887,34.312],[130.884,34.306],[130.885,34.299],[130.881,34.295],[130.874,34.296],[130.87,34.294],[130.867,34.288],[130.874,34.281],[130.879,34.279],[130.89,34.273],[130.891,34.268],[130.896,34.266],[130.899,34.259],[130.9,34.255],[130.91,34.248],[130.916,34.244],[130.922,34.239],[130.923,34.233],[130.922,34.225],[130.916,34.215],[130.92,34.213],[130.929,34.213],[130.931,34.21],[130.932,34.199],[130.933,34.19],[130.931,34.183],[130.926,34.181],[130.929,34.177],[130.926,34.17],[130.916,34.16],[130.909,34.159],[130.903,34.153],[130.898,34.153],[130.9,34.148],[130.905,34.147],[130.903,34.141],[130.895,34.135],[130.892,34.135],[130.884,34.137],[130.886,34.14],[130.881,34.142],[130.878,34.136],[130.874,34.138],[130.867,34.137],[130.865,34.114],[130.861,34.11],[130.862,34.104],[130.869,34.102],[130.873,34.099],[130.874,34.093],[130.879,34.088],[130.878,34.081],[130.882,34.079],[130.882,34.075],[130.888,34.072],[130.887,34.068],[130.891,34.065],[130.896,34.071],[130.905,34.064],[130.911,34.062],[130.912,34.056],[130.915,34.046],[130.914,34.043],[130.908,34.034],[130.904,34.025],[130.911,34.024],[130.915,34.023],[130.916,34.02],[130.916,34.011],[130.913,34.003],[130.91,34.001],[130.909,33.992],[130.912,33.984],[130.916,33.983],[130.917,33.978],[130.916,33.975],[130.913,33.971],[130.914,33.963],[130.91,33.959],[130.909,33.955],[130.913,33.955],[130.921,33.951],[130.916,33.945],[130.914,33.941],[130.928,33.938],[130.929,33.942],[130.924,33.943],[130.925,33.947],[130.934,33.948],[130.938,33.949],[130.943,33.954],[130.954,33.962],[130.958,33.967],[130.966,33.97],[130.977,33.977],[130.982,33.981],[130.988,33.985],[130.995,33.989],[130.999,34.0],[131.004,33.999],[131.006,34.003],[131.002,34.005],[131.0,34.009],[131.004,34.014],[131.012,34.01],[131.021,34.02],[131.018,34.024],[131.015,34.027],[131.021,34.035],[131.03,34.039],[131.032,34.043],[131.028,34.046],[131.033,34.05],[131.034,34.053],[131.037,34.057],[131.042,34.056],[131.043,34.053],[131.048,34.05],[131.046,34.044],[131.068,34.039],[131.072,34.057],[131.078,34.06],[131.084,34.064],[131.082,34.069],[131.074,34.07],[131.081,34.074],[131.09,34.075],[131.096,34.071],[131.098,34.075],[131.102,34.071],[131.107,34.074],[131.112,34.075],[131.11,34.081],[131.107,34.093],[131.111,34.092],[131.113,34.096],[131.113,34.104],[131.113,34.108],[131.109,34.113],[131.103,34.116],[131.098,34.125],[131.093,34.125],[131.084,34.131],[131.083,34.135],[131.085,34.141],[131.086,34.149],[131.09,34.153],[131.089,34.16],[131.09,34.166],[131.097,34.167],[131.098,34.164],[131.102,34.163],[131.103,34.159],[131.111,34.157],[131.118,34.161],[131.113,34.171],[131.108,34.174],[131.108,34.178],[131.099,34.186],[131.1,34.19],[131.103,34.192],[131.105,34.195],[131.109,34.198],[131.109,34.201],[131.107,34.205],[131.114,34.21],[131.122,34.213],[131.123,34.216],[131.126,34.219],[131.132,34.222],[131.137,34.222],[131.145,34.225],[131.146,34.23],[131.153,34.233],[131.157,34.231],[131.161,34.236],[131.161,34.242],[131.165,34.245],[131.167,34.25],[131.172,34.256],[131.171,34.261],[131.166,34.262],[131.162,34.263],[131.159,34.269],[131.155,34.271],[131.151,34.27],[131.145,34.27],[131.134,34.27],[131.129,34.267],[131.125,34.267],[131.117,34.266],[131.113,34.264],[131.108,34.265],[131.105,34.265],[131.098,34.263],[131.094,34.267],[131.087,34.267],[131.084,34.274],[131.086,34.279],[131.084,34.284],[131.077,34.289],[131.074,34.293],[131.067,34.292],[131.058,34.3],[131.058,34.304],[131.05,34.306],[131.043,34.311],[131.036,34.312],[131.035,34.317],[131.033,34.322],[131.02,34.325],[131.02,34.331],[131.015,34.336],[131.014,34.34],[131.01,34.342],[131.003,34.346],[131.001,34.353],[130.997,34.353],[130.991,34.358],[130.982,34.362]]],[[[130.974,34.364],[130.967,34.363],[130.965,34.359],[130.973,34.361]]],[[[130.867,34.374],[130.868,34.37],[130.87,34.366],[130.866,34.359],[130.86,34.357],[130.857,34.355],[130.844,34.354],[130.84,34.355],[130.838,34.351],[130.841,34.345],[130.848,34.341],[130.852,34.345],[130.858,34.353],[130.861,34.353],[130.866,34.352],[130.872,34.355],[130.878,34.353],[130.88,34.357],[130.881,34.364],[130.877,34.368],[130.871,34.369],[130.871,34.372],[130.867,34.374]]]]}},{"type":"Feature","properties":{"name":"萩市","code":"35204"},"geometry":{"type":"MultiPolygon","coordinates":[[[[131.412,34.513],[131.408,34.512],[131.403,34.506],[131.401,34.499],[131.402,34.495],[131.408,34.489],[131.413,34.493],[131.419,34.494],[131.418,34.5],[131.415,34.507],[131.417,34.511],[131.412,34.513]]],[[[131.278,34.518],[131.272,34.508],[131.272,34.505],[131.278,34.497],[131.28,34.502],[131.292,34.505],[131.294,34.511],[131.286,34.513],[131.278,34.516]]],[[[131.389,34.524],[131.384,34.521],[131.384,34.516],[131.387,34.512],[131.39,34.513],[131.392,34.522]]],[[[131.342,34.318],[131.336,34.309],[131.344,34.306],[131.348,34.302],[131.354,34.304],[131.361,34.307],[131.366,34.307],[131.368,34.31],[131.372,34.309],[131.374,34.304],[131.377,34.3],[131.38,34.298],[131.382,34.293],[131.38,34.287],[131.381,34.28],[131.386,34.278],[131.389,34.269],[131.394,34.266],[131.402,34.269],[131.402,34.263],[131.405,34.258],[131.4,34.252],[131.402,34.247],[131.404,34.241],[131.4,34.235],[131.401,34.225],[131.397,34.218],[131.408,34.213],[131.416,34.21],[131.421,34.218],[131.427,34.218],[131.431,34.219],[131.433,34.222],[131.446,34.222],[131.45,34.224],[131.456,34.231],[131.461,34.231],[131.464,34.238],[131.475,34.242],[131.482,34.245],[131.486,34.243],[131.488,34.24],[131.493,34.242],[131.499,34.24],[131.502,34.243],[131.5,34.248],[131.507,34.251],[131.507,34.255],[131.504,34.258],[131.511,34.266],[131.516,34.274],[131.514,34.278],[131.52,34.28],[131.524,34.279],[131.521,34.288],[131.526,34.292],[131.534,34.295],[131.533,34.299],[131.538,34.301],[131.541,34.305],[131.544,34.301],[131.549,34.299],[131.553,34.303],[131.558,34.308],[131.56,34.318],[131.567,34.326],[131.566,34.329],[131.561,34.331],[131.558,34.336],[131.561,34.341],[131.56,34.346],[131.553,34.362],[131.539,34.365],[131.534,34.369],[131.533,34.378],[131.542,34.386],[131.547,34.387],[131.546,34.394],[131.54,34.397],[131.538,34.4],[131.537,34.41],[131.542,34.414],[131.543,34.409],[131.547,34.41],[131.551,34.408],[131.563,34.412],[131.569,34.413],[131.576,34.408],[131.587,34.407],[131.592,34.41],[131.602,34.408],[131.607,34.41],[131.606,34.416],[131.609,34.421],[131.613,34.425],[131.617,34.432],[131.621,34.432],[131.624,34.437],[131.628,34.443],[131.634,34.444],[131.634,34.455],[131.64,34.46],[131.639,34.465],[131.646,34.466],[131.65,34.47],[131.649,34.476],[131.653,34.48],[131.65,34.482],[131.646,34.487],[131.651,34.491],[131.646,34.499],[131.654,34.5],[131.658,34.505],[131.666,34.502],[131.669,34.511],[131.673,34.511],[131.678,34.517],[131.688,34.521],[131.695,34.524],[131.701,34.531],[131.707,34.533],[131.701,34.539],[131.705,34.542],[131.703,34.55],[131.705,34.56],[131.706,34.563],[131.713,34.563],[131.714,34.566],[131.72,34.572],[131.724,34.572],[131.727,34.576],[131.725,34.58],[131.721,34.582],[131.72,34.589],[131.719,34.597],[131.72,34.601],[131.717,34.606],[131.718,34.613],[131.707,34.613],[131.7,34.616],[131.695,34.621],[131.694,34.628],[131.698,34.632],[131.697,34.642],[131.699,34.649],[131.695,34.649],[131.697,34.653],[131.695,34.656],[131.689,34.657],[131.69,34.663],[131.684,34.667],[131.689,34.673],[131.689,34.678],[131.686,34.678],[131.679,34.675],[131.673,34.673],[131.673,34.677],[131.668,34.676],[131.668,34.672],[131.671,34.668],[131.672,34.664],[131.67,34.66],[131.666,34.66],[131.665,34.657],[131.661,34.655],[131.654,34.653],[131.649,34.653],[131.644,34.649],[131.65,34.647],[131.648,34.642],[131.638,34.647],[131.643,34.656],[131.64,34.662],[131.635,34.664],[131.631,34.663],[131.623,34.665],[131.612,34.666],[131.602,34.66],[131.597,34.653],[131.598,34.65],[131.596,34.646],[131.592,34.646],[131.591,34.643],[131.594,34.638],[131.592,34.635],[131.591,34.629],[131.595,34.631],[131.601,34.631],[131.602,34.628],[131.603,34.623],[131.598,34.622],[131.591,34.622],[131.585,34.621],[131.579,34.626],[131.58,34.62],[131.572,34.622],[131.569,34.622],[131.562,34.618],[131.558,34.614],[131.555,34.607],[131.558,34.603],[131.564,34.607],[131.574,34.604],[131.582,34.603],[131.585,34.592],[131.588,34.59],[131.592,34.591],[131.598,34.588],[131.601,34.583],[131.598,34.575],[131.595,34.573],[131.596,34.567],[131.591,34.563],[131.591,34.557],[131.596,34.557],[131.601,34.551],[131.605,34.55],[131.614,34.547],[131.615,34.54],[131.62,34.537],[131.619,34.531],[131.623,34.531],[131.634,34.532],[131.636,34.526],[131.642,34.522],[131.644,34.517],[131.648,34.514],[131.638,34.51],[131.632,34.507],[131.628,34.503],[131.622,34.503],[131.614,34.496],[131.609,34.5],[131.603,34.498],[131.598,34.494],[131.595,34.486],[131.589,34.485],[131.584,34.482],[131.58,34.482],[131.574,34.48],[131.567,34.481],[131.563,34.485],[131.562,34.49],[131.558,34.491],[131.555,34.496],[131.55,34.497],[131.55,34.502],[131.546,34.507],[131.547,34.514],[131.543,34.517],[131.539,34.516],[131.535,34.51],[131.53,34.505],[131.523,34.505],[131.517,34.502],[131.511,34.497],[131.514,34.491],[131.506,34.489],[131.503,34.483],[131.494,34.484],[131.49,34.488],[131.483,34.488],[131.478,34.492],[131.469,34.488],[131.462,34.486],[131.455,34.481],[131.448,34.485],[131.441,34.483],[131.446,34.476],[131.442,34.471],[131.437,34.471],[131.435,34.466],[131.429,34.461],[131.424,34.454],[131.418,34.452],[131.415,34.449],[131.407,34.453],[131.405,34.457],[131.401,34.46],[131.397,34.459],[131.394,34.454],[131.396,34.448],[131.404,34.445],[131.409,34.447],[131.414,34.446],[131.422,34.439],[131.414,34.434],[131.409,34.433],[131.412,34.43],[131.412,34.426],[131.404,34.429],[131.399,34.423],[131.391,34.417],[131.387,34.417],[131.384,34.422],[131.379,34.422],[131.379,34.418],[131.369,34.414],[131.362,34.411],[131.353,34.411],[131.348,34.417],[131.344,34.415],[131.337,34.416],[131.332,34.413],[131.328,34.406],[131.329,34.401],[131.328,34.397],[131.325,34.393],[131.321,34.391],[131.317,34.391],[131.312,34.387],[131.307,34.387],[131.307,34.384],[131.299,34.382],[131.293,34.38],[131.295,34.372],[131.294,34.369],[131.297,34.365],[131.304,34.362],[131.315,34.368],[131.328,34.36],[131.341,34.36],[131.347,34.354],[131.345,34.343],[131.346,34.33],[131.343,34.326],[131.342,34.318]]],[[[131.131,34.799],[131.129,34.794],[131.128,34.786],[131.13,34.783],[131.13,34.774],[131.131,34.769],[131.136,34.763],[131.138,34.758],[131.148,34.758],[131.154,34.763],[131.161,34.764],[131.162,34.772],[131.161,34.776],[131.147,34.78],[131.146,34.788],[131.142,34.788],[131.135,34.793],[131.131,34.799]]]]}},{"type":"Feature","properties":{"name":"光市","code":"35210"},"geometry":{"type":"MultiPolygon","coordinates":[[[[132.017,33.871],[132.017,33.864],[132.016,33.859],[132.012,33.858],[132.003,33.861],[131.998,33.861],[131.998,33.857],[132.005,33.855],[132.017,33.854],[132.023,33.855],[132.021,33.862],[132.018,33.865],[132.017,33.871]]],[[[131.892,33.978],[131.898,33.977],[131.905,33.973],[131.911,33.971],[131.919,33.967],[131.924,33.959],[131.929,33.952],[131.936,33.947],[131.945,33.947],[131.948,33.95],[131.957,33.95],[131.963,33.945],[131.967,33.939],[131.969,33.933],[131.969,33.929],[131.963,33.928],[131.963,33.921],[131.972,33.917],[131.97,33.922],[131.975,33.929],[131.98,33.93],[131.987,33.926],[132.0,33.915],[132.003,33.915],[132.008,33.91],[132.016,33.907],[132.019,33.907],[132.025,33.902],[132.026,33.908],[132.027,33.913],[132.016,33.915],[132.012,33.922],[132.003,33.926],[132.003,33.929],[131.998,33.933],[131.995,33.932],[131.992,33.935],[131.984,33.941],[131.983,33.946],[131.98,33.951],[131.984,33.958],[131.994,33.96],[131.998,33.964],[131.997,33.968],[132.0,33.971],[132.005,33.971],[132.012,33.976],[132.008,33.978],[132.013,33.981],[132.022,33.988],[132.032,33.986],[132.036,33.983],[132.051,33.985],[132.055,33.99],[132.063,33.99],[132.064,33.997],[132.06,33.999],[132.056,33.999],[132.053,34.002],[132.054,34.006],[132.058,34.009],[132.054,34.012],[132.042,34.014],[132.038,34.011],[132.031,34.014],[132.027,34.014],[132.024,34.024],[132.016,34.026],[132.008,34.028],[131.997,34.028],[131.992,34.029],[131.983,34.025],[131.974,34.03],[131.967,34.033],[131.961,34.027],[131.965,34.022],[131.961,34.016],[131.951,34.011],[131.937,34.008],[131.933,34.006],[131.926,34.002],[131.923,33.999],[131.917,33.998],[131.912,33.996],[131.908,33.996],[131.905,33.991],[131.899,33.991],[131.899,33.985],[131.892,33.978]]]]}},{"type":"Feature","properties":{"name":"長門市","code":"35211"},"geometry":{"type":"MultiPolygon","coordinates":[[[[131.246,34.438],[131.24,34.437],[131.235,34.432],[131.229,34.432],[131.221,34.429],[131.217,34.426],[131.2,34.426],[131.196,34.429],[131.193,34.424],[131.186,34.423],[131.182,34.425],[131.181,34.428],[131.171,34.426],[131.173,34.418],[131.173,34.408],[131.182,34.405],[131.187,34.402],[131.196,34.398],[131.207,34.401],[131.213,34.404],[131.211,34.408],[131.207,34.411],[131.212,34.416],[131.222,34.424],[131.224,34.418],[131.227,34.417],[131.233,34.423],[131.239,34.424],[131.243,34.422],[131.247,34.425],[131.255,34.422],[131.252,34.419],[131.256,34.417],[131.257,34.422],[131.261,34.426],[131.26,34.431],[131.255,34.432],[131.254,34.437],[131.248,34.436]]],[[[131.172,34.264],[131.176,34.266],[131.179,34.27],[131.18,34.275],[131.182,34.281],[131.185,34.283],[131.19,34.283],[131.204,34.285],[131.21,34.281],[131.217,34.283],[131.223,34.285],[131.227,34.285],[131.23,34.289],[131.232,34.294],[131.24,34.298],[131.244,34.301],[131.245,34.308],[131.251,34.316],[131.257,34.316],[131.258,34.32],[131.263,34.324],[131.265,34.328],[131.275,34.331],[131.277,34.335],[131.283,34.337],[131.287,34.335],[131.293,34.329],[131.296,34.322],[131.303,34.312],[131.307,34.311],[131.311,34.313],[131.312,34.319],[131.315,34.319],[131.315,34.323],[131.322,34.322],[131.327,34.325],[131.33,34.321],[131.334,34.321],[131.342,34.318],[131.343,34.326],[131.346,34.33],[131.344,34.341],[131.347,34.354],[131.341,34.36],[131.328,34.36],[131.317,34.37],[131.306,34.365],[131.297,34.365],[131.294,34.369],[131.295,34.372],[131.293,34.38],[131.291,34.384],[131.287,34.385],[131.281,34.384],[131.279,34.389],[131.272,34.39],[131.262,34.384],[131.257,34.384],[131.248,34.382],[131.242,34.384],[131.234,34.391],[131.23,34.389],[131.225,34.392],[131.222,34.385],[131.224,34.379],[131.215,34.371],[131.208,34.373],[131.208,34.382],[131.204,34.385],[131.2,34.398],[131.195,34.389],[131.188,34.381],[131.169,34.373],[131.166,34.372],[131.154,34.373],[131.148,34.381],[131.143,34.381],[131.143,34.384],[131.138,34.389],[131.137,34.393],[131.14,34.399],[131.136,34.407],[131.129,34.413],[131.118,34.411],[131.112,34.409],[131.109,34.414],[131.101,34.417],[131.093,34.421],[131.078,34.422],[131.074,34.425],[131.069,34.422],[131.064,34.421],[131.058,34.415],[131.051,34.415],[131.043,34.41],[131.038,34.412],[131.033,34.41],[131.025,34.411],[131.02,34.411],[131.01,34.413],[131.005,34.415],[131.003,34.422],[131.003,34.428],[131.0,34.43],[130.987,34.435],[130.98,34.435],[130.974,34.44],[130.973,34.432],[130.97,34.428],[130.961,34.428],[130.957,34.42],[130.959,34.414],[130.954,34.407],[130.946,34.403],[130.94,34.404],[130.936,34.395],[130.94,34.389],[130.947,34.387],[130.955,34.389],[130.954,34.394],[130.95,34.4],[130.952,34.405],[130.959,34.408],[130.966,34.405],[130.972,34.405],[130.98,34.399],[130.983,34.401],[130.99,34.399],[131.002,34.399],[131.011,34.402],[131.017,34.405],[131.016,34.401],[131.02,34.397],[131.021,34.391],[131.025,34.391],[131.029,34.389],[131.037,34.379],[131.034,34.37],[131.025,34.372],[131.021,34.375],[131.015,34.372],[131.006,34.37],[131.001,34.374],[130.995,34.372],[130.993,34.368],[130.987,34.368],[130.98,34.363],[130.991,34.358],[130.997,34.353],[131.001,34.353],[131.003,34.346],[131.01,34.342],[131.014,34.34],[131.015,34.336],[131.02,34.331],[131.02,34.325],[131.033,34.322],[131.035,34.317],[131.036,34.312],[131.04,34.31],[131.05,34.306],[131.058,34.304],[131.058,34.3],[131.067,34.292],[131.074,34.293],[131.077,34.289],[131.084,34.284],[131.086,34.279],[131.084,34.274],[131.087,34.267],[131.094,34.267],[131.098,34.263],[131.102,34.262],[131.108,34.265],[131.113,34.264],[131.117,34.266],[131.122,34.265],[131.129,34.267],[131.134,34.27],[131.142,34.272],[131.151,34.27],[131.155,34.271],[131.159,34.269],[131.162,34.263],[131.166,34.262],[131.172,34.264]]],[[[131.268,34.418],[131.266,34.415],[131.268,34.41],[131.274,34.412],[131.27,34.414],[131.268,34.418]]]]}},{"type":"Feature","properties":{"name":"柳井市","code":"35212"},"geometry":{"type":"MultiPolygon","coordinates":[[[[132.259,33.816],[132.249,33.814],[132.249,33.811],[132.254,33.807],[132.257,33.811],[132.259,33.816]]],[[[132.209,33.817],[132.206,33.817],[132.201,33.814],[132.195,33.81],[132.188,33.808],[132.186,33.811],[132.177,33.808],[132.172,33.804],[132.172,33.798],[132.177,33.797],[132.186,33.801],[132.19,33.804],[132.197,33.804],[132.202,33.8],[132.202,33.793],[132.213,33.787],[132.216,33.782],[132.223,33.783],[132.23,33.781],[132.233,33.784],[132.242,33.782],[132.25,33.774],[132.257,33.771],[132.263,33.774],[132.27,33.778],[132.26,33.78],[132.257,33.783],[132.257,33.786],[132.248,33.797],[132.241,33.797],[132.236,33.798],[132.232,33.803],[132.23,33.808],[132.227,33.806],[132.223,33.809],[132.223,33.813],[132.218,33.815],[132.211,33.815]]],[[[132.063,33.99],[132.062,33.979],[132.064,33.965],[132.057,33.961],[132.06,33.955],[132.069,33.956],[132.077,33.955],[132.08,33.957],[132.087,33.959],[132.094,33.959],[132.097,33.955],[132.1,33.955],[132.106,33.951],[132.105,33.947],[132.107,33.94],[132.108,33.923],[132.103,33.917],[132.1,33.914],[132.095,33.913],[132.097,33.909],[132.103,33.906],[132.104,33.901],[132.107,33.9],[132.11,33.895],[132.122,33.883],[132.124,33.88],[132.133,33.875],[132.135,33.866],[132.133,33.862],[132.138,33.853],[132.142,33.853],[132.143,33.85],[132.149,33.847],[132.153,33.843],[132.157,33.845],[132.157,33.849],[132.158,33.86],[132.149,33.864],[132.146,33.867],[132.148,33.875],[132.137,33.879],[132.133,33.882],[132.131,33.886],[132.129,33.892],[132.127,33.899],[132.129,33.904],[132.132,33.91],[132.128,33.915],[132.126,33.924],[132.126,33.938],[132.122,33.943],[132.121,33.947],[132.121,33.953],[132.125,33.947],[132.13,33.953],[132.128,33.957],[132.138,33.957],[132.153,33.956],[132.16,33.957],[132.168,33.96],[132.176,33.962],[132.179,33.963],[132.185,33.962],[132.193,33.972],[132.196,33.975],[132.199,33.981],[132.194,33.983],[132.197,33.988],[132.194,33.992],[132.195,34.002],[132.195,34.007],[132.197,34.011],[132.192,34.014],[132.187,34.019],[132.178,34.019],[132.168,34.017],[132.162,34.018],[132.153,34.029],[132.149,34.029],[132.147,34.032],[132.143,34.032],[132.141,34.04],[132.135,34.044],[132.131,34.043],[132.126,34.045],[132.125,34.049],[132.121,34.052],[132.113,34.05],[132.108,34.053],[132.104,34.053],[132.098,34.048],[132.095,34.048],[132.089,34.043],[132.086,34.037],[132.082,34.032],[132.077,34.025],[132.072,34.025],[132.067,34.021],[132.07,34.018],[132.074,34.017],[132.071,34.014],[132.067,34.005],[132.064,33.997],[132.063,33.99]]]]}},{"type":"Feature","properties":{"name":"大島郡周防大島町","code":"35305"},"geometry":{"type":"MultiPolygon","coordinates":[[[[132.401,33.815],[132.396,33.812],[132.392,33.807],[132.394,33.802],[132.4,33.804],[132.4,33.807],[132.398,33.811],[132.401,33.815]]],[[[132.359,33.859],[132.356,33.857],[132.357,33.854],[132.362,33.851],[132.366,33.847],[132.373,33.848],[132.37,33.853],[132.367,33.852],[132.359,33.859]]],[[[132.166,33.947],[132.157,33.946],[132.154,33.94],[132.163,33.939],[132.169,33.945]]],[[[132.348,33.959],[132.344,33.959],[132.338,33.955],[132.337,33.947],[132.349,33.946],[132.353,33.939],[132.356,33.942],[132.354,33.945],[132.354,33.952],[132.35,33.96]]],[[[132.471,33.967],[132.465,33.963],[132.472,33.958],[132.474,33.954],[132.478,33.954],[132.479,33.959],[132.476,33.963],[132.471,33.967]]],[[[132.234,33.968],[132.229,33.96],[132.224,33.959],[132.217,33.961],[132.217,33.965],[132.213,33.964],[132.211,33.96],[132.213,33.956],[132.212,33.952],[132.207,33.95],[132.203,33.949],[132.192,33.955],[132.185,33.954],[132.183,33.951],[132.185,33.946],[132.188,33.942],[132.188,33.935],[132.184,33.93],[132.176,33.931],[132.173,33.924],[132.177,33.92],[132.177,33.911],[132.175,33.903],[132.18,33.896],[132.187,33.893],[132.19,33.886],[132.195,33.885],[132.2,33.882],[132.204,33.879],[132.204,33.872],[132.2,33.871],[132.205,33.864],[132.207,33.859],[132.213,33.862],[132.216,33.867],[132.214,33.87],[132.22,33.874],[132.225,33.874],[132.234,33.877],[132.238,33.877],[132.242,33.874],[132.249,33.877],[132.259,33.878],[132.264,33.872],[132.268,33.87],[132.268,33.877],[132.268,33.884],[132.27,33.888],[132.274,33.894],[132.278,33.894],[132.284,33.9],[132.289,33.902],[132.292,33.898],[132.289,33.894],[132.29,33.891],[132.294,33.893],[132.296,33.897],[132.3,33.897],[132.309,33.895],[132.314,33.892],[132.32,33.893],[132.327,33.889],[132.329,33.883],[132.333,33.886],[132.338,33.881],[132.329,33.873],[132.326,33.869],[132.325,33.864],[132.327,33.858],[132.332,33.858],[132.334,33.861],[132.344,33.865],[132.345,33.869],[132.35,33.869],[132.355,33.867],[132.36,33.864],[132.361,33.861],[132.366,33.863],[132.371,33.864],[132.368,33.867],[132.369,33.877],[132.364,33.879],[132.363,33.885],[132.367,33.892],[132.364,33.894],[132.363,33.898],[132.367,33.903],[132.372,33.904],[132.371,33.909],[132.376,33.914],[132.386,33.915],[132.387,33.912],[132.39,33.911],[132.39,33.916],[132.394,33.918],[132.399,33.918],[132.405,33.916],[132.406,33.911],[132.41,33.912],[132.411,33.917],[132.416,33.919],[132.423,33.926],[132.433,33.927],[132.434,33.932],[132.443,33.931],[132.451,33.932],[132.454,33.935],[132.457,33.941],[132.444,33.942],[132.439,33.944],[132.439,33.952],[132.432,33.95],[132.424,33.954],[132.417,33.953],[132.412,33.947],[132.409,33.944],[132.402,33.941],[132.406,33.933],[132.401,33.928],[132.395,33.926],[132.388,33.925],[132.38,33.926],[132.372,33.926],[132.366,33.925],[132.365,33.922],[132.36,33.918],[132.355,33.918],[132.358,33.911],[132.354,33.907],[132.346,33.904],[132.342,33.905],[132.335,33.902],[132.33,33.902],[132.323,33.905],[132.317,33.906],[132.324,33.917],[132.315,33.917],[132.307,33.915],[132.306,33.919],[132.301,33.92],[132.3,33.924],[132.302,33.93],[132.298,33.934],[132.287,33.942],[132.286,33.955],[132.274,33.95],[132.268,33.948],[132.259,33.95],[132.249,33.954],[132.245,33.963],[132.234,33.968]]],[[[132.349,33.974],[132.348,33.97],[132.351,33.961],[132.356,33.967],[132.352,33.969],[132.349,33.974]]],[[[132.264,34.01],[132.26,34.007],[132.258,34.004],[132.266,33.999],[132.264,33.996],[132.272,33.996],[132.272,33.999],[132.27,34.005],[132.266,34.009]]]]}},{"type":"Feature","properties":{"name":"宇部市","code":"35202"},"geometry":{"type":"MultiPolygon","coordinates":[[[[131.37,34.138],[131.363,34.141],[131.359,34.138],[131.353,34.14],[131.348,34.137],[131.342,34.14],[131.34,34.144],[131.334,34.147],[131.329,34.15],[131.322,34.152],[131.322,34.156],[131.325,34.161],[131.318,34.166],[131.311,34.161],[131.306,34.163],[131.298,34.165],[131.294,34.167],[131.289,34.163],[131.285,34.161],[131.282,34.155],[131.277,34.15],[131.278,34.146],[131.274,34.141],[131.268,34.142],[131.263,34.14],[131.256,34.145],[131.248,34.142],[131.241,34.141],[131.238,34.137],[131.237,34.13],[131.238,34.127],[131.234,34.127],[131.231,34.123],[131.223,34.122],[131.215,34.12],[131.214,34.117],[131.21,34.113],[131.214,34.113],[131.218,34.109],[131.215,34.099],[131.217,34.094],[131.211,34.083],[131.213,34.079],[131.216,34.076],[131.206,34.071],[131.205,34.067],[131.202,34.068],[131.196,34.065],[131.192,34.061],[131.19,34.057],[131.184,34.052],[131.187,34.05],[131.191,34.044],[131.196,34.043],[131.199,34.037],[131.207,34.039],[131.211,34.034],[131.219,34.031],[131.224,34.03],[131.223,34.026],[131.222,34.019],[131.219,34.018],[131.217,34.013],[131.21,34.01],[131.204,34.008],[131.201,34.002],[131.192,33.997],[131.192,33.992],[131.186,33.989],[131.189,33.978],[131.189,33.972],[131.189,33.966],[131.187,33.962],[131.193,33.958],[131.199,33.943],[131.21,33.945],[131.21,33.948],[131.212,33.958],[131.219,33.958],[131.218,33.95],[131.224,33.949],[131.225,33.956],[131.228,33.963],[131.225,33.949],[131.227,33.945],[131.217,33.94],[131.215,33.937],[131.223,33.934],[131.231,33.938],[131.235,33.943],[131.234,33.948],[131.239,33.951],[131.244,33.944],[131.243,33.939],[131.234,33.936],[131.23,33.93],[131.233,33.927],[131.25,33.936],[131.247,33.931],[131.251,33.924],[131.244,33.923],[131.242,33.92],[131.249,33.921],[131.253,33.925],[131.262,33.926],[131.267,33.923],[131.293,33.934],[131.295,33.942],[131.3,33.941],[131.304,33.948],[131.313,33.951],[131.317,33.955],[131.321,33.955],[131.328,33.952],[131.333,33.953],[131.337,33.955],[131.339,33.959],[131.342,33.96],[131.344,33.963],[131.349,33.966],[131.352,33.965],[131.356,33.966],[131.351,33.972],[131.351,33.977],[131.348,33.982],[131.353,33.987],[131.359,33.988],[131.363,33.997],[131.357,33.997],[131.348,34.001],[131.34,34.001],[131.334,33.998],[131.33,33.998],[131.325,34.0],[131.32,33.996],[131.315,33.997],[131.301,33.997],[131.297,33.996],[131.292,34.001],[131.296,34.008],[131.305,34.015],[131.301,34.019],[131.302,34.024],[131.307,34.025],[131.307,34.032],[131.311,34.033],[131.317,34.04],[131.316,34.044],[131.319,34.047],[131.324,34.046],[131.33,34.048],[131.336,34.055],[131.339,34.063],[131.339,34.067],[131.344,34.071],[131.347,34.07],[131.35,34.077],[131.346,34.081],[131.353,34.088],[131.352,34.091],[131.352,34.099],[131.348,34.101],[131.345,34.107],[131.352,34.109],[131.36,34.105],[131.364,34.108],[131.37,34.108],[131.368,34.112],[131.373,34.113],[131.377,34.119],[131.378,34.125],[131.376,34.132],[131.37,34.138]]]]}},{"type":"Feature","properties":{"name":"山口市","code":"35203"},"geometry":{"type":"MultiPolygon","coordinates":[[[[131.41,34.211],[131.405,34.209],[131.405,34.203],[131.401,34.2],[131.405,34.197],[131.401,34.194],[131.398,34.189],[131.397,34.182],[131.391,34.179],[131.39,34.175],[131.379,34.166],[131.38,34.162],[131.379,34.157],[131.376,34.154],[131.37,34.153],[131.375,34.149],[131.377,34.145],[131.374,34.143],[131.37,34.138],[131.376,34.132],[131.375,34.126],[131.379,34.121],[131.376,34.115],[131.368,34.112],[131.37,34.108],[131.364,34.108],[131.36,34.105],[131.352,34.109],[131.345,34.107],[131.348,34.101],[131.352,34.099],[131.352,34.091],[131.353,34.088],[131.346,34.083],[131.35,34.077],[131.347,34.07],[131.344,34.071],[131.339,34.067],[131.339,34.063],[131.336,34.055],[131.33,34.048],[131.324,34.046],[131.319,34.047],[131.316,34.044],[131.317,34.04],[131.311,34.033],[131.307,34.032],[131.307,34.025],[131.302,34.024],[131.301,34.019],[131.306,34.017],[131.295,34.01],[131.292,34.001],[131.296,33.999],[131.301,33.997],[131.313,33.994],[131.32,33.996],[131.325,34.0],[131.33,33.998],[131.334,33.998],[131.34,34.001],[131.348,34.001],[131.357,33.997],[131.363,33.997],[131.371,34.0],[131.378,34.008],[131.383,34.022],[131.372,34.026],[131.381,34.031],[131.387,34.032],[131.384,34.037],[131.386,34.047],[131.385,34.05],[131.394,34.051],[131.399,34.049],[131.397,34.045],[131.395,34.035],[131.394,34.026],[131.402,34.026],[131.415,34.021],[131.407,34.014],[131.401,33.998],[131.395,33.996],[131.401,33.994],[131.406,33.997],[131.409,34.005],[131.412,34.008],[131.419,34.011],[131.419,34.015],[131.427,34.014],[131.432,34.007],[131.428,33.997],[131.424,33.991],[131.427,33.989],[131.436,33.988],[131.436,33.983],[131.442,33.983],[131.442,33.992],[131.449,33.995],[131.455,33.995],[131.455,33.988],[131.461,33.988],[131.464,33.993],[131.461,33.997],[131.455,34.002],[131.462,34.004],[131.471,34.01],[131.479,34.013],[131.478,34.017],[131.472,34.02],[131.466,34.029],[131.467,34.033],[131.472,34.037],[131.476,34.038],[131.471,34.04],[131.47,34.044],[131.464,34.046],[131.461,34.044],[131.457,34.05],[131.458,34.054],[131.455,34.057],[131.455,34.062],[131.462,34.066],[131.466,34.07],[131.481,34.075],[131.486,34.088],[131.491,34.09],[131.491,34.094],[131.496,34.096],[131.5,34.099],[131.508,34.099],[131.514,34.092],[131.519,34.086],[131.524,34.087],[131.532,34.09],[131.533,34.093],[131.548,34.096],[131.554,34.104],[131.558,34.107],[131.557,34.114],[131.56,34.118],[131.564,34.122],[131.57,34.12],[131.575,34.122],[131.573,34.125],[131.573,34.135],[131.579,34.136],[131.581,34.14],[131.584,34.143],[131.581,34.15],[131.591,34.15],[131.599,34.147],[131.607,34.147],[131.613,34.143],[131.619,34.143],[131.619,34.139],[131.623,34.14],[131.627,34.143],[131.628,34.15],[131.633,34.15],[131.631,34.155],[131.636,34.16],[131.656,34.158],[131.66,34.152],[131.657,34.142],[131.654,34.137],[131.661,34.137],[131.667,34.134],[131.674,34.135],[131.681,34.132],[131.686,34.133],[131.693,34.142],[131.699,34.142],[131.707,34.136],[131.713,34.133],[131.715,34.136],[131.72,34.137],[131.725,34.141],[131.726,34.15],[131.723,34.158],[131.724,34.162],[131.728,34.164],[131.737,34.167],[131.739,34.172],[131.738,34.176],[131.733,34.176],[131.732,34.182],[131.736,34.186],[131.734,34.189],[131.738,34.191],[131.746,34.191],[131.754,34.189],[131.759,34.19],[131.764,34.195],[131.76,34.204],[131.756,34.209],[131.751,34.213],[131.751,34.225],[131.747,34.228],[131.747,34.234],[131.741,34.245],[131.741,34.256],[131.746,34.261],[131.75,34.261],[131.753,34.263],[131.755,34.267],[131.754,34.271],[131.758,34.275],[131.753,34.282],[131.744,34.289],[131.742,34.293],[131.744,34.297],[131.75,34.301],[131.749,34.306],[131.745,34.31],[131.744,34.314],[131.746,34.318],[131.746,34.328],[131.757,34.331],[131.754,34.336],[131.757,34.34],[131.756,34.346],[131.761,34.35],[131.771,34.356],[131.766,34.365],[131.766,34.372],[131.767,34.375],[131.764,34.377],[131.763,34.381],[131.769,34.387],[131.773,34.387],[131.775,34.395],[131.779,34.399],[131.785,34.4],[131.785,34.406],[131.787,34.412],[131.793,34.422],[131.795,34.433],[131.791,34.436],[131.787,34.434],[131.78,34.436],[131.773,34.435],[131.761,34.434],[131.752,34.439],[131.745,34.435],[131.741,34.429],[131.738,34.429],[131.73,34.433],[131.721,34.429],[131.717,34.43],[131.713,34.428],[131.71,34.432],[131.702,34.436],[131.697,34.435],[131.694,34.444],[131.697,34.446],[131.699,34.451],[131.696,34.455],[131.696,34.458],[131.694,34.466],[131.699,34.47],[131.7,34.475],[131.696,34.481],[131.689,34.479],[131.683,34.478],[131.681,34.485],[131.682,34.493],[131.676,34.501],[131.668,34.504],[131.658,34.505],[131.654,34.5],[131.646,34.499],[131.651,34.491],[131.646,34.487],[131.65,34.482],[131.653,34.48],[131.649,34.476],[131.65,34.47],[131.646,34.466],[131.639,34.465],[131.64,34.46],[131.634,34.455],[131.635,34.447],[131.628,34.443],[131.626,34.438],[131.621,34.432],[131.617,34.432],[131.613,34.425],[131.609,34.421],[131.606,34.416],[131.607,34.41],[131.602,34.408],[131.592,34.41],[131.587,34.407],[131.576,34.408],[131.569,34.413],[131.565,34.412],[131.551,34.408],[131.547,34.41],[131.543,34.409],[131.542,34.414],[131.537,34.41],[131.538,34.4],[131.54,34.397],[131.546,34.394],[131.547,34.387],[131.542,34.386],[131.533,34.378],[131.534,34.369],[131.539,34.365],[131.551,34.362],[131.56,34.346],[131.561,34.341],[131.558,34.336],[131.561,34.331],[131.566,34.329],[131.567,34.326],[131.56,34.318],[131.558,34.308],[131.552,34.306],[131.549,34.299],[131.544,34.301],[131.541,34.305],[131.538,34.301],[131.533,34.299],[131.534,34.295],[131.526,34.292],[131.521,34.288],[131.526,34.282],[131.52,34.28],[131.514,34.278],[131.516,34.274],[131.511,34.269],[131.504,34.258],[131.507,34.255],[131.507,34.251],[131.5,34.248],[131.502,34.243],[131.499,34.24],[131.493,34.242],[131.488,34.24],[131.486,34.243],[131.482,34.245],[131.475,34.242],[131.464,34.238],[131.461,34.231],[131.456,34.231],[131.45,34.224],[131.446,34.222],[131.433,34.222],[131.431,34.219],[131.427,34.218],[131.424,34.219],[131.416,34.21],[131.41,34.211]]]]}},{"type":"Feature","properties":{"name":"防府市","code":"35206"},"geometry":{"type":"MultiPolygon","coordinates":[[[[131.697,33.95],[131.694,33.943],[131.69,33.941],[131.693,33.939],[131.695,33.936],[131.7,33.939],[131.697,33.947]]],[[[131.586,34.024],[131.569,34.013],[131.566,34.008],[131.568,34.004],[131.564,33.999],[131.559,33.998],[131.556,33.995],[131.556,33.99],[131.56,33.991],[131.565,33.993],[131.566,33.987],[131.577,33.992],[131.581,33.993],[131.592,33.999],[131.595,34.007],[131.596,34.011],[131.601,34.014],[131.596,34.018],[131.592,34.019],[131.586,34.024]]],[[[131.476,34.038],[131.484,34.028],[131.488,34.031],[131.492,34.027],[131.502,34.023],[131.509,34.023],[131.513,34.018],[131.516,34.014],[131.512,34.013],[131.51,34.004],[131.514,34.005],[131.517,34.003],[131.522,34.008],[131.526,34.005],[131.527,33.999],[131.534,33.999],[131.54,33.998],[131.545,33.999],[131.554,34.004],[131.562,34.007],[131.563,34.013],[131.575,34.018],[131.585,34.025],[131.588,34.032],[131.599,34.039],[131.604,34.037],[131.602,34.034],[131.602,34.028],[131.608,34.024],[131.611,34.024],[131.618,34.028],[131.623,34.04],[131.63,34.043],[131.635,34.047],[131.644,34.047],[131.647,34.042],[131.646,34.039],[131.652,34.039],[131.662,34.041],[131.669,34.045],[131.674,34.044],[131.669,34.052],[131.66,34.053],[131.664,34.058],[131.662,34.061],[131.662,34.067],[131.663,34.072],[131.655,34.075],[131.651,34.074],[131.646,34.076],[131.64,34.078],[131.636,34.077],[131.634,34.082],[131.635,34.087],[131.638,34.089],[131.642,34.089],[131.643,34.095],[131.639,34.102],[131.639,34.105],[131.643,34.107],[131.646,34.114],[131.643,34.122],[131.645,34.134],[131.654,34.137],[131.657,34.142],[131.659,34.15],[131.656,34.158],[131.636,34.16],[131.631,34.155],[131.633,34.15],[131.628,34.15],[131.627,34.143],[131.623,34.14],[131.619,34.139],[131.619,34.143],[131.613,34.143],[131.607,34.147],[131.599,34.147],[131.591,34.15],[131.582,34.152],[131.584,34.143],[131.581,34.14],[131.579,34.136],[131.573,34.135],[131.573,34.125],[131.575,34.122],[131.57,34.12],[131.564,34.122],[131.56,34.118],[131.557,34.114],[131.558,34.107],[131.554,34.104],[131.551,34.097],[131.533,34.093],[131.532,34.09],[131.524,34.089],[131.519,34.086],[131.514,34.092],[131.508,34.099],[131.5,34.099],[131.496,34.096],[131.491,34.094],[131.491,34.09],[131.486,34.088],[131.481,34.075],[131.466,34.07],[131.462,34.066],[131.455,34.062],[131.455,34.057],[131.458,34.054],[131.457,34.05],[131.461,34.044],[131.464,34.046],[131.47,34.044],[131.471,34.04],[131.476,34.038]]]]}},{"type":"Feature","properties":{"name":"下松市","code":"35207"},"geometry":{"type":"MultiPolygon","coordinates":[[[[131.858,33.99],[131.857,33.982],[131.855,33.976],[131.846,33.968],[131.849,33.968],[131.851,33.962],[131.848,33.958],[131.847,33.952],[131.843,33.953],[131.839,33.957],[131.833,33.956],[131.832,33.951],[131.824,33.945],[131.821,33.945],[131.821,33.95],[131.812,33.955],[131.808,33.952],[131.806,33.946],[131.805,33.942],[131.815,33.936],[131.819,33.936],[131.82,33.932],[131.826,33.931],[131.83,33.933],[131.836,33.934],[131.837,33.937],[131.846,33.946],[131.855,33.948],[131.857,33.952],[131.86,33.955],[131.861,33.96],[131.858,33.964],[131.863,33.968],[131.869,33.969],[131.873,33.974],[131.869,33.981],[131.863,33.98],[131.86,33.983],[131.858,33.99]]],[[[131.934,34.009],[131.935,34.02],[131.932,34.026],[131.928,34.03],[131.931,34.038],[131.933,34.047],[131.928,34.054],[131.935,34.057],[131.936,34.063],[131.926,34.064],[131.928,34.07],[131.922,34.074],[131.913,34.082],[131.919,34.087],[131.911,34.089],[131.906,34.088],[131.897,34.089],[131.89,34.09],[131.888,34.098],[131.893,34.099],[131.893,34.105],[131.898,34.112],[131.892,34.113],[131.888,34.111],[131.882,34.113],[131.878,34.108],[131.873,34.106],[131.868,34.1],[131.862,34.103],[131.856,34.097],[131.851,34.089],[131.859,34.087],[131.864,34.084],[131.867,34.079],[131.867,34.073],[131.871,34.068],[131.872,34.054],[131.87,34.051],[131.866,34.049],[131.862,34.045],[131.863,34.04],[131.856,34.037],[131.851,34.036],[131.847,34.03],[131.84,34.028],[131.84,34.025],[131.842,34.021],[131.838,34.009],[131.842,34.01],[131.851,34.009],[131.859,34.007],[131.857,34.002],[131.862,34.005],[131.865,34.0],[131.869,33.998],[131.868,33.992],[131.865,33.989],[131.875,33.99],[131.883,33.981],[131.892,33.978],[131.899,33.985],[131.899,33.991],[131.905,33.991],[131.908,33.996],[131.912,33.996],[131.917,33.998],[131.923,33.999],[131.926,34.002],[131.933,34.006],[131.934,34.009]]]]}},{"type":"Feature","properties":{"name":"岩国市","code":"35208"},"geometry":{"type":"MultiPolygon","coordinates":[[[[132.331,34.004],[132.33,33.994],[132.334,33.992],[132.332,34.003]]],[[[132.415,34.03],[132.403,34.027],[132.402,34.024],[132.404,34.016],[132.411,34.013],[132.417,34.013],[132.42,34.011],[132.425,34.012],[132.428,34.016],[132.419,34.024],[132.415,34.03]]],[[[132.42,34.037],[132.419,34.034],[132.422,34.032],[132.427,34.033],[132.42,34.037]]],[[[132.392,34.043],[132.387,34.039],[132.383,34.042],[132.381,34.038],[132.383,34.035],[132.383,34.028],[132.389,34.032],[132.386,34.034],[132.391,34.039],[132.392,34.043]]],[[[132.054,34.012],[132.059,34.014],[132.06,34.019],[132.067,34.021],[132.072,34.025],[132.077,34.025],[132.082,34.03],[132.086,34.037],[132.089,34.043],[132.094,34.046],[132.098,34.048],[132.104,34.053],[132.108,34.053],[132.113,34.05],[132.121,34.052],[132.125,34.049],[132.126,34.045],[132.131,34.043],[132.135,34.044],[132.139,34.042],[132.143,34.032],[132.147,34.032],[132.149,34.029],[132.153,34.029],[132.162,34.018],[132.168,34.017],[132.175,34.017],[132.187,34.019],[132.192,34.016],[132.197,34.011],[132.195,34.007],[132.195,34.002],[132.194,33.992],[132.197,33.988],[132.194,33.983],[132.199,33.981],[132.2,33.988],[132.207,33.995],[132.213,34.002],[132.219,34.021],[132.218,34.03],[132.219,34.039],[132.221,34.046],[132.217,34.048],[132.21,34.059],[132.209,34.068],[132.212,34.072],[132.21,34.081],[132.204,34.099],[132.201,34.107],[132.2,34.116],[132.204,34.116],[132.203,34.125],[132.212,34.126],[132.22,34.127],[132.223,34.131],[132.232,34.127],[132.236,34.132],[132.25,34.13],[132.248,34.133],[132.252,34.158],[132.251,34.165],[132.248,34.172],[132.239,34.182],[132.235,34.181],[132.234,34.185],[132.239,34.188],[132.232,34.187],[132.233,34.196],[132.238,34.196],[132.237,34.202],[132.232,34.201],[132.225,34.202],[132.226,34.191],[132.223,34.186],[132.219,34.182],[132.2,34.18],[132.196,34.18],[132.187,34.189],[132.189,34.192],[132.185,34.195],[132.193,34.203],[132.193,34.207],[132.199,34.216],[132.202,34.223],[132.203,34.229],[132.2,34.225],[132.197,34.227],[132.198,34.23],[132.193,34.23],[132.193,34.226],[132.184,34.228],[132.18,34.23],[132.171,34.225],[132.17,34.228],[132.17,34.234],[132.162,34.234],[132.16,34.23],[132.157,34.229],[132.155,34.233],[132.151,34.235],[132.145,34.236],[132.144,34.24],[132.146,34.244],[132.147,34.25],[132.146,34.257],[132.141,34.26],[132.135,34.267],[132.134,34.272],[132.136,34.278],[132.14,34.282],[132.138,34.288],[132.128,34.296],[132.124,34.297],[132.127,34.3],[132.129,34.305],[132.125,34.306],[132.123,34.312],[132.124,34.319],[132.129,34.322],[132.129,34.327],[132.125,34.334],[132.121,34.333],[132.112,34.33],[132.106,34.33],[132.101,34.336],[132.101,34.345],[132.093,34.351],[132.086,34.354],[132.085,34.358],[132.077,34.356],[132.071,34.355],[132.071,34.36],[132.072,34.367],[132.07,34.371],[132.075,34.375],[132.077,34.384],[132.077,34.389],[132.072,34.39],[132.073,34.4],[132.073,34.407],[132.07,34.41],[132.069,34.416],[132.074,34.42],[132.074,34.424],[132.077,34.438],[132.081,34.441],[132.075,34.454],[132.071,34.458],[132.071,34.463],[132.068,34.468],[132.064,34.469],[132.055,34.468],[132.05,34.466],[132.046,34.469],[132.039,34.469],[132.035,34.463],[132.023,34.461],[132.022,34.458],[132.015,34.452],[132.017,34.44],[132.011,34.434],[132.006,34.432],[131.997,34.428],[131.992,34.416],[131.998,34.407],[132.0,34.397],[132.007,34.391],[132.007,34.386],[132.014,34.382],[132.012,34.375],[132.012,34.367],[132.007,34.365],[132.001,34.366],[131.995,34.362],[131.994,34.358],[131.99,34.352],[131.984,34.351],[131.981,34.347],[131.98,34.343],[131.974,34.341],[131.975,34.337],[131.974,34.329],[131.97,34.324],[131.962,34.323],[131.964,34.314],[131.961,34.308],[131.95,34.315],[131.942,34.325],[131.935,34.328],[131.928,34.335],[131.921,34.336],[131.915,34.335],[131.913,34.33],[131.909,34.325],[131.904,34.323],[131.9,34.319],[131.891,34.324],[131.884,34.321],[131.886,34.314],[131.881,34.309],[131.879,34.301],[131.882,34.296],[131.881,34.288],[131.882,34.279],[131.88,34.275],[131.881,34.27],[131.885,34.263],[131.891,34.257],[131.894,34.251],[131.889,34.247],[131.888,34.241],[131.892,34.235],[131.902,34.232],[131.906,34.232],[131.914,34.229],[131.919,34.223],[131.927,34.225],[131.934,34.231],[131.937,34.23],[131.942,34.225],[131.94,34.221],[131.939,34.216],[131.942,34.215],[131.942,34.211],[131.94,34.208],[131.945,34.204],[131.945,34.201],[131.956,34.198],[131.959,34.199],[131.961,34.196],[131.961,34.192],[131.957,34.189],[131.958,34.181],[131.964,34.181],[131.966,34.176],[131.961,34.171],[131.957,34.169],[131.958,34.165],[131.96,34.159],[131.957,34.156],[131.956,34.151],[131.953,34.148],[131.956,34.142],[131.958,34.133],[131.953,34.13],[131.958,34.125],[131.96,34.116],[131.965,34.107],[131.964,34.102],[131.965,34.095],[131.969,34.095],[131.967,34.089],[131.982,34.088],[131.987,34.084],[131.991,34.083],[131.996,34.078],[131.995,34.071],[131.997,34.064],[132.006,34.068],[132.011,34.062],[132.013,34.066],[132.016,34.067],[132.02,34.069],[132.024,34.07],[132.028,34.063],[132.027,34.058],[132.028,34.052],[132.031,34.047],[132.026,34.032],[132.022,34.026],[132.027,34.017],[132.031,34.014],[132.038,34.011],[132.042,34.014],[132.051,34.013]]]]}},{"type":"Feature","properties":{"name":"美祢市","code":"35213"},"geometry":{"type":"MultiPolygon","coordinates":[[[[131.113,34.096],[131.119,34.093],[131.118,34.088],[131.122,34.088],[131.127,34.082],[131.131,34.086],[131.135,34.086],[131.141,34.088],[131.146,34.087],[131.148,34.091],[131.153,34.091],[131.156,34.089],[131.16,34.093],[131.164,34.093],[131.168,34.095],[131.17,34.104],[131.174,34.109],[131.179,34.114],[131.181,34.118],[131.188,34.12],[131.198,34.116],[131.208,34.116],[131.214,34.117],[131.215,34.12],[131.22,34.12],[131.231,34.123],[131.234,34.127],[131.238,34.127],[131.237,34.13],[131.238,34.137],[131.241,34.141],[131.247,34.14],[131.256,34.145],[131.263,34.14],[131.268,34.142],[131.274,34.141],[131.278,34.146],[131.277,34.15],[131.282,34.155],[131.285,34.161],[131.289,34.163],[131.294,34.167],[131.298,34.165],[131.304,34.166],[131.311,34.161],[131.316,34.163],[131.325,34.161],[131.322,34.156],[131.322,34.152],[131.329,34.15],[131.334,34.147],[131.34,34.144],[131.342,34.14],[131.348,34.137],[131.353,34.14],[131.357,34.14],[131.363,34.141],[131.367,34.137],[131.374,34.143],[131.377,34.145],[131.375,34.149],[131.37,34.153],[131.376,34.154],[131.379,34.157],[131.38,34.162],[131.379,34.166],[131.39,34.175],[131.391,34.179],[131.397,34.182],[131.398,34.189],[131.401,34.194],[131.405,34.197],[131.401,34.2],[131.405,34.203],[131.405,34.209],[131.41,34.211],[131.397,34.218],[131.401,34.225],[131.4,34.235],[131.404,34.241],[131.402,34.247],[131.4,34.252],[131.405,34.258],[131.402,34.263],[131.402,34.269],[131.394,34.266],[131.389,34.269],[131.386,34.278],[131.381,34.28],[131.38,34.287],[131.382,34.293],[131.38,34.298],[131.377,34.3],[131.374,34.304],[131.372,34.309],[131.368,34.31],[131.366,34.307],[131.361,34.307],[131.357,34.303],[131.348,34.302],[131.344,34.306],[131.336,34.309],[131.342,34.318],[131.334,34.321],[131.33,34.321],[131.327,34.325],[131.322,34.322],[131.315,34.323],[131.315,34.319],[131.312,34.319],[131.311,34.313],[131.307,34.311],[131.303,34.312],[131.296,34.322],[131.293,34.329],[131.288,34.332],[131.283,34.337],[131.277,34.335],[131.275,34.331],[131.268,34.326],[131.263,34.324],[131.258,34.32],[131.257,34.316],[131.251,34.316],[131.245,34.308],[131.244,34.301],[131.24,34.298],[131.232,34.294],[131.23,34.289],[131.227,34.285],[131.223,34.285],[131.218,34.281],[131.21,34.281],[131.204,34.285],[131.19,34.283],[131.185,34.283],[131.182,34.281],[131.18,34.275],[131.179,34.27],[131.176,34.266],[131.172,34.264],[131.172,34.256],[131.167,34.25],[131.165,34.245],[131.161,34.242],[131.161,34.236],[131.16,34.231],[131.153,34.233],[131.146,34.23],[131.145,34.225],[131.139,34.225],[131.132,34.222],[131.126,34.219],[131.123,34.216],[131.122,34.213],[131.114,34.21],[131.107,34.205],[131.109,34.201],[131.109,34.198],[131.105,34.195],[131.103,34.192],[131.1,34.19],[131.099,34.186],[131.108,34.178],[131.108,34.174],[131.113,34.171],[131.118,34.161],[131.111,34.157],[131.103,34.159],[131.102,34.163],[131.098,34.164],[131.097,34.167],[131.09,34.166],[131.089,34.16],[131.09,34.153],[131.086,34.149],[131.083,34.143],[131.083,34.135],[131.084,34.131],[131.093,34.125],[131.098,34.125],[131.1,34.118],[131.109,34.113],[131.113,34.108],[131.113,34.104],[131.11,34.099]]]]}},{"type":"Feature","properties":{"name":"周南市","code":"35215"},"geometry":{"type":"MultiPolygon","coordinates":[[[[131.709,34.035],[131.704,34.027],[131.704,34.018],[131.705,34.015],[131.705,34.008],[131.697,34.009],[131.691,34.008],[131.695,34.004],[131.702,34.004],[131.706,33.998],[131.712,33.992],[131.715,33.989],[131.72,33.989],[131.718,33.982],[131.724,33.981],[131.728,33.981],[131.733,33.983],[131.729,33.987],[131.72,33.99],[131.717,33.996],[131.711,34.0],[131.711,34.008],[131.713,34.013],[131.713,34.02],[131.709,34.022],[131.709,34.025],[131.714,34.028],[131.715,34.031],[131.709,34.035]]],[[[131.773,34.05],[131.768,34.047],[131.763,34.048],[131.757,34.041],[131.753,34.033],[131.749,34.037],[131.741,34.038],[131.733,34.038],[131.728,34.034],[131.726,34.028],[131.729,34.023],[131.738,34.02],[131.746,34.023],[131.752,34.028],[131.76,34.034],[131.763,34.038],[131.769,34.041],[131.78,34.049],[131.773,34.05]]],[[[132.022,34.026],[132.026,34.032],[132.031,34.047],[132.028,34.052],[132.027,34.058],[132.028,34.063],[132.024,34.07],[132.02,34.069],[132.016,34.067],[132.013,34.066],[132.011,34.062],[132.006,34.068],[131.997,34.064],[131.995,34.071],[131.996,34.078],[131.991,34.083],[131.987,34.084],[131.982,34.088],[131.967,34.089],[131.969,34.095],[131.965,34.095],[131.964,34.102],[131.965,34.107],[131.96,34.116],[131.958,34.125],[131.953,34.13],[131.958,34.133],[131.957,34.142],[131.953,34.148],[131.956,34.151],[131.957,34.156],[131.96,34.159],[131.955,34.163],[131.957,34.169],[131.961,34.171],[131.966,34.176],[131.964,34.181],[131.958,34.181],[131.957,34.189],[131.961,34.192],[131.961,34.196],[131.959,34.199],[131.956,34.198],[131.945,34.201],[131.945,34.204],[131.94,34.208],[131.942,34.211],[131.942,34.215],[131.939,34.216],[131.94,34.221],[131.942,34.225],[131.937,34.23],[131.934,34.231],[131.927,34.225],[131.919,34.223],[131.914,34.229],[131.908,34.23],[131.902,34.232],[131.892,34.235],[131.888,34.241],[131.889,34.247],[131.894,34.251],[131.891,34.255],[131.885,34.263],[131.881,34.27],[131.88,34.275],[131.882,34.279],[131.88,34.286],[131.882,34.296],[131.882,34.3],[131.881,34.309],[131.873,34.308],[131.87,34.305],[131.865,34.306],[131.86,34.305],[131.851,34.307],[131.845,34.311],[131.841,34.308],[131.834,34.311],[131.831,34.303],[131.823,34.305],[131.819,34.303],[131.817,34.31],[131.813,34.312],[131.806,34.312],[131.802,34.317],[131.796,34.319],[131.796,34.327],[131.791,34.33],[131.78,34.334],[131.775,34.338],[131.779,34.345],[131.778,34.353],[131.771,34.356],[131.761,34.35],[131.756,34.346],[131.757,34.34],[131.754,34.336],[131.757,34.331],[131.746,34.328],[131.746,34.318],[131.744,34.314],[131.745,34.31],[131.749,34.306],[131.75,34.301],[131.744,34.297],[131.742,34.293],[131.744,34.289],[131.753,34.282],[131.758,34.275],[131.754,34.271],[131.755,34.267],[131.753,34.263],[131.75,34.261],[131.746,34.261],[131.741,34.256],[131.739,34.248],[131.747,34.234],[131.747,34.228],[131.751,34.225],[131.751,34.213],[131.756,34.209],[131.758,34.204],[131.764,34.195],[131.759,34.19],[131.754,34.189],[131.746,34.191],[131.738,34.191],[131.734,34.189],[131.736,34.186],[131.732,34.182],[131.733,34.176],[131.738,34.176],[131.739,34.172],[131.737,34.167],[131.728,34.164],[131.724,34.162],[131.723,34.158],[131.726,34.15],[131.725,34.141],[131.72,34.137],[131.715,34.136],[131.713,34.133],[131.708,34.133],[131.699,34.142],[131.693,34.142],[131.686,34.133],[131.681,34.132],[131.674,34.135],[131.667,34.134],[131.661,34.137],[131.654,34.137],[131.645,34.134],[131.643,34.122],[131.646,34.114],[131.643,34.107],[131.639,34.105],[131.639,34.102],[131.643,34.095],[131.642,34.089],[131.638,34.089],[131.635,34.087],[131.634,34.082],[131.636,34.077],[131.64,34.078],[131.644,34.074],[131.651,34.074],[131.655,34.075],[131.663,34.072],[131.662,34.067],[131.662,34.061],[131.664,34.058],[131.66,34.053],[131.669,34.052],[131.674,34.044],[131.678,34.048],[131.679,34.054],[131.683,34.052],[131.688,34.053],[131.692,34.051],[131.688,34.048],[131.698,34.047],[131.7,34.051],[131.7,34.056],[131.705,34.056],[131.71,34.06],[131.717,34.06],[131.729,34.062],[131.735,34.061],[131.739,34.061],[131.741,34.066],[131.752,34.066],[131.739,34.055],[131.734,34.049],[131.737,34.046],[131.741,34.048],[131.742,34.052],[131.747,34.048],[131.75,34.047],[131.758,34.049],[131.761,34.053],[131.76,34.056],[131.763,34.056],[131.78,34.054],[131.792,34.054],[131.794,34.049],[131.798,34.052],[131.801,34.048],[131.794,34.047],[131.789,34.042],[131.786,34.034],[131.781,34.028],[131.788,34.025],[131.788,34.028],[131.796,34.036],[131.796,34.04],[131.802,34.043],[131.818,34.035],[131.821,34.031],[131.821,34.028],[131.826,34.028],[131.827,34.024],[131.82,34.024],[131.815,34.023],[131.816,34.019],[131.812,34.016],[131.807,34.017],[131.8,34.01],[131.794,34.006],[131.789,34.0],[131.783,33.995],[131.787,33.988],[131.782,33.985],[131.777,33.985],[131.77,33.981],[131.777,33.978],[131.789,33.974],[131.793,33.977],[131.798,33.977],[131.801,33.976],[131.804,33.971],[131.81,33.968],[131.817,33.97],[131.822,33.976],[131.817,33.976],[131.816,33.982],[131.808,33.984],[131.804,33.981],[131.799,33.982],[131.795,33.988],[131.804,33.988],[131.818,33.993],[131.826,34.002],[131.833,34.006],[131.83,34.009],[131.838,34.009],[131.842,34.021],[131.84,34.025],[131.84,34.028],[131.847,34.03],[131.851,34.036],[131.856,34.037],[131.863,34.04],[131.862,34.045],[131.866,34.049],[131.87,34.051],[131.872,34.054],[131.871,34.068],[131.867,34.073],[131.867,34.079],[131.864,34.084],[131.859,34.087],[131.851,34.089],[131.856,34.097],[131.862,34.103],[131.866,34.103],[131.873,34.106],[131.878,34.108],[131.88,34.112],[131.888,34.111],[131.892,34.113],[131.898,34.112],[131.896,34.107],[131.893,34.099],[131.888,34.098],[131.89,34.09],[131.897,34.089],[131.903,34.09],[131.909,34.091],[131.919,34.087],[131.913,34.082],[131.922,34.074],[131.926,34.073],[131.926,34.064],[131.936,34.063],[131.936,34.06],[131.928,34.054],[131.933,34.047],[131.931,34.038],[131.928,34.03],[131.932,34.026],[131.935,34.02],[131.934,34.009],[131.951,34.011],[131.961,34.016],[131.965,34.022],[131.961,34.027],[131.964,34.032],[131.972,34.032],[131.981,34.027],[131.99,34.026],[131.997,34.028],[132.008,34.028],[132.016,34.026],[132.022,34.026]]]]}},{"type":"Feature","properties":{"name":"山陽小野田市","code":"35216"},"geometry":{"type":"MultiPolygon","coordinates":[[[[131.068,34.039],[131.083,34.034],[131.084,34.038],[131.096,34.036],[131.103,34.031],[131.108,34.023],[131.11,34.018],[131.115,34.014],[131.118,34.007],[131.121,34.004],[131.132,33.997],[131.134,33.993],[131.139,33.994],[131.134,33.999],[131.134,34.003],[131.151,34.003],[131.146,33.995],[131.156,33.989],[131.162,33.994],[131.169,33.997],[131.17,33.992],[131.163,33.989],[131.161,33.986],[131.167,33.978],[131.162,33.978],[131.161,33.974],[131.175,33.975],[131.169,33.973],[131.163,33.971],[131.16,33.968],[131.158,33.955],[131.164,33.95],[131.165,33.946],[131.171,33.942],[131.173,33.938],[131.178,33.931],[131.186,33.932],[131.185,33.939],[131.194,33.942],[131.199,33.943],[131.193,33.958],[131.187,33.962],[131.189,33.966],[131.189,33.972],[131.187,33.976],[131.186,33.989],[131.192,33.992],[131.192,33.997],[131.201,34.002],[131.204,34.008],[131.208,34.011],[131.217,34.013],[131.219,34.018],[131.222,34.019],[131.223,34.026],[131.227,34.028],[131.219,34.031],[131.214,34.036],[131.207,34.039],[131.199,34.037],[131.196,34.043],[131.191,34.044],[131.187,34.05],[131.184,34.052],[131.19,34.057],[131.192,34.061],[131.196,34.063],[131.202,34.068],[131.205,34.067],[131.206,34.071],[131.215,34.074],[131.213,34.079],[131.211,34.083],[131.217,34.094],[131.215,34.099],[131.218,34.109],[131.214,34.113],[131.21,34.113],[131.198,34.116],[131.191,34.117],[131.181,34.118],[131.179,34.114],[131.174,34.111],[131.17,34.104],[131.168,34.095],[131.164,34.093],[131.16,34.093],[131.156,34.089],[131.153,34.091],[131.148,34.091],[131.146,34.087],[131.141,34.088],[131.135,34.086],[131.131,34.086],[131.127,34.082],[131.123,34.085],[131.118,34.088],[131.119,34.093],[131.113,34.096],[131.111,34.092],[131.107,34.093],[131.108,34.083],[131.112,34.075],[131.107,34.074],[131.102,34.071],[131.098,34.075],[131.096,34.071],[131.09,34.075],[131.081,34.074],[131.074,34.07],[131.079,34.067],[131.084,34.064],[131.08,34.059],[131.072,34.057],[131.068,34.039]]]]}},{"type":"Feature","properties":{"name":"玖珂郡和木町","code":"35321"},"geometry":{"type":"MultiPolygon","coordinates":[[[[132.238,34.196],[132.247,34.205],[132.246,34.211],[132.222,34.208],[132.218,34.207],[132.214,34.204],[132.21,34.203],[132.207,34.204],[132.201,34.208],[132.198,34.205],[132.193,34.207],[132.193,34.203],[132.184,34.197],[132.189,34.192],[132.187,34.189],[132.196,34.18],[132.2,34.18],[132.216,34.182],[132.223,34.186],[132.223,34.189],[132.222,34.199],[132.23,34.204],[132.237,34.202],[132.238,34.196]]]]}},{"type":"Feature","properties":{"name":"熊毛郡上関町","code":"35341"},"geometry":{"type":"MultiPolygon","coordinates":[[[[132.151,33.764],[132.143,33.749],[132.14,33.739],[132.145,33.737],[132.145,33.731],[132.139,33.729],[132.133,33.727],[132.13,33.722],[132.127,33.719],[132.134,33.713],[132.139,33.715],[132.142,33.719],[132.149,33.721],[132.153,33.727],[132.149,33.732],[132.146,33.74],[132.149,33.747],[132.149,33.75],[132.146,33.754],[132.152,33.761]]],[[[131.934,33.795],[131.931,33.794],[131.932,33.789],[131.938,33.787],[131.939,33.792],[131.934,33.795]]],[[[131.971,33.798],[131.968,33.798],[131.963,33.795],[131.961,33.791],[131.963,33.785],[131.959,33.781],[131.952,33.782],[131.947,33.781],[131.95,33.773],[131.964,33.769],[131.974,33.774],[131.98,33.774],[131.989,33.779],[131.994,33.78],[131.991,33.786],[131.987,33.788],[131.977,33.796],[131.971,33.798]]],[[[132.071,33.858],[132.068,33.852],[132.068,33.848],[132.07,33.843],[132.076,33.841],[132.081,33.836],[132.078,33.827],[132.07,33.823],[132.067,33.819],[132.061,33.82],[132.061,33.815],[132.058,33.808],[132.054,33.798],[132.05,33.799],[132.045,33.796],[132.039,33.796],[132.034,33.795],[132.028,33.793],[132.034,33.792],[132.033,33.789],[132.037,33.787],[132.041,33.79],[132.049,33.785],[132.058,33.789],[132.056,33.796],[132.059,33.799],[132.061,33.802],[132.066,33.804],[132.073,33.803],[132.074,33.808],[132.076,33.814],[132.086,33.817],[132.085,33.821],[132.089,33.826],[132.098,33.827],[132.104,33.825],[132.108,33.828],[132.115,33.828],[132.118,33.831],[132.111,33.832],[132.109,33.837],[132.104,33.837],[132.102,33.844],[132.097,33.843],[132.093,33.845],[132.084,33.845],[132.078,33.849],[132.078,33.852],[132.071,33.858]]],[[[132.133,33.862],[132.126,33.862],[132.123,33.859],[132.116,33.859],[132.116,33.851],[132.118,33.847],[132.116,33.84],[132.115,33.834],[132.125,33.835],[132.14,33.832],[132.145,33.834],[132.145,33.837],[132.148,33.839],[132.153,33.843],[132.149,33.847],[132.143,33.85],[132.142,33.853],[132.138,33.853],[132.133,33.862]]]]}},{"type":"Feature","properties":{"name":"熊毛郡田布施町","code":"35343"},"geometry":{"type":"MultiPolygon","coordinates":[[[[132.044,33.901],[132.042,33.896],[132.047,33.894],[132.049,33.887],[132.054,33.89],[132.049,33.899],[132.044,33.901]]],[[[132.025,33.902],[132.03,33.907],[132.038,33.909],[132.044,33.912],[132.053,33.916],[132.053,33.922],[132.056,33.921],[132.063,33.93],[132.062,33.942],[132.058,33.95],[132.06,33.955],[132.057,33.961],[132.064,33.965],[132.062,33.979],[132.061,33.987],[132.055,33.99],[132.051,33.987],[132.036,33.983],[132.032,33.986],[132.025,33.986],[132.013,33.983],[132.008,33.978],[132.012,33.976],[132.005,33.971],[132.0,33.971],[131.997,33.968],[131.998,33.964],[131.994,33.96],[131.984,33.958],[131.98,33.951],[131.981,33.947],[131.984,33.941],[131.992,33.935],[131.995,33.932],[131.998,33.933],[132.003,33.929],[132.003,33.926],[132.012,33.922],[132.016,33.915],[132.027,33.913],[132.026,33.908],[132.025,33.902]]],[[[132.064,33.997],[132.067,34.002],[132.071,34.014],[132.074,34.017],[132.07,34.018],[132.067,34.021],[132.06,34.019],[132.059,34.014],[132.054,34.012],[132.058,34.011],[132.054,34.006],[132.053,34.002],[132.056,33.999],[132.06,33.999],[132.064,33.997]]]]}},{"type":"Feature","properties":{"name":"熊毛郡平生町","code":"35344"},"geometry":{"type":"MultiPolygon","coordinates":[[[[132.065,33.884],[132.057,33.88],[132.057,33.876],[132.061,33.873],[132.062,33.867],[132.068,33.868],[132.07,33.871],[132.069,33.875],[132.065,33.884]]],[[[132.06,33.955],[132.058,33.95],[132.062,33.942],[132.063,33.93],[132.056,33.921],[132.055,33.913],[132.045,33.91],[132.049,33.908],[132.053,33.91],[132.061,33.909],[132.067,33.908],[132.074,33.905],[132.077,33.901],[132.077,33.893],[132.088,33.89],[132.092,33.887],[132.102,33.882],[132.11,33.881],[132.116,33.879],[132.12,33.875],[132.121,33.871],[132.118,33.865],[132.113,33.861],[132.123,33.859],[132.126,33.862],[132.133,33.862],[132.135,33.866],[132.133,33.875],[132.124,33.88],[132.122,33.883],[132.11,33.892],[132.107,33.9],[132.104,33.901],[132.103,33.906],[132.097,33.909],[132.095,33.913],[132.1,33.914],[132.103,33.917],[132.108,33.923],[132.107,33.94],[132.105,33.947],[132.106,33.951],[132.1,33.955],[132.097,33.955],[132.094,33.959],[132.089,33.957],[132.08,33.957],[132.077,33.955],[132.069,33.956],[132.06,33.955]]]]}},{"type":"Feature","properties":{"name":"阿武郡阿武町","code":"35502"},"geometry":{"type":"MultiPolygon","coordinates":[[[[131.558,34.603],[131.557,34.599],[131.554,34.597],[131.551,34.593],[131.556,34.588],[131.554,34.584],[131.555,34.58],[131.549,34.573],[131.541,34.569],[131.539,34.563],[131.533,34.559],[131.53,34.56],[131.52,34.554],[131.515,34.553],[131.515,34.549],[131.507,34.541],[131.504,34.534],[131.499,34.532],[131.493,34.531],[131.489,34.533],[131.481,34.532],[131.478,34.534],[131.47,34.533],[131.467,34.538],[131.465,34.532],[131.458,34.526],[131.456,34.52],[131.452,34.516],[131.455,34.512],[131.452,34.508],[131.458,34.507],[131.458,34.503],[131.466,34.501],[131.467,34.498],[131.463,34.491],[131.462,34.486],[131.468,34.486],[131.478,34.492],[131.483,34.488],[131.49,34.488],[131.494,34.484],[131.503,34.483],[131.503,34.486],[131.513,34.489],[131.511,34.497],[131.517,34.502],[131.523,34.505],[131.528,34.506],[131.535,34.51],[131.539,34.516],[131.543,34.517],[131.547,34.514],[131.546,34.507],[131.55,34.502],[131.55,34.497],[131.555,34.496],[131.558,34.491],[131.562,34.49],[131.563,34.485],[131.567,34.481],[131.574,34.48],[131.58,34.482],[131.584,34.482],[131.589,34.485],[131.595,34.486],[131.598,34.494],[131.603,34.498],[131.609,34.5],[131.613,34.499],[131.621,34.5],[131.628,34.503],[131.632,34.507],[131.637,34.508],[131.648,34.514],[131.644,34.517],[131.642,34.522],[131.636,34.526],[131.634,34.532],[131.626,34.529],[131.619,34.531],[131.62,34.537],[131.615,34.54],[131.613,34.544],[131.607,34.547],[131.601,34.551],[131.596,34.557],[131.591,34.557],[131.591,34.563],[131.596,34.567],[131.595,34.573],[131.598,34.575],[131.601,34.583],[131.598,34.588],[131.592,34.591],[131.588,34.59],[131.585,34.592],[131.582,34.603],[131.574,34.604],[131.564,34.607],[131.558,34.603]]]]}}]}