{"type":"FeatureCollection","features":[{"type":"Feature","properties":{"name":"徳島市","code":"36201"},"geometry":{"type":"MultiPolygon","coordinates":[[[[134.6,34.068],[134.591,34.056],[134.598,34.053],[134.6,34.057],[134.603,34.056],[134.607,34.062],[134.603,34.063],[134.599,34.067]]],[[[134.607,34.101],[134.602,34.103],[134.599,34.107],[134.596,34.115],[134.59,34.123],[134.586,34.127],[134.579,34.13],[134.575,34.13],[134.57,34.129],[134.565,34.125],[134.562,34.124],[134.56,34.121],[134.556,34.118],[134.558,34.113],[134.557,34.108],[134.552,34.109],[134.546,34.111],[134.54,34.113],[134.536,34.118],[134.534,34.125],[134.529,34.125],[134.522,34.124],[134.518,34.123],[134.514,34.121],[134.509,34.121],[134.505,34.114],[134.505,34.109],[134.493,34.107],[134.488,34.107],[134.484,34.107],[134.48,34.109],[134.476,34.112],[134.47,34.113],[134.466,34.113],[134.459,34.111],[134.459,34.107],[134.459,34.101],[134.456,34.098],[134.454,34.094],[134.455,34.089],[134.459,34.089],[134.464,34.089],[134.464,34.08],[134.465,34.073],[134.469,34.066],[134.469,34.062],[134.465,34.059],[134.461,34.06],[134.458,34.058],[134.45,34.055],[134.444,34.053],[134.438,34.054],[134.432,34.053],[134.426,34.053],[134.423,34.048],[134.424,34.045],[134.429,34.04],[134.429,34.031],[134.427,34.027],[134.431,34.024],[134.435,34.021],[134.442,34.018],[134.444,34.021],[134.45,34.021],[134.453,34.017],[134.45,34.008],[134.454,34.008],[134.459,34.006],[134.466,34.01],[134.467,34.014],[134.472,34.016],[134.476,34.021],[134.48,34.021],[134.487,34.021],[134.491,34.017],[134.495,34.014],[134.499,34.013],[134.495,34.011],[134.496,34.007],[134.497,34.002],[134.497,33.995],[134.493,33.993],[134.487,33.989],[134.485,33.984],[134.482,33.983],[134.482,33.978],[134.485,33.976],[134.487,33.971],[134.488,33.968],[134.491,33.969],[134.495,33.97],[134.5,33.97],[134.507,33.965],[134.51,33.962],[134.515,33.962],[134.519,33.963],[134.522,33.962],[134.53,33.961],[134.533,33.96],[134.535,33.955],[134.545,33.959],[134.553,33.961],[134.561,33.961],[134.565,33.962],[134.57,33.964],[134.574,33.964],[134.572,33.968],[134.572,33.973],[134.569,33.975],[134.569,33.978],[134.572,33.979],[134.571,33.982],[134.568,33.985],[134.567,33.989],[134.564,33.992],[134.559,33.99],[134.554,33.988],[134.551,33.987],[134.547,33.987],[134.549,33.998],[134.55,34.002],[134.555,34.007],[134.558,34.013],[134.556,34.02],[134.56,34.021],[134.561,34.025],[134.565,34.021],[134.569,34.02],[134.576,34.021],[134.581,34.023],[134.588,34.023],[134.592,34.021],[134.596,34.018],[134.601,34.019],[134.598,34.023],[134.594,34.024],[134.589,34.028],[134.589,34.031],[134.595,34.033],[134.591,34.034],[134.587,34.035],[134.589,34.038],[134.591,34.045],[134.588,34.045],[134.584,34.043],[134.585,34.046],[134.59,34.051],[134.586,34.052],[134.591,34.06],[134.597,34.068],[134.598,34.071],[134.603,34.084],[134.605,34.091],[134.605,34.094],[134.607,34.101]]]]}},{"type":"Feature","properties":{"name":"鳴門市","code":"36202"},"geometry":{"type":"MultiPolygon","coordinates":[[[[134.644,34.24],[134.639,34.238],[134.636,34.234],[134.63,34.231],[134.625,34.231],[134.618,34.23],[134.614,34.225],[134.615,34.22],[134.621,34.218],[134.625,34.218],[134.622,34.212],[134.615,34.211],[134.615,34.214],[134.611,34.216],[134.604,34.212],[134.601,34.211],[134.596,34.212],[134.592,34.211],[134.589,34.211],[134.588,34.207],[134.591,34.201],[134.595,34.199],[134.602,34.197],[134.61,34.195],[134.615,34.194],[134.62,34.19],[134.623,34.185],[134.626,34.192],[134.626,34.199],[134.627,34.205],[134.631,34.214],[134.631,34.217],[134.638,34.225],[134.637,34.229],[134.641,34.235],[134.644,34.24]]],[[[134.619,34.141],[134.616,34.144],[134.622,34.152],[134.63,34.16],[134.634,34.165],[134.638,34.171],[134.641,34.178],[134.638,34.182],[134.633,34.182],[134.63,34.181],[134.624,34.181],[134.619,34.185],[134.611,34.191],[134.6,34.193],[134.595,34.195],[134.586,34.201],[134.582,34.21],[134.589,34.22],[134.59,34.224],[134.587,34.228],[134.586,34.232],[134.589,34.237],[134.582,34.239],[134.577,34.239],[134.571,34.237],[134.566,34.233],[134.568,34.228],[134.573,34.227],[134.572,34.223],[134.568,34.225],[134.564,34.225],[134.559,34.222],[134.547,34.224],[134.541,34.226],[134.537,34.226],[134.53,34.227],[134.526,34.225],[134.52,34.226],[134.506,34.226],[134.497,34.224],[134.49,34.221],[134.484,34.219],[134.479,34.212],[134.475,34.21],[134.472,34.209],[134.467,34.208],[134.458,34.207],[134.453,34.206],[134.449,34.206],[134.443,34.207],[134.441,34.2],[134.439,34.196],[134.439,34.191],[134.442,34.192],[134.455,34.193],[134.455,34.187],[134.459,34.181],[134.463,34.177],[134.47,34.177],[134.479,34.179],[134.481,34.17],[134.483,34.167],[134.484,34.16],[134.484,34.156],[134.486,34.149],[134.492,34.148],[134.496,34.146],[134.499,34.143],[134.502,34.142],[134.51,34.143],[134.514,34.141],[134.517,34.139],[134.521,34.135],[134.53,34.131],[134.538,34.135],[134.541,34.14],[134.547,34.14],[134.552,34.141],[134.557,34.141],[134.56,34.144],[134.562,34.148],[134.564,34.151],[134.568,34.149],[134.569,34.153],[134.573,34.154],[134.577,34.155],[134.584,34.152],[134.585,34.149],[134.591,34.146],[134.594,34.146],[134.599,34.147],[134.619,34.141]]],[[[134.607,34.252],[134.601,34.246],[134.596,34.245],[134.593,34.242],[134.592,34.237],[134.588,34.23],[134.59,34.227],[134.593,34.223],[134.59,34.217],[134.591,34.214],[134.598,34.221],[134.601,34.227],[134.605,34.23],[134.609,34.234],[134.608,34.229],[134.613,34.233],[134.617,34.234],[134.617,34.238],[134.615,34.241],[134.616,34.246],[134.614,34.251],[134.609,34.251]]]]}},{"type":"Feature","properties":{"name":"小松島市","code":"36203"},"geometry":{"type":"MultiPolygon","coordinates":[[[[134.567,33.962],[134.569,33.957],[134.57,33.953],[134.57,33.948],[134.57,33.945],[134.564,33.942],[134.561,33.94],[134.566,33.939],[134.57,33.941],[134.575,33.944],[134.581,33.945],[134.585,33.947],[134.588,33.946],[134.594,33.948],[134.598,33.949],[134.609,33.949],[134.612,33.951],[134.611,33.957],[134.614,33.961],[134.62,33.965],[134.622,33.968],[134.625,33.969],[134.635,33.964],[134.635,33.967],[134.639,33.969],[134.64,33.974],[134.642,33.978],[134.645,33.982],[134.652,33.986],[134.651,33.991],[134.645,34.0],[134.641,34.006],[134.637,34.009],[134.633,34.011],[134.628,34.01],[134.625,34.004],[134.63,34.003],[134.631,34.0],[134.63,33.996],[134.626,33.997],[134.628,33.991],[134.622,33.989],[134.624,33.993],[134.617,33.992],[134.612,33.992],[134.614,33.997],[134.609,33.996],[134.605,33.996],[134.6,33.999],[134.599,34.004],[134.592,34.008],[134.592,34.012],[134.592,34.016],[134.596,34.016],[134.601,34.019],[134.596,34.018],[134.592,34.021],[134.588,34.023],[134.583,34.022],[134.576,34.021],[134.57,34.021],[134.565,34.021],[134.564,34.027],[134.561,34.023],[134.556,34.02],[134.558,34.013],[134.557,34.01],[134.55,34.002],[134.549,33.998],[134.547,33.987],[134.551,33.987],[134.554,33.988],[134.559,33.99],[134.564,33.992],[134.567,33.989],[134.568,33.985],[134.571,33.982],[134.572,33.979],[134.569,33.978],[134.569,33.975],[134.572,33.973],[134.572,33.968],[134.574,33.964],[134.57,33.964],[134.567,33.962]]]]}},{"type":"Feature","properties":{"name":"阿南市","code":"36204"},"geometry":{"type":"MultiPolygon","coordinates":[[[[134.74,33.853],[134.737,33.85],[134.733,33.85],[134.737,33.848],[134.742,33.85]]],[[[134.82,33.858],[134.812,33.851],[134.809,33.848],[134.806,33.843],[134.81,33.84],[134.819,33.844],[134.82,33.849],[134.82,33.855],[134.82,33.858]]],[[[134.657,33.868],[134.653,33.868],[134.648,33.864],[134.646,33.859],[134.649,33.856],[134.654,33.854],[134.659,33.861],[134.664,33.861],[134.658,33.868]]],[[[134.68,33.87],[134.676,33.866],[134.672,33.865],[134.675,33.86],[134.678,33.866],[134.68,33.87]]],[[[134.561,33.94],[134.558,33.935],[134.549,33.931],[134.543,33.931],[134.539,33.929],[134.535,33.924],[134.531,33.92],[134.521,33.916],[134.517,33.918],[134.515,33.914],[134.511,33.911],[134.505,33.909],[134.499,33.911],[134.493,33.911],[134.487,33.908],[134.484,33.906],[134.48,33.902],[134.475,33.901],[134.474,33.897],[134.469,33.892],[134.468,33.889],[134.469,33.886],[134.474,33.882],[134.472,33.878],[134.469,33.874],[134.468,33.87],[134.472,33.868],[134.479,33.871],[134.483,33.871],[134.489,33.869],[134.492,33.872],[134.497,33.871],[134.497,33.866],[134.502,33.867],[134.506,33.868],[134.513,33.871],[134.521,33.874],[134.526,33.873],[134.53,33.874],[134.541,33.873],[134.543,33.87],[134.549,33.868],[134.555,33.869],[134.555,33.866],[134.556,33.861],[134.556,33.854],[134.551,33.855],[134.546,33.852],[134.54,33.852],[134.535,33.85],[134.531,33.847],[134.529,33.844],[134.525,33.842],[134.525,33.839],[134.524,33.834],[134.52,33.832],[134.515,33.829],[134.51,33.823],[134.511,33.819],[134.508,33.813],[134.512,33.806],[134.518,33.807],[134.522,33.808],[134.528,33.804],[134.531,33.803],[134.538,33.804],[134.543,33.806],[134.549,33.806],[134.553,33.802],[134.557,33.801],[134.56,33.797],[134.562,33.794],[134.571,33.793],[134.572,33.789],[134.576,33.79],[134.577,33.786],[134.582,33.786],[134.588,33.786],[134.596,33.79],[134.602,33.79],[134.606,33.788],[134.61,33.789],[134.615,33.795],[134.619,33.797],[134.623,33.8],[134.627,33.799],[134.631,33.8],[134.645,33.805],[134.651,33.805],[134.655,33.808],[134.66,33.81],[134.665,33.814],[134.67,33.814],[134.675,33.816],[134.678,33.811],[134.68,33.807],[134.685,33.805],[134.689,33.806],[134.691,33.809],[134.695,33.812],[134.7,33.813],[134.704,33.814],[134.719,33.82],[134.722,33.824],[134.729,33.824],[134.732,33.826],[134.737,33.829],[134.744,33.831],[134.748,33.832],[134.744,33.837],[134.744,33.841],[134.738,33.84],[134.73,33.839],[134.726,33.835],[134.722,33.835],[134.719,33.831],[134.717,33.836],[134.712,33.834],[134.708,33.835],[134.701,33.836],[134.698,33.835],[134.693,33.832],[134.687,33.832],[134.684,33.83],[134.68,33.83],[134.679,33.834],[134.685,33.834],[134.688,33.839],[134.692,33.839],[134.698,33.842],[134.702,33.842],[134.708,33.842],[134.715,33.844],[134.718,33.844],[134.719,33.848],[134.712,33.85],[134.708,33.851],[134.704,33.848],[134.7,33.85],[134.692,33.848],[134.69,33.852],[134.685,33.85],[134.682,33.85],[134.678,33.847],[134.674,33.85],[134.671,33.845],[134.666,33.848],[134.663,33.845],[134.66,33.845],[134.66,33.848],[134.656,33.846],[134.649,33.845],[134.643,33.843],[134.639,33.845],[134.642,33.849],[134.646,33.85],[134.643,33.853],[134.644,33.857],[134.645,33.865],[134.641,33.865],[134.639,33.859],[134.631,33.857],[134.63,33.861],[134.636,33.869],[134.64,33.87],[134.644,33.871],[134.648,33.874],[134.65,33.871],[134.656,33.872],[134.661,33.876],[134.653,33.881],[134.661,33.882],[134.667,33.879],[134.669,33.885],[134.673,33.886],[134.682,33.89],[134.684,33.894],[134.686,33.898],[134.693,33.903],[134.696,33.904],[134.698,33.91],[134.701,33.913],[134.7,33.918],[134.702,33.922],[134.706,33.926],[134.701,33.938],[134.697,33.948],[134.696,33.952],[134.69,33.954],[134.686,33.957],[134.681,33.959],[134.671,33.961],[134.665,33.965],[134.658,33.975],[134.655,33.98],[134.652,33.986],[134.645,33.982],[134.642,33.978],[134.64,33.974],[134.639,33.969],[134.635,33.967],[134.635,33.964],[134.628,33.967],[134.622,33.968],[134.62,33.965],[134.615,33.964],[134.613,33.957],[134.612,33.951],[134.609,33.949],[134.598,33.949],[134.594,33.948],[134.591,33.948],[134.585,33.947],[134.581,33.945],[134.575,33.944],[134.57,33.941],[134.566,33.939],[134.561,33.94]]]]}},{"type":"Feature","properties":{"name":"吉野川市","code":"36205"},"geometry":{"type":"MultiPolygon","coordinates":[[[[134.397,34.087],[134.396,34.092],[134.382,34.088],[134.375,34.089],[134.334,34.084],[134.334,34.081],[134.334,34.077],[134.328,34.072],[134.323,34.069],[134.313,34.068],[134.295,34.069],[134.288,34.068],[134.279,34.069],[134.263,34.069],[134.247,34.07],[134.237,34.069],[134.225,34.066],[134.194,34.065],[134.186,34.064],[134.191,34.058],[134.192,34.055],[134.19,34.049],[134.195,34.044],[134.198,34.04],[134.197,34.036],[134.198,34.03],[134.183,34.016],[134.189,34.013],[134.187,34.007],[134.193,34.003],[134.198,33.999],[134.198,33.995],[134.196,33.989],[134.199,33.988],[134.204,33.983],[134.212,33.981],[134.217,33.98],[134.225,33.979],[134.229,33.98],[134.238,33.98],[134.243,33.98],[134.248,33.981],[134.251,33.981],[134.254,33.985],[134.261,33.986],[134.269,33.989],[134.275,33.993],[134.283,33.991],[134.287,33.994],[134.289,34.0],[134.296,34.002],[134.299,34.006],[134.309,34.005],[134.317,34.006],[134.325,34.003],[134.323,34.009],[134.33,34.013],[134.331,34.018],[134.334,34.021],[134.335,34.024],[134.335,34.03],[134.338,34.032],[134.343,34.031],[134.349,34.036],[134.35,34.039],[134.355,34.04],[134.359,34.035],[134.367,34.029],[134.37,34.032],[134.372,34.039],[134.379,34.042],[134.385,34.045],[134.392,34.05],[134.394,34.053],[134.4,34.051],[134.403,34.05],[134.403,34.066],[134.402,34.069],[134.402,34.076],[134.397,34.087]]]]}},{"type":"Feature","properties":{"name":"阿波市","code":"36206"},"geometry":{"type":"MultiPolygon","coordinates":[[[[134.396,34.092],[134.394,34.098],[134.394,34.104],[134.398,34.104],[134.401,34.106],[134.402,34.109],[134.399,34.116],[134.386,34.114],[134.385,34.118],[134.38,34.124],[134.378,34.13],[134.383,34.139],[134.38,34.143],[134.375,34.148],[134.371,34.151],[134.368,34.156],[134.371,34.163],[134.373,34.169],[134.376,34.172],[134.37,34.176],[134.363,34.182],[134.358,34.185],[134.35,34.185],[134.347,34.178],[134.344,34.172],[134.336,34.174],[134.331,34.175],[134.322,34.175],[134.314,34.177],[134.311,34.175],[134.308,34.171],[134.3,34.17],[134.296,34.173],[134.292,34.179],[134.288,34.179],[134.282,34.179],[134.277,34.176],[134.273,34.181],[134.26,34.184],[134.257,34.181],[134.251,34.181],[134.247,34.179],[134.237,34.18],[134.232,34.181],[134.228,34.18],[134.224,34.18],[134.221,34.18],[134.216,34.176],[134.209,34.175],[134.213,34.171],[134.221,34.164],[134.222,34.157],[134.217,34.152],[134.218,34.146],[134.217,34.14],[134.211,34.133],[134.211,34.128],[134.21,34.121],[134.209,34.117],[134.205,34.112],[134.202,34.108],[134.198,34.106],[134.196,34.101],[134.193,34.097],[134.191,34.094],[134.185,34.09],[134.18,34.087],[134.179,34.082],[134.181,34.075],[134.182,34.072],[134.186,34.064],[134.194,34.065],[134.225,34.066],[134.237,34.069],[134.247,34.07],[134.263,34.069],[134.279,34.069],[134.288,34.07],[134.295,34.069],[134.311,34.071],[134.323,34.069],[134.328,34.072],[134.334,34.074],[134.332,34.079],[134.334,34.084],[134.376,34.087],[134.382,34.088],[134.396,34.092]]]]}},{"type":"Feature","properties":{"name":"美馬市","code":"36207"},"geometry":{"type":"MultiPolygon","coordinates":[[[[134.186,34.064],[134.185,34.07],[134.181,34.075],[134.179,34.082],[134.18,34.087],[134.185,34.09],[134.188,34.093],[134.193,34.097],[134.196,34.099],[134.198,34.106],[134.202,34.108],[134.205,34.112],[134.209,34.115],[134.21,34.121],[134.211,34.128],[134.211,34.133],[134.216,34.138],[134.218,34.146],[134.217,34.152],[134.221,34.155],[134.221,34.161],[134.213,34.171],[134.209,34.175],[134.204,34.173],[134.198,34.175],[134.195,34.172],[134.189,34.173],[134.185,34.174],[134.176,34.175],[134.169,34.174],[134.163,34.17],[134.159,34.17],[134.153,34.166],[134.147,34.166],[134.144,34.159],[134.141,34.155],[134.137,34.155],[134.138,34.147],[134.138,34.143],[134.138,34.138],[134.139,34.134],[134.133,34.13],[134.131,34.125],[134.127,34.123],[134.122,34.119],[134.119,34.12],[134.116,34.118],[134.106,34.117],[134.094,34.115],[134.091,34.117],[134.086,34.119],[134.082,34.121],[134.075,34.118],[134.072,34.115],[134.067,34.113],[134.061,34.111],[134.058,34.115],[134.053,34.118],[134.05,34.117],[134.045,34.114],[134.042,34.11],[134.042,34.106],[134.04,34.101],[134.031,34.097],[134.028,34.093],[134.026,34.09],[134.026,34.085],[134.022,34.084],[134.016,34.086],[134.01,34.087],[134.007,34.085],[134.002,34.081],[134.002,34.075],[134.001,34.072],[133.999,34.068],[134.001,34.065],[134.001,34.058],[133.999,34.045],[134.0,34.037],[134.009,34.038],[134.016,34.039],[134.021,34.044],[134.029,34.045],[134.043,34.043],[134.05,34.044],[134.071,34.047],[134.074,34.052],[134.079,34.054],[134.088,34.058],[134.086,34.053],[134.093,34.054],[134.094,34.047],[134.099,34.038],[134.103,34.035],[134.105,34.031],[134.112,34.031],[134.112,34.026],[134.114,34.019],[134.119,34.017],[134.117,34.011],[134.118,34.008],[134.116,34.004],[134.112,33.999],[134.109,33.992],[134.11,33.989],[134.108,33.98],[134.109,33.971],[134.108,33.966],[134.105,33.963],[134.102,33.961],[134.098,33.956],[134.099,33.949],[134.102,33.944],[134.105,33.936],[134.103,33.931],[134.1,33.924],[134.106,33.923],[134.114,33.921],[134.12,33.921],[134.126,33.921],[134.127,33.913],[134.124,33.911],[134.125,33.908],[134.126,33.9],[134.124,33.894],[134.122,33.889],[134.116,33.887],[134.11,33.887],[134.104,33.883],[134.099,33.878],[134.094,33.88],[134.089,33.878],[134.09,33.874],[134.091,33.869],[134.091,33.865],[134.093,33.86],[134.096,33.855],[134.101,33.854],[134.111,33.853],[134.118,33.856],[134.125,33.857],[134.132,33.862],[134.135,33.866],[134.14,33.866],[134.143,33.869],[134.148,33.869],[134.155,33.866],[134.165,33.866],[134.169,33.867],[134.173,33.87],[134.177,33.878],[134.18,33.878],[134.183,33.881],[134.187,33.882],[134.19,33.885],[134.194,33.886],[134.198,33.885],[134.206,33.881],[134.211,33.885],[134.217,33.886],[134.222,33.889],[134.225,33.889],[134.231,33.889],[134.235,33.891],[134.239,33.892],[134.239,33.898],[134.237,33.902],[134.233,33.904],[134.231,33.908],[134.228,33.907],[134.221,33.909],[134.221,33.915],[134.221,33.918],[134.223,33.922],[134.225,33.927],[134.231,33.933],[134.229,33.942],[134.229,33.945],[134.227,33.95],[134.231,33.952],[134.234,33.955],[134.245,33.958],[134.247,33.967],[134.251,33.969],[134.256,33.975],[134.251,33.981],[134.248,33.981],[134.243,33.98],[134.238,33.98],[134.229,33.98],[134.225,33.979],[134.219,33.979],[134.212,33.981],[134.204,33.983],[134.202,33.986],[134.196,33.989],[134.2,33.994],[134.198,33.999],[134.193,34.003],[134.19,34.004],[134.189,34.011],[134.185,34.015],[134.198,34.03],[134.198,34.036],[134.198,34.04],[134.197,34.044],[134.192,34.049],[134.19,34.052],[134.191,34.058],[134.188,34.062]]]]}},{"type":"Feature","properties":{"name":"三好市","code":"36208"},"geometry":{"type":"MultiPolygon","coordinates":[[[[134.09,33.874],[134.077,33.871],[134.072,33.872],[134.065,33.872],[134.058,33.871],[134.053,33.872],[134.049,33.871],[134.048,33.875],[134.044,33.881],[134.043,33.884],[134.047,33.895],[134.04,33.897],[134.034,33.901],[134.03,33.901],[134.027,33.898],[134.021,33.9],[134.016,33.901],[134.01,33.905],[134.003,33.906],[134.001,33.914],[134.004,33.918],[133.999,33.92],[133.993,33.923],[133.987,33.924],[133.982,33.924],[133.975,33.925],[133.974,33.929],[133.97,33.931],[133.967,33.936],[133.966,33.939],[133.969,33.942],[133.977,33.946],[133.977,33.949],[133.973,33.952],[133.973,33.956],[133.972,33.96],[133.968,33.961],[133.959,33.961],[133.954,33.964],[133.955,33.971],[133.95,33.974],[133.944,33.976],[133.938,33.975],[133.934,33.975],[133.929,33.974],[133.921,33.975],[133.918,33.977],[133.918,33.984],[133.918,33.988],[133.917,33.993],[133.914,33.995],[133.912,34.0],[133.908,34.005],[133.906,34.01],[133.903,34.014],[133.9,34.019],[133.896,34.023],[133.894,34.027],[133.892,34.035],[133.885,34.032],[133.881,34.031],[133.878,34.033],[133.874,34.034],[133.866,34.034],[133.857,34.036],[133.854,34.035],[133.853,34.041],[133.854,34.045],[133.851,34.047],[133.845,34.049],[133.843,34.056],[133.839,34.055],[133.838,34.058],[133.833,34.061],[133.826,34.072],[133.823,34.074],[133.818,34.072],[133.81,34.073],[133.805,34.071],[133.8,34.07],[133.796,34.07],[133.79,34.075],[133.785,34.08],[133.782,34.08],[133.778,34.079],[133.775,34.074],[133.768,34.072],[133.763,34.07],[133.763,34.067],[133.76,34.065],[133.759,34.061],[133.754,34.059],[133.751,34.057],[133.744,34.052],[133.74,34.05],[133.733,34.045],[133.729,34.044],[133.728,34.041],[133.725,34.038],[133.722,34.03],[133.723,34.025],[133.721,34.022],[133.715,34.019],[133.711,34.017],[133.704,34.016],[133.7,34.018],[133.694,34.015],[133.689,34.012],[133.685,34.013],[133.68,34.013],[133.683,34.007],[133.686,34.004],[133.681,33.996],[133.676,33.992],[133.676,33.988],[133.675,33.984],[133.681,33.984],[133.681,33.979],[133.681,33.974],[133.68,33.97],[133.683,33.965],[133.687,33.965],[133.692,33.962],[133.687,33.955],[133.693,33.948],[133.693,33.944],[133.686,33.939],[133.682,33.938],[133.68,33.934],[133.676,33.933],[133.677,33.928],[133.686,33.926],[133.689,33.922],[133.691,33.916],[133.686,33.913],[133.682,33.91],[133.678,33.91],[133.677,33.905],[133.677,33.899],[133.678,33.893],[133.673,33.89],[133.669,33.888],[133.662,33.886],[133.661,33.882],[133.661,33.877],[133.663,33.87],[133.666,33.866],[133.672,33.865],[133.674,33.861],[133.678,33.859],[133.681,33.86],[133.687,33.857],[133.695,33.856],[133.698,33.852],[133.702,33.85],[133.708,33.852],[133.715,33.851],[133.719,33.849],[133.724,33.85],[133.729,33.851],[133.735,33.85],[133.738,33.85],[133.741,33.843],[133.748,33.837],[133.753,33.837],[133.762,33.839],[133.767,33.84],[133.77,33.839],[133.776,33.842],[133.781,33.842],[133.787,33.841],[133.789,33.836],[133.797,33.836],[133.807,33.837],[133.818,33.837],[133.825,33.842],[133.828,33.845],[133.833,33.844],[133.839,33.845],[133.844,33.838],[133.848,33.835],[133.854,33.835],[133.857,33.828],[133.864,33.822],[133.869,33.814],[133.872,33.81],[133.872,33.806],[133.88,33.805],[133.885,33.803],[133.891,33.804],[133.896,33.802],[133.901,33.794],[133.908,33.795],[133.912,33.793],[133.916,33.794],[133.919,33.798],[133.924,33.799],[133.928,33.8],[133.936,33.799],[133.941,33.799],[133.947,33.804],[133.951,33.811],[133.953,33.815],[133.952,33.82],[133.953,33.824],[133.951,33.829],[133.957,33.832],[133.967,33.836],[133.974,33.836],[133.979,33.837],[133.983,33.841],[133.987,33.839],[133.989,33.833],[133.99,33.829],[133.996,33.822],[134.002,33.822],[134.006,33.821],[134.012,33.822],[134.02,33.824],[134.023,33.825],[134.027,33.827],[134.033,33.828],[134.038,33.834],[134.045,33.834],[134.049,33.834],[134.054,33.837],[134.061,33.838],[134.065,33.84],[134.078,33.846],[134.085,33.844],[134.089,33.849],[134.092,33.852],[134.096,33.855],[134.095,33.858],[134.091,33.865],[134.091,33.869],[134.091,33.873]]],[[[134.0,34.075],[133.994,34.073],[133.989,34.075],[133.986,34.073],[133.977,34.076],[133.973,34.073],[133.971,34.078],[133.969,34.081],[133.963,34.081],[133.959,34.082],[133.959,34.086],[133.952,34.09],[133.949,34.092],[133.944,34.094],[133.943,34.1],[133.942,34.104],[133.938,34.108],[133.94,34.115],[133.932,34.116],[133.922,34.114],[133.916,34.108],[133.912,34.104],[133.903,34.1],[133.899,34.097],[133.902,34.089],[133.908,34.083],[133.912,34.08],[133.917,34.074],[133.921,34.068],[133.924,34.063],[133.923,34.059],[133.925,34.053],[133.924,34.05],[133.93,34.05],[133.935,34.049],[133.948,34.043],[133.96,34.041],[133.963,34.039],[133.969,34.037],[133.979,34.041],[133.983,34.041],[133.987,34.04],[133.994,34.037],[133.999,34.037],[133.999,34.045],[134.001,34.058],[134.001,34.065],[133.999,34.068],[134.001,34.072],[134.0,34.075]]]]}},{"type":"Feature","properties":{"name":"勝浦郡勝浦町","code":"36301"},"geometry":{"type":"MultiPolygon","coordinates":[[[[134.487,33.968],[134.483,33.967],[134.48,33.964],[134.474,33.962],[134.47,33.956],[134.468,33.952],[134.464,33.951],[134.461,33.952],[134.457,33.952],[134.452,33.953],[134.446,33.956],[134.438,33.954],[134.433,33.956],[134.43,33.946],[134.432,33.941],[134.429,33.935],[134.433,33.934],[134.432,33.93],[134.437,33.928],[134.442,33.928],[134.455,33.926],[134.455,33.922],[134.454,33.917],[134.453,33.909],[134.452,33.905],[134.453,33.902],[134.45,33.897],[134.448,33.893],[134.444,33.89],[134.447,33.885],[134.448,33.881],[134.444,33.878],[134.436,33.872],[134.436,33.867],[134.431,33.861],[134.432,33.856],[134.436,33.858],[134.451,33.862],[134.455,33.865],[134.463,33.866],[134.468,33.87],[134.469,33.874],[134.472,33.878],[134.474,33.882],[134.469,33.886],[134.468,33.889],[134.469,33.892],[134.473,33.895],[134.475,33.901],[134.48,33.902],[134.484,33.906],[134.487,33.908],[134.493,33.911],[134.499,33.911],[134.504,33.908],[134.511,33.911],[134.515,33.914],[134.517,33.918],[134.521,33.916],[134.531,33.918],[134.532,33.924],[134.536,33.928],[134.543,33.931],[134.549,33.931],[134.558,33.933],[134.561,33.94],[134.564,33.942],[134.568,33.943],[134.57,33.948],[134.57,33.953],[134.569,33.957],[134.567,33.962],[134.561,33.961],[134.555,33.96],[134.547,33.958],[134.538,33.955],[134.533,33.96],[134.53,33.961],[134.524,33.96],[134.519,33.963],[134.515,33.962],[134.51,33.962],[134.507,33.965],[134.503,33.967],[134.495,33.97],[134.491,33.969],[134.488,33.968]]]]}},{"type":"Feature","properties":{"name":"勝浦郡上勝町","code":"36302"},"geometry":{"type":"MultiPolygon","coordinates":[[[[134.432,33.957],[134.424,33.956],[134.419,33.955],[134.401,33.951],[134.401,33.945],[134.395,33.943],[134.391,33.944],[134.386,33.941],[134.378,33.94],[134.374,33.936],[134.368,33.937],[134.366,33.933],[134.361,33.933],[134.353,33.932],[134.35,33.931],[134.346,33.927],[134.341,33.925],[134.336,33.928],[134.329,33.933],[134.324,33.933],[134.314,33.926],[134.309,33.926],[134.304,33.926],[134.302,33.921],[134.298,33.913],[134.304,33.908],[134.308,33.906],[134.313,33.899],[134.316,33.898],[134.317,33.895],[134.322,33.89],[134.326,33.883],[134.322,33.878],[134.326,33.875],[134.326,33.87],[134.327,33.864],[134.336,33.865],[134.342,33.86],[134.346,33.859],[134.351,33.858],[134.351,33.852],[134.357,33.851],[134.361,33.849],[134.365,33.85],[134.373,33.855],[134.378,33.856],[134.381,33.853],[134.387,33.851],[134.393,33.854],[134.402,33.856],[134.407,33.855],[134.41,33.858],[134.415,33.86],[134.421,33.858],[134.429,33.859],[134.435,33.865],[134.436,33.872],[134.443,33.876],[134.448,33.881],[134.447,33.885],[134.444,33.888],[134.448,33.893],[134.45,33.897],[134.453,33.902],[134.452,33.905],[134.453,33.909],[134.452,33.916],[134.452,33.92],[134.457,33.925],[134.445,33.927],[134.437,33.928],[134.432,33.93],[134.433,33.934],[134.429,33.935],[134.432,33.941],[134.43,33.946],[134.43,33.953],[134.432,33.957]]]]}},{"type":"Feature","properties":{"name":"名東郡佐那河内村","code":"36321"},"geometry":{"type":"MultiPolygon","coordinates":[[[[134.45,34.008],[134.442,34.01],[134.437,34.007],[134.438,34.001],[134.434,33.996],[134.43,33.994],[134.427,33.997],[134.423,33.995],[134.418,33.991],[134.417,33.987],[134.411,33.985],[134.411,33.981],[134.411,33.977],[134.406,33.974],[134.405,33.962],[134.401,33.96],[134.399,33.955],[134.401,33.951],[134.419,33.955],[134.423,33.954],[134.429,33.956],[134.433,33.956],[134.438,33.954],[134.444,33.954],[134.452,33.953],[134.457,33.952],[134.461,33.952],[134.464,33.951],[134.468,33.952],[134.47,33.956],[134.473,33.959],[134.477,33.966],[134.482,33.965],[134.487,33.968],[134.485,33.974],[134.482,33.978],[134.482,33.983],[134.485,33.984],[134.487,33.988],[134.493,33.993],[134.496,33.993],[134.496,33.999],[134.496,34.007],[134.495,34.011],[134.499,34.013],[134.495,34.014],[134.491,34.017],[134.489,34.02],[134.482,34.022],[134.476,34.021],[134.472,34.018],[134.467,34.016],[134.466,34.01],[134.461,34.006],[134.454,34.008],[134.45,34.008]]]]}},{"type":"Feature","properties":{"name":"名西郡石井町","code":"36341"},"geometry":{"type":"MultiPolygon","coordinates":[[[[134.459,34.111],[134.453,34.106],[134.45,34.104],[134.447,34.106],[134.424,34.102],[134.411,34.095],[134.397,34.087],[134.4,34.075],[134.402,34.069],[134.403,34.066],[134.404,34.052],[134.411,34.057],[134.419,34.056],[134.422,34.056],[134.426,34.053],[134.432,34.053],[134.438,34.054],[134.444,34.053],[134.45,34.055],[134.455,34.058],[134.461,34.06],[134.465,34.059],[134.469,34.062],[134.469,34.066],[134.467,34.071],[134.463,34.078],[134.462,34.087],[134.459,34.089],[134.455,34.089],[134.453,34.092],[134.454,34.099],[134.459,34.101],[134.459,34.107],[134.459,34.111]]]]}},{"type":"Feature","properties":{"name":"名西郡神山町","code":"36342"},"geometry":{"type":"MultiPolygon","coordinates":[[[[134.426,34.053],[134.422,34.056],[134.419,34.056],[134.411,34.057],[134.407,34.053],[134.403,34.05],[134.4,34.051],[134.396,34.053],[134.392,34.05],[134.388,34.047],[134.38,34.044],[134.372,34.039],[134.372,34.035],[134.367,34.029],[134.361,34.033],[134.356,34.037],[134.35,34.039],[134.349,34.036],[134.343,34.031],[134.338,34.032],[134.335,34.03],[134.335,34.024],[134.334,34.021],[134.331,34.018],[134.33,34.013],[134.323,34.009],[134.325,34.003],[134.317,34.006],[134.311,34.007],[134.302,34.005],[134.296,34.002],[134.291,34.003],[134.287,33.994],[134.283,33.991],[134.275,33.993],[134.269,33.989],[134.263,33.988],[134.256,33.986],[134.254,33.982],[134.256,33.977],[134.251,33.969],[134.247,33.967],[134.245,33.959],[134.234,33.955],[134.231,33.952],[134.227,33.95],[134.229,33.945],[134.229,33.942],[134.231,33.933],[134.225,33.927],[134.223,33.922],[134.221,33.918],[134.221,33.915],[134.221,33.909],[134.228,33.907],[134.231,33.908],[134.236,33.91],[134.249,33.915],[134.254,33.916],[134.258,33.916],[134.262,33.918],[134.267,33.917],[134.273,33.917],[134.278,33.915],[134.282,33.916],[134.286,33.915],[134.29,33.907],[134.294,33.907],[134.299,33.91],[134.302,33.921],[134.304,33.926],[134.309,33.926],[134.314,33.926],[134.324,33.933],[134.329,33.933],[134.336,33.928],[134.341,33.925],[134.346,33.927],[134.35,33.931],[134.353,33.932],[134.361,33.933],[134.366,33.933],[134.368,33.937],[134.374,33.936],[134.378,33.939],[134.383,33.942],[134.389,33.941],[134.395,33.943],[134.401,33.945],[134.4,33.949],[134.399,33.955],[134.401,33.96],[134.405,33.962],[134.406,33.974],[134.41,33.975],[134.411,33.981],[134.411,33.985],[134.417,33.987],[134.418,33.991],[134.423,33.993],[134.427,33.997],[134.43,33.994],[134.434,33.996],[134.437,33.998],[134.437,34.007],[134.442,34.01],[134.447,34.01],[134.453,34.014],[134.45,34.021],[134.447,34.02],[134.442,34.018],[134.436,34.018],[134.431,34.024],[134.427,34.026],[134.429,34.031],[134.429,34.04],[134.424,34.045],[134.423,34.048],[134.426,34.051]]]]}},{"type":"Feature","properties":{"name":"那賀郡那賀町","code":"36368"},"geometry":{"type":"MultiPolygon","coordinates":[[[[134.468,33.87],[134.463,33.868],[134.455,33.865],[134.451,33.862],[134.438,33.86],[134.432,33.856],[134.429,33.859],[134.421,33.858],[134.417,33.86],[134.41,33.858],[134.407,33.855],[134.403,33.855],[134.395,33.854],[134.39,33.852],[134.381,33.853],[134.378,33.856],[134.373,33.855],[134.365,33.85],[134.361,33.849],[134.357,33.851],[134.351,33.852],[134.352,33.857],[134.346,33.859],[134.342,33.86],[134.337,33.862],[134.327,33.864],[134.326,33.87],[134.326,33.875],[134.322,33.878],[134.326,33.883],[134.325,33.887],[134.318,33.894],[134.316,33.898],[134.313,33.899],[134.311,33.904],[134.304,33.908],[134.299,33.91],[134.294,33.907],[134.29,33.907],[134.286,33.915],[134.282,33.916],[134.278,33.915],[134.275,33.916],[134.267,33.917],[134.262,33.918],[134.258,33.916],[134.254,33.916],[134.25,33.917],[134.238,33.91],[134.231,33.908],[134.233,33.904],[134.237,33.902],[134.239,33.898],[134.239,33.892],[134.235,33.891],[134.231,33.889],[134.226,33.888],[134.222,33.889],[134.218,33.888],[134.211,33.885],[134.209,33.881],[134.198,33.885],[134.194,33.886],[134.19,33.885],[134.187,33.882],[134.183,33.881],[134.18,33.878],[134.177,33.878],[134.172,33.872],[134.169,33.867],[134.165,33.866],[134.155,33.866],[134.151,33.868],[134.143,33.869],[134.14,33.866],[134.135,33.866],[134.132,33.862],[134.127,33.86],[134.118,33.856],[134.112,33.855],[134.101,33.854],[134.096,33.855],[134.092,33.852],[134.089,33.849],[134.085,33.844],[134.078,33.846],[134.065,33.841],[134.061,33.838],[134.054,33.837],[134.049,33.834],[134.045,33.834],[134.04,33.835],[134.036,33.83],[134.035,33.825],[134.037,33.82],[134.037,33.815],[134.034,33.812],[134.039,33.805],[134.047,33.799],[134.046,33.795],[134.046,33.79],[134.049,33.787],[134.055,33.785],[134.059,33.777],[134.058,33.772],[134.059,33.766],[134.059,33.761],[134.057,33.758],[134.056,33.752],[134.059,33.746],[134.061,33.74],[134.062,33.735],[134.066,33.734],[134.068,33.728],[134.068,33.725],[134.065,33.719],[134.067,33.716],[134.07,33.711],[134.066,33.71],[134.065,33.704],[134.064,33.7],[134.062,33.696],[134.058,33.695],[134.058,33.691],[134.066,33.689],[134.073,33.69],[134.076,33.691],[134.081,33.69],[134.09,33.693],[134.095,33.692],[134.1,33.695],[134.106,33.694],[134.112,33.696],[134.117,33.696],[134.122,33.696],[134.126,33.696],[134.132,33.694],[134.136,33.691],[134.14,33.69],[134.149,33.686],[134.155,33.686],[134.161,33.687],[134.164,33.691],[134.163,33.697],[134.171,33.699],[134.174,33.703],[134.183,33.707],[134.186,33.708],[134.19,33.711],[134.194,33.711],[134.198,33.713],[134.202,33.716],[134.206,33.717],[134.209,33.718],[134.211,33.722],[134.22,33.722],[134.223,33.722],[134.23,33.721],[134.233,33.719],[134.237,33.72],[134.247,33.724],[134.249,33.721],[134.253,33.719],[134.257,33.719],[134.264,33.721],[134.266,33.724],[134.271,33.728],[134.276,33.728],[134.282,33.731],[134.288,33.727],[134.295,33.731],[134.305,33.732],[134.31,33.731],[134.316,33.731],[134.32,33.733],[134.327,33.73],[134.334,33.728],[134.339,33.73],[134.348,33.729],[134.352,33.729],[134.356,33.728],[134.362,33.731],[134.366,33.727],[134.375,33.728],[134.382,33.725],[134.39,33.725],[134.395,33.724],[134.4,33.729],[134.402,33.735],[134.402,33.74],[134.409,33.742],[134.413,33.742],[134.42,33.748],[134.422,33.753],[134.421,33.757],[134.427,33.762],[134.433,33.764],[134.438,33.762],[134.444,33.764],[134.45,33.766],[134.446,33.772],[134.451,33.774],[134.46,33.775],[134.463,33.777],[134.475,33.778],[134.479,33.78],[134.48,33.787],[134.483,33.788],[134.491,33.794],[134.499,33.792],[134.505,33.794],[134.517,33.798],[134.527,33.801],[134.528,33.804],[134.525,33.806],[134.518,33.807],[134.512,33.806],[134.508,33.813],[134.508,33.817],[134.51,33.823],[134.515,33.829],[134.519,33.83],[134.524,33.834],[134.525,33.839],[134.525,33.842],[134.529,33.844],[134.531,33.847],[134.535,33.85],[134.54,33.852],[134.546,33.852],[134.551,33.855],[134.556,33.854],[134.556,33.861],[134.557,33.864],[134.556,33.869],[134.549,33.868],[134.545,33.869],[134.541,33.873],[134.53,33.874],[134.526,33.873],[134.522,33.873],[134.515,33.871],[134.506,33.868],[134.502,33.867],[134.499,33.865],[134.497,33.871],[134.492,33.872],[134.489,33.869],[134.483,33.871],[134.479,33.871],[134.473,33.869],[134.468,33.87]]]]}},{"type":"Feature","properties":{"name":"海部郡牟岐町","code":"36383"},"geometry":{"type":"MultiPolygon","coordinates":[[[[134.486,33.645],[134.484,33.64],[134.487,33.637],[134.482,33.636],[134.486,33.634],[134.49,33.632],[134.497,33.631],[134.501,33.634],[134.504,33.638],[134.5,33.64],[134.496,33.638],[134.493,33.641],[134.49,33.642],[134.486,33.645]]],[[[134.472,33.682],[134.475,33.685],[134.476,33.691],[134.474,33.694],[134.471,33.695],[134.465,33.694],[134.462,33.697],[134.458,33.701],[134.456,33.705],[134.457,33.71],[134.455,33.719],[134.449,33.723],[134.443,33.721],[134.44,33.721],[134.435,33.719],[134.427,33.715],[134.421,33.719],[134.412,33.72],[134.405,33.719],[134.397,33.718],[134.393,33.718],[134.394,33.713],[134.39,33.712],[134.386,33.712],[134.381,33.71],[134.375,33.708],[134.37,33.706],[134.365,33.704],[134.365,33.699],[134.361,33.696],[134.362,33.689],[134.366,33.683],[134.362,33.678],[134.366,33.675],[134.37,33.675],[134.37,33.669],[134.374,33.666],[134.377,33.661],[134.383,33.657],[134.387,33.654],[134.39,33.651],[134.397,33.65],[134.395,33.655],[134.401,33.658],[134.404,33.66],[134.41,33.656],[134.414,33.655],[134.418,33.657],[134.418,33.662],[134.423,33.666],[134.425,33.661],[134.429,33.664],[134.436,33.664],[134.44,33.665],[134.444,33.666],[134.455,33.673],[134.46,33.676],[134.464,33.678],[134.472,33.682]]]]}},{"type":"Feature","properties":{"name":"海部郡美波町","code":"36387"},"geometry":{"type":"MultiPolygon","coordinates":[[[[134.528,33.804],[134.527,33.801],[134.519,33.799],[134.507,33.795],[134.499,33.792],[134.491,33.794],[134.486,33.791],[134.48,33.787],[134.481,33.782],[134.475,33.778],[134.466,33.779],[134.46,33.775],[134.453,33.775],[134.447,33.774],[134.448,33.769],[134.444,33.764],[134.439,33.763],[134.433,33.764],[134.427,33.762],[134.421,33.757],[134.422,33.753],[134.42,33.748],[134.415,33.744],[134.409,33.742],[134.405,33.741],[134.402,33.735],[134.4,33.731],[134.395,33.724],[134.393,33.718],[134.397,33.718],[134.402,33.718],[134.412,33.72],[134.421,33.719],[134.425,33.716],[134.435,33.719],[134.44,33.721],[134.443,33.721],[134.449,33.723],[134.455,33.719],[134.455,33.713],[134.458,33.707],[134.458,33.701],[134.46,33.698],[134.465,33.694],[134.471,33.695],[134.474,33.694],[134.476,33.691],[134.475,33.685],[134.472,33.682],[134.478,33.684],[134.482,33.687],[134.487,33.688],[134.488,33.691],[134.491,33.691],[134.495,33.694],[134.501,33.694],[134.505,33.699],[134.51,33.698],[134.514,33.702],[134.518,33.705],[134.531,33.711],[134.535,33.715],[134.539,33.716],[134.543,33.72],[134.543,33.726],[134.541,33.729],[134.542,33.734],[134.547,33.738],[134.551,33.736],[134.554,33.742],[134.558,33.737],[134.558,33.734],[134.562,33.734],[134.566,33.732],[134.568,33.737],[134.569,33.743],[134.572,33.751],[134.574,33.756],[134.57,33.759],[134.573,33.766],[134.578,33.761],[134.581,33.763],[134.58,33.77],[134.585,33.772],[134.59,33.769],[134.591,33.773],[134.595,33.772],[134.596,33.765],[134.6,33.764],[134.602,33.768],[134.602,33.772],[134.605,33.773],[134.608,33.776],[134.609,33.78],[134.612,33.781],[134.617,33.781],[134.62,33.787],[134.627,33.786],[134.63,33.786],[134.636,33.787],[134.639,33.785],[134.64,33.782],[134.641,33.785],[134.642,33.789],[134.648,33.789],[134.652,33.79],[134.658,33.795],[134.67,33.802],[134.676,33.802],[134.679,33.804],[134.677,33.81],[134.675,33.816],[134.67,33.814],[134.667,33.815],[134.662,33.809],[134.655,33.808],[134.651,33.805],[134.646,33.806],[134.633,33.801],[134.627,33.799],[134.623,33.8],[134.62,33.798],[134.615,33.795],[134.611,33.792],[134.606,33.788],[134.602,33.79],[134.599,33.787],[134.589,33.787],[134.582,33.786],[134.577,33.786],[134.576,33.79],[134.572,33.789],[134.571,33.793],[134.562,33.794],[134.56,33.797],[134.557,33.801],[134.553,33.802],[134.549,33.805],[134.543,33.806],[134.538,33.804],[134.531,33.803],[134.528,33.804]]]]}},{"type":"Feature","properties":{"name":"海部郡海陽町","code":"36388"},"geometry":{"type":"MultiPolygon","coordinates":[[[[134.164,33.688],[134.168,33.686],[134.171,33.686],[134.175,33.684],[134.175,33.68],[134.175,33.676],[134.169,33.671],[134.172,33.665],[134.175,33.662],[134.171,33.658],[134.176,33.653],[134.183,33.651],[134.175,33.643],[134.171,33.642],[134.164,33.635],[134.158,33.633],[134.15,33.631],[134.149,33.627],[134.153,33.626],[134.152,33.618],[134.153,33.615],[134.156,33.612],[134.161,33.613],[134.165,33.61],[134.173,33.61],[134.176,33.607],[134.17,33.602],[134.172,33.599],[134.176,33.594],[134.181,33.591],[134.185,33.589],[134.186,33.585],[134.189,33.581],[134.188,33.576],[134.192,33.574],[134.195,33.569],[134.194,33.565],[134.193,33.562],[134.202,33.562],[134.207,33.565],[134.211,33.566],[134.219,33.568],[134.225,33.563],[134.229,33.561],[134.23,33.558],[134.239,33.553],[134.243,33.556],[134.249,33.553],[134.258,33.553],[134.263,33.556],[134.267,33.556],[134.271,33.558],[134.279,33.56],[134.283,33.56],[134.287,33.56],[134.296,33.558],[134.297,33.553],[134.304,33.554],[134.306,33.55],[134.308,33.547],[134.314,33.546],[134.314,33.549],[134.316,33.554],[134.32,33.555],[134.314,33.558],[134.313,33.562],[134.309,33.564],[134.309,33.572],[134.311,33.577],[134.316,33.576],[134.319,33.577],[134.318,33.582],[134.322,33.583],[134.329,33.582],[134.334,33.579],[134.339,33.578],[134.346,33.579],[134.355,33.578],[134.363,33.58],[134.358,33.582],[134.354,33.583],[134.349,33.584],[134.342,33.584],[134.337,33.583],[134.332,33.582],[134.339,33.586],[134.346,33.585],[134.353,33.586],[134.361,33.588],[134.364,33.591],[134.362,33.596],[134.364,33.602],[134.367,33.605],[134.371,33.61],[134.378,33.613],[134.383,33.614],[134.383,33.619],[134.388,33.62],[134.389,33.623],[134.38,33.625],[134.376,33.624],[134.371,33.624],[134.365,33.624],[134.362,33.628],[134.367,33.629],[134.368,33.633],[134.377,33.633],[134.376,33.637],[134.385,33.641],[134.387,33.646],[134.39,33.651],[134.387,33.654],[134.383,33.657],[134.38,33.658],[134.377,33.663],[134.371,33.666],[134.373,33.672],[134.366,33.675],[134.362,33.678],[134.366,33.683],[134.365,33.688],[134.362,33.693],[134.364,33.698],[134.365,33.704],[134.37,33.706],[134.375,33.708],[134.381,33.708],[134.386,33.712],[134.39,33.712],[134.394,33.713],[134.393,33.718],[134.392,33.722],[134.39,33.725],[134.384,33.726],[134.378,33.726],[134.368,33.726],[134.362,33.731],[134.358,33.731],[134.352,33.729],[134.348,33.729],[134.341,33.728],[134.337,33.73],[134.33,33.728],[134.322,33.73],[134.316,33.731],[134.313,33.732],[134.305,33.732],[134.295,33.731],[134.288,33.727],[134.284,33.729],[134.276,33.728],[134.271,33.728],[134.266,33.724],[134.264,33.721],[134.259,33.72],[134.253,33.719],[134.249,33.721],[134.247,33.724],[134.237,33.72],[134.233,33.719],[134.23,33.721],[134.225,33.721],[134.22,33.722],[134.211,33.722],[134.209,33.718],[134.206,33.717],[134.202,33.716],[134.198,33.713],[134.194,33.711],[134.19,33.711],[134.186,33.708],[134.183,33.707],[134.176,33.704],[134.171,33.699],[134.163,33.697],[134.164,33.691]]]]}},{"type":"Feature","properties":{"name":"板野郡松茂町","code":"36401"},"geometry":{"type":"MultiPolygon","coordinates":[[[[134.607,34.101],[134.601,34.107],[134.603,34.113],[134.603,34.116],[134.608,34.126],[134.611,34.124],[134.616,34.127],[134.622,34.128],[134.626,34.137],[134.618,34.138],[134.619,34.141],[134.601,34.149],[134.594,34.146],[134.591,34.146],[134.585,34.149],[134.584,34.152],[134.577,34.155],[134.573,34.154],[134.57,34.155],[134.57,34.15],[134.564,34.151],[134.562,34.148],[134.56,34.144],[134.569,34.14],[134.565,34.134],[134.569,34.131],[134.575,34.13],[134.579,34.13],[134.586,34.127],[134.59,34.123],[134.596,34.115],[134.599,34.107],[134.602,34.103],[134.607,34.101]]]]}},{"type":"Feature","properties":{"name":"板野郡北島町","code":"36402"},"geometry":{"type":"MultiPolygon","coordinates":[[[[134.575,34.13],[134.569,34.131],[134.565,34.134],[134.568,34.137],[134.561,34.143],[134.557,34.141],[134.552,34.141],[134.547,34.14],[134.541,34.14],[134.538,34.135],[134.531,34.133],[134.53,34.129],[134.529,34.125],[134.534,34.125],[134.536,34.121],[134.539,34.114],[134.546,34.111],[134.552,34.11],[134.557,34.108],[134.558,34.113],[134.556,34.118],[134.558,34.122],[134.562,34.122],[134.565,34.125],[134.57,34.129],[134.575,34.13]]]]}},{"type":"Feature","properties":{"name":"板野郡藍住町","code":"36403"},"geometry":{"type":"MultiPolygon","coordinates":[[[[134.529,34.125],[134.53,34.129],[134.521,34.135],[134.517,34.138],[134.514,34.14],[134.51,34.143],[134.503,34.144],[134.499,34.143],[134.496,34.146],[134.492,34.148],[134.487,34.148],[134.481,34.143],[134.478,34.14],[134.477,34.131],[134.473,34.129],[134.471,34.119],[134.458,34.117],[134.458,34.112],[134.466,34.113],[134.47,34.113],[134.476,34.112],[134.48,34.109],[134.484,34.107],[134.488,34.107],[134.493,34.107],[134.505,34.109],[134.505,34.114],[134.506,34.118],[134.514,34.121],[134.516,34.124],[134.522,34.124],[134.529,34.125]]]]}},{"type":"Feature","properties":{"name":"板野郡板野町","code":"36404"},"geometry":{"type":"MultiPolygon","coordinates":[[[[134.439,34.191],[134.432,34.186],[134.431,34.179],[134.434,34.179],[134.434,34.175],[134.434,34.17],[134.428,34.167],[134.425,34.166],[134.42,34.159],[134.413,34.157],[134.416,34.155],[134.418,34.151],[134.42,34.147],[134.425,34.145],[134.427,34.141],[134.428,34.136],[134.428,34.131],[134.43,34.127],[134.433,34.125],[134.436,34.124],[134.437,34.12],[134.441,34.12],[134.442,34.114],[134.458,34.117],[134.471,34.119],[134.47,34.129],[134.477,34.131],[134.478,34.137],[134.481,34.143],[134.487,34.148],[134.486,34.155],[134.484,34.16],[134.484,34.164],[134.481,34.17],[134.48,34.176],[134.47,34.177],[134.463,34.177],[134.459,34.181],[134.455,34.187],[134.456,34.191],[134.444,34.192],[134.439,34.191]]]]}},{"type":"Feature","properties":{"name":"板野郡上板町","code":"36405"},"geometry":{"type":"MultiPolygon","coordinates":[[[[134.397,34.087],[134.411,34.095],[134.424,34.102],[134.447,34.106],[134.45,34.104],[134.453,34.106],[134.458,34.112],[134.458,34.117],[134.442,34.114],[134.441,34.12],[134.437,34.12],[134.436,34.124],[134.433,34.125],[134.43,34.127],[134.428,34.131],[134.428,34.136],[134.427,34.141],[134.425,34.145],[134.42,34.147],[134.418,34.15],[134.416,34.155],[134.413,34.157],[134.411,34.161],[134.407,34.163],[134.404,34.167],[134.4,34.168],[134.394,34.164],[134.389,34.165],[134.385,34.165],[134.383,34.172],[134.38,34.172],[134.376,34.172],[134.373,34.169],[134.371,34.164],[134.368,34.156],[134.369,34.151],[134.375,34.148],[134.378,34.144],[134.383,34.139],[134.378,34.13],[134.38,34.124],[134.383,34.119],[134.386,34.114],[134.399,34.116],[134.402,34.109],[134.401,34.106],[134.398,34.104],[134.394,34.104],[134.394,34.098],[134.396,34.092],[134.397,34.087]]]]}},{"type":"Feature","properties":{"name":"美馬郡つるぎ町","code":"36468"},"geometry":{"type":"MultiPolygon","coordinates":[[[[134.0,34.037],[134.001,34.033],[134.003,34.03],[134.004,34.026],[134.002,34.018],[134.001,34.011],[133.998,34.005],[134.002,34.001],[134.001,33.997],[134.002,33.99],[133.999,33.988],[133.998,33.983],[133.996,33.979],[133.989,33.974],[133.984,33.973],[133.981,33.969],[133.976,33.963],[133.972,33.96],[133.973,33.956],[133.973,33.952],[133.977,33.949],[133.977,33.946],[133.969,33.942],[133.966,33.939],[133.967,33.936],[133.97,33.931],[133.974,33.929],[133.975,33.925],[133.982,33.924],[133.987,33.924],[133.993,33.923],[133.999,33.92],[134.003,33.919],[134.001,33.914],[134.002,33.908],[134.008,33.906],[134.016,33.901],[134.021,33.9],[134.025,33.899],[134.03,33.901],[134.034,33.901],[134.038,33.899],[134.045,33.897],[134.042,33.887],[134.044,33.881],[134.048,33.875],[134.049,33.871],[134.053,33.872],[134.058,33.871],[134.063,33.87],[134.072,33.872],[134.077,33.871],[134.09,33.874],[134.089,33.878],[134.094,33.88],[134.099,33.878],[134.102,33.88],[134.11,33.887],[134.116,33.887],[134.122,33.889],[134.124,33.894],[134.126,33.9],[134.125,33.908],[134.124,33.911],[134.127,33.913],[134.126,33.921],[134.12,33.921],[134.116,33.921],[134.108,33.921],[134.1,33.924],[134.101,33.929],[134.103,33.934],[134.105,33.942],[134.101,33.948],[134.098,33.956],[134.102,33.961],[134.105,33.963],[134.108,33.966],[134.109,33.971],[134.109,33.977],[134.112,33.987],[134.109,33.992],[134.109,33.997],[134.116,34.004],[134.118,34.008],[134.117,34.011],[134.119,34.017],[134.114,34.019],[134.114,34.024],[134.112,34.031],[134.107,34.032],[134.103,34.035],[134.099,34.038],[134.093,34.045],[134.095,34.051],[134.086,34.053],[134.088,34.058],[134.079,34.054],[134.074,34.052],[134.071,34.047],[134.05,34.044],[134.043,34.043],[134.029,34.045],[134.021,34.044],[134.016,34.039],[134.009,34.038],[134.0,34.037]]]]}},{"type":"Feature","properties":{"name":"三好郡東みよし町","code":"36489"},"geometry":{"type":"MultiPolygon","coordinates":[[[[133.972,33.96],[133.976,33.963],[133.979,33.967],[133.984,33.973],[133.989,33.974],[133.996,33.979],[133.996,33.982],[133.999,33.988],[134.002,33.99],[134.002,33.997],[134.002,34.001],[133.998,34.005],[133.999,34.011],[134.001,34.016],[134.003,34.024],[134.003,34.03],[134.001,34.033],[133.999,34.037],[133.996,34.036],[133.987,34.04],[133.983,34.041],[133.979,34.041],[133.969,34.037],[133.963,34.039],[133.96,34.041],[133.948,34.043],[133.935,34.049],[133.93,34.05],[133.924,34.05],[133.925,34.053],[133.923,34.059],[133.924,34.063],[133.921,34.068],[133.917,34.074],[133.913,34.077],[133.908,34.083],[133.903,34.087],[133.899,34.097],[133.903,34.1],[133.897,34.104],[133.894,34.107],[133.885,34.105],[133.88,34.104],[133.874,34.101],[133.871,34.101],[133.867,34.1],[133.865,34.104],[133.859,34.105],[133.855,34.104],[133.849,34.099],[133.845,34.096],[133.842,34.095],[133.838,34.095],[133.834,34.098],[133.831,34.096],[133.826,34.094],[133.822,34.092],[133.823,34.085],[133.819,34.08],[133.819,34.075],[133.823,34.074],[133.826,34.072],[133.832,34.064],[133.838,34.058],[133.839,34.055],[133.843,34.056],[133.845,34.052],[133.849,34.049],[133.854,34.045],[133.853,34.041],[133.854,34.035],[133.857,34.036],[133.866,34.034],[133.874,34.034],[133.878,34.033],[133.881,34.031],[133.885,34.032],[133.892,34.035],[133.895,34.029],[133.896,34.023],[133.9,34.019],[133.902,34.014],[133.906,34.01],[133.906,34.005],[133.909,34.002],[133.914,33.998],[133.917,33.993],[133.918,33.988],[133.918,33.984],[133.918,33.977],[133.921,33.975],[133.928,33.974],[133.934,33.975],[133.937,33.973],[133.943,33.975],[133.95,33.974],[133.955,33.971],[133.954,33.964],[133.959,33.961],[133.966,33.962],[133.972,33.96]]]]}}]}