{"type":"FeatureCollection","features":[{"type":"Feature","properties":{"name":"高松市","code":"37201"},"geometry":{"type":"MultiPolygon","coordinates":[[[[134.166,34.326],[134.16,34.331],[134.159,34.335],[134.156,34.343],[134.158,34.348],[134.158,34.351],[134.16,34.354],[134.159,34.359],[134.157,34.364],[134.158,34.368],[134.161,34.373],[134.163,34.378],[134.164,34.383],[134.16,34.389],[134.152,34.392],[134.146,34.395],[134.136,34.4],[134.127,34.396],[134.121,34.398],[134.12,34.395],[134.122,34.39],[134.126,34.392],[134.129,34.386],[134.125,34.385],[134.123,34.379],[134.116,34.376],[134.116,34.372],[134.121,34.359],[134.115,34.359],[134.113,34.364],[134.108,34.372],[134.099,34.38],[134.096,34.382],[134.092,34.385],[134.091,34.372],[134.092,34.369],[134.091,34.363],[134.085,34.353],[134.079,34.35],[134.08,34.359],[134.075,34.362],[134.075,34.351],[134.07,34.352],[134.069,34.362],[134.063,34.363],[134.064,34.358],[134.055,34.356],[134.06,34.354],[134.06,34.351],[134.05,34.352],[134.047,34.356],[134.038,34.352],[134.028,34.354],[134.025,34.355],[134.019,34.355],[134.009,34.355],[134.016,34.355],[134.007,34.358],[134.003,34.359],[134.002,34.355],[133.999,34.355],[133.993,34.357],[133.99,34.36],[133.983,34.365],[133.978,34.372],[133.97,34.369],[133.964,34.365],[133.96,34.369],[133.959,34.378],[133.947,34.381],[133.943,34.376],[133.938,34.376],[133.939,34.381],[133.934,34.385],[133.932,34.388],[133.928,34.39],[133.93,34.386],[133.929,34.377],[133.932,34.377],[133.934,34.373],[133.936,34.364],[133.935,34.355],[133.937,34.348],[133.943,34.346],[133.946,34.338],[133.952,34.335],[133.954,34.332],[133.951,34.327],[133.951,34.323],[133.942,34.325],[133.931,34.321],[133.925,34.316],[133.929,34.312],[133.932,34.306],[133.939,34.301],[133.939,34.297],[133.942,34.292],[133.943,34.288],[133.941,34.283],[133.944,34.278],[133.944,34.272],[133.95,34.271],[133.953,34.269],[133.962,34.266],[133.966,34.266],[133.97,34.263],[133.979,34.264],[133.984,34.266],[133.988,34.262],[133.989,34.267],[133.992,34.263],[133.993,34.26],[133.99,34.254],[133.986,34.248],[133.985,34.242],[133.989,34.238],[133.993,34.235],[133.994,34.23],[134.004,34.219],[134.009,34.217],[134.01,34.213],[134.013,34.207],[134.015,34.201],[134.017,34.19],[134.023,34.19],[134.025,34.183],[134.024,34.174],[134.028,34.172],[134.028,34.168],[134.026,34.161],[134.022,34.16],[134.023,34.155],[134.022,34.152],[134.025,34.14],[134.03,34.14],[134.034,34.135],[134.036,34.129],[134.05,34.117],[134.053,34.118],[134.058,34.115],[134.061,34.111],[134.067,34.113],[134.071,34.113],[134.08,34.121],[134.094,34.115],[134.103,34.115],[134.116,34.118],[134.119,34.12],[134.122,34.119],[134.127,34.123],[134.131,34.125],[134.133,34.13],[134.138,34.132],[134.138,34.138],[134.139,34.141],[134.138,34.147],[134.135,34.152],[134.131,34.151],[134.125,34.16],[134.122,34.167],[134.118,34.173],[134.112,34.178],[134.11,34.183],[134.11,34.193],[134.109,34.198],[134.105,34.202],[134.105,34.209],[134.106,34.215],[134.109,34.22],[134.112,34.222],[134.112,34.225],[134.113,34.23],[134.111,34.235],[134.115,34.238],[134.11,34.245],[134.111,34.249],[134.109,34.252],[134.112,34.262],[134.115,34.269],[134.119,34.288],[134.122,34.292],[134.122,34.297],[134.125,34.299],[134.127,34.304],[134.125,34.31],[134.13,34.317],[134.134,34.314],[134.137,34.313],[134.149,34.313],[134.155,34.311],[134.159,34.314],[134.161,34.318],[134.165,34.322],[134.166,34.326]]],[[[134.054,34.409],[134.05,34.405],[134.044,34.396],[134.043,34.393],[134.037,34.387],[134.036,34.383],[134.038,34.379],[134.042,34.381],[134.049,34.39],[134.052,34.389],[134.057,34.397],[134.056,34.404],[134.054,34.409]]],[[[134.105,34.415],[134.106,34.407],[134.101,34.404],[134.101,34.401],[134.108,34.401],[134.112,34.405],[134.107,34.41],[134.105,34.415]]],[[[134.063,34.433],[134.058,34.432],[134.054,34.424],[134.055,34.417],[134.059,34.42],[134.063,34.42],[134.066,34.429],[134.063,34.433]]]]}},{"type":"Feature","properties":{"name":"丸亀市","code":"37202"},"geometry":{"type":"MultiPolygon","coordinates":[[[[133.806,34.311],[133.797,34.306],[133.793,34.31],[133.797,34.302],[133.792,34.299],[133.789,34.295],[133.79,34.299],[133.783,34.311],[133.772,34.306],[133.776,34.304],[133.779,34.3],[133.782,34.302],[133.775,34.296],[133.778,34.292],[133.768,34.304],[133.762,34.3],[133.767,34.292],[133.771,34.288],[133.764,34.284],[133.773,34.272],[133.774,34.268],[133.776,34.263],[133.776,34.257],[133.781,34.259],[133.783,34.255],[133.786,34.254],[133.795,34.259],[133.801,34.249],[133.808,34.24],[133.817,34.241],[133.819,34.237],[133.818,34.233],[133.823,34.226],[133.826,34.221],[133.83,34.219],[133.842,34.216],[133.846,34.215],[133.851,34.207],[133.854,34.201],[133.869,34.203],[133.877,34.204],[133.883,34.204],[133.89,34.206],[133.893,34.208],[133.898,34.206],[133.896,34.214],[133.899,34.222],[133.898,34.231],[133.899,34.234],[133.901,34.241],[133.897,34.245],[133.893,34.245],[133.894,34.249],[133.898,34.25],[133.9,34.253],[133.901,34.256],[133.902,34.262],[133.905,34.269],[133.895,34.274],[133.895,34.278],[133.892,34.286],[133.89,34.29],[133.887,34.288],[133.881,34.288],[133.871,34.283],[133.865,34.283],[133.857,34.28],[133.844,34.275],[133.841,34.284],[133.836,34.288],[133.833,34.287],[133.832,34.291],[133.826,34.295],[133.822,34.301],[133.816,34.305],[133.811,34.301],[133.807,34.304],[133.806,34.311]]],[[[133.78,34.366],[133.776,34.364],[133.776,34.357],[133.78,34.356],[133.787,34.36],[133.785,34.364],[133.782,34.363]]],[[[133.649,34.383],[133.643,34.377],[133.647,34.377],[133.648,34.374],[133.652,34.373],[133.649,34.383]]],[[[133.71,34.399],[133.708,34.394],[133.709,34.387],[133.706,34.385],[133.699,34.387],[133.697,34.379],[133.69,34.378],[133.688,34.37],[133.689,34.366],[133.685,34.364],[133.687,34.359],[133.695,34.355],[133.699,34.352],[133.709,34.353],[133.709,34.357],[133.712,34.363],[133.716,34.364],[133.719,34.362],[133.723,34.362],[133.728,34.368],[133.73,34.374],[133.727,34.379],[133.725,34.384],[133.718,34.392],[133.719,34.396],[133.712,34.401]]],[[[133.778,34.401],[133.774,34.397],[133.768,34.392],[133.761,34.39],[133.758,34.391],[133.757,34.397],[133.753,34.399],[133.752,34.395],[133.753,34.388],[133.757,34.385],[133.76,34.379],[133.757,34.375],[133.757,34.372],[133.763,34.369],[133.77,34.372],[133.772,34.377],[133.777,34.381],[133.782,34.381],[133.785,34.383],[133.789,34.384],[133.791,34.388],[133.794,34.387],[133.79,34.392],[133.791,34.395],[133.783,34.397],[133.778,34.401]]],[[[133.784,34.407],[133.78,34.405],[133.783,34.403],[133.789,34.403],[133.784,34.407]]],[[[133.672,34.411],[133.668,34.409],[133.659,34.406],[133.653,34.409],[133.657,34.403],[133.659,34.4],[133.661,34.391],[133.665,34.383],[133.668,34.387],[133.672,34.389],[133.677,34.393],[133.678,34.399],[133.674,34.398],[133.675,34.407],[133.672,34.411]]]]}},{"type":"Feature","properties":{"name":"坂出市","code":"37203"},"geometry":{"type":"MultiPolygon","coordinates":[[[[133.928,34.39],[133.925,34.384],[133.921,34.378],[133.918,34.377],[133.91,34.382],[133.907,34.378],[133.9,34.378],[133.899,34.381],[133.894,34.382],[133.889,34.378],[133.89,34.369],[133.893,34.364],[133.891,34.359],[133.895,34.355],[133.891,34.352],[133.882,34.344],[133.878,34.345],[133.871,34.34],[133.862,34.332],[133.857,34.331],[133.858,34.327],[133.851,34.326],[133.85,34.33],[133.846,34.328],[133.837,34.325],[133.833,34.33],[133.83,34.333],[133.839,34.335],[133.838,34.339],[133.845,34.34],[133.848,34.339],[133.858,34.346],[133.859,34.353],[133.858,34.357],[133.85,34.36],[133.849,34.356],[133.836,34.346],[133.829,34.342],[133.829,34.348],[133.833,34.349],[133.841,34.356],[133.841,34.361],[133.824,34.353],[133.821,34.351],[133.822,34.346],[133.821,34.338],[133.826,34.338],[133.828,34.326],[133.832,34.32],[133.837,34.316],[133.839,34.311],[133.843,34.307],[133.84,34.303],[133.839,34.3],[133.841,34.293],[133.837,34.29],[133.838,34.284],[133.844,34.275],[133.854,34.28],[133.865,34.283],[133.871,34.283],[133.881,34.288],[133.887,34.288],[133.89,34.29],[133.892,34.286],[133.893,34.28],[133.895,34.274],[133.904,34.272],[133.904,34.264],[133.913,34.266],[133.919,34.266],[133.923,34.265],[133.93,34.27],[133.933,34.266],[133.938,34.269],[133.941,34.273],[133.943,34.278],[133.941,34.283],[133.943,34.288],[133.942,34.292],[133.939,34.295],[133.939,34.301],[133.935,34.305],[133.929,34.312],[133.925,34.316],[133.93,34.318],[133.941,34.322],[133.949,34.325],[133.954,34.325],[133.954,34.332],[133.952,34.335],[133.946,34.338],[133.945,34.344],[133.937,34.348],[133.938,34.353],[133.937,34.361],[133.936,34.371],[133.932,34.377],[133.929,34.377],[133.93,34.386],[133.928,34.39]]],[[[133.82,34.395],[133.815,34.394],[133.815,34.384],[133.822,34.383],[133.825,34.39],[133.82,34.395]]],[[[133.805,34.427],[133.796,34.425],[133.8,34.422],[133.8,34.418],[133.804,34.415],[133.806,34.419],[133.805,34.427]]]]}},{"type":"Feature","properties":{"name":"善通寺市","code":"37204"},"geometry":{"type":"MultiPolygon","coordinates":[[[[133.776,34.257],[133.777,34.249],[133.772,34.249],[133.769,34.247],[133.765,34.251],[133.753,34.246],[133.756,34.243],[133.75,34.237],[133.747,34.242],[133.741,34.244],[133.737,34.239],[133.735,34.235],[133.729,34.233],[133.727,34.229],[133.733,34.219],[133.738,34.214],[133.744,34.213],[133.75,34.211],[133.753,34.205],[133.756,34.198],[133.773,34.199],[133.778,34.196],[133.785,34.199],[133.789,34.196],[133.793,34.191],[133.796,34.189],[133.8,34.188],[133.809,34.194],[133.812,34.195],[133.813,34.2],[133.81,34.208],[133.808,34.212],[133.805,34.22],[133.814,34.223],[133.818,34.226],[133.822,34.226],[133.818,34.233],[133.819,34.237],[133.817,34.241],[133.808,34.238],[133.801,34.249],[133.795,34.259],[133.786,34.254],[133.783,34.255],[133.781,34.259],[133.776,34.257]]]]}},{"type":"Feature","properties":{"name":"観音寺市","code":"37205"},"geometry":{"type":"MultiPolygon","coordinates":[[[[133.527,34.137],[133.526,34.133],[133.531,34.128],[133.538,34.126],[133.542,34.129],[133.54,34.133],[133.533,34.133],[133.531,34.136],[133.527,34.137]]],[[[133.74,34.05],[133.738,34.058],[133.734,34.062],[133.734,34.066],[133.734,34.075],[133.731,34.081],[133.729,34.084],[133.727,34.088],[133.722,34.089],[133.717,34.088],[133.718,34.091],[133.715,34.099],[133.713,34.104],[133.712,34.11],[133.71,34.116],[133.713,34.121],[133.712,34.124],[133.712,34.129],[133.709,34.129],[133.701,34.135],[133.692,34.138],[133.688,34.136],[133.676,34.141],[133.669,34.143],[133.667,34.151],[133.666,34.155],[133.667,34.16],[133.662,34.166],[133.656,34.162],[133.651,34.164],[133.646,34.164],[133.645,34.159],[133.643,34.156],[133.64,34.154],[133.64,34.151],[133.64,34.131],[133.639,34.125],[133.635,34.123],[133.633,34.119],[133.628,34.119],[133.63,34.115],[133.635,34.113],[133.636,34.095],[133.635,34.084],[133.632,34.08],[133.632,34.076],[133.631,34.072],[133.631,34.06],[133.628,34.053],[133.623,34.049],[133.614,34.046],[133.601,34.043],[133.604,34.036],[133.608,34.037],[133.613,34.032],[133.619,34.035],[133.627,34.038],[133.633,34.031],[133.636,34.03],[133.639,34.026],[133.644,34.028],[133.649,34.027],[133.656,34.029],[133.665,34.027],[133.67,34.024],[133.672,34.021],[133.678,34.018],[133.68,34.013],[133.685,34.013],[133.689,34.012],[133.694,34.015],[133.697,34.016],[133.709,34.015],[133.721,34.022],[133.723,34.025],[133.722,34.03],[133.723,34.036],[133.728,34.041],[133.729,34.044],[133.733,34.045],[133.74,34.05]]]]}},{"type":"Feature","properties":{"name":"さぬき市","code":"37206"},"geometry":{"type":"MultiPolygon","coordinates":[[[[134.155,34.311],[134.159,34.308],[134.159,34.305],[134.159,34.298],[134.155,34.294],[134.157,34.289],[134.157,34.284],[134.162,34.279],[134.169,34.279],[134.167,34.274],[134.165,34.268],[134.163,34.264],[134.167,34.255],[134.164,34.253],[134.163,34.249],[134.168,34.245],[134.168,34.24],[134.166,34.236],[134.165,34.233],[134.169,34.228],[134.169,34.224],[134.167,34.22],[134.164,34.216],[134.165,34.212],[134.163,34.204],[134.166,34.198],[134.164,34.195],[134.164,34.19],[134.164,34.183],[134.161,34.183],[134.161,34.179],[134.158,34.172],[134.155,34.167],[134.159,34.17],[134.163,34.17],[134.169,34.174],[134.173,34.176],[134.183,34.174],[134.195,34.172],[134.198,34.175],[134.204,34.173],[134.209,34.175],[134.213,34.178],[134.214,34.182],[134.216,34.191],[134.211,34.194],[134.207,34.2],[134.209,34.203],[134.217,34.204],[134.217,34.209],[134.23,34.21],[134.238,34.213],[134.246,34.217],[134.253,34.221],[134.259,34.219],[134.264,34.221],[134.269,34.218],[134.276,34.215],[134.275,34.22],[134.274,34.227],[134.273,34.238],[134.278,34.242],[134.281,34.243],[134.278,34.248],[134.275,34.252],[134.274,34.257],[134.277,34.261],[134.281,34.263],[134.287,34.27],[134.288,34.275],[134.282,34.279],[134.276,34.283],[134.276,34.287],[134.272,34.289],[134.268,34.288],[134.268,34.284],[134.265,34.285],[134.256,34.287],[134.25,34.295],[134.247,34.304],[134.248,34.308],[134.251,34.311],[134.259,34.314],[134.26,34.318],[134.265,34.319],[134.262,34.329],[134.266,34.333],[134.266,34.337],[134.258,34.337],[134.257,34.34],[134.257,34.345],[134.25,34.352],[134.247,34.349],[134.245,34.346],[134.241,34.34],[134.236,34.339],[134.232,34.339],[134.226,34.342],[134.224,34.347],[134.221,34.347],[134.219,34.353],[134.217,34.362],[134.212,34.366],[134.211,34.369],[134.207,34.37],[134.206,34.36],[134.21,34.358],[134.21,34.355],[134.213,34.35],[134.209,34.345],[134.205,34.343],[134.197,34.345],[134.192,34.344],[134.19,34.35],[134.183,34.352],[134.184,34.347],[134.187,34.346],[134.187,34.339],[134.185,34.334],[134.178,34.332],[134.179,34.327],[134.174,34.324],[134.166,34.326],[134.165,34.322],[134.161,34.318],[134.159,34.314],[134.155,34.311]]]]}},{"type":"Feature","properties":{"name":"東かがわ市","code":"37207"},"geometry":{"type":"MultiPolygon","coordinates":[[[[134.209,34.175],[134.216,34.176],[134.221,34.18],[134.224,34.18],[134.227,34.178],[134.237,34.18],[134.244,34.18],[134.251,34.181],[134.257,34.181],[134.26,34.184],[134.273,34.181],[134.277,34.176],[134.287,34.18],[134.292,34.179],[134.296,34.173],[134.298,34.169],[134.308,34.171],[134.311,34.175],[134.314,34.177],[134.328,34.173],[134.334,34.176],[134.344,34.172],[134.346,34.176],[134.348,34.184],[134.358,34.185],[134.363,34.182],[134.369,34.178],[134.375,34.173],[134.383,34.172],[134.385,34.165],[134.389,34.165],[134.394,34.164],[134.397,34.165],[134.404,34.167],[134.407,34.163],[134.411,34.161],[134.413,34.157],[134.42,34.158],[134.425,34.166],[134.428,34.167],[134.433,34.168],[134.433,34.173],[134.434,34.179],[134.431,34.179],[134.429,34.183],[134.438,34.189],[134.439,34.198],[134.44,34.207],[134.428,34.211],[134.415,34.219],[134.41,34.223],[134.406,34.226],[134.407,34.231],[134.412,34.232],[134.407,34.238],[134.402,34.238],[134.396,34.239],[134.397,34.245],[134.394,34.251],[134.39,34.255],[134.383,34.257],[134.378,34.261],[134.377,34.254],[134.368,34.25],[134.362,34.25],[134.357,34.254],[134.352,34.252],[134.347,34.253],[134.341,34.255],[134.339,34.259],[134.334,34.259],[134.328,34.262],[134.323,34.266],[134.318,34.271],[134.313,34.275],[134.309,34.276],[134.302,34.276],[134.298,34.276],[134.288,34.275],[134.287,34.27],[134.283,34.265],[134.277,34.264],[134.274,34.257],[134.275,34.252],[134.279,34.249],[134.281,34.243],[134.278,34.242],[134.276,34.238],[134.275,34.228],[134.275,34.22],[134.276,34.215],[134.272,34.216],[134.264,34.221],[134.259,34.219],[134.255,34.22],[134.246,34.217],[134.241,34.216],[134.23,34.21],[134.217,34.209],[134.217,34.204],[134.209,34.203],[134.207,34.2],[134.211,34.194],[134.216,34.191],[134.212,34.185],[134.213,34.178],[134.209,34.175]]]]}},{"type":"Feature","properties":{"name":"三豊市","code":"37208"},"geometry":{"type":"MultiPolygon","coordinates":[[[[133.729,34.233],[133.725,34.233],[133.72,34.23],[133.715,34.235],[133.709,34.241],[133.704,34.239],[133.702,34.236],[133.698,34.234],[133.695,34.237],[133.688,34.237],[133.688,34.233],[133.682,34.234],[133.677,34.225],[133.674,34.222],[133.676,34.227],[133.678,34.236],[133.675,34.237],[133.672,34.227],[133.668,34.233],[133.67,34.241],[133.674,34.243],[133.672,34.247],[133.667,34.241],[133.66,34.24],[133.656,34.235],[133.649,34.233],[133.634,34.239],[133.627,34.238],[133.623,34.236],[133.619,34.237],[133.616,34.24],[133.616,34.243],[133.612,34.251],[133.609,34.252],[133.603,34.253],[133.591,34.255],[133.588,34.261],[133.583,34.26],[133.575,34.263],[133.568,34.265],[133.565,34.264],[133.558,34.263],[133.569,34.26],[133.576,34.257],[133.574,34.252],[133.579,34.251],[133.578,34.247],[133.575,34.244],[133.583,34.244],[133.589,34.241],[133.597,34.236],[133.601,34.234],[133.604,34.234],[133.608,34.231],[133.61,34.226],[133.614,34.22],[133.621,34.218],[133.622,34.215],[133.632,34.212],[133.635,34.206],[133.637,34.201],[133.644,34.191],[133.648,34.192],[133.649,34.186],[133.646,34.183],[133.647,34.178],[133.648,34.171],[133.646,34.164],[133.651,34.164],[133.656,34.162],[133.662,34.166],[133.667,34.16],[133.666,34.155],[133.667,34.151],[133.667,34.146],[133.676,34.141],[133.688,34.136],[133.692,34.138],[133.701,34.135],[133.709,34.129],[133.712,34.129],[133.71,34.125],[133.713,34.121],[133.71,34.116],[133.713,34.112],[133.713,34.104],[133.717,34.102],[133.716,34.093],[133.717,34.088],[133.722,34.089],[133.727,34.088],[133.729,34.084],[133.732,34.083],[133.734,34.075],[133.734,34.066],[133.734,34.062],[133.738,34.058],[133.74,34.05],[133.749,34.054],[133.756,34.059],[133.76,34.065],[133.763,34.067],[133.763,34.07],[133.768,34.072],[133.775,34.074],[133.778,34.079],[133.782,34.08],[133.785,34.08],[133.789,34.078],[133.796,34.07],[133.8,34.07],[133.81,34.073],[133.815,34.073],[133.819,34.075],[133.819,34.08],[133.823,34.085],[133.822,34.092],[133.821,34.097],[133.818,34.103],[133.82,34.109],[133.817,34.115],[133.817,34.119],[133.816,34.122],[133.818,34.128],[133.817,34.132],[133.817,34.138],[133.816,34.145],[133.812,34.15],[133.811,34.153],[133.812,34.158],[133.808,34.157],[133.806,34.154],[133.803,34.153],[133.801,34.156],[133.804,34.163],[133.803,34.17],[133.804,34.173],[133.807,34.182],[133.8,34.188],[133.796,34.189],[133.793,34.191],[133.789,34.196],[133.785,34.199],[133.778,34.196],[133.773,34.199],[133.756,34.198],[133.755,34.204],[133.75,34.209],[133.744,34.213],[133.74,34.213],[133.733,34.219],[133.727,34.226],[133.729,34.233]]],[[[133.675,34.275],[133.67,34.272],[133.674,34.27],[133.681,34.267],[133.682,34.273],[133.675,34.275]]],[[[133.626,34.287],[133.622,34.284],[133.621,34.281],[133.625,34.278],[133.627,34.271],[133.623,34.27],[133.618,34.266],[133.617,34.259],[133.623,34.256],[133.625,34.261],[133.629,34.261],[133.632,34.269],[133.639,34.27],[133.651,34.268],[133.655,34.271],[133.652,34.275],[133.656,34.281],[133.65,34.279],[133.644,34.277],[133.639,34.272],[133.632,34.274],[133.629,34.278],[133.63,34.281],[133.631,34.286],[133.626,34.287]]]]}},{"type":"Feature","properties":{"name":"小豆郡土庄町","code":"37322"},"geometry":{"type":"MultiPolygon","coordinates":[[[[134.127,34.482],[134.122,34.48],[134.116,34.48],[134.11,34.48],[134.108,34.475],[134.113,34.473],[134.118,34.473],[134.125,34.476],[134.128,34.479]]],[[[134.086,34.499],[134.08,34.499],[134.077,34.497],[134.069,34.497],[134.063,34.493],[134.059,34.488],[134.052,34.487],[134.042,34.488],[134.041,34.483],[134.036,34.481],[134.044,34.479],[134.052,34.472],[134.062,34.47],[134.066,34.471],[134.071,34.467],[134.076,34.462],[134.081,34.459],[134.084,34.46],[134.089,34.466],[134.09,34.469],[134.094,34.473],[134.103,34.479],[134.103,34.485],[134.103,34.49],[134.094,34.49],[134.087,34.495],[134.086,34.499]]],[[[134.332,34.563],[134.329,34.564],[134.323,34.562],[134.319,34.56],[134.315,34.559],[134.308,34.555],[134.305,34.549],[134.295,34.547],[134.28,34.547],[134.273,34.548],[134.269,34.549],[134.268,34.554],[134.263,34.552],[134.262,34.549],[134.257,34.548],[134.256,34.543],[134.249,34.54],[134.242,34.535],[134.24,34.53],[134.233,34.529],[134.23,34.527],[134.224,34.529],[134.218,34.526],[134.214,34.523],[134.203,34.52],[134.198,34.52],[134.192,34.521],[134.185,34.516],[134.179,34.518],[134.17,34.526],[134.165,34.519],[134.164,34.512],[134.161,34.51],[134.158,34.505],[134.164,34.508],[134.165,34.5],[134.171,34.494],[134.176,34.492],[134.173,34.489],[134.167,34.493],[134.163,34.492],[134.156,34.492],[134.151,34.485],[134.145,34.479],[134.144,34.473],[134.145,34.468],[134.152,34.461],[134.156,34.461],[134.159,34.464],[134.163,34.462],[134.168,34.465],[134.17,34.469],[134.171,34.474],[134.176,34.477],[134.181,34.476],[134.185,34.479],[134.192,34.481],[134.194,34.485],[134.2,34.483],[134.202,34.488],[134.207,34.489],[134.21,34.491],[134.223,34.495],[134.228,34.5],[134.231,34.504],[134.233,34.508],[134.237,34.511],[134.241,34.512],[134.245,34.509],[134.251,34.509],[134.258,34.507],[134.258,34.51],[134.253,34.511],[134.257,34.518],[134.261,34.518],[134.259,34.513],[134.266,34.512],[134.275,34.515],[134.279,34.514],[134.279,34.519],[134.287,34.518],[134.3,34.518],[134.306,34.523],[134.312,34.523],[134.318,34.539],[134.32,34.543],[134.319,34.548],[134.323,34.553],[134.329,34.556],[134.332,34.563]]]]}},{"type":"Feature","properties":{"name":"小豆郡小豆島町","code":"37324"},"geometry":{"type":"MultiPolygon","coordinates":[[[[134.2,34.483],[134.204,34.481],[134.207,34.483],[134.212,34.482],[134.215,34.478],[134.218,34.474],[134.222,34.479],[134.228,34.481],[134.233,34.476],[134.229,34.472],[134.23,34.469],[134.236,34.471],[134.238,34.467],[134.238,34.464],[134.242,34.458],[134.238,34.456],[134.239,34.451],[134.236,34.447],[134.234,34.444],[134.228,34.443],[134.223,34.438],[134.227,34.437],[134.236,34.438],[134.239,34.433],[134.233,34.428],[134.226,34.427],[134.229,34.421],[134.231,34.416],[134.239,34.415],[134.246,34.419],[134.251,34.424],[134.247,34.427],[134.249,34.433],[134.252,34.436],[134.256,34.442],[134.26,34.448],[134.26,34.454],[134.265,34.46],[134.267,34.464],[134.268,34.468],[134.276,34.469],[134.283,34.471],[134.289,34.474],[134.293,34.476],[134.296,34.48],[134.301,34.477],[134.31,34.477],[134.313,34.473],[134.316,34.471],[134.317,34.465],[134.317,34.46],[134.312,34.46],[134.307,34.463],[134.301,34.46],[134.297,34.462],[134.29,34.462],[134.284,34.461],[134.285,34.452],[134.284,34.446],[134.281,34.448],[134.281,34.444],[134.284,34.442],[134.287,34.446],[134.292,34.447],[134.3,34.453],[134.3,34.456],[134.304,34.458],[134.308,34.456],[134.312,34.456],[134.32,34.458],[134.325,34.451],[134.33,34.446],[134.33,34.441],[134.333,34.435],[134.338,34.433],[134.34,34.438],[134.337,34.443],[134.335,34.447],[134.337,34.451],[134.349,34.461],[134.353,34.47],[134.354,34.478],[134.348,34.479],[134.343,34.484],[134.343,34.488],[134.351,34.493],[134.351,34.498],[134.347,34.5],[134.35,34.506],[134.354,34.508],[134.356,34.512],[134.356,34.517],[134.355,34.524],[134.36,34.529],[134.358,34.534],[134.355,34.539],[134.352,34.538],[134.345,34.541],[134.344,34.544],[134.348,34.547],[134.348,34.551],[134.355,34.558],[134.363,34.558],[134.356,34.561],[134.354,34.557],[134.346,34.558],[134.347,34.561],[134.351,34.564],[134.345,34.565],[134.337,34.562],[134.332,34.563],[134.329,34.556],[134.323,34.553],[134.322,34.549],[134.32,34.543],[134.318,34.539],[134.312,34.523],[134.306,34.523],[134.302,34.518],[134.287,34.518],[134.279,34.519],[134.279,34.514],[134.275,34.515],[134.266,34.512],[134.259,34.513],[134.261,34.516],[134.257,34.518],[134.253,34.511],[134.258,34.51],[134.258,34.507],[134.253,34.507],[134.245,34.509],[134.241,34.512],[134.237,34.511],[134.233,34.508],[134.231,34.504],[134.227,34.503],[134.223,34.495],[134.21,34.491],[134.207,34.489],[134.202,34.488],[134.2,34.483]]]]}},{"type":"Feature","properties":{"name":"木田郡三木町","code":"37341"},"geometry":{"type":"MultiPolygon","coordinates":[[[[134.135,34.152],[134.137,34.155],[134.141,34.155],[134.144,34.159],[134.146,34.165],[134.151,34.166],[134.155,34.167],[134.156,34.172],[134.159,34.177],[134.161,34.183],[134.164,34.183],[134.165,34.189],[134.164,34.195],[134.166,34.198],[134.165,34.203],[134.163,34.211],[134.164,34.216],[134.167,34.22],[134.169,34.224],[134.169,34.228],[134.165,34.233],[134.166,34.236],[134.17,34.238],[134.169,34.242],[134.164,34.246],[134.164,34.253],[134.167,34.255],[134.163,34.264],[134.165,34.268],[134.167,34.274],[134.169,34.279],[134.164,34.28],[134.157,34.284],[134.157,34.289],[134.155,34.294],[134.159,34.298],[134.161,34.303],[134.159,34.308],[134.155,34.311],[134.149,34.313],[134.14,34.314],[134.134,34.314],[134.13,34.317],[134.125,34.31],[134.127,34.304],[134.125,34.299],[134.122,34.297],[134.121,34.294],[134.119,34.29],[134.115,34.269],[134.112,34.262],[134.112,34.254],[134.111,34.249],[134.11,34.245],[134.112,34.24],[134.113,34.235],[134.111,34.232],[134.114,34.226],[134.112,34.222],[134.109,34.22],[134.106,34.215],[134.107,34.211],[134.105,34.202],[134.109,34.198],[134.11,34.193],[134.11,34.183],[134.114,34.181],[134.118,34.173],[134.122,34.167],[134.124,34.162],[134.128,34.153],[134.135,34.152]]]]}},{"type":"Feature","properties":{"name":"香川郡直島町","code":"37364"},"geometry":{"type":"MultiPolygon","coordinates":[[[[134.014,34.442],[134.01,34.441],[134.004,34.44],[134.007,34.436],[134.01,34.436],[134.014,34.44]]],[[[133.965,34.462],[133.961,34.459],[133.956,34.461],[133.959,34.454],[133.965,34.454],[133.965,34.462]]],[[[134.004,34.473],[133.999,34.47],[134.0,34.462],[134.004,34.462],[134.007,34.467],[134.009,34.471],[134.004,34.469],[134.004,34.473]]],[[[133.954,34.478],[133.951,34.473],[133.955,34.471],[133.959,34.469],[133.958,34.472],[133.954,34.478]]],[[[133.97,34.478],[133.966,34.477],[133.966,34.472],[133.967,34.466],[133.97,34.46],[133.975,34.457],[133.975,34.454],[133.976,34.449],[133.98,34.449],[133.984,34.446],[133.988,34.447],[133.991,34.443],[133.993,34.446],[134.003,34.445],[134.009,34.448],[134.012,34.454],[134.005,34.453],[134.0,34.455],[133.999,34.461],[133.989,34.468],[133.983,34.472],[133.982,34.476],[133.978,34.475],[133.972,34.473],[133.97,34.478]]],[[[134.024,34.506],[134.019,34.503],[134.019,34.498],[134.012,34.496],[134.011,34.487],[134.015,34.481],[134.019,34.48],[134.021,34.486],[134.022,34.492],[134.024,34.506]]]]}},{"type":"Feature","properties":{"name":"綾歌郡宇多津町","code":"37386"},"geometry":{"type":"MultiPolygon","coordinates":[[[[133.836,34.288],[133.841,34.293],[133.839,34.3],[133.84,34.303],[133.843,34.307],[133.839,34.311],[133.837,34.316],[133.832,34.32],[133.829,34.323],[133.825,34.323],[133.819,34.321],[133.815,34.317],[133.807,34.313],[133.807,34.304],[133.811,34.301],[133.816,34.305],[133.822,34.301],[133.824,34.297],[133.832,34.291],[133.833,34.287],[133.836,34.288]]],[[[133.821,34.338],[133.823,34.326],[133.828,34.326],[133.826,34.338],[133.821,34.338]]]]}},{"type":"Feature","properties":{"name":"綾歌郡綾川町","code":"37387"},"geometry":{"type":"MultiPolygon","coordinates":[[[[133.944,34.278],[133.941,34.273],[133.938,34.269],[133.933,34.266],[133.93,34.27],[133.923,34.265],[133.919,34.266],[133.915,34.265],[133.905,34.263],[133.902,34.262],[133.903,34.257],[133.9,34.253],[133.898,34.25],[133.894,34.249],[133.893,34.245],[133.897,34.245],[133.901,34.241],[133.898,34.237],[133.898,34.231],[133.899,34.222],[133.896,34.214],[133.901,34.209],[133.902,34.204],[133.907,34.202],[133.912,34.2],[133.917,34.2],[133.918,34.197],[133.923,34.196],[133.929,34.193],[133.933,34.186],[133.934,34.181],[133.939,34.18],[133.942,34.175],[133.947,34.171],[133.947,34.162],[133.951,34.157],[133.962,34.159],[133.968,34.157],[133.972,34.158],[133.976,34.157],[133.978,34.154],[133.982,34.155],[133.988,34.148],[133.994,34.145],[133.998,34.147],[134.004,34.144],[134.01,34.144],[134.011,34.141],[134.017,34.138],[134.025,34.14],[134.022,34.152],[134.023,34.155],[134.022,34.16],[134.026,34.161],[134.026,34.166],[134.028,34.172],[134.024,34.174],[134.023,34.18],[134.025,34.188],[134.017,34.19],[134.015,34.201],[134.015,34.205],[134.013,34.212],[134.009,34.217],[134.004,34.219],[133.994,34.23],[133.993,34.235],[133.989,34.236],[133.985,34.242],[133.986,34.248],[133.988,34.253],[133.993,34.26],[133.992,34.263],[133.989,34.267],[133.988,34.262],[133.984,34.266],[133.979,34.264],[133.97,34.263],[133.966,34.266],[133.962,34.266],[133.953,34.269],[133.95,34.271],[133.945,34.27],[133.944,34.278]]]]}},{"type":"Feature","properties":{"name":"仲多度郡琴平町","code":"37403"},"geometry":{"type":"MultiPolygon","coordinates":[[[[133.8,34.188],[133.807,34.182],[133.809,34.178],[133.813,34.178],[133.822,34.175],[133.827,34.182],[133.831,34.181],[133.836,34.186],[133.833,34.19],[133.829,34.2],[133.828,34.206],[133.823,34.206],[133.819,34.212],[133.814,34.223],[133.805,34.22],[133.808,34.212],[133.81,34.208],[133.813,34.2],[133.812,34.195],[133.809,34.194],[133.8,34.188]]]]}},{"type":"Feature","properties":{"name":"仲多度郡多度津町","code":"37404"},"geometry":{"type":"MultiPolygon","coordinates":[[[[133.764,34.284],[133.761,34.287],[133.757,34.285],[133.758,34.282],[133.752,34.279],[133.747,34.285],[133.74,34.282],[133.744,34.277],[133.747,34.277],[133.744,34.272],[133.74,34.276],[133.736,34.281],[133.731,34.279],[133.73,34.275],[133.731,34.271],[133.737,34.265],[133.736,34.261],[133.731,34.26],[133.727,34.257],[133.72,34.253],[133.716,34.249],[133.709,34.241],[133.713,34.236],[133.72,34.23],[133.724,34.231],[133.729,34.233],[133.735,34.235],[133.737,34.239],[133.741,34.244],[133.747,34.242],[133.75,34.237],[133.755,34.24],[133.753,34.246],[133.765,34.251],[133.769,34.247],[133.772,34.249],[133.777,34.249],[133.774,34.256],[133.774,34.26],[133.772,34.267],[133.773,34.272],[133.764,34.284]]],[[[133.664,34.326],[133.664,34.317],[133.671,34.308],[133.68,34.306],[133.683,34.31],[133.682,34.315],[133.673,34.32],[133.668,34.324],[133.664,34.326]]],[[[133.621,34.354],[133.617,34.351],[133.619,34.345],[133.621,34.342],[133.62,34.334],[133.627,34.331],[133.63,34.338],[133.63,34.343],[133.623,34.35],[133.621,34.354]]]]}},{"type":"Feature","properties":{"name":"仲多度郡まんのう町","code":"37406"},"geometry":{"type":"MultiPolygon","coordinates":[[[[134.025,34.14],[134.019,34.139],[134.011,34.141],[134.01,34.144],[134.006,34.145],[133.998,34.147],[133.994,34.145],[133.989,34.145],[133.982,34.155],[133.978,34.154],[133.976,34.157],[133.972,34.158],[133.968,34.157],[133.962,34.159],[133.953,34.158],[133.947,34.162],[133.947,34.171],[133.942,34.175],[133.939,34.18],[133.934,34.181],[133.933,34.186],[133.927,34.19],[133.924,34.194],[133.918,34.197],[133.917,34.2],[133.912,34.2],[133.907,34.202],[133.902,34.204],[133.901,34.209],[133.893,34.208],[133.89,34.206],[133.883,34.204],[133.877,34.204],[133.869,34.203],[133.856,34.204],[133.85,34.205],[133.846,34.212],[133.842,34.216],[133.832,34.22],[133.828,34.221],[133.822,34.226],[133.818,34.226],[133.814,34.223],[133.82,34.214],[133.82,34.208],[133.828,34.206],[133.831,34.203],[133.833,34.19],[133.836,34.186],[133.831,34.181],[133.827,34.182],[133.822,34.175],[133.815,34.175],[133.809,34.178],[133.807,34.182],[133.806,34.175],[133.803,34.17],[133.804,34.163],[133.801,34.156],[133.803,34.153],[133.806,34.154],[133.808,34.157],[133.812,34.158],[133.811,34.153],[133.812,34.15],[133.817,34.145],[133.816,34.139],[133.817,34.132],[133.818,34.128],[133.816,34.122],[133.817,34.119],[133.817,34.115],[133.82,34.109],[133.818,34.103],[133.821,34.097],[133.822,34.092],[133.826,34.094],[133.831,34.096],[133.834,34.098],[133.838,34.095],[133.842,34.095],[133.849,34.099],[133.855,34.104],[133.863,34.105],[133.867,34.1],[133.871,34.101],[133.874,34.101],[133.88,34.104],[133.885,34.105],[133.893,34.108],[133.901,34.1],[133.908,34.102],[133.912,34.104],[133.919,34.112],[133.932,34.116],[133.94,34.115],[133.938,34.108],[133.94,34.105],[133.944,34.102],[133.944,34.094],[133.949,34.092],[133.956,34.088],[133.959,34.082],[133.963,34.081],[133.969,34.081],[133.971,34.078],[133.973,34.073],[133.977,34.076],[133.984,34.074],[133.989,34.075],[133.994,34.073],[134.002,34.075],[134.002,34.081],[134.01,34.087],[134.016,34.086],[134.022,34.084],[134.026,34.085],[134.026,34.092],[134.031,34.097],[134.037,34.099],[134.042,34.106],[134.042,34.11],[134.045,34.114],[134.048,34.115],[134.036,34.129],[134.034,34.135],[134.03,34.14],[134.025,34.14]]]]}}]}