{"type":"FeatureCollection","features":[{"type":"Feature","properties":{"name":"松山市","code":"38201"},"geometry":{"type":"MultiPolygon","coordinates":[[[[132.534,33.853],[132.53,33.856],[132.523,33.852],[132.518,33.854],[132.517,33.851],[132.526,33.852],[132.529,33.848],[132.53,33.844],[132.534,33.851]]],[[[132.691,33.927],[132.69,33.923],[132.679,33.921],[132.68,33.916],[132.679,33.91],[132.674,33.909],[132.669,33.91],[132.66,33.91],[132.658,33.905],[132.653,33.901],[132.657,33.9],[132.661,33.903],[132.666,33.901],[132.669,33.896],[132.666,33.891],[132.665,33.881],[132.662,33.877],[132.669,33.87],[132.67,33.874],[132.674,33.875],[132.679,33.876],[132.683,33.874],[132.69,33.876],[132.682,33.88],[132.68,33.883],[132.677,33.887],[132.673,33.893],[132.674,33.901],[132.679,33.903],[132.683,33.902],[132.687,33.904],[132.693,33.904],[132.691,33.913],[132.694,33.915],[132.695,33.921],[132.7,33.924],[132.699,33.927],[132.696,33.925],[132.691,33.927]]],[[[132.55,33.938],[132.541,33.935],[132.538,33.933],[132.533,33.935],[132.526,33.934],[132.518,33.933],[132.518,33.927],[132.521,33.929],[132.527,33.926],[132.53,33.926],[132.536,33.927],[132.54,33.931],[132.543,33.932],[132.553,33.933],[132.554,33.936],[132.55,33.938]]],[[[132.662,33.974],[132.658,33.969],[132.652,33.967],[132.649,33.961],[132.65,33.957],[132.655,33.953],[132.659,33.952],[132.664,33.956],[132.668,33.957],[132.675,33.953],[132.673,33.958],[132.672,33.966],[132.672,33.97],[132.668,33.971],[132.662,33.974]]],[[[132.69,33.977],[132.69,33.974],[132.684,33.973],[132.686,33.968],[132.693,33.966],[132.698,33.966],[132.694,33.971],[132.693,33.976],[132.69,33.977]]],[[[132.513,33.99],[132.508,33.987],[132.504,33.988],[132.5,33.983],[132.496,33.979],[132.499,33.978],[132.498,33.97],[132.505,33.971],[132.506,33.974],[132.513,33.976],[132.513,33.981],[132.518,33.983],[132.523,33.986],[132.523,33.989],[132.517,33.989],[132.513,33.99]]],[[[132.562,33.994],[132.554,33.994],[132.551,33.99],[132.545,33.992],[132.537,33.988],[132.537,33.983],[132.536,33.98],[132.541,33.974],[132.537,33.971],[132.534,33.969],[132.538,33.963],[132.544,33.969],[132.55,33.97],[132.554,33.979],[132.557,33.985],[132.563,33.99],[132.565,33.994]]],[[[132.646,34.018],[132.646,34.012],[132.633,34.006],[132.631,34.0],[132.627,34.0],[132.623,33.993],[132.619,33.992],[132.615,33.992],[132.61,33.993],[132.605,33.991],[132.605,33.984],[132.596,33.978],[132.587,33.97],[132.579,33.97],[132.586,33.962],[132.591,33.958],[132.59,33.952],[132.601,33.943],[132.604,33.944],[132.604,33.948],[132.609,33.952],[132.613,33.957],[132.617,33.958],[132.622,33.957],[132.633,33.954],[132.636,33.957],[132.642,33.957],[132.644,33.961],[132.641,33.97],[132.634,33.971],[132.63,33.974],[132.631,33.977],[132.636,33.979],[132.642,33.979],[132.643,33.989],[132.641,33.993],[132.64,33.998],[132.641,34.003],[132.642,34.007],[132.649,34.008],[132.652,34.013],[132.648,34.015],[132.646,34.018]]],[[[132.926,33.906],[132.927,33.914],[132.925,33.92],[132.925,33.925],[132.924,33.93],[132.92,33.933],[132.92,33.937],[132.916,33.937],[132.91,33.94],[132.904,33.943],[132.896,33.947],[132.891,33.95],[132.887,33.951],[132.886,33.955],[132.887,33.958],[132.885,33.961],[132.887,33.965],[132.888,33.977],[132.887,33.98],[132.89,33.988],[132.885,33.993],[132.881,33.996],[132.877,33.996],[132.869,33.996],[132.865,33.994],[132.861,33.996],[132.851,33.999],[132.846,34.003],[132.842,34.005],[132.836,34.001],[132.828,34.002],[132.822,34.003],[132.821,34.007],[132.818,34.012],[132.813,34.015],[132.809,34.017],[132.804,34.013],[132.801,34.01],[132.796,34.009],[132.792,34.01],[132.786,34.009],[132.777,34.004],[132.774,34.0],[132.77,33.999],[132.766,33.998],[132.771,33.997],[132.774,33.992],[132.774,33.987],[132.771,33.982],[132.772,33.979],[132.772,33.965],[132.772,33.961],[132.769,33.958],[132.768,33.948],[132.766,33.942],[132.762,33.937],[132.761,33.93],[132.757,33.924],[132.758,33.918],[132.755,33.914],[132.747,33.906],[132.74,33.904],[132.732,33.903],[132.724,33.904],[132.711,33.907],[132.709,33.903],[132.71,33.9],[132.707,33.896],[132.705,33.889],[132.701,33.886],[132.701,33.881],[132.7,33.877],[132.705,33.876],[132.71,33.871],[132.711,33.866],[132.71,33.862],[132.71,33.857],[132.706,33.853],[132.696,33.852],[132.695,33.848],[132.7,33.846],[132.701,33.842],[132.701,33.839],[132.695,33.84],[132.694,33.834],[132.69,33.837],[132.692,33.83],[132.69,33.826],[132.689,33.818],[132.693,33.817],[132.693,33.814],[132.694,33.81],[132.69,33.809],[132.685,33.813],[132.683,33.808],[132.686,33.805],[132.702,33.805],[132.706,33.806],[132.711,33.808],[132.719,33.808],[132.728,33.805],[132.733,33.805],[132.744,33.806],[132.749,33.805],[132.753,33.805],[132.76,33.802],[132.771,33.796],[132.782,33.79],[132.786,33.788],[132.79,33.787],[132.799,33.786],[132.803,33.782],[132.797,33.778],[132.797,33.77],[132.795,33.765],[132.799,33.756],[132.805,33.753],[132.807,33.749],[132.807,33.742],[132.812,33.738],[132.817,33.733],[132.818,33.725],[132.823,33.722],[132.826,33.715],[132.822,33.712],[132.821,33.708],[132.824,33.704],[132.824,33.701],[132.824,33.695],[132.832,33.687],[132.836,33.689],[132.849,33.689],[132.853,33.692],[132.852,33.698],[132.856,33.704],[132.862,33.707],[132.865,33.711],[132.871,33.713],[132.871,33.717],[132.873,33.726],[132.874,33.733],[132.865,33.739],[132.862,33.745],[132.861,33.749],[132.855,33.75],[132.853,33.756],[132.847,33.758],[132.848,33.763],[132.843,33.771],[132.839,33.775],[132.836,33.779],[132.84,33.78],[132.828,33.785],[132.825,33.785],[132.825,33.789],[132.83,33.792],[132.83,33.795],[132.822,33.797],[132.831,33.799],[132.841,33.797],[132.847,33.799],[132.86,33.805],[132.865,33.807],[132.866,33.813],[132.87,33.819],[132.869,33.824],[132.873,33.826],[132.875,33.834],[132.88,33.841],[132.883,33.846],[132.882,33.854],[132.876,33.864],[132.879,33.87],[132.88,33.875],[132.885,33.881],[132.891,33.885],[132.897,33.888],[132.901,33.89],[132.906,33.889],[132.91,33.891],[132.914,33.894],[132.918,33.894],[132.921,33.897],[132.926,33.906]]],[[[132.596,34.031],[132.59,34.029],[132.587,34.026],[132.594,34.026],[132.596,34.031]]]]}},{"type":"Feature","properties":{"name":"今治市","code":"38202"},"geometry":{"type":"MultiPolygon","coordinates":[[[[133.181,34.112],[133.179,34.107],[133.183,34.103],[133.188,34.103],[133.191,34.107],[133.187,34.108],[133.185,34.112],[133.181,34.112]]],[[[132.994,34.122],[132.99,34.119],[132.992,34.113],[132.995,34.114],[132.996,34.118],[132.994,34.122]]],[[[133.191,34.123],[133.187,34.123],[133.184,34.122],[133.181,34.116],[133.186,34.116],[133.186,34.12],[133.191,34.123]]],[[[132.926,33.906],[132.933,33.903],[132.937,33.902],[132.939,33.905],[132.95,33.908],[132.957,33.906],[132.96,33.903],[132.965,33.907],[132.971,33.905],[132.974,33.91],[132.975,33.92],[132.974,33.923],[132.976,33.93],[132.975,33.935],[132.979,33.941],[132.977,33.945],[132.979,33.948],[132.984,33.951],[132.987,33.954],[132.991,33.957],[132.997,33.956],[133.005,33.958],[133.008,33.955],[133.013,33.958],[133.018,33.962],[133.023,33.961],[133.03,33.961],[133.034,33.961],[133.038,33.966],[133.041,33.968],[133.039,33.971],[133.04,33.976],[133.05,33.98],[133.067,33.983],[133.062,33.989],[133.059,33.995],[133.052,34.007],[133.05,34.011],[133.048,34.016],[133.043,34.024],[133.038,34.032],[133.037,34.036],[133.031,34.044],[133.034,34.049],[133.032,34.053],[133.025,34.05],[133.023,34.063],[133.019,34.061],[133.013,34.067],[133.009,34.067],[133.004,34.071],[132.995,34.082],[132.992,34.091],[132.988,34.096],[132.985,34.098],[132.982,34.103],[132.982,34.108],[132.979,34.112],[132.977,34.116],[132.973,34.115],[132.972,34.112],[132.969,34.11],[132.968,34.114],[132.965,34.119],[132.961,34.121],[132.957,34.121],[132.953,34.124],[132.953,34.127],[132.949,34.129],[132.948,34.134],[132.946,34.138],[132.943,34.14],[132.939,34.138],[132.938,34.132],[132.935,34.125],[132.931,34.123],[132.926,34.12],[132.924,34.116],[132.919,34.117],[132.916,34.121],[132.91,34.119],[132.907,34.121],[132.9,34.121],[132.897,34.121],[132.897,34.115],[132.895,34.112],[132.899,34.11],[132.903,34.113],[132.907,34.113],[132.913,34.113],[132.92,34.112],[132.926,34.109],[132.93,34.1],[132.931,34.094],[132.93,34.088],[132.92,34.087],[132.923,34.081],[132.922,34.075],[132.919,34.066],[132.912,34.062],[132.899,34.067],[132.892,34.062],[132.886,34.059],[132.88,34.058],[132.875,34.057],[132.869,34.056],[132.865,34.059],[132.857,34.055],[132.855,34.046],[132.85,34.046],[132.844,34.043],[132.84,34.04],[132.837,34.034],[132.833,34.033],[132.828,34.03],[132.824,34.027],[132.818,34.025],[132.816,34.021],[132.811,34.019],[132.813,34.015],[132.818,34.012],[132.821,34.007],[132.822,34.003],[132.828,34.002],[132.834,33.999],[132.842,34.005],[132.846,34.003],[132.85,34.001],[132.858,33.996],[132.865,33.994],[132.869,33.996],[132.875,33.995],[132.881,33.996],[132.885,33.993],[132.89,33.988],[132.887,33.98],[132.888,33.977],[132.886,33.966],[132.885,33.961],[132.887,33.958],[132.886,33.955],[132.887,33.951],[132.891,33.95],[132.896,33.947],[132.902,33.945],[132.91,33.94],[132.914,33.939],[132.92,33.937],[132.92,33.933],[132.924,33.93],[132.925,33.925],[132.925,33.92],[132.927,33.914],[132.924,33.908]]],[[[132.998,34.159],[132.992,34.156],[132.99,34.151],[132.996,34.15],[133.001,34.148],[133.006,34.147],[133.011,34.153],[133.004,34.154],[132.998,34.159]]],[[[132.905,34.194],[132.902,34.193],[132.896,34.189],[132.898,34.185],[132.903,34.186],[132.907,34.189],[132.908,34.192]]],[[[133.088,34.195],[133.087,34.191],[133.084,34.188],[133.085,34.182],[133.089,34.183],[133.093,34.188],[133.094,34.192],[133.091,34.192]]],[[[133.037,34.195],[133.032,34.193],[133.028,34.185],[133.023,34.184],[133.021,34.178],[133.025,34.175],[133.034,34.172],[133.036,34.164],[133.04,34.16],[133.04,34.153],[133.041,34.15],[133.037,34.152],[133.033,34.151],[133.031,34.156],[133.026,34.158],[133.025,34.154],[133.024,34.149],[133.021,34.145],[133.015,34.142],[133.019,34.139],[133.019,34.135],[133.018,34.127],[133.021,34.128],[133.022,34.121],[133.015,34.117],[133.013,34.114],[133.013,34.111],[133.024,34.109],[133.03,34.11],[133.033,34.108],[133.037,34.113],[133.043,34.113],[133.046,34.12],[133.054,34.123],[133.056,34.128],[133.061,34.134],[133.068,34.137],[133.074,34.142],[133.079,34.145],[133.081,34.15],[133.083,34.154],[133.087,34.157],[133.091,34.157],[133.097,34.159],[133.101,34.159],[133.102,34.163],[133.106,34.164],[133.108,34.169],[133.111,34.177],[133.107,34.174],[133.099,34.175],[133.093,34.174],[133.09,34.17],[133.083,34.169],[133.079,34.173],[133.076,34.177],[133.077,34.181],[133.076,34.186],[133.069,34.192],[133.065,34.191],[133.057,34.192],[133.051,34.193],[133.04,34.194],[133.037,34.195]]],[[[132.873,34.197],[132.87,34.194],[132.863,34.195],[132.864,34.19],[132.87,34.186],[132.875,34.181],[132.879,34.177],[132.884,34.181],[132.885,34.185],[132.892,34.184],[132.894,34.191],[132.89,34.193],[132.882,34.191],[132.876,34.194]]],[[[132.924,34.202],[132.921,34.201],[132.919,34.194],[132.922,34.188],[132.918,34.187],[132.922,34.184],[132.926,34.184],[132.93,34.183],[132.934,34.183],[132.931,34.189],[132.929,34.195],[132.924,34.202]]],[[[133.108,34.242],[133.102,34.235],[133.093,34.238],[133.088,34.233],[133.082,34.231],[133.079,34.23],[133.073,34.231],[133.069,34.236],[133.065,34.235],[133.062,34.233],[133.059,34.229],[133.063,34.222],[133.066,34.221],[133.066,34.217],[133.061,34.215],[133.057,34.215],[133.054,34.212],[133.06,34.206],[133.063,34.208],[133.07,34.209],[133.075,34.202],[133.078,34.196],[133.081,34.193],[133.09,34.199],[133.095,34.204],[133.098,34.204],[133.102,34.2],[133.105,34.195],[133.111,34.191],[133.114,34.194],[133.118,34.195],[133.124,34.194],[133.126,34.199],[133.122,34.203],[133.119,34.203],[133.12,34.206],[133.124,34.207],[133.131,34.213],[133.139,34.212],[133.137,34.215],[133.128,34.216],[133.118,34.216],[133.113,34.218],[133.109,34.222],[133.108,34.226],[133.107,34.23],[133.111,34.234],[133.108,34.238],[133.108,34.242]]],[[[132.95,34.249],[132.948,34.244],[132.953,34.243],[132.957,34.244],[132.955,34.247],[132.951,34.248]]],[[[133.012,34.3],[133.006,34.297],[132.999,34.291],[132.995,34.289],[132.986,34.291],[132.981,34.287],[132.982,34.282],[132.986,34.275],[132.985,34.27],[132.981,34.269],[132.976,34.27],[132.97,34.27],[132.967,34.266],[132.965,34.262],[132.972,34.258],[132.975,34.259],[132.978,34.261],[132.982,34.261],[132.987,34.263],[132.99,34.262],[132.993,34.257],[132.989,34.253],[132.995,34.247],[132.987,34.248],[132.994,34.245],[132.991,34.239],[132.991,34.225],[132.985,34.224],[132.982,34.224],[132.975,34.226],[132.969,34.228],[132.965,34.227],[132.963,34.223],[132.957,34.224],[132.953,34.221],[132.952,34.217],[132.947,34.209],[132.942,34.204],[132.948,34.205],[132.949,34.202],[132.951,34.198],[132.949,34.194],[132.955,34.194],[132.959,34.192],[132.969,34.194],[132.979,34.198],[132.982,34.2],[132.988,34.2],[132.993,34.202],[132.996,34.207],[133.0,34.209],[133.008,34.211],[133.02,34.211],[133.03,34.209],[133.041,34.211],[133.045,34.215],[133.05,34.214],[133.057,34.219],[133.052,34.227],[133.054,34.233],[133.053,34.237],[133.055,34.248],[133.054,34.253],[133.057,34.258],[133.048,34.259],[133.045,34.262],[133.042,34.269],[133.036,34.277],[133.034,34.283],[133.034,34.287],[133.029,34.293],[133.026,34.295],[133.02,34.296],[133.012,34.3]]]]}},{"type":"Feature","properties":{"name":"宇和島市","code":"38203"},"geometry":{"type":"MultiPolygon","coordinates":[[[[132.332,33.11],[132.328,33.109],[132.324,33.107],[132.319,33.107],[132.318,33.102],[132.325,33.102],[132.331,33.105],[132.337,33.106],[132.332,33.11]]],[[[132.422,33.114],[132.412,33.11],[132.41,33.107],[132.413,33.103],[132.416,33.108],[132.417,33.111],[132.421,33.112]]],[[[132.339,33.162],[132.329,33.157],[132.335,33.158],[132.342,33.16],[132.339,33.162]]],[[[132.309,33.164],[132.305,33.16],[132.297,33.16],[132.29,33.162],[132.29,33.157],[132.299,33.154],[132.303,33.15],[132.312,33.148],[132.315,33.151],[132.307,33.152],[132.305,33.157],[132.307,33.16],[132.311,33.162]]],[[[132.263,33.185],[132.264,33.18],[132.263,33.173],[132.266,33.168],[132.274,33.17],[132.279,33.17],[132.282,33.169],[132.29,33.163],[132.289,33.166],[132.293,33.17],[132.294,33.176],[132.29,33.178],[132.284,33.174],[132.28,33.175],[132.277,33.171],[132.272,33.177],[132.269,33.173],[132.267,33.18],[132.266,33.184]]],[[[132.375,33.222],[132.377,33.217],[132.368,33.214],[132.365,33.211],[132.365,33.208],[132.359,33.205],[132.356,33.205],[132.352,33.208],[132.347,33.207],[132.354,33.204],[132.358,33.2],[132.357,33.194],[132.358,33.189],[132.364,33.188],[132.361,33.194],[132.363,33.199],[132.361,33.202],[132.368,33.204],[132.376,33.208],[132.38,33.208],[132.383,33.212],[132.38,33.215],[132.38,33.218],[132.375,33.222]]],[[[132.362,33.232],[132.36,33.228],[132.364,33.224],[132.362,33.232]]],[[[132.518,33.241],[132.515,33.236],[132.511,33.232],[132.508,33.231],[132.511,33.227],[132.514,33.225],[132.52,33.218],[132.522,33.221],[132.525,33.223],[132.53,33.223],[132.534,33.224],[132.534,33.228],[132.53,33.233],[132.526,33.238],[132.523,33.238],[132.518,33.241]]],[[[132.657,33.332],[132.648,33.33],[132.644,33.327],[132.634,33.329],[132.628,33.331],[132.622,33.33],[132.613,33.331],[132.61,33.332],[132.604,33.331],[132.601,33.327],[132.595,33.327],[132.583,33.327],[132.576,33.33],[132.571,33.329],[132.563,33.327],[132.554,33.324],[132.546,33.327],[132.542,33.327],[132.536,33.328],[132.527,33.334],[132.522,33.336],[132.514,33.335],[132.507,33.335],[132.507,33.33],[132.503,33.328],[132.5,33.319],[132.498,33.315],[132.498,33.312],[132.504,33.315],[132.512,33.319],[132.521,33.315],[132.527,33.313],[132.528,33.307],[132.524,33.304],[132.517,33.305],[132.512,33.304],[132.508,33.306],[132.505,33.301],[132.498,33.299],[132.493,33.296],[132.489,33.295],[132.483,33.29],[132.482,33.286],[132.484,33.282],[132.48,33.28],[132.477,33.275],[132.473,33.272],[132.475,33.268],[132.471,33.261],[132.47,33.257],[132.474,33.255],[132.475,33.261],[132.481,33.263],[132.484,33.266],[132.479,33.268],[132.476,33.27],[132.479,33.272],[132.483,33.275],[132.487,33.274],[132.489,33.269],[132.494,33.271],[132.501,33.27],[132.503,33.263],[132.507,33.26],[132.515,33.26],[132.514,33.264],[132.517,33.266],[132.519,33.262],[132.527,33.264],[132.53,33.264],[132.535,33.265],[132.539,33.268],[132.538,33.271],[132.543,33.27],[132.541,33.264],[132.541,33.259],[132.537,33.256],[132.533,33.255],[132.523,33.253],[132.52,33.25],[132.523,33.245],[132.531,33.246],[132.534,33.242],[132.539,33.235],[132.55,33.234],[132.551,33.23],[132.551,33.226],[132.554,33.222],[132.558,33.222],[132.553,33.219],[132.546,33.222],[132.543,33.226],[132.539,33.227],[132.539,33.223],[132.542,33.22],[132.541,33.217],[132.534,33.217],[132.527,33.214],[132.522,33.215],[132.518,33.213],[132.512,33.213],[132.509,33.207],[132.506,33.205],[132.5,33.204],[132.505,33.201],[132.506,33.197],[132.49,33.195],[132.5,33.191],[132.507,33.195],[132.505,33.191],[132.504,33.188],[132.508,33.189],[132.511,33.186],[132.509,33.179],[132.51,33.176],[132.515,33.172],[132.501,33.17],[132.505,33.175],[132.505,33.18],[132.499,33.18],[132.499,33.184],[132.495,33.183],[132.497,33.177],[132.495,33.174],[132.491,33.169],[132.489,33.165],[132.481,33.167],[132.477,33.17],[132.484,33.175],[132.48,33.175],[132.484,33.181],[132.483,33.186],[132.479,33.183],[132.476,33.184],[132.47,33.176],[132.469,33.18],[132.466,33.177],[132.465,33.182],[132.458,33.184],[132.458,33.191],[132.455,33.195],[132.459,33.202],[132.455,33.204],[132.46,33.208],[132.455,33.209],[132.453,33.205],[132.451,33.202],[132.444,33.201],[132.44,33.204],[132.437,33.206],[132.434,33.21],[132.431,33.208],[132.427,33.209],[132.423,33.211],[132.422,33.214],[132.418,33.209],[132.412,33.207],[132.402,33.206],[132.395,33.206],[132.394,33.202],[132.389,33.198],[132.396,33.198],[132.397,33.189],[132.401,33.185],[132.407,33.189],[132.415,33.19],[132.418,33.197],[132.414,33.197],[132.41,33.196],[132.407,33.196],[132.405,33.2],[132.404,33.205],[132.41,33.205],[132.415,33.204],[132.42,33.208],[132.425,33.205],[132.429,33.205],[132.431,33.2],[132.435,33.198],[132.439,33.193],[132.439,33.188],[132.448,33.192],[132.447,33.189],[132.447,33.185],[132.451,33.184],[132.458,33.179],[132.458,33.176],[132.464,33.17],[132.457,33.168],[132.45,33.172],[132.446,33.171],[132.442,33.168],[132.437,33.17],[132.436,33.166],[132.434,33.158],[132.431,33.157],[132.426,33.158],[132.425,33.155],[132.436,33.152],[132.443,33.149],[132.443,33.14],[132.447,33.135],[132.452,33.132],[132.455,33.135],[132.455,33.139],[132.454,33.143],[132.458,33.14],[132.463,33.138],[132.467,33.141],[132.471,33.139],[132.473,33.136],[132.478,33.137],[132.478,33.142],[132.482,33.138],[132.487,33.137],[132.493,33.138],[132.5,33.137],[132.498,33.132],[132.498,33.128],[132.499,33.12],[132.496,33.122],[132.491,33.12],[132.489,33.124],[132.484,33.125],[132.483,33.12],[132.474,33.121],[132.47,33.123],[132.469,33.126],[132.462,33.127],[132.459,33.125],[132.455,33.124],[132.458,33.121],[132.462,33.122],[132.464,33.118],[132.467,33.117],[132.468,33.114],[132.475,33.107],[132.475,33.103],[132.471,33.099],[132.474,33.097],[132.48,33.099],[132.48,33.096],[132.476,33.093],[132.468,33.09],[132.464,33.091],[132.461,33.086],[132.465,33.085],[132.47,33.084],[132.47,33.08],[132.465,33.077],[132.47,33.076],[132.471,33.071],[132.475,33.073],[132.475,33.079],[132.473,33.082],[132.477,33.083],[132.479,33.078],[132.486,33.076],[132.482,33.073],[132.484,33.067],[132.488,33.065],[132.484,33.064],[132.482,33.061],[132.484,33.057],[132.48,33.057],[132.478,33.065],[132.472,33.06],[132.469,33.062],[132.462,33.063],[132.457,33.058],[132.449,33.055],[132.447,33.059],[132.447,33.062],[132.447,33.065],[132.443,33.061],[132.444,33.057],[132.438,33.055],[132.432,33.054],[132.428,33.057],[132.428,33.061],[132.428,33.065],[132.419,33.065],[132.413,33.063],[132.413,33.067],[132.416,33.072],[132.406,33.07],[132.405,33.061],[132.397,33.057],[132.404,33.051],[132.405,33.047],[132.403,33.04],[132.398,33.041],[132.398,33.036],[132.398,33.033],[132.396,33.028],[132.392,33.026],[132.386,33.026],[132.379,33.023],[132.393,33.023],[132.397,33.025],[132.399,33.029],[132.401,33.035],[132.405,33.039],[132.406,33.044],[132.405,33.051],[132.403,33.056],[132.41,33.06],[132.415,33.061],[132.422,33.06],[132.434,33.052],[132.441,33.054],[132.452,33.052],[132.458,33.053],[132.463,33.055],[132.47,33.056],[132.474,33.053],[132.478,33.052],[132.489,33.048],[132.494,33.044],[132.499,33.044],[132.503,33.042],[132.507,33.039],[132.513,33.041],[132.519,33.041],[132.524,33.038],[132.529,33.039],[132.534,33.036],[132.541,33.04],[132.545,33.043],[132.551,33.042],[132.557,33.042],[132.563,33.04],[132.567,33.04],[132.576,33.043],[132.579,33.048],[132.583,33.047],[132.586,33.048],[132.59,33.051],[132.595,33.051],[132.598,33.055],[132.604,33.054],[132.607,33.054],[132.611,33.052],[132.619,33.051],[132.628,33.057],[132.631,33.06],[132.637,33.063],[132.652,33.057],[132.658,33.057],[132.662,33.063],[132.667,33.066],[132.67,33.071],[132.667,33.08],[132.67,33.086],[132.669,33.092],[132.666,33.099],[132.665,33.104],[132.664,33.109],[132.654,33.11],[132.647,33.116],[132.644,33.12],[132.638,33.128],[132.637,33.132],[132.63,33.132],[132.63,33.139],[132.632,33.149],[132.628,33.153],[132.625,33.159],[132.619,33.163],[132.615,33.169],[132.619,33.173],[132.619,33.181],[132.626,33.184],[132.636,33.186],[132.642,33.187],[132.649,33.191],[132.651,33.194],[132.657,33.195],[132.66,33.198],[132.669,33.205],[132.659,33.214],[132.653,33.214],[132.644,33.213],[132.636,33.212],[132.635,33.208],[132.63,33.205],[132.626,33.203],[132.617,33.201],[132.612,33.203],[132.614,33.21],[132.613,33.217],[132.613,33.229],[132.613,33.236],[132.608,33.242],[132.609,33.246],[132.605,33.248],[132.602,33.252],[132.607,33.258],[132.608,33.261],[132.616,33.261],[132.619,33.265],[132.62,33.271],[132.62,33.278],[132.625,33.277],[132.631,33.278],[132.636,33.278],[132.643,33.275],[132.649,33.275],[132.654,33.275],[132.655,33.28],[132.66,33.283],[132.666,33.28],[132.666,33.277],[132.671,33.275],[132.673,33.284],[132.671,33.29],[132.669,33.297],[132.667,33.302],[132.666,33.312],[132.668,33.316],[132.668,33.323],[132.665,33.325],[132.663,33.329],[132.657,33.332]]]]}},{"type":"Feature","properties":{"name":"越智郡上島町","code":"38356"},"geometry":{"type":"MultiPolygon","coordinates":[[[[133.158,34.231],[133.154,34.23],[133.153,34.225],[133.15,34.222],[133.148,34.217],[133.153,34.218],[133.154,34.223],[133.156,34.229]]],[[[133.164,34.246],[133.159,34.245],[133.154,34.244],[133.15,34.24],[133.152,34.233],[133.158,34.235],[133.162,34.233],[133.167,34.234],[133.168,34.237],[133.172,34.241],[133.168,34.245],[133.164,34.246]]],[[[133.193,34.257],[133.19,34.257],[133.185,34.25],[133.185,34.244],[133.182,34.236],[133.183,34.232],[133.179,34.228],[133.187,34.229],[133.192,34.235],[133.189,34.238],[133.191,34.241],[133.191,34.244],[133.196,34.246],[133.196,34.249],[133.197,34.254],[133.193,34.257]]],[[[133.153,34.28],[133.148,34.28],[133.143,34.278],[133.138,34.272],[133.136,34.266],[133.132,34.265],[133.132,34.259],[133.133,34.249],[133.132,34.245],[133.134,34.241],[133.14,34.244],[133.144,34.244],[133.152,34.246],[133.157,34.25],[133.166,34.255],[133.166,34.261],[133.158,34.272],[133.152,34.278]]],[[[133.172,34.286],[133.168,34.285],[133.166,34.281],[133.167,34.278],[133.167,34.273],[133.172,34.27],[133.17,34.266],[133.173,34.258],[133.178,34.256],[133.186,34.259],[133.186,34.265],[133.186,34.269],[133.182,34.276],[133.178,34.277],[133.176,34.282],[133.172,34.286]]],[[[133.229,34.292],[133.224,34.29],[133.217,34.284],[133.212,34.284],[133.21,34.277],[133.204,34.271],[133.199,34.269],[133.2,34.26],[133.204,34.258],[133.201,34.253],[133.2,34.249],[133.201,34.242],[133.204,34.239],[133.208,34.239],[133.214,34.244],[133.215,34.248],[133.219,34.249],[133.216,34.251],[133.212,34.25],[133.209,34.257],[133.221,34.266],[133.227,34.267],[133.231,34.274],[133.237,34.277],[133.237,34.281],[133.233,34.284],[133.233,34.288],[133.229,34.292]]],[[[133.36,34.174],[133.361,34.166],[133.366,34.167],[133.362,34.172]]],[[[133.309,34.184],[133.307,34.18],[133.311,34.178],[133.317,34.172],[133.322,34.173],[133.326,34.173],[133.328,34.179],[133.321,34.179],[133.317,34.181],[133.313,34.181],[133.309,34.184]]],[[[133.272,34.2],[133.266,34.197],[133.265,34.193],[133.266,34.186],[133.268,34.182],[133.276,34.184],[133.277,34.188],[133.273,34.193],[133.272,34.2]]]]}},{"type":"Feature","properties":{"name":"上浮穴郡久万高原町","code":"38386"},"geometry":{"type":"MultiPolygon","coordinates":[[[[132.832,33.687],[132.822,33.681],[132.822,33.677],[132.825,33.674],[132.83,33.669],[132.835,33.667],[132.833,33.663],[132.832,33.656],[132.836,33.654],[132.834,33.649],[132.831,33.645],[132.831,33.641],[132.837,33.641],[132.843,33.638],[132.848,33.634],[132.854,33.63],[132.857,33.622],[132.857,33.617],[132.854,33.616],[132.853,33.612],[132.849,33.609],[132.844,33.607],[132.847,33.595],[132.853,33.593],[132.856,33.594],[132.866,33.595],[132.863,33.591],[132.867,33.589],[132.873,33.59],[132.881,33.591],[132.887,33.591],[132.895,33.588],[132.9,33.582],[132.903,33.579],[132.905,33.576],[132.909,33.575],[132.915,33.571],[132.923,33.565],[132.926,33.56],[132.924,33.556],[132.92,33.549],[132.917,33.541],[132.92,33.538],[132.921,33.534],[132.916,33.532],[132.916,33.527],[132.914,33.523],[132.91,33.518],[132.906,33.517],[132.9,33.514],[132.9,33.504],[132.896,33.498],[132.897,33.491],[132.901,33.486],[132.901,33.481],[132.896,33.478],[132.901,33.47],[132.908,33.468],[132.915,33.468],[132.923,33.469],[132.929,33.469],[132.939,33.472],[132.944,33.472],[132.947,33.469],[132.952,33.467],[132.96,33.466],[132.973,33.47],[132.979,33.473],[132.987,33.473],[132.993,33.476],[132.999,33.476],[133.015,33.481],[133.014,33.486],[133.013,33.491],[133.021,33.496],[133.025,33.502],[133.031,33.508],[133.034,33.512],[133.038,33.519],[133.037,33.524],[133.046,33.53],[133.054,33.535],[133.059,33.539],[133.061,33.542],[133.063,33.545],[133.062,33.551],[133.06,33.554],[133.061,33.558],[133.062,33.561],[133.055,33.567],[133.05,33.572],[133.047,33.575],[133.048,33.582],[133.049,33.585],[133.055,33.59],[133.055,33.594],[133.063,33.597],[133.07,33.601],[133.08,33.609],[133.073,33.614],[133.07,33.62],[133.069,33.626],[133.07,33.631],[133.07,33.636],[133.074,33.644],[133.075,33.651],[133.085,33.655],[133.091,33.658],[133.097,33.658],[133.107,33.657],[133.11,33.658],[133.115,33.659],[133.118,33.668],[133.122,33.674],[133.119,33.679],[133.121,33.686],[133.122,33.693],[133.125,33.698],[133.134,33.7],[133.145,33.705],[133.141,33.71],[133.14,33.716],[133.146,33.72],[133.152,33.725],[133.161,33.732],[133.159,33.743],[133.158,33.75],[133.15,33.753],[133.145,33.757],[133.139,33.759],[133.134,33.762],[133.124,33.767],[133.117,33.766],[133.109,33.773],[133.105,33.772],[133.101,33.762],[133.094,33.759],[133.085,33.757],[133.082,33.756],[133.077,33.758],[133.073,33.759],[133.067,33.756],[133.061,33.756],[133.056,33.756],[133.053,33.759],[133.049,33.76],[133.044,33.759],[133.032,33.763],[133.029,33.762],[133.024,33.763],[133.021,33.759],[133.01,33.756],[133.006,33.756],[132.997,33.757],[132.993,33.759],[132.992,33.756],[132.99,33.749],[132.986,33.747],[132.98,33.74],[132.976,33.743],[132.973,33.745],[132.967,33.746],[132.962,33.748],[132.957,33.745],[132.953,33.741],[132.954,33.738],[132.953,33.734],[132.949,33.734],[132.944,33.732],[132.933,33.733],[132.925,33.731],[132.921,33.729],[132.916,33.728],[132.908,33.728],[132.904,33.725],[132.9,33.725],[132.896,33.724],[132.893,33.72],[132.886,33.72],[132.878,33.723],[132.875,33.726],[132.871,33.717],[132.871,33.713],[132.865,33.711],[132.862,33.709],[132.856,33.704],[132.852,33.698],[132.854,33.695],[132.849,33.689],[132.836,33.689],[132.832,33.687]]]]}},{"type":"Feature","properties":{"name":"伊予郡松前町","code":"38401"},"geometry":{"type":"MultiPolygon","coordinates":[[[[132.686,33.805],[132.689,33.803],[132.692,33.795],[132.688,33.793],[132.69,33.788],[132.694,33.788],[132.699,33.787],[132.693,33.785],[132.697,33.782],[132.698,33.776],[132.704,33.777],[132.707,33.774],[132.71,33.77],[132.713,33.771],[132.716,33.778],[132.725,33.778],[132.725,33.773],[132.732,33.771],[132.733,33.778],[132.745,33.778],[132.745,33.783],[132.751,33.784],[132.754,33.784],[132.761,33.786],[132.765,33.79],[132.771,33.791],[132.769,33.794],[132.76,33.802],[132.753,33.805],[132.749,33.805],[132.744,33.806],[132.733,33.805],[132.728,33.805],[132.719,33.808],[132.711,33.808],[132.706,33.806],[132.702,33.805],[132.686,33.805]]]]}},{"type":"Feature","properties":{"name":"伊予郡砥部町","code":"38402"},"geometry":{"type":"MultiPolygon","coordinates":[[[[132.771,33.796],[132.771,33.791],[132.774,33.788],[132.774,33.784],[132.772,33.778],[132.767,33.774],[132.762,33.771],[132.763,33.768],[132.762,33.764],[132.757,33.761],[132.748,33.759],[132.745,33.759],[132.744,33.753],[132.747,33.748],[132.742,33.742],[132.738,33.74],[132.736,33.737],[132.744,33.733],[132.745,33.725],[132.754,33.726],[132.759,33.722],[132.759,33.716],[132.763,33.713],[132.764,33.708],[132.768,33.703],[132.773,33.699],[132.777,33.699],[132.78,33.692],[132.776,33.689],[132.774,33.686],[132.775,33.681],[132.781,33.682],[132.775,33.676],[132.771,33.672],[132.769,33.666],[132.766,33.661],[132.766,33.656],[132.764,33.651],[132.765,33.648],[132.756,33.646],[132.754,33.641],[132.752,33.638],[132.75,33.634],[132.747,33.63],[132.75,33.628],[132.755,33.623],[132.759,33.621],[132.761,33.616],[132.764,33.61],[132.766,33.607],[132.77,33.608],[132.773,33.611],[132.778,33.612],[132.782,33.617],[132.786,33.619],[132.785,33.622],[132.789,33.62],[132.793,33.62],[132.796,33.619],[132.8,33.621],[132.803,33.621],[132.805,33.624],[132.809,33.625],[132.814,33.624],[132.813,33.628],[132.825,33.63],[132.836,33.635],[132.837,33.641],[132.831,33.641],[132.831,33.645],[132.834,33.649],[132.836,33.654],[132.832,33.656],[132.833,33.663],[132.835,33.667],[132.831,33.67],[132.825,33.671],[132.822,33.677],[132.822,33.681],[132.832,33.685],[132.827,33.693],[132.825,33.698],[132.824,33.704],[132.821,33.708],[132.822,33.712],[132.826,33.715],[132.823,33.722],[132.818,33.725],[132.817,33.733],[132.814,33.735],[132.807,33.742],[132.807,33.749],[132.805,33.753],[132.799,33.756],[132.797,33.762],[132.795,33.768],[132.797,33.778],[132.803,33.782],[132.799,33.786],[132.79,33.787],[132.786,33.788],[132.782,33.79],[132.771,33.796]]]]}},{"type":"Feature","properties":{"name":"喜多郡内子町","code":"38422"},"geometry":{"type":"MultiPolygon","coordinates":[[[[132.837,33.641],[132.836,33.635],[132.825,33.63],[132.813,33.628],[132.814,33.624],[132.809,33.625],[132.805,33.624],[132.803,33.621],[132.8,33.621],[132.796,33.619],[132.793,33.62],[132.789,33.62],[132.786,33.624],[132.786,33.619],[132.782,33.617],[132.778,33.612],[132.773,33.611],[132.77,33.608],[132.766,33.607],[132.764,33.61],[132.762,33.615],[132.759,33.621],[132.755,33.623],[132.75,33.628],[132.746,33.628],[132.74,33.625],[132.736,33.627],[132.728,33.625],[132.728,33.621],[132.725,33.618],[132.722,33.613],[132.717,33.612],[132.71,33.608],[132.701,33.61],[132.695,33.614],[132.688,33.616],[132.683,33.618],[132.68,33.618],[132.676,33.621],[132.671,33.62],[132.668,33.62],[132.661,33.616],[132.659,33.62],[132.654,33.62],[132.651,33.623],[132.654,33.629],[132.653,33.635],[132.655,33.639],[132.652,33.644],[132.652,33.652],[132.646,33.654],[132.639,33.655],[132.634,33.653],[132.632,33.65],[132.627,33.649],[132.623,33.65],[132.618,33.65],[132.619,33.647],[132.613,33.64],[132.609,33.638],[132.607,33.634],[132.602,33.626],[132.603,33.623],[132.605,33.619],[132.614,33.613],[132.614,33.609],[132.615,33.605],[132.617,33.597],[132.623,33.594],[132.623,33.59],[132.625,33.586],[132.63,33.583],[132.632,33.577],[132.627,33.572],[132.626,33.567],[132.633,33.567],[132.634,33.563],[132.634,33.556],[132.637,33.553],[132.639,33.549],[132.637,33.545],[132.634,33.538],[132.631,33.538],[132.631,33.533],[132.631,33.53],[132.632,33.526],[132.631,33.52],[132.637,33.516],[132.644,33.514],[132.646,33.51],[132.643,33.507],[132.645,33.503],[132.648,33.502],[132.655,33.506],[132.662,33.503],[132.666,33.497],[132.666,33.491],[132.672,33.496],[132.677,33.498],[132.681,33.501],[132.686,33.504],[132.687,33.507],[132.692,33.509],[132.698,33.509],[132.704,33.51],[132.707,33.509],[132.712,33.51],[132.722,33.515],[132.726,33.517],[132.729,33.521],[132.737,33.521],[132.738,33.524],[132.741,33.526],[132.74,33.53],[132.747,33.53],[132.75,33.527],[132.754,33.529],[132.756,33.532],[132.762,33.533],[132.767,33.54],[132.77,33.541],[132.777,33.54],[132.781,33.535],[132.784,33.53],[132.791,33.529],[132.798,33.534],[132.801,33.536],[132.801,33.542],[132.804,33.544],[132.809,33.544],[132.816,33.545],[132.817,33.549],[132.823,33.546],[132.827,33.541],[132.825,33.538],[132.83,33.536],[132.834,33.532],[132.839,33.522],[132.843,33.522],[132.847,33.515],[132.846,33.512],[132.85,33.51],[132.855,33.509],[132.862,33.505],[132.866,33.504],[132.866,33.501],[132.87,33.5],[132.874,33.498],[132.881,33.499],[132.887,33.498],[132.891,33.498],[132.896,33.498],[132.898,33.502],[132.9,33.514],[132.906,33.517],[132.91,33.518],[132.911,33.523],[132.916,33.527],[132.916,33.532],[132.921,33.534],[132.92,33.538],[132.917,33.541],[132.921,33.547],[132.922,33.555],[132.926,33.56],[132.923,33.565],[132.915,33.568],[132.911,33.576],[132.905,33.576],[132.903,33.579],[132.898,33.58],[132.897,33.587],[132.887,33.591],[132.881,33.591],[132.873,33.59],[132.867,33.589],[132.863,33.591],[132.866,33.595],[132.856,33.594],[132.853,33.593],[132.849,33.593],[132.844,33.607],[132.849,33.609],[132.853,33.612],[132.854,33.616],[132.857,33.617],[132.857,33.622],[132.854,33.63],[132.851,33.633],[132.843,33.638],[132.837,33.641]]]]}},{"type":"Feature","properties":{"name":"西宇和郡伊方町","code":"38442"},"geometry":{"type":"MultiPolygon","coordinates":[[[[132.352,33.458],[132.349,33.458],[132.344,33.457],[132.345,33.453],[132.349,33.453],[132.352,33.455],[132.352,33.458]]],[[[132.357,33.516],[132.353,33.51],[132.342,33.507],[132.342,33.504],[132.334,33.504],[132.329,33.501],[132.322,33.499],[132.321,33.496],[132.308,33.493],[132.307,33.487],[132.302,33.488],[132.295,33.487],[132.289,33.484],[132.284,33.478],[132.282,33.482],[132.28,33.478],[132.275,33.474],[132.273,33.478],[132.267,33.473],[132.259,33.473],[132.265,33.469],[132.264,33.46],[132.265,33.456],[132.261,33.454],[132.26,33.45],[132.254,33.451],[132.254,33.454],[132.246,33.456],[132.247,33.462],[132.243,33.466],[132.24,33.465],[132.24,33.46],[132.236,33.46],[132.233,33.462],[132.226,33.459],[132.227,33.456],[132.224,33.452],[132.227,33.446],[132.218,33.448],[132.211,33.445],[132.204,33.451],[132.2,33.456],[132.196,33.454],[132.194,33.451],[132.198,33.445],[132.194,33.442],[132.191,33.444],[132.186,33.445],[132.183,33.448],[132.174,33.447],[132.175,33.438],[132.176,33.435],[132.177,33.428],[132.17,33.427],[132.166,33.431],[132.161,33.434],[132.156,33.438],[132.153,33.437],[132.148,33.434],[132.151,33.431],[132.157,33.429],[132.165,33.424],[132.17,33.419],[132.166,33.416],[132.167,33.412],[132.16,33.411],[132.156,33.408],[132.153,33.407],[132.15,33.41],[132.148,33.416],[132.138,33.421],[132.138,33.414],[132.137,33.409],[132.132,33.404],[132.128,33.407],[132.128,33.412],[132.127,33.416],[132.124,33.42],[132.12,33.42],[132.115,33.417],[132.112,33.415],[132.111,33.412],[132.108,33.409],[132.102,33.405],[132.097,33.404],[132.093,33.4],[132.09,33.401],[132.084,33.398],[132.08,33.392],[132.08,33.389],[132.069,33.384],[132.064,33.382],[132.057,33.377],[132.053,33.376],[132.049,33.371],[132.045,33.368],[132.042,33.368],[132.037,33.361],[132.03,33.357],[132.028,33.351],[132.025,33.349],[132.018,33.348],[132.018,33.345],[132.026,33.344],[132.031,33.347],[132.034,33.35],[132.041,33.352],[132.046,33.357],[132.05,33.358],[132.047,33.364],[132.054,33.368],[132.058,33.368],[132.06,33.371],[132.064,33.372],[132.068,33.377],[132.075,33.376],[132.077,33.38],[132.081,33.381],[132.088,33.382],[132.094,33.387],[132.111,33.389],[132.114,33.391],[132.119,33.391],[132.12,33.386],[132.12,33.381],[132.116,33.382],[132.112,33.379],[132.113,33.376],[132.118,33.373],[132.111,33.373],[132.104,33.373],[132.102,33.37],[132.103,33.362],[132.111,33.364],[132.118,33.365],[132.125,33.365],[132.129,33.364],[132.135,33.37],[132.139,33.372],[132.145,33.376],[132.152,33.376],[132.153,33.389],[132.157,33.393],[132.163,33.396],[132.166,33.397],[132.173,33.403],[132.175,33.406],[132.181,33.409],[132.184,33.413],[132.19,33.414],[132.194,33.414],[132.203,33.415],[132.208,33.419],[132.214,33.422],[132.22,33.423],[132.226,33.426],[132.237,33.425],[132.239,33.429],[132.243,33.432],[132.248,33.436],[132.254,33.439],[132.266,33.443],[132.269,33.446],[132.276,33.447],[132.281,33.447],[132.283,33.45],[132.282,33.454],[132.287,33.458],[132.286,33.462],[132.295,33.465],[132.297,33.472],[132.3,33.475],[132.305,33.474],[132.307,33.469],[132.312,33.464],[132.317,33.457],[132.321,33.462],[132.323,33.466],[132.324,33.473],[132.33,33.474],[132.334,33.472],[132.344,33.474],[132.35,33.473],[132.353,33.474],[132.349,33.479],[132.343,33.486],[132.349,33.487],[132.353,33.484],[132.359,33.482],[132.364,33.48],[132.37,33.474],[132.372,33.47],[132.375,33.476],[132.377,33.485],[132.375,33.489],[132.374,33.497],[132.37,33.499],[132.37,33.503],[132.366,33.505],[132.36,33.511],[132.359,33.514]]]]}},{"type":"Feature","properties":{"name":"八幡浜市","code":"38204"},"geometry":{"type":"MultiPolygon","coordinates":[[[[132.344,33.381],[132.344,33.378],[132.349,33.373],[132.353,33.374],[132.357,33.372],[132.363,33.373],[132.364,33.376],[132.358,33.378],[132.35,33.378],[132.345,33.379]]],[[[132.342,33.396],[132.339,33.396],[132.336,33.391],[132.342,33.387],[132.343,33.392],[132.346,33.395],[132.342,33.396]]],[[[132.372,33.47],[132.373,33.463],[132.378,33.462],[132.38,33.466],[132.38,33.47],[132.383,33.474],[132.388,33.474],[132.396,33.473],[132.402,33.471],[132.402,33.468],[132.396,33.466],[132.39,33.468],[132.39,33.465],[132.387,33.461],[132.394,33.458],[132.398,33.458],[132.402,33.46],[132.408,33.458],[132.417,33.462],[132.418,33.456],[132.415,33.453],[132.409,33.451],[132.408,33.446],[132.401,33.445],[132.396,33.444],[132.389,33.442],[132.397,33.441],[132.404,33.443],[132.407,33.444],[132.411,33.443],[132.415,33.444],[132.412,33.439],[132.408,33.437],[132.404,33.431],[132.407,33.426],[132.4,33.426],[132.399,33.43],[132.395,33.429],[132.389,33.423],[132.386,33.42],[132.383,33.419],[132.39,33.417],[132.394,33.413],[132.394,33.407],[132.39,33.404],[132.396,33.4],[132.389,33.392],[132.386,33.392],[132.379,33.388],[132.379,33.385],[132.387,33.388],[132.392,33.387],[132.398,33.388],[132.399,33.391],[132.409,33.399],[132.411,33.404],[132.411,33.409],[132.415,33.41],[132.423,33.418],[132.427,33.416],[132.431,33.408],[132.437,33.41],[132.447,33.408],[132.451,33.408],[132.449,33.405],[132.452,33.401],[132.46,33.403],[132.465,33.405],[132.469,33.404],[132.473,33.405],[132.479,33.407],[132.483,33.408],[132.482,33.412],[132.479,33.415],[132.476,33.418],[132.483,33.426],[132.482,33.431],[132.486,33.434],[132.488,33.439],[132.488,33.443],[132.495,33.446],[132.499,33.447],[132.502,33.45],[132.499,33.454],[132.496,33.462],[132.499,33.468],[132.495,33.473],[132.491,33.473],[132.486,33.476],[132.488,33.481],[132.482,33.483],[132.478,33.483],[132.473,33.484],[132.469,33.482],[132.465,33.487],[132.462,33.488],[132.465,33.494],[132.467,33.502],[132.471,33.505],[132.479,33.506],[132.48,33.511],[132.48,33.518],[132.479,33.524],[132.473,33.525],[132.47,33.526],[132.469,33.532],[132.466,33.535],[132.459,33.534],[132.455,33.531],[132.451,33.533],[132.447,33.536],[132.437,33.534],[132.428,33.54],[132.429,33.551],[132.425,33.552],[132.42,33.547],[132.412,33.544],[132.408,33.542],[132.395,33.536],[132.39,33.532],[132.386,33.528],[132.382,33.527],[132.378,33.526],[132.374,33.522],[132.367,33.518],[132.362,33.516],[132.357,33.516],[132.36,33.511],[132.367,33.507],[132.37,33.503],[132.37,33.499],[132.374,33.497],[132.377,33.491],[132.377,33.485],[132.377,33.477],[132.375,33.472]]]]}},{"type":"Feature","properties":{"name":"新居浜市","code":"38205"},"geometry":{"type":"MultiPolygon","coordinates":[[[[133.389,33.986],[133.382,33.984],[133.378,33.984],[133.373,33.982],[133.365,33.981],[133.361,33.979],[133.356,33.979],[133.354,33.982],[133.351,33.984],[133.349,33.988],[133.337,33.992],[133.337,33.984],[133.336,33.98],[133.333,33.984],[133.333,33.991],[133.328,33.991],[133.321,33.994],[133.317,33.989],[133.31,33.984],[133.306,33.983],[133.295,33.981],[133.29,33.983],[133.286,33.98],[133.281,33.99],[133.28,33.986],[133.277,33.985],[133.279,33.981],[133.27,33.984],[133.267,33.98],[133.273,33.978],[133.267,33.973],[133.264,33.961],[133.259,33.977],[133.256,33.981],[133.253,33.978],[133.249,33.975],[133.25,33.964],[133.249,33.961],[133.255,33.957],[133.247,33.96],[133.245,33.957],[133.246,33.953],[133.243,33.957],[133.235,33.956],[133.234,33.952],[133.236,33.947],[133.234,33.94],[133.241,33.938],[133.242,33.935],[133.246,33.925],[133.247,33.919],[133.242,33.916],[133.24,33.91],[133.245,33.905],[133.246,33.9],[133.251,33.894],[133.25,33.889],[133.252,33.884],[133.255,33.881],[133.254,33.877],[133.25,33.877],[133.246,33.874],[133.251,33.866],[133.258,33.864],[133.261,33.86],[133.267,33.859],[133.27,33.854],[133.273,33.848],[133.273,33.845],[133.274,33.842],[133.275,33.836],[133.277,33.831],[133.284,33.832],[133.289,33.829],[133.294,33.829],[133.302,33.823],[133.31,33.816],[133.319,33.816],[133.326,33.815],[133.333,33.821],[133.341,33.824],[133.346,33.825],[133.35,33.829],[133.352,33.833],[133.356,33.834],[133.362,33.833],[133.369,33.829],[133.376,33.829],[133.384,33.826],[133.387,33.826],[133.392,33.824],[133.393,33.828],[133.397,33.831],[133.401,33.836],[133.406,33.836],[133.412,33.839],[133.42,33.84],[133.425,33.839],[133.432,33.835],[133.441,33.834],[133.445,33.835],[133.448,33.834],[133.455,33.837],[133.454,33.849],[133.453,33.854],[133.449,33.861],[133.447,33.864],[133.452,33.869],[133.447,33.878],[133.448,33.882],[133.448,33.885],[133.44,33.889],[133.434,33.891],[133.43,33.891],[133.423,33.888],[133.418,33.89],[133.414,33.887],[133.406,33.887],[133.399,33.887],[133.395,33.882],[133.392,33.879],[133.386,33.879],[133.375,33.875],[133.365,33.877],[133.353,33.881],[133.351,33.889],[133.354,33.894],[133.359,33.897],[133.362,33.9],[133.365,33.906],[133.368,33.91],[133.368,33.916],[133.369,33.921],[133.367,33.927],[133.366,33.931],[133.367,33.937],[133.369,33.942],[133.37,33.948],[133.37,33.952],[133.371,33.955],[133.376,33.96],[133.376,33.964],[133.38,33.97],[133.384,33.972],[133.388,33.979],[133.392,33.981],[133.389,33.986]]],[[[133.367,34.008],[133.36,34.004],[133.355,34.005],[133.351,34.002],[133.351,33.996],[133.356,33.995],[133.361,33.99],[133.365,33.992],[133.369,33.994],[133.37,33.998],[133.37,34.005]]]]}},{"type":"Feature","properties":{"name":"西条市","code":"38206"},"geometry":{"type":"MultiPolygon","coordinates":[[[[132.96,33.903],[132.961,33.895],[132.959,33.891],[132.959,33.888],[132.957,33.884],[132.961,33.878],[132.96,33.874],[132.965,33.87],[132.969,33.869],[132.971,33.865],[132.971,33.861],[132.974,33.859],[132.974,33.855],[132.972,33.851],[132.968,33.846],[132.97,33.841],[132.973,33.83],[132.976,33.829],[132.979,33.826],[132.983,33.817],[132.986,33.812],[132.992,33.816],[132.995,33.817],[133.001,33.817],[133.007,33.814],[133.013,33.813],[133.013,33.808],[133.013,33.804],[133.018,33.799],[133.019,33.793],[133.022,33.79],[133.023,33.786],[133.019,33.781],[133.018,33.774],[133.018,33.768],[133.024,33.763],[133.029,33.762],[133.032,33.763],[133.042,33.76],[133.049,33.76],[133.053,33.759],[133.056,33.756],[133.059,33.755],[133.067,33.756],[133.073,33.759],[133.077,33.758],[133.082,33.756],[133.085,33.757],[133.094,33.759],[133.098,33.762],[133.103,33.769],[133.109,33.773],[133.117,33.766],[133.121,33.766],[133.134,33.764],[133.139,33.759],[133.145,33.757],[133.15,33.753],[133.158,33.75],[133.164,33.754],[133.171,33.758],[133.176,33.761],[133.177,33.764],[133.18,33.764],[133.184,33.768],[133.182,33.771],[133.187,33.777],[133.19,33.784],[133.19,33.787],[133.193,33.794],[133.2,33.794],[133.204,33.795],[133.216,33.786],[133.22,33.78],[133.223,33.781],[133.232,33.784],[133.237,33.783],[133.246,33.789],[133.25,33.788],[133.257,33.794],[133.259,33.798],[133.262,33.805],[133.261,33.811],[133.264,33.815],[133.265,33.819],[133.267,33.823],[133.275,33.828],[133.275,33.836],[133.274,33.842],[133.273,33.845],[133.273,33.848],[133.269,33.851],[133.267,33.859],[133.261,33.86],[133.258,33.864],[133.253,33.864],[133.246,33.874],[133.25,33.877],[133.254,33.877],[133.255,33.881],[133.252,33.884],[133.25,33.889],[133.251,33.894],[133.248,33.898],[133.245,33.905],[133.242,33.909],[133.242,33.916],[133.245,33.917],[133.245,33.923],[133.244,33.932],[133.241,33.938],[133.234,33.938],[133.236,33.947],[133.234,33.952],[133.225,33.95],[133.199,33.946],[133.201,33.937],[133.196,33.946],[133.189,33.944],[133.186,33.949],[133.178,33.948],[133.18,33.942],[133.172,33.94],[133.177,33.931],[133.172,33.928],[133.172,33.932],[133.168,33.938],[133.152,33.932],[133.14,33.928],[133.133,33.927],[133.126,33.932],[133.128,33.941],[133.12,33.937],[133.12,33.933],[133.117,33.926],[133.112,33.931],[133.117,33.934],[133.119,33.941],[133.108,33.948],[133.101,33.941],[133.097,33.943],[133.094,33.948],[133.088,33.945],[133.089,33.95],[133.085,33.957],[133.08,33.961],[133.074,33.967],[133.068,33.975],[133.065,33.974],[133.061,33.979],[133.067,33.983],[133.052,33.981],[133.041,33.978],[133.039,33.971],[133.041,33.968],[133.038,33.966],[133.034,33.961],[133.03,33.961],[133.024,33.963],[133.018,33.962],[133.016,33.957],[133.008,33.955],[133.005,33.958],[132.997,33.956],[132.991,33.957],[132.987,33.955],[132.984,33.951],[132.979,33.948],[132.977,33.945],[132.979,33.941],[132.977,33.936],[132.976,33.93],[132.976,33.926],[132.975,33.92],[132.976,33.911],[132.973,33.907],[132.965,33.907],[132.96,33.903]]]]}},{"type":"Feature","properties":{"name":"大洲市","code":"38207"},"geometry":{"type":"MultiPolygon","coordinates":[[[[132.603,33.623],[132.599,33.622],[132.59,33.623],[132.585,33.626],[132.581,33.626],[132.576,33.621],[132.576,33.618],[132.569,33.614],[132.568,33.61],[132.56,33.602],[132.556,33.605],[132.552,33.612],[132.549,33.619],[132.544,33.623],[132.538,33.629],[132.531,33.638],[132.523,33.634],[132.516,33.629],[132.511,33.627],[132.492,33.62],[132.484,33.616],[132.478,33.617],[132.478,33.613],[132.475,33.607],[132.471,33.604],[132.463,33.6],[132.457,33.595],[132.458,33.591],[132.449,33.583],[132.445,33.578],[132.442,33.576],[132.437,33.572],[132.434,33.569],[132.433,33.564],[132.434,33.56],[132.43,33.558],[132.427,33.555],[132.425,33.552],[132.429,33.551],[132.428,33.54],[132.437,33.534],[132.447,33.536],[132.451,33.533],[132.455,33.531],[132.459,33.534],[132.466,33.535],[132.469,33.532],[132.47,33.526],[132.473,33.525],[132.479,33.524],[132.482,33.52],[132.48,33.511],[132.479,33.506],[132.471,33.505],[132.469,33.502],[132.465,33.494],[132.462,33.49],[132.465,33.487],[132.469,33.482],[132.473,33.484],[132.478,33.483],[132.482,33.483],[132.488,33.481],[132.486,33.476],[132.491,33.473],[132.495,33.473],[132.499,33.468],[132.496,33.462],[132.499,33.456],[132.502,33.45],[132.508,33.451],[132.516,33.452],[132.52,33.45],[132.525,33.452],[132.529,33.45],[132.53,33.445],[132.534,33.444],[132.54,33.439],[132.55,33.44],[132.553,33.437],[132.56,33.44],[132.564,33.443],[132.571,33.452],[132.577,33.449],[132.582,33.446],[132.587,33.44],[132.59,33.435],[132.594,33.435],[132.598,33.438],[132.611,33.436],[132.616,33.44],[132.623,33.439],[132.628,33.441],[132.633,33.44],[132.634,33.435],[132.642,33.433],[132.65,33.427],[132.654,33.424],[132.666,33.422],[132.671,33.42],[132.674,33.42],[132.677,33.425],[132.681,33.427],[132.685,33.425],[132.69,33.426],[132.69,33.42],[132.698,33.422],[132.702,33.42],[132.708,33.426],[132.712,33.427],[132.713,33.431],[132.715,33.437],[132.714,33.441],[132.714,33.446],[132.713,33.45],[132.712,33.454],[132.716,33.456],[132.721,33.456],[132.729,33.455],[132.732,33.449],[132.74,33.449],[132.741,33.453],[132.744,33.452],[132.749,33.459],[132.751,33.468],[132.752,33.474],[132.752,33.479],[132.754,33.486],[132.758,33.485],[132.765,33.489],[132.77,33.486],[132.774,33.486],[132.784,33.488],[132.79,33.488],[132.791,33.491],[132.795,33.495],[132.803,33.498],[132.805,33.504],[132.811,33.507],[132.815,33.507],[132.816,33.502],[132.82,33.5],[132.825,33.503],[132.828,33.504],[132.829,33.507],[132.833,33.512],[132.834,33.519],[132.839,33.522],[132.835,33.529],[132.83,33.536],[132.825,33.538],[132.827,33.541],[132.823,33.546],[132.82,33.55],[132.816,33.545],[132.809,33.544],[132.804,33.544],[132.801,33.542],[132.801,33.536],[132.798,33.534],[132.792,33.532],[132.784,33.53],[132.781,33.535],[132.78,33.538],[132.77,33.541],[132.767,33.54],[132.765,33.535],[132.756,33.532],[132.754,33.529],[132.75,33.527],[132.747,33.53],[132.743,33.531],[132.741,33.526],[132.738,33.524],[132.737,33.521],[132.729,33.521],[132.726,33.517],[132.723,33.517],[132.714,33.51],[132.707,33.509],[132.704,33.51],[132.698,33.509],[132.695,33.508],[132.687,33.507],[132.686,33.504],[132.681,33.501],[132.678,33.501],[132.674,33.498],[132.669,33.491],[132.666,33.497],[132.662,33.503],[132.658,33.506],[132.648,33.502],[132.645,33.503],[132.643,33.507],[132.646,33.51],[132.644,33.514],[132.637,33.516],[132.632,33.518],[132.632,33.526],[132.631,33.53],[132.631,33.533],[132.631,33.538],[132.634,33.538],[132.638,33.542],[132.639,33.549],[132.639,33.553],[132.634,33.556],[132.634,33.563],[132.633,33.567],[132.626,33.567],[132.624,33.572],[132.632,33.577],[132.63,33.583],[132.625,33.586],[132.623,33.59],[132.623,33.594],[132.617,33.597],[132.616,33.604],[132.614,33.609],[132.614,33.613],[132.605,33.619],[132.603,33.623]]],[[[132.484,33.739],[132.477,33.737],[132.482,33.735],[132.487,33.737],[132.484,33.739]]]]}},{"type":"Feature","properties":{"name":"伊予市","code":"38210"},"geometry":{"type":"MultiPolygon","coordinates":[[[[132.698,33.776],[132.7,33.767],[132.697,33.767],[132.698,33.762],[132.697,33.756],[132.693,33.752],[132.69,33.751],[132.682,33.745],[132.677,33.738],[132.676,33.734],[132.674,33.73],[132.67,33.725],[132.665,33.718],[132.663,33.714],[132.663,33.709],[132.659,33.704],[132.653,33.697],[132.646,33.692],[132.64,33.69],[132.629,33.683],[132.627,33.679],[132.618,33.677],[132.612,33.672],[132.61,33.669],[132.606,33.666],[132.6,33.662],[132.591,33.658],[132.586,33.654],[132.582,33.652],[132.574,33.651],[132.567,33.649],[132.549,33.643],[132.531,33.638],[132.537,33.63],[132.543,33.625],[132.549,33.621],[132.554,33.615],[132.554,33.606],[132.56,33.602],[132.568,33.61],[132.569,33.614],[132.576,33.618],[132.576,33.621],[132.58,33.623],[132.585,33.626],[132.59,33.623],[132.599,33.622],[132.603,33.623],[132.602,33.626],[132.606,33.632],[132.609,33.638],[132.613,33.64],[132.619,33.647],[132.618,33.65],[132.623,33.65],[132.627,33.649],[132.632,33.65],[132.634,33.653],[132.639,33.655],[132.644,33.655],[132.649,33.655],[132.653,33.646],[132.655,33.639],[132.653,33.635],[132.654,33.629],[132.651,33.623],[132.654,33.62],[132.657,33.621],[132.661,33.616],[132.668,33.62],[132.671,33.62],[132.676,33.621],[132.678,33.616],[132.683,33.618],[132.688,33.616],[132.695,33.614],[132.701,33.61],[132.71,33.608],[132.717,33.612],[132.722,33.613],[132.725,33.618],[132.728,33.621],[132.728,33.625],[132.734,33.627],[132.737,33.624],[132.743,33.627],[132.747,33.63],[132.75,33.634],[132.752,33.638],[132.754,33.641],[132.756,33.646],[132.763,33.646],[132.764,33.651],[132.766,33.656],[132.766,33.661],[132.769,33.666],[132.773,33.669],[132.775,33.676],[132.782,33.68],[132.776,33.679],[132.774,33.686],[132.776,33.689],[132.78,33.692],[132.777,33.699],[132.773,33.699],[132.768,33.703],[132.764,33.708],[132.763,33.713],[132.759,33.716],[132.759,33.722],[132.754,33.726],[132.745,33.725],[132.742,33.731],[132.736,33.737],[132.738,33.74],[132.742,33.742],[132.746,33.746],[132.746,33.752],[132.742,33.757],[132.748,33.759],[132.757,33.761],[132.762,33.764],[132.763,33.768],[132.762,33.771],[132.766,33.772],[132.772,33.778],[132.774,33.784],[132.774,33.788],[132.771,33.791],[132.765,33.79],[132.761,33.788],[132.754,33.786],[132.751,33.784],[132.745,33.783],[132.745,33.778],[132.733,33.778],[132.732,33.771],[132.725,33.773],[132.725,33.778],[132.716,33.778],[132.716,33.772],[132.71,33.77],[132.71,33.774],[132.704,33.777],[132.698,33.776]]]]}},{"type":"Feature","properties":{"name":"四国中央市","code":"38213"},"geometry":{"type":"MultiPolygon","coordinates":[[[[133.455,33.837],[133.464,33.835],[133.47,33.837],[133.473,33.834],[133.478,33.834],[133.483,33.833],[133.487,33.83],[133.492,33.832],[133.5,33.829],[133.508,33.836],[133.507,33.84],[133.51,33.848],[133.514,33.847],[133.518,33.847],[133.523,33.852],[133.526,33.854],[133.526,33.862],[133.53,33.863],[133.536,33.866],[133.536,33.871],[133.54,33.875],[133.54,33.879],[133.544,33.879],[133.55,33.882],[133.557,33.882],[133.559,33.879],[133.562,33.875],[133.566,33.875],[133.572,33.872],[133.578,33.868],[133.583,33.868],[133.585,33.871],[133.589,33.874],[133.593,33.875],[133.596,33.88],[133.603,33.88],[133.607,33.882],[133.611,33.881],[133.617,33.877],[133.627,33.872],[133.635,33.88],[133.639,33.881],[133.644,33.883],[133.652,33.883],[133.661,33.882],[133.662,33.886],[133.666,33.888],[133.671,33.889],[133.678,33.893],[133.677,33.899],[133.675,33.903],[133.678,33.91],[133.682,33.91],[133.688,33.916],[133.689,33.922],[133.686,33.926],[133.676,33.926],[133.676,33.933],[133.68,33.934],[133.682,33.938],[133.686,33.939],[133.693,33.944],[133.693,33.948],[133.689,33.953],[133.692,33.96],[133.687,33.965],[133.683,33.965],[133.683,33.969],[133.681,33.974],[133.681,33.979],[133.681,33.984],[133.675,33.984],[133.676,33.988],[133.676,33.992],[133.681,33.996],[133.683,34.002],[133.685,34.007],[133.677,34.016],[133.672,34.021],[133.67,34.024],[133.665,34.027],[133.659,34.028],[133.649,34.027],[133.644,34.028],[133.639,34.026],[133.636,34.03],[133.633,34.031],[133.63,34.036],[133.621,34.035],[133.616,34.033],[133.609,34.034],[133.604,34.036],[133.601,34.041],[133.595,34.038],[133.591,34.034],[133.586,34.035],[133.583,34.03],[133.579,34.031],[133.576,34.028],[133.58,34.024],[133.572,34.02],[133.568,34.02],[133.565,34.019],[133.568,34.016],[133.566,34.013],[133.562,34.015],[133.56,34.012],[133.552,34.013],[133.555,34.005],[133.556,34.001],[133.546,34.008],[133.541,34.003],[133.552,33.996],[133.547,33.989],[133.543,33.988],[133.54,33.99],[133.539,33.994],[133.534,33.988],[133.537,33.988],[133.538,33.983],[133.533,33.987],[133.527,33.982],[133.523,33.98],[133.523,33.975],[133.516,33.975],[133.512,33.972],[133.502,33.973],[133.497,33.97],[133.491,33.969],[133.486,33.972],[133.482,33.972],[133.475,33.973],[133.467,33.975],[133.453,33.984],[133.444,33.983],[133.437,33.985],[133.43,33.987],[133.426,33.986],[133.414,33.986],[133.411,33.991],[133.406,33.989],[133.402,33.988],[133.398,33.991],[133.393,33.99],[133.389,33.986],[133.392,33.981],[133.388,33.979],[133.384,33.972],[133.38,33.97],[133.376,33.964],[133.376,33.96],[133.371,33.955],[133.37,33.952],[133.37,33.948],[133.368,33.945],[133.367,33.937],[133.366,33.931],[133.367,33.927],[133.369,33.921],[133.369,33.918],[133.368,33.91],[133.365,33.906],[133.365,33.902],[133.359,33.899],[133.357,33.894],[133.351,33.889],[133.351,33.884],[133.362,33.877],[133.372,33.875],[133.384,33.876],[133.392,33.879],[133.395,33.882],[133.397,33.886],[133.406,33.887],[133.414,33.887],[133.418,33.89],[133.423,33.888],[133.43,33.891],[133.434,33.891],[133.439,33.892],[133.445,33.888],[133.448,33.882],[133.447,33.878],[133.451,33.872],[133.447,33.866],[133.449,33.861],[133.453,33.854],[133.454,33.849],[133.455,33.837]]]]}},{"type":"Feature","properties":{"name":"西予市","code":"38214"},"geometry":{"type":"MultiPolygon","coordinates":[[[[132.657,33.332],[132.658,33.336],[132.661,33.348],[132.678,33.35],[132.688,33.349],[132.696,33.349],[132.7,33.347],[132.703,33.348],[132.708,33.347],[132.714,33.345],[132.718,33.348],[132.72,33.351],[132.723,33.351],[132.725,33.346],[132.731,33.346],[132.734,33.343],[132.742,33.345],[132.749,33.346],[132.754,33.344],[132.759,33.346],[132.766,33.348],[132.769,33.35],[132.774,33.351],[132.781,33.356],[132.784,33.351],[132.785,33.347],[132.788,33.346],[132.798,33.344],[132.803,33.343],[132.808,33.347],[132.812,33.35],[132.815,33.353],[132.819,33.357],[132.822,33.361],[132.825,33.367],[132.826,33.37],[132.826,33.373],[132.834,33.376],[132.838,33.379],[132.846,33.381],[132.852,33.386],[132.856,33.39],[132.856,33.395],[132.855,33.398],[132.85,33.399],[132.847,33.398],[132.841,33.398],[132.837,33.399],[132.832,33.409],[132.833,33.412],[132.834,33.42],[132.825,33.423],[132.823,33.43],[132.825,33.435],[132.828,33.438],[132.827,33.446],[132.822,33.449],[132.813,33.451],[132.808,33.454],[132.807,33.461],[132.811,33.466],[132.815,33.464],[132.819,33.467],[132.823,33.473],[132.827,33.472],[132.832,33.476],[132.84,33.475],[132.848,33.479],[132.852,33.478],[132.862,33.475],[132.874,33.471],[132.878,33.472],[132.881,33.471],[132.884,33.473],[132.888,33.473],[132.894,33.472],[132.901,33.47],[132.896,33.476],[132.901,33.481],[132.901,33.486],[132.897,33.491],[132.896,33.498],[132.891,33.498],[132.887,33.498],[132.883,33.498],[132.875,33.499],[132.87,33.5],[132.866,33.501],[132.866,33.504],[132.862,33.505],[132.855,33.509],[132.85,33.51],[132.846,33.512],[132.847,33.515],[132.845,33.52],[132.839,33.522],[132.834,33.519],[132.833,33.512],[132.829,33.507],[132.828,33.504],[132.825,33.503],[132.82,33.5],[132.816,33.502],[132.815,33.507],[132.811,33.507],[132.805,33.504],[132.803,33.498],[132.795,33.495],[132.791,33.491],[132.79,33.488],[132.784,33.488],[132.775,33.485],[132.77,33.486],[132.765,33.489],[132.76,33.487],[132.754,33.486],[132.752,33.479],[132.754,33.476],[132.751,33.468],[132.749,33.46],[132.746,33.454],[132.741,33.453],[132.74,33.449],[132.734,33.447],[132.729,33.455],[132.721,33.456],[132.716,33.456],[132.712,33.454],[132.713,33.45],[132.714,33.446],[132.714,33.441],[132.715,33.437],[132.712,33.434],[132.712,33.427],[132.708,33.426],[132.705,33.42],[132.7,33.422],[132.693,33.419],[132.69,33.426],[132.685,33.425],[132.681,33.427],[132.677,33.425],[132.674,33.42],[132.671,33.42],[132.666,33.422],[132.654,33.424],[132.651,33.426],[132.642,33.433],[132.634,33.435],[132.633,33.44],[132.628,33.441],[132.623,33.439],[132.616,33.44],[132.611,33.438],[132.601,33.439],[132.594,33.435],[132.59,33.435],[132.587,33.44],[132.582,33.443],[132.577,33.449],[132.573,33.454],[132.564,33.446],[132.562,33.443],[132.553,33.437],[132.55,33.44],[132.54,33.439],[132.534,33.444],[132.53,33.445],[132.529,33.45],[132.525,33.452],[132.52,33.45],[132.516,33.452],[132.508,33.451],[132.502,33.45],[132.499,33.447],[132.495,33.446],[132.488,33.443],[132.488,33.439],[132.486,33.434],[132.482,33.431],[132.483,33.426],[132.476,33.421],[132.478,33.418],[132.482,33.412],[132.483,33.408],[132.479,33.407],[132.474,33.408],[132.469,33.404],[132.465,33.405],[132.46,33.403],[132.452,33.401],[132.449,33.405],[132.451,33.408],[132.447,33.408],[132.437,33.41],[132.431,33.408],[132.427,33.416],[132.423,33.418],[132.415,33.41],[132.411,33.409],[132.411,33.404],[132.409,33.399],[132.399,33.391],[132.398,33.388],[132.392,33.387],[132.388,33.385],[132.382,33.387],[132.382,33.384],[132.384,33.379],[132.387,33.376],[132.389,33.372],[132.389,33.367],[132.384,33.363],[132.39,33.365],[132.394,33.369],[132.399,33.371],[132.404,33.371],[132.403,33.375],[132.407,33.377],[132.411,33.384],[132.415,33.382],[132.419,33.383],[132.416,33.379],[132.412,33.373],[132.41,33.364],[132.408,33.36],[132.412,33.361],[132.416,33.362],[132.42,33.357],[132.412,33.353],[132.409,33.353],[132.412,33.346],[132.409,33.343],[132.407,33.346],[132.4,33.347],[132.392,33.344],[132.392,33.34],[132.389,33.338],[132.386,33.339],[132.376,33.337],[132.375,33.33],[132.37,33.323],[132.371,33.319],[132.375,33.32],[132.379,33.321],[132.382,33.321],[132.386,33.32],[132.392,33.32],[132.397,33.317],[132.401,33.309],[132.406,33.307],[132.411,33.307],[132.417,33.304],[132.421,33.303],[132.423,33.308],[132.427,33.311],[132.429,33.317],[132.434,33.32],[132.435,33.316],[132.441,33.311],[132.445,33.31],[132.452,33.309],[132.458,33.31],[132.463,33.311],[132.465,33.317],[132.476,33.318],[132.48,33.317],[132.487,33.318],[132.487,33.321],[132.491,33.325],[132.496,33.322],[132.497,33.318],[132.497,33.313],[132.5,33.319],[132.502,33.326],[132.507,33.33],[132.507,33.335],[132.514,33.335],[132.52,33.338],[132.526,33.336],[132.534,33.331],[132.542,33.327],[132.546,33.327],[132.554,33.324],[132.563,33.327],[132.569,33.326],[132.576,33.33],[132.583,33.327],[132.595,33.327],[132.601,33.327],[132.604,33.331],[132.61,33.332],[132.613,33.331],[132.622,33.33],[132.628,33.331],[132.632,33.331],[132.644,33.327],[132.648,33.33],[132.657,33.332]]]]}},{"type":"Feature","properties":{"name":"東温市","code":"38215"},"geometry":{"type":"MultiPolygon","coordinates":[[[[132.875,33.728],[132.878,33.723],[132.886,33.72],[132.893,33.72],[132.896,33.724],[132.9,33.725],[132.904,33.725],[132.908,33.728],[132.914,33.727],[132.921,33.729],[132.925,33.731],[132.93,33.73],[132.942,33.733],[132.949,33.734],[132.953,33.734],[132.954,33.738],[132.953,33.741],[132.957,33.745],[132.962,33.746],[132.967,33.747],[132.973,33.745],[132.976,33.743],[132.98,33.74],[132.986,33.747],[132.99,33.749],[132.993,33.754],[132.993,33.759],[132.997,33.757],[133.006,33.756],[133.01,33.756],[133.021,33.759],[133.024,33.763],[133.019,33.766],[133.019,33.773],[133.017,33.78],[133.023,33.783],[133.021,33.788],[133.019,33.793],[133.018,33.799],[133.013,33.804],[133.013,33.808],[133.013,33.813],[133.01,33.815],[133.001,33.817],[132.997,33.816],[132.992,33.816],[132.988,33.812],[132.983,33.817],[132.979,33.826],[132.976,33.829],[132.973,33.83],[132.973,33.838],[132.968,33.846],[132.972,33.851],[132.974,33.855],[132.974,33.859],[132.971,33.861],[132.971,33.865],[132.969,33.869],[132.965,33.87],[132.962,33.872],[132.961,33.878],[132.957,33.884],[132.959,33.888],[132.959,33.891],[132.961,33.895],[132.959,33.9],[132.957,33.906],[132.952,33.906],[132.942,33.907],[132.937,33.902],[132.933,33.903],[132.928,33.906],[132.92,33.9],[132.918,33.894],[132.914,33.894],[132.91,33.891],[132.906,33.889],[132.901,33.89],[132.897,33.888],[132.894,33.886],[132.887,33.882],[132.88,33.875],[132.882,33.872],[132.877,33.865],[132.88,33.856],[132.884,33.847],[132.88,33.841],[132.875,33.834],[132.873,33.826],[132.869,33.824],[132.87,33.819],[132.869,33.815],[132.865,33.807],[132.86,33.805],[132.847,33.8],[132.841,33.797],[132.832,33.796],[132.824,33.799],[132.83,33.795],[132.83,33.792],[132.825,33.789],[132.825,33.785],[132.828,33.785],[132.84,33.783],[132.836,33.779],[132.837,33.775],[132.843,33.771],[132.848,33.763],[132.847,33.758],[132.853,33.756],[132.855,33.75],[132.861,33.749],[132.862,33.745],[132.866,33.742],[132.871,33.734],[132.876,33.729]]]]}},{"type":"Feature","properties":{"name":"北宇和郡松野町","code":"38484"},"geometry":{"type":"MultiPolygon","coordinates":[[[[132.637,33.185],[132.634,33.179],[132.639,33.174],[132.644,33.173],[132.649,33.168],[132.66,33.16],[132.662,33.154],[132.668,33.152],[132.674,33.15],[132.68,33.144],[132.683,33.139],[132.687,33.135],[132.696,33.138],[132.696,33.143],[132.699,33.146],[132.707,33.151],[132.711,33.153],[132.714,33.157],[132.717,33.16],[132.72,33.167],[132.726,33.168],[132.731,33.174],[132.735,33.18],[132.738,33.182],[132.737,33.186],[132.742,33.19],[132.738,33.196],[132.741,33.201],[132.748,33.203],[132.759,33.202],[132.765,33.204],[132.772,33.206],[132.775,33.206],[132.773,33.212],[132.774,33.218],[132.771,33.221],[132.771,33.226],[132.775,33.228],[132.775,33.234],[132.772,33.239],[132.778,33.246],[132.778,33.252],[132.78,33.256],[132.787,33.263],[132.787,33.267],[132.784,33.268],[132.78,33.274],[132.776,33.277],[132.772,33.277],[132.77,33.272],[132.768,33.269],[132.764,33.265],[132.761,33.262],[132.756,33.259],[132.75,33.259],[132.747,33.261],[132.743,33.261],[132.738,33.256],[132.734,33.254],[132.732,33.247],[132.728,33.244],[132.723,33.244],[132.719,33.246],[132.718,33.243],[132.713,33.242],[132.708,33.246],[132.704,33.243],[132.696,33.244],[132.689,33.243],[132.685,33.243],[132.679,33.239],[132.679,33.234],[132.68,33.229],[132.675,33.226],[132.668,33.222],[132.665,33.217],[132.659,33.214],[132.669,33.205],[132.66,33.198],[132.657,33.195],[132.651,33.194],[132.649,33.191],[132.642,33.187],[132.637,33.185]]]]}},{"type":"Feature","properties":{"name":"北宇和郡鬼北町","code":"38488"},"geometry":{"type":"MultiPolygon","coordinates":[[[[132.659,33.214],[132.665,33.217],[132.668,33.222],[132.673,33.224],[132.68,33.229],[132.681,33.233],[132.679,33.239],[132.685,33.243],[132.689,33.243],[132.693,33.242],[132.702,33.246],[132.708,33.246],[132.713,33.242],[132.718,33.243],[132.719,33.246],[132.723,33.244],[132.728,33.244],[132.732,33.247],[132.734,33.254],[132.738,33.256],[132.743,33.261],[132.747,33.261],[132.75,33.259],[132.756,33.259],[132.761,33.262],[132.764,33.265],[132.766,33.269],[132.77,33.272],[132.772,33.277],[132.776,33.277],[132.78,33.274],[132.781,33.27],[132.787,33.267],[132.789,33.27],[132.793,33.275],[132.801,33.275],[132.804,33.277],[132.81,33.28],[132.815,33.281],[132.818,33.284],[132.824,33.282],[132.833,33.285],[132.838,33.289],[132.85,33.29],[132.858,33.293],[132.863,33.298],[132.872,33.303],[132.876,33.305],[132.885,33.307],[132.893,33.312],[132.899,33.315],[132.901,33.321],[132.899,33.324],[132.903,33.33],[132.902,33.336],[132.9,33.344],[132.895,33.35],[132.891,33.355],[132.887,33.359],[132.884,33.362],[132.879,33.363],[132.874,33.364],[132.867,33.368],[132.86,33.368],[132.859,33.374],[132.857,33.378],[132.857,33.383],[132.853,33.388],[132.846,33.381],[132.84,33.378],[132.834,33.376],[132.826,33.373],[132.826,33.37],[132.825,33.367],[132.822,33.361],[132.821,33.357],[132.815,33.353],[132.812,33.35],[132.809,33.348],[132.803,33.343],[132.798,33.344],[132.791,33.344],[132.785,33.347],[132.784,33.351],[132.783,33.354],[132.776,33.353],[132.769,33.35],[132.766,33.348],[132.759,33.346],[132.754,33.344],[132.749,33.346],[132.742,33.345],[132.734,33.343],[132.731,33.346],[132.727,33.345],[132.725,33.349],[132.72,33.351],[132.718,33.348],[132.714,33.345],[132.708,33.347],[132.703,33.348],[132.7,33.347],[132.696,33.349],[132.688,33.349],[132.679,33.348],[132.662,33.349],[132.66,33.339],[132.657,33.332],[132.663,33.329],[132.665,33.325],[132.668,33.323],[132.668,33.316],[132.666,33.312],[132.667,33.302],[132.669,33.297],[132.669,33.291],[132.673,33.284],[132.673,33.278],[132.666,33.277],[132.666,33.28],[132.66,33.283],[132.655,33.28],[132.654,33.275],[132.649,33.275],[132.643,33.275],[132.638,33.275],[132.631,33.278],[132.625,33.277],[132.62,33.278],[132.621,33.274],[132.619,33.265],[132.616,33.261],[132.608,33.261],[132.607,33.258],[132.602,33.252],[132.605,33.248],[132.609,33.246],[132.608,33.242],[132.61,33.238],[132.613,33.229],[132.615,33.22],[132.613,33.213],[132.612,33.206],[132.617,33.201],[132.626,33.203],[132.63,33.205],[132.635,33.208],[132.636,33.212],[132.642,33.213],[132.653,33.214],[132.659,33.214]]]]}},{"type":"Feature","properties":{"name":"南宇和郡愛南町","code":"38506"},"geometry":{"type":"MultiPolygon","coordinates":[[[[132.405,32.946],[132.404,32.938],[132.403,32.934],[132.407,32.936],[132.406,32.941],[132.405,32.946]]],[[[132.455,32.952],[132.453,32.949],[132.45,32.947],[132.447,32.948],[132.442,32.944],[132.436,32.943],[132.445,32.941],[132.45,32.944],[132.455,32.943],[132.459,32.946],[132.458,32.95],[132.455,32.952]]],[[[132.379,33.023],[132.383,33.018],[132.387,33.021],[132.394,33.02],[132.394,33.014],[132.395,33.018],[132.397,33.022],[132.399,33.026],[132.405,33.029],[132.411,33.027],[132.404,33.035],[132.409,33.04],[132.41,33.046],[132.409,33.05],[132.408,33.055],[132.412,33.057],[132.418,33.058],[132.423,33.054],[132.429,33.053],[132.429,33.05],[132.432,33.048],[132.432,33.051],[132.437,33.052],[132.443,33.048],[132.443,33.042],[132.45,33.039],[132.452,33.035],[132.455,33.039],[132.451,33.041],[132.45,33.048],[132.454,33.048],[132.46,33.046],[132.466,33.05],[132.471,33.049],[132.469,33.045],[132.469,33.041],[132.475,33.042],[132.475,33.046],[132.48,33.049],[132.485,33.046],[132.486,33.042],[132.483,33.033],[132.481,33.028],[132.484,33.024],[132.485,33.011],[132.491,33.011],[132.49,33.015],[132.495,33.018],[132.496,33.012],[132.502,33.009],[132.506,33.005],[132.503,33.002],[132.504,32.996],[132.504,32.988],[132.508,32.984],[132.511,32.977],[132.521,32.976],[132.525,32.977],[132.524,32.974],[132.529,32.972],[132.533,32.974],[132.537,32.969],[132.542,32.97],[132.545,32.965],[132.551,32.964],[132.554,32.96],[132.55,32.957],[132.544,32.96],[132.537,32.964],[132.531,32.966],[132.528,32.962],[132.524,32.961],[132.522,32.965],[132.519,32.961],[132.515,32.966],[132.508,32.968],[132.506,32.964],[132.5,32.965],[132.501,32.969],[132.502,32.973],[132.496,32.975],[132.501,32.979],[132.496,32.986],[132.488,32.981],[132.485,32.981],[132.487,32.973],[132.479,32.972],[132.473,32.972],[132.472,32.969],[132.478,32.969],[132.481,32.968],[132.483,32.964],[132.486,32.961],[132.49,32.959],[132.495,32.958],[132.503,32.956],[132.5,32.949],[132.494,32.948],[132.496,32.944],[132.494,32.941],[132.491,32.94],[132.487,32.942],[132.482,32.938],[132.477,32.938],[132.469,32.94],[132.466,32.942],[132.461,32.938],[132.468,32.936],[132.472,32.931],[132.473,32.923],[132.478,32.922],[132.478,32.919],[132.475,32.915],[132.477,32.91],[132.472,32.908],[132.476,32.905],[132.485,32.905],[132.489,32.902],[132.496,32.903],[132.505,32.905],[132.512,32.903],[132.517,32.906],[132.522,32.908],[132.522,32.913],[132.526,32.914],[132.527,32.92],[132.52,32.92],[132.515,32.919],[132.512,32.916],[132.505,32.915],[132.501,32.915],[132.497,32.919],[132.506,32.926],[132.511,32.927],[132.516,32.932],[132.522,32.932],[132.518,32.937],[132.515,32.941],[132.509,32.94],[132.504,32.943],[132.505,32.947],[132.513,32.95],[132.516,32.948],[132.525,32.949],[132.525,32.946],[132.531,32.949],[132.536,32.948],[132.537,32.942],[132.54,32.939],[132.546,32.935],[132.55,32.933],[132.553,32.934],[132.556,32.933],[132.562,32.931],[132.566,32.93],[132.563,32.933],[132.559,32.937],[132.555,32.938],[132.55,32.939],[132.55,32.942],[132.551,32.947],[132.555,32.944],[132.562,32.944],[132.572,32.946],[132.575,32.945],[132.578,32.939],[132.588,32.942],[132.593,32.946],[132.599,32.945],[132.592,32.941],[132.587,32.939],[132.586,32.935],[132.588,32.929],[132.59,32.926],[132.595,32.925],[132.599,32.923],[132.596,32.917],[132.597,32.914],[132.606,32.916],[132.614,32.918],[132.621,32.92],[132.628,32.924],[132.647,32.928],[132.651,32.928],[132.655,32.926],[132.656,32.932],[132.652,32.939],[132.659,32.94],[132.666,32.942],[132.671,32.942],[132.676,32.944],[132.683,32.947],[132.682,32.956],[132.683,32.963],[132.687,32.965],[132.686,32.968],[132.692,32.974],[132.687,32.976],[132.687,32.982],[132.684,32.986],[132.684,32.989],[132.681,32.994],[132.687,32.997],[132.684,33.004],[132.68,33.009],[132.677,33.011],[132.676,33.017],[132.676,33.022],[132.679,33.029],[132.678,33.038],[132.675,33.041],[132.671,33.046],[132.666,33.049],[132.661,33.055],[132.658,33.057],[132.652,33.057],[132.637,33.063],[132.631,33.06],[132.628,33.057],[132.619,33.051],[132.611,33.052],[132.607,33.054],[132.604,33.054],[132.598,33.055],[132.595,33.051],[132.59,33.051],[132.586,33.048],[132.583,33.047],[132.579,33.048],[132.576,33.043],[132.567,33.04],[132.563,33.04],[132.557,33.042],[132.551,33.042],[132.545,33.043],[132.541,33.04],[132.534,33.036],[132.529,33.039],[132.524,33.038],[132.519,33.041],[132.515,33.041],[132.507,33.039],[132.503,33.042],[132.499,33.044],[132.494,33.044],[132.489,33.048],[132.481,33.053],[132.474,33.053],[132.47,33.056],[132.463,33.055],[132.46,33.053],[132.452,33.052],[132.441,33.054],[132.434,33.052],[132.423,33.057],[132.415,33.061],[132.41,33.06],[132.403,33.056],[132.404,33.052],[132.406,33.044],[132.405,33.039],[132.401,33.035],[132.399,33.029],[132.397,33.025],[132.393,33.023],[132.379,33.023]]]]}}]}