{"type":"FeatureCollection","features":[{"type":"Feature","properties":{"name":"高知市","code":"39201"},"geometry":{"type":"MultiPolygon","coordinates":[[[[133.563,33.666],[133.555,33.666],[133.55,33.663],[133.54,33.665],[133.539,33.673],[133.536,33.678],[133.531,33.678],[133.516,33.682],[133.506,33.67],[133.499,33.669],[133.495,33.671],[133.488,33.67],[133.481,33.671],[133.473,33.671],[133.47,33.666],[133.465,33.662],[133.46,33.663],[133.456,33.666],[133.453,33.67],[133.449,33.672],[133.436,33.671],[133.428,33.665],[133.413,33.661],[133.401,33.651],[133.4,33.643],[133.395,33.64],[133.396,33.629],[133.399,33.62],[133.406,33.617],[133.409,33.619],[133.413,33.615],[133.416,33.608],[133.409,33.605],[133.406,33.599],[133.401,33.595],[133.402,33.592],[133.413,33.587],[133.413,33.582],[133.418,33.576],[133.429,33.575],[133.433,33.576],[133.438,33.572],[133.443,33.571],[133.447,33.567],[133.452,33.572],[133.458,33.574],[133.463,33.573],[133.469,33.566],[133.472,33.566],[133.475,33.563],[133.471,33.557],[133.468,33.554],[133.466,33.545],[133.465,33.539],[133.458,33.535],[133.458,33.527],[133.458,33.524],[133.449,33.514],[133.442,33.514],[133.437,33.51],[133.442,33.499],[133.457,33.491],[133.462,33.484],[133.461,33.476],[133.471,33.468],[133.48,33.458],[133.485,33.461],[133.499,33.467],[133.505,33.468],[133.51,33.474],[133.514,33.476],[133.545,33.487],[133.554,33.49],[133.566,33.493],[133.573,33.495],[133.577,33.498],[133.568,33.499],[133.563,33.497],[133.557,33.505],[133.56,33.508],[133.554,33.51],[133.548,33.518],[133.546,33.523],[133.561,33.53],[133.561,33.535],[133.559,33.539],[133.561,33.542],[133.566,33.543],[133.569,33.543],[133.571,33.539],[133.567,33.536],[133.565,33.531],[133.565,33.515],[133.569,33.515],[133.569,33.512],[133.563,33.504],[133.571,33.502],[133.577,33.51],[133.584,33.513],[133.586,33.509],[133.592,33.513],[133.601,33.52],[133.603,33.533],[133.607,33.536],[133.606,33.542],[133.609,33.546],[133.617,33.548],[133.616,33.552],[133.623,33.558],[133.625,33.568],[133.619,33.57],[133.615,33.568],[133.612,33.573],[133.619,33.574],[133.623,33.573],[133.624,33.577],[133.608,33.58],[133.61,33.589],[133.604,33.589],[133.596,33.59],[133.592,33.594],[133.589,33.594],[133.585,33.6],[133.582,33.602],[133.576,33.61],[133.577,33.615],[133.572,33.625],[133.574,33.63],[133.578,33.63],[133.585,33.635],[133.582,33.642],[133.581,33.647],[133.578,33.653],[133.573,33.658],[133.568,33.66],[133.563,33.666]]]]}},{"type":"Feature","properties":{"name":"室戸市","code":"39202"},"geometry":{"type":"MultiPolygon","coordinates":[[[[134.235,33.442],[134.228,33.451],[134.229,33.455],[134.227,33.461],[134.222,33.461],[134.209,33.472],[134.207,33.479],[134.203,33.481],[134.202,33.484],[134.195,33.488],[134.176,33.484],[134.169,33.479],[134.165,33.478],[134.161,33.479],[134.155,33.477],[134.144,33.468],[134.138,33.471],[134.132,33.475],[134.126,33.466],[134.118,33.461],[134.113,33.458],[134.112,33.455],[134.109,33.451],[134.108,33.447],[134.107,33.443],[134.096,33.44],[134.096,33.433],[134.087,33.427],[134.088,33.423],[134.087,33.417],[134.076,33.414],[134.069,33.408],[134.068,33.403],[134.066,33.396],[134.056,33.392],[134.053,33.392],[134.048,33.386],[134.038,33.382],[134.034,33.378],[134.039,33.371],[134.049,33.371],[134.054,33.368],[134.059,33.363],[134.067,33.358],[134.071,33.351],[134.073,33.348],[134.076,33.343],[134.081,33.337],[134.099,33.33],[134.105,33.323],[134.107,33.313],[134.109,33.31],[134.109,33.303],[134.107,33.299],[134.112,33.294],[134.119,33.296],[134.121,33.299],[134.13,33.299],[134.136,33.297],[134.138,33.293],[134.143,33.291],[134.145,33.287],[134.15,33.284],[134.154,33.277],[134.161,33.268],[134.164,33.266],[134.168,33.26],[134.173,33.246],[134.176,33.243],[134.181,33.249],[134.185,33.264],[134.186,33.274],[134.187,33.282],[134.187,33.292],[134.189,33.298],[134.192,33.307],[134.192,33.313],[134.194,33.32],[134.199,33.33],[134.199,33.343],[134.2,33.35],[134.203,33.353],[134.205,33.362],[134.205,33.368],[134.212,33.377],[134.214,33.389],[134.211,33.393],[134.212,33.401],[134.217,33.41],[134.224,33.422],[134.235,33.438],[134.235,33.442]]]]}},{"type":"Feature","properties":{"name":"安芸市","code":"39203"},"geometry":{"type":"MultiPolygon","coordinates":[[[[134.058,33.691],[134.065,33.699],[134.065,33.707],[134.07,33.711],[134.065,33.719],[134.062,33.72],[134.053,33.715],[134.042,33.714],[134.035,33.712],[134.027,33.719],[134.02,33.712],[134.015,33.714],[134.007,33.712],[134.002,33.712],[133.996,33.708],[133.995,33.699],[133.991,33.694],[133.981,33.688],[133.978,33.689],[133.974,33.682],[133.968,33.679],[133.968,33.674],[133.964,33.674],[133.96,33.666],[133.945,33.66],[133.944,33.656],[133.935,33.651],[133.926,33.648],[133.916,33.644],[133.909,33.649],[133.905,33.647],[133.901,33.647],[133.901,33.653],[133.898,33.658],[133.894,33.654],[133.886,33.653],[133.885,33.649],[133.881,33.643],[133.876,33.642],[133.88,33.634],[133.88,33.628],[133.874,33.624],[133.873,33.618],[133.876,33.616],[133.876,33.612],[133.871,33.608],[133.866,33.606],[133.861,33.607],[133.857,33.604],[133.865,33.593],[133.868,33.586],[133.87,33.579],[133.872,33.573],[133.869,33.564],[133.865,33.563],[133.859,33.558],[133.859,33.554],[133.856,33.544],[133.857,33.536],[133.851,33.528],[133.846,33.528],[133.837,33.521],[133.836,33.528],[133.828,33.524],[133.821,33.518],[133.83,33.514],[133.836,33.512],[133.838,33.508],[133.844,33.506],[133.857,33.506],[133.881,33.503],[133.891,33.499],[133.905,33.497],[133.923,33.492],[133.932,33.489],[133.937,33.486],[133.944,33.475],[133.944,33.471],[133.942,33.463],[133.947,33.456],[133.95,33.45],[133.956,33.446],[133.96,33.451],[133.96,33.457],[133.964,33.462],[133.968,33.469],[133.973,33.471],[133.976,33.47],[133.978,33.474],[133.982,33.478],[133.979,33.483],[133.984,33.488],[133.986,33.496],[133.99,33.498],[133.988,33.504],[133.991,33.512],[133.997,33.517],[134.002,33.518],[134.008,33.528],[134.014,33.539],[134.017,33.539],[134.019,33.542],[134.026,33.547],[134.03,33.555],[134.027,33.56],[134.027,33.563],[134.021,33.57],[134.012,33.568],[134.008,33.573],[134.007,33.577],[134.01,33.587],[134.014,33.589],[134.019,33.588],[134.021,33.591],[134.02,33.597],[134.023,33.603],[134.019,33.605],[134.014,33.605],[134.017,33.612],[134.019,33.621],[134.023,33.625],[134.023,33.628],[134.026,33.632],[134.027,33.636],[134.031,33.64],[134.035,33.638],[134.045,33.646],[134.051,33.644],[134.056,33.646],[134.055,33.652],[134.061,33.655],[134.064,33.658],[134.068,33.661],[134.069,33.668],[134.063,33.672],[134.052,33.673],[134.047,33.678],[134.053,33.683],[134.054,33.688],[134.058,33.691]]]]}},{"type":"Feature","properties":{"name":"南国市","code":"39204"},"geometry":{"type":"MultiPolygon","coordinates":[[[[133.601,33.52],[133.609,33.521],[133.632,33.526],[133.642,33.527],[133.658,33.531],[133.682,33.534],[133.68,33.538],[133.681,33.542],[133.685,33.541],[133.685,33.544],[133.68,33.558],[133.68,33.566],[133.682,33.571],[133.682,33.577],[133.684,33.58],[133.684,33.585],[133.676,33.585],[133.677,33.588],[133.671,33.589],[133.672,33.593],[133.668,33.608],[133.662,33.61],[133.665,33.624],[133.663,33.629],[133.667,33.634],[133.665,33.655],[133.665,33.659],[133.66,33.659],[133.651,33.655],[133.643,33.657],[133.639,33.664],[133.635,33.665],[133.62,33.661],[133.617,33.671],[133.615,33.678],[133.61,33.684],[133.607,33.689],[133.601,33.691],[133.597,33.702],[133.589,33.706],[133.583,33.706],[133.579,33.7],[133.568,33.694],[133.56,33.693],[133.566,33.682],[133.565,33.674],[133.565,33.67],[133.563,33.666],[133.568,33.66],[133.573,33.658],[133.578,33.653],[133.581,33.647],[133.582,33.642],[133.585,33.635],[133.578,33.63],[133.574,33.63],[133.572,33.625],[133.577,33.615],[133.576,33.61],[133.582,33.602],[133.585,33.6],[133.586,33.596],[133.592,33.594],[133.596,33.59],[133.603,33.591],[133.608,33.591],[133.608,33.58],[133.624,33.577],[133.623,33.573],[133.619,33.574],[133.612,33.573],[133.615,33.568],[133.619,33.57],[133.625,33.568],[133.623,33.558],[133.616,33.552],[133.617,33.548],[133.609,33.546],[133.606,33.542],[133.607,33.536],[133.603,33.533],[133.601,33.52]]]]}},{"type":"Feature","properties":{"name":"土佐市","code":"39205"},"geometry":{"type":"MultiPolygon","coordinates":[[[[133.443,33.42],[133.457,33.42],[133.458,33.428],[133.462,33.429],[133.458,33.433],[133.449,33.435],[133.445,33.439],[133.442,33.439],[133.439,33.433],[133.435,33.433],[133.434,33.428],[133.437,33.424],[133.443,33.42]]],[[[133.437,33.51],[133.432,33.518],[133.43,33.523],[133.411,33.52],[133.394,33.519],[133.396,33.511],[133.385,33.51],[133.38,33.511],[133.377,33.509],[133.372,33.508],[133.363,33.505],[133.358,33.502],[133.344,33.498],[133.337,33.499],[133.33,33.498],[133.326,33.494],[133.323,33.49],[133.327,33.482],[133.324,33.477],[133.32,33.475],[133.308,33.47],[133.307,33.462],[133.306,33.459],[133.306,33.452],[133.312,33.438],[133.314,33.432],[133.324,33.433],[133.331,33.44],[133.345,33.44],[133.35,33.441],[133.355,33.446],[133.355,33.45],[133.36,33.453],[133.365,33.452],[133.373,33.445],[133.378,33.45],[133.384,33.454],[133.386,33.457],[133.393,33.456],[133.399,33.46],[133.401,33.465],[133.404,33.468],[133.408,33.468],[133.415,33.467],[133.423,33.463],[133.429,33.464],[133.431,33.458],[133.429,33.455],[133.432,33.448],[133.429,33.442],[133.432,33.437],[133.437,33.439],[133.439,33.445],[133.441,33.449],[133.447,33.452],[133.451,33.449],[133.459,33.449],[133.467,33.454],[133.478,33.459],[133.471,33.468],[133.461,33.476],[133.462,33.484],[133.457,33.491],[133.445,33.497],[133.437,33.51]]]]}},{"type":"Feature","properties":{"name":"須崎市","code":"39206"},"geometry":{"type":"MultiPolygon","coordinates":[[[[133.434,33.428],[133.43,33.43],[133.424,33.429],[133.421,33.436],[133.416,33.439],[133.413,33.433],[133.409,33.428],[133.408,33.424],[133.404,33.426],[133.4,33.419],[133.398,33.424],[133.395,33.421],[133.392,33.417],[133.386,33.421],[133.385,33.413],[133.379,33.414],[133.38,33.418],[133.369,33.423],[133.369,33.42],[133.371,33.417],[133.369,33.41],[133.36,33.408],[133.365,33.411],[133.362,33.415],[133.351,33.416],[133.356,33.42],[133.361,33.421],[133.364,33.426],[133.37,33.43],[133.377,33.429],[133.387,33.432],[133.387,33.428],[133.397,33.43],[133.407,33.434],[133.406,33.437],[133.398,33.445],[133.402,33.445],[133.406,33.448],[133.411,33.443],[133.415,33.444],[133.421,33.45],[133.423,33.444],[133.424,33.44],[133.432,33.437],[133.429,33.442],[133.429,33.446],[133.429,33.455],[133.431,33.458],[133.429,33.464],[133.423,33.463],[133.415,33.467],[133.408,33.468],[133.404,33.468],[133.401,33.465],[133.399,33.46],[133.393,33.456],[133.386,33.457],[133.384,33.454],[133.378,33.45],[133.376,33.446],[133.365,33.452],[133.36,33.453],[133.355,33.45],[133.355,33.446],[133.35,33.441],[133.345,33.44],[133.331,33.44],[133.325,33.435],[133.314,33.432],[133.31,33.436],[133.308,33.45],[133.306,33.459],[133.294,33.452],[133.287,33.447],[133.283,33.447],[133.28,33.444],[133.275,33.441],[133.271,33.44],[133.258,33.441],[133.256,33.438],[133.251,33.433],[133.245,33.431],[133.236,33.431],[133.232,33.429],[133.227,33.43],[133.217,33.431],[133.208,33.429],[133.208,33.418],[133.207,33.41],[133.21,33.405],[133.203,33.403],[133.196,33.398],[133.184,33.4],[133.175,33.399],[133.175,33.394],[133.179,33.383],[133.176,33.379],[133.184,33.378],[133.195,33.378],[133.201,33.381],[133.209,33.382],[133.214,33.378],[133.225,33.38],[133.229,33.374],[133.231,33.369],[133.235,33.367],[133.241,33.365],[133.244,33.358],[133.25,33.354],[133.251,33.351],[133.254,33.348],[133.263,33.343],[133.26,33.348],[133.264,33.351],[133.265,33.359],[133.259,33.363],[133.262,33.369],[133.266,33.37],[133.274,33.375],[133.281,33.377],[133.279,33.384],[133.283,33.386],[133.292,33.387],[133.296,33.39],[133.296,33.393],[133.288,33.402],[133.294,33.403],[133.299,33.396],[133.304,33.39],[133.3,33.39],[133.296,33.386],[133.29,33.383],[133.296,33.381],[133.299,33.379],[133.299,33.375],[133.304,33.375],[133.304,33.38],[133.309,33.38],[133.31,33.376],[133.316,33.379],[133.32,33.383],[133.324,33.379],[133.322,33.369],[133.324,33.366],[133.32,33.363],[133.316,33.365],[133.318,33.356],[133.322,33.362],[133.328,33.365],[133.328,33.372],[133.332,33.372],[133.33,33.381],[133.33,33.387],[133.332,33.39],[133.339,33.392],[133.34,33.396],[133.346,33.401],[133.354,33.4],[133.359,33.403],[133.366,33.401],[133.376,33.401],[133.38,33.404],[133.384,33.403],[133.389,33.406],[133.393,33.402],[133.397,33.404],[133.401,33.405],[133.408,33.398],[133.408,33.405],[133.412,33.406],[133.411,33.41],[133.415,33.41],[133.421,33.413],[133.434,33.415],[133.441,33.414],[133.443,33.42],[133.437,33.424],[133.434,33.428]]]]}},{"type":"Feature","properties":{"name":"土佐清水市","code":"39209"},"geometry":{"type":"MultiPolygon","coordinates":[[[[132.786,32.757],[132.789,32.75],[132.802,32.748],[132.804,32.753],[132.808,32.754],[132.816,32.753],[132.816,32.762],[132.824,32.761],[132.835,32.769],[132.837,32.777],[132.84,32.781],[132.845,32.781],[132.849,32.783],[132.853,32.787],[132.856,32.787],[132.865,32.789],[132.871,32.786],[132.871,32.776],[132.866,32.773],[132.87,32.768],[132.878,32.769],[132.876,32.775],[132.88,32.783],[132.875,32.788],[132.879,32.79],[132.884,32.788],[132.887,32.791],[132.896,32.789],[132.912,32.788],[132.92,32.785],[132.92,32.781],[132.926,32.783],[132.931,32.781],[132.935,32.787],[132.938,32.787],[132.943,32.781],[132.939,32.776],[132.942,32.771],[132.945,32.766],[132.952,32.771],[132.959,32.778],[132.966,32.775],[132.96,32.774],[132.957,32.768],[132.953,32.766],[132.954,32.759],[132.958,32.757],[132.964,32.758],[132.963,32.753],[132.969,32.751],[132.971,32.745],[132.966,32.738],[132.965,32.732],[132.973,32.733],[132.98,32.731],[132.989,32.732],[132.994,32.731],[133.0,32.723],[133.005,32.722],[133.008,32.724],[133.02,32.724],[133.022,32.729],[133.018,32.742],[133.015,32.75],[133.014,32.755],[133.015,32.759],[133.016,32.764],[133.01,32.767],[133.008,32.774],[133.002,32.782],[133.003,32.787],[132.996,32.787],[132.98,32.794],[132.975,32.798],[132.965,32.799],[132.963,32.804],[132.957,32.806],[132.954,32.813],[132.95,32.821],[132.952,32.825],[132.959,32.827],[132.958,32.833],[132.954,32.834],[132.957,32.84],[132.955,32.845],[132.956,32.85],[132.949,32.857],[132.952,32.861],[132.959,32.86],[132.961,32.865],[132.968,32.866],[132.976,32.864],[132.983,32.865],[132.987,32.868],[132.993,32.862],[132.997,32.864],[132.994,32.869],[133.002,32.88],[133.006,32.879],[133.009,32.881],[133.009,32.89],[133.006,32.896],[133.006,32.905],[133.009,32.912],[132.999,32.912],[132.993,32.912],[132.99,32.917],[132.985,32.917],[132.982,32.919],[132.973,32.917],[132.967,32.917],[132.963,32.915],[132.963,32.909],[132.953,32.909],[132.949,32.914],[132.945,32.912],[132.944,32.916],[132.94,32.922],[132.937,32.922],[132.934,32.927],[132.929,32.936],[132.921,32.937],[132.917,32.93],[132.913,32.92],[132.909,32.917],[132.91,32.914],[132.913,32.91],[132.906,32.908],[132.903,32.903],[132.907,32.898],[132.911,32.896],[132.914,32.892],[132.914,32.884],[132.913,32.88],[132.903,32.881],[132.899,32.875],[132.893,32.874],[132.884,32.873],[132.876,32.873],[132.869,32.867],[132.859,32.868],[132.856,32.865],[132.852,32.867],[132.845,32.859],[132.841,32.859],[132.835,32.863],[132.83,32.862],[132.827,32.865],[132.817,32.865],[132.81,32.875],[132.8,32.881],[132.795,32.878],[132.794,32.875],[132.786,32.877],[132.784,32.867],[132.782,32.855],[132.779,32.851],[132.785,32.839],[132.778,32.838],[132.774,32.835],[132.769,32.835],[132.763,32.83],[132.764,32.823],[132.767,32.821],[132.77,32.817],[132.761,32.801],[132.766,32.797],[132.772,32.796],[132.773,32.787],[132.778,32.784],[132.781,32.783],[132.784,32.778],[132.784,32.775],[132.786,32.772],[132.785,32.769],[132.786,32.757]]]]}},{"type":"Feature","properties":{"name":"幡多郡大月町","code":"39424"},"geometry":{"type":"MultiPolygon","coordinates":[[[[132.763,32.83],[132.757,32.834],[132.754,32.834],[132.748,32.839],[132.744,32.838],[132.739,32.839],[132.74,32.846],[132.74,32.852],[132.731,32.853],[132.729,32.862],[132.724,32.87],[132.72,32.865],[132.716,32.867],[132.71,32.863],[132.705,32.868],[132.697,32.873],[132.703,32.882],[132.705,32.888],[132.699,32.885],[132.692,32.884],[132.69,32.875],[132.681,32.871],[132.675,32.865],[132.665,32.86],[132.661,32.853],[132.663,32.849],[132.668,32.845],[132.669,32.841],[132.663,32.841],[132.659,32.838],[132.665,32.833],[132.659,32.829],[132.656,32.824],[132.653,32.828],[132.65,32.826],[132.651,32.82],[132.644,32.82],[132.644,32.814],[132.652,32.806],[132.65,32.801],[132.64,32.802],[132.632,32.802],[132.63,32.797],[132.635,32.79],[132.64,32.788],[132.644,32.788],[132.643,32.784],[132.634,32.784],[132.639,32.775],[132.64,32.769],[132.633,32.768],[132.629,32.766],[132.63,32.762],[132.638,32.767],[132.648,32.765],[132.651,32.768],[132.648,32.774],[132.649,32.777],[132.654,32.778],[132.658,32.782],[132.663,32.781],[132.668,32.784],[132.677,32.783],[132.682,32.781],[132.687,32.787],[132.691,32.788],[132.695,32.785],[132.697,32.789],[132.687,32.792],[132.692,32.794],[132.707,32.795],[132.71,32.799],[132.714,32.794],[132.719,32.797],[132.722,32.793],[132.723,32.789],[132.726,32.786],[132.726,32.783],[132.729,32.779],[132.733,32.779],[132.738,32.773],[132.743,32.773],[132.748,32.767],[132.75,32.761],[132.758,32.753],[132.767,32.761],[132.773,32.761],[132.779,32.754],[132.786,32.757],[132.785,32.769],[132.786,32.772],[132.784,32.775],[132.784,32.778],[132.781,32.783],[132.778,32.784],[132.773,32.787],[132.774,32.793],[132.766,32.797],[132.761,32.801],[132.77,32.814],[132.767,32.821],[132.764,32.823],[132.763,32.83]]],[[[132.629,32.772],[132.621,32.771],[132.618,32.768],[132.625,32.767],[132.629,32.772]]]]}},{"type":"Feature","properties":{"name":"安芸郡東洋町","code":"39301"},"geometry":{"type":"MultiPolygon","coordinates":[[[[134.235,33.442],[134.242,33.451],[134.241,33.459],[134.242,33.464],[134.247,33.471],[134.252,33.479],[134.261,33.49],[134.268,33.496],[134.27,33.503],[134.279,33.512],[134.286,33.517],[134.29,33.52],[134.284,33.521],[134.283,33.525],[134.286,33.531],[134.291,33.533],[134.296,33.542],[134.3,33.538],[134.301,33.547],[134.304,33.547],[134.304,33.554],[134.297,33.553],[134.296,33.558],[134.289,33.558],[134.279,33.56],[134.274,33.561],[134.27,33.555],[134.263,33.556],[134.258,33.553],[134.249,33.553],[134.243,33.556],[134.239,33.553],[134.232,33.556],[134.229,33.561],[134.219,33.568],[134.212,33.567],[134.202,33.562],[134.196,33.561],[134.196,33.555],[134.198,33.552],[134.195,33.547],[134.193,33.537],[134.201,33.534],[134.201,33.525],[134.205,33.522],[134.213,33.516],[134.216,33.513],[134.214,33.507],[134.211,33.506],[134.21,33.497],[134.205,33.497],[134.198,33.502],[134.194,33.499],[134.199,33.493],[134.195,33.488],[134.202,33.484],[134.203,33.481],[134.207,33.479],[134.209,33.472],[134.22,33.463],[134.227,33.461],[134.229,33.455],[134.228,33.451],[134.235,33.442]]]]}},{"type":"Feature","properties":{"name":"幡多郡三原村","code":"39427"},"geometry":{"type":"MultiPolygon","coordinates":[[[[132.918,32.935],[132.913,32.935],[132.907,32.938],[132.906,32.942],[132.901,32.941],[132.893,32.945],[132.886,32.942],[132.876,32.94],[132.869,32.944],[132.861,32.945],[132.854,32.942],[132.846,32.939],[132.84,32.939],[132.83,32.94],[132.825,32.936],[132.826,32.932],[132.823,32.924],[132.817,32.923],[132.806,32.918],[132.8,32.913],[132.8,32.91],[132.805,32.906],[132.806,32.901],[132.797,32.899],[132.787,32.903],[132.783,32.904],[132.78,32.908],[132.776,32.905],[132.773,32.9],[132.767,32.899],[132.766,32.895],[132.769,32.89],[132.772,32.888],[132.777,32.882],[132.78,32.876],[132.781,32.873],[132.784,32.867],[132.786,32.877],[132.794,32.875],[132.795,32.878],[132.8,32.881],[132.81,32.875],[132.817,32.865],[132.827,32.865],[132.83,32.862],[132.835,32.863],[132.84,32.862],[132.845,32.859],[132.849,32.866],[132.856,32.865],[132.859,32.868],[132.869,32.867],[132.876,32.873],[132.884,32.873],[132.89,32.871],[132.899,32.875],[132.903,32.881],[132.913,32.88],[132.914,32.884],[132.914,32.892],[132.911,32.896],[132.907,32.898],[132.903,32.903],[132.906,32.908],[132.913,32.91],[132.91,32.914],[132.909,32.917],[132.913,32.92],[132.918,32.927],[132.918,32.935]]]]}},{"type":"Feature","properties":{"name":"幡多郡黒潮町","code":"39428"},"geometry":{"type":"MultiPolygon","coordinates":[[[[132.999,32.98],[133.003,32.993],[133.007,32.995],[133.006,33.001],[133.008,33.006],[133.008,33.009],[133.011,33.014],[133.019,33.023],[133.028,33.031],[133.035,33.036],[133.041,33.037],[133.044,33.039],[133.05,33.038],[133.056,33.039],[133.06,33.037],[133.065,33.038],[133.073,33.037],[133.076,33.033],[133.08,33.032],[133.081,33.028],[133.085,33.026],[133.089,33.026],[133.094,33.024],[133.097,33.029],[133.093,33.034],[133.096,33.042],[133.096,33.049],[133.099,33.058],[133.109,33.063],[133.108,33.07],[133.105,33.073],[133.111,33.076],[133.113,33.079],[133.118,33.086],[133.128,33.091],[133.138,33.094],[133.14,33.097],[133.148,33.108],[133.154,33.119],[133.155,33.125],[133.158,33.126],[133.159,33.13],[133.164,33.135],[133.158,33.138],[133.153,33.147],[133.156,33.152],[133.161,33.155],[133.166,33.16],[133.171,33.167],[133.176,33.173],[133.183,33.178],[133.183,33.182],[133.177,33.189],[133.173,33.19],[133.164,33.188],[133.16,33.183],[133.156,33.182],[133.152,33.179],[133.146,33.172],[133.139,33.167],[133.132,33.168],[133.125,33.162],[133.121,33.162],[133.114,33.159],[133.111,33.164],[133.105,33.163],[133.099,33.165],[133.091,33.158],[133.089,33.154],[133.094,33.151],[133.095,33.144],[133.092,33.143],[133.089,33.146],[133.079,33.148],[133.073,33.142],[133.073,33.136],[133.075,33.132],[133.071,33.123],[133.065,33.122],[133.059,33.118],[133.051,33.123],[133.044,33.111],[133.039,33.112],[133.034,33.11],[133.03,33.11],[133.022,33.114],[133.013,33.112],[133.007,33.11],[133.005,33.107],[132.997,33.099],[132.992,33.098],[132.989,33.099],[132.985,33.094],[132.983,33.088],[132.974,33.088],[132.971,33.083],[132.974,33.077],[132.971,33.073],[132.97,33.067],[132.964,33.056],[132.962,33.047],[132.963,33.044],[132.965,33.034],[132.964,33.03],[132.96,33.028],[132.958,33.024],[132.953,33.02],[132.954,33.016],[132.962,33.004],[132.969,33.003],[132.976,33.0],[132.978,32.992],[132.98,32.989],[132.976,32.985],[132.98,32.982],[132.985,32.982],[132.991,32.977],[132.994,32.98],[132.999,32.98]]]]}},{"type":"Feature","properties":{"name":"宿毛市","code":"39208"},"geometry":{"type":"MultiPolygon","coordinates":[[[[132.546,32.755],[132.544,32.75],[132.547,32.747],[132.544,32.743],[132.542,32.736],[132.543,32.732],[132.538,32.728],[132.543,32.722],[132.549,32.719],[132.551,32.714],[132.545,32.711],[132.54,32.706],[132.543,32.703],[132.554,32.708],[132.57,32.714],[132.572,32.717],[132.567,32.725],[132.567,32.73],[132.57,32.736],[132.568,32.74],[132.558,32.744],[132.558,32.748],[132.553,32.747],[132.55,32.752],[132.546,32.755]]],[[[132.487,32.808],[132.486,32.803],[132.48,32.8],[132.481,32.797],[132.494,32.798],[132.495,32.805],[132.487,32.808]]],[[[132.696,32.919],[132.688,32.919],[132.689,32.913],[132.693,32.913],[132.701,32.912],[132.705,32.916],[132.696,32.919]]],[[[132.784,32.867],[132.78,32.87],[132.78,32.876],[132.776,32.88],[132.772,32.888],[132.769,32.89],[132.766,32.895],[132.767,32.899],[132.773,32.9],[132.776,32.905],[132.78,32.908],[132.783,32.904],[132.787,32.903],[132.794,32.901],[132.805,32.9],[132.805,32.906],[132.8,32.91],[132.8,32.913],[132.804,32.921],[132.817,32.923],[132.82,32.921],[132.824,32.931],[132.825,32.936],[132.83,32.94],[132.827,32.943],[132.827,32.953],[132.821,32.958],[132.824,32.962],[132.823,32.966],[132.825,32.977],[132.824,32.981],[132.821,32.985],[132.822,32.998],[132.817,33.003],[132.824,33.012],[132.828,33.011],[132.83,33.015],[132.822,33.016],[132.815,33.022],[132.811,33.023],[132.806,33.027],[132.807,33.035],[132.804,33.037],[132.798,33.043],[132.793,33.043],[132.787,33.039],[132.781,33.04],[132.774,33.043],[132.768,33.044],[132.761,33.041],[132.759,33.037],[132.751,33.042],[132.747,33.042],[132.742,33.047],[132.746,33.052],[132.747,33.057],[132.752,33.065],[132.744,33.07],[132.735,33.07],[132.73,33.075],[132.721,33.075],[132.718,33.081],[132.718,33.086],[132.711,33.087],[132.704,33.089],[132.696,33.092],[132.686,33.096],[132.673,33.104],[132.669,33.107],[132.663,33.109],[132.666,33.099],[132.669,33.092],[132.67,33.086],[132.667,33.08],[132.67,33.071],[132.667,33.066],[132.662,33.063],[132.658,33.057],[132.661,33.055],[132.666,33.049],[132.671,33.046],[132.675,33.041],[132.678,33.038],[132.679,33.029],[132.676,33.022],[132.676,33.017],[132.679,33.014],[132.684,33.004],[132.687,32.997],[132.681,32.994],[132.684,32.989],[132.684,32.986],[132.687,32.982],[132.687,32.976],[132.692,32.974],[132.686,32.968],[132.687,32.965],[132.683,32.963],[132.682,32.956],[132.685,32.95],[132.678,32.943],[132.666,32.942],[132.661,32.942],[132.655,32.941],[132.656,32.932],[132.655,32.927],[132.664,32.922],[132.679,32.92],[132.684,32.923],[132.686,32.92],[132.691,32.923],[132.689,32.927],[132.697,32.927],[132.694,32.921],[132.698,32.918],[132.702,32.919],[132.702,32.922],[132.708,32.926],[132.712,32.918],[132.716,32.913],[132.717,32.909],[132.713,32.908],[132.714,32.903],[132.722,32.899],[132.72,32.894],[132.712,32.893],[132.706,32.897],[132.706,32.893],[132.711,32.89],[132.718,32.884],[132.719,32.88],[132.714,32.875],[132.716,32.88],[132.709,32.882],[132.705,32.888],[132.705,32.885],[132.697,32.873],[132.705,32.868],[132.71,32.863],[132.716,32.867],[132.72,32.865],[132.721,32.872],[132.729,32.862],[132.731,32.853],[132.738,32.854],[132.739,32.848],[132.739,32.839],[132.744,32.838],[132.748,32.839],[132.754,32.834],[132.757,32.834],[132.763,32.83],[132.769,32.835],[132.774,32.835],[132.778,32.838],[132.785,32.839],[132.779,32.851],[132.782,32.855],[132.784,32.867]]]]}},{"type":"Feature","properties":{"name":"四万十市","code":"39210"},"geometry":{"type":"MultiPolygon","coordinates":[[[[133.009,32.912],[133.003,32.921],[132.998,32.923],[132.997,32.929],[132.995,32.932],[132.996,32.94],[133.0,32.946],[132.995,32.949],[132.993,32.952],[132.995,32.962],[133.0,32.972],[133.004,32.976],[132.999,32.98],[132.994,32.98],[132.991,32.977],[132.985,32.982],[132.98,32.982],[132.976,32.985],[132.98,32.989],[132.978,32.992],[132.976,33.0],[132.969,33.003],[132.962,33.004],[132.957,33.015],[132.953,33.02],[132.958,33.024],[132.96,33.028],[132.964,33.03],[132.965,33.034],[132.961,33.041],[132.962,33.047],[132.966,33.054],[132.97,33.067],[132.971,33.073],[132.974,33.077],[132.971,33.083],[132.971,33.086],[132.983,33.088],[132.985,33.094],[132.989,33.099],[132.992,33.098],[132.997,33.099],[133.005,33.107],[133.007,33.11],[133.011,33.11],[133.022,33.114],[133.03,33.11],[133.034,33.11],[133.039,33.112],[133.044,33.111],[133.051,33.123],[133.057,33.13],[133.057,33.133],[133.048,33.136],[133.043,33.138],[133.034,33.14],[133.031,33.145],[133.027,33.145],[133.022,33.15],[133.017,33.15],[133.011,33.146],[133.003,33.147],[133.0,33.151],[133.003,33.156],[132.994,33.16],[132.989,33.157],[132.985,33.157],[132.979,33.16],[132.973,33.161],[132.969,33.156],[132.966,33.155],[132.963,33.148],[132.959,33.147],[132.951,33.149],[132.946,33.146],[132.94,33.145],[132.935,33.138],[132.924,33.139],[132.918,33.142],[132.912,33.144],[132.902,33.145],[132.893,33.149],[132.891,33.153],[132.884,33.154],[132.88,33.159],[132.876,33.161],[132.88,33.167],[132.881,33.171],[132.878,33.18],[132.868,33.18],[132.861,33.177],[132.846,33.185],[132.839,33.189],[132.834,33.187],[132.826,33.191],[132.819,33.192],[132.825,33.202],[132.825,33.207],[132.818,33.214],[132.819,33.223],[132.823,33.223],[132.826,33.229],[132.827,33.238],[132.822,33.24],[132.815,33.238],[132.805,33.236],[132.8,33.244],[132.8,33.248],[132.795,33.252],[132.794,33.256],[132.787,33.262],[132.782,33.257],[132.778,33.252],[132.778,33.246],[132.772,33.241],[132.775,33.234],[132.775,33.228],[132.771,33.226],[132.771,33.221],[132.774,33.218],[132.773,33.212],[132.776,33.208],[132.768,33.203],[132.759,33.202],[132.751,33.202],[132.741,33.201],[132.738,33.196],[132.742,33.19],[132.737,33.186],[132.738,33.182],[132.732,33.176],[132.726,33.168],[132.72,33.167],[132.717,33.16],[132.711,33.153],[132.699,33.146],[132.696,33.143],[132.696,33.138],[132.687,33.135],[132.68,33.144],[132.674,33.15],[132.668,33.152],[132.662,33.154],[132.66,33.16],[132.651,33.167],[132.647,33.172],[132.639,33.174],[132.634,33.179],[132.637,33.185],[132.626,33.184],[132.619,33.181],[132.619,33.173],[132.615,33.169],[132.619,33.163],[132.625,33.159],[132.628,33.153],[132.632,33.149],[132.628,33.135],[132.637,33.132],[132.638,33.128],[132.644,33.122],[132.647,33.116],[132.654,33.11],[132.663,33.109],[132.669,33.107],[132.673,33.104],[132.686,33.096],[132.695,33.095],[132.704,33.089],[132.71,33.089],[132.718,33.086],[132.718,33.081],[132.721,33.075],[132.73,33.075],[132.735,33.07],[132.744,33.07],[132.752,33.065],[132.747,33.057],[132.746,33.052],[132.742,33.047],[132.747,33.042],[132.751,33.042],[132.759,33.037],[132.761,33.041],[132.768,33.044],[132.774,33.043],[132.78,33.043],[132.787,33.039],[132.793,33.043],[132.798,33.043],[132.804,33.037],[132.807,33.035],[132.806,33.027],[132.811,33.023],[132.815,33.022],[132.822,33.016],[132.83,33.015],[132.828,33.011],[132.824,33.012],[132.817,33.003],[132.822,32.998],[132.821,32.985],[132.824,32.981],[132.825,32.977],[132.823,32.966],[132.824,32.962],[132.821,32.958],[132.827,32.953],[132.827,32.943],[132.83,32.94],[132.837,32.941],[132.843,32.94],[132.854,32.94],[132.861,32.945],[132.869,32.944],[132.876,32.94],[132.883,32.943],[132.893,32.945],[132.901,32.941],[132.906,32.942],[132.907,32.938],[132.913,32.935],[132.918,32.935],[132.929,32.936],[132.932,32.928],[132.937,32.922],[132.94,32.922],[132.944,32.916],[132.945,32.912],[132.949,32.914],[132.953,32.912],[132.963,32.909],[132.963,32.915],[132.967,32.917],[132.973,32.917],[132.982,32.919],[132.985,32.917],[132.99,32.917],[132.993,32.912],[132.999,32.912],[133.009,32.912]]]]}},{"type":"Feature","properties":{"name":"香南市","code":"39211"},"geometry":{"type":"MultiPolygon","coordinates":[[[[133.886,33.653],[133.88,33.659],[133.876,33.663],[133.865,33.661],[133.857,33.658],[133.851,33.654],[133.849,33.651],[133.844,33.647],[133.837,33.645],[133.835,33.64],[133.838,33.635],[133.833,33.63],[133.827,33.63],[133.818,33.622],[133.814,33.615],[133.809,33.611],[133.794,33.601],[133.79,33.608],[133.786,33.617],[133.776,33.613],[133.768,33.611],[133.767,33.606],[133.759,33.605],[133.746,33.597],[133.741,33.598],[133.737,33.594],[133.731,33.593],[133.725,33.597],[133.725,33.6],[133.721,33.6],[133.716,33.597],[133.713,33.598],[133.702,33.594],[133.705,33.598],[133.694,33.594],[133.692,33.588],[133.684,33.58],[133.682,33.577],[133.682,33.571],[133.68,33.566],[133.68,33.558],[133.685,33.544],[133.685,33.541],[133.681,33.542],[133.68,33.538],[133.682,33.534],[133.7,33.537],[133.713,33.538],[133.725,33.538],[133.738,33.538],[133.749,33.536],[133.756,33.531],[133.756,33.528],[133.754,33.52],[133.759,33.52],[133.77,33.516],[133.778,33.525],[133.781,33.529],[133.782,33.535],[133.787,33.541],[133.794,33.549],[133.802,33.55],[133.808,33.556],[133.813,33.557],[133.82,33.567],[133.817,33.575],[133.821,33.58],[133.827,33.58],[133.829,33.584],[133.835,33.58],[133.843,33.577],[133.848,33.582],[133.859,33.591],[133.865,33.593],[133.857,33.601],[133.861,33.607],[133.866,33.606],[133.871,33.608],[133.876,33.612],[133.876,33.616],[133.873,33.618],[133.874,33.624],[133.88,33.628],[133.878,33.632],[133.876,33.642],[133.881,33.643],[133.882,33.648],[133.886,33.653]]]]}},{"type":"Feature","properties":{"name":"香美市","code":"39212"},"geometry":{"type":"MultiPolygon","coordinates":[[[[134.065,33.719],[134.068,33.728],[134.066,33.734],[134.062,33.735],[134.061,33.74],[134.059,33.746],[134.056,33.752],[134.057,33.758],[134.059,33.761],[134.059,33.777],[134.055,33.785],[134.05,33.786],[134.046,33.79],[134.047,33.799],[134.041,33.802],[134.033,33.809],[134.037,33.815],[134.037,33.82],[134.033,33.828],[134.027,33.827],[134.023,33.825],[134.012,33.822],[134.006,33.821],[133.996,33.822],[133.99,33.829],[133.987,33.837],[133.983,33.841],[133.979,33.837],[133.974,33.836],[133.96,33.835],[133.951,33.829],[133.953,33.824],[133.953,33.815],[133.951,33.811],[133.947,33.804],[133.941,33.799],[133.936,33.799],[133.925,33.801],[133.919,33.798],[133.913,33.791],[133.908,33.795],[133.901,33.794],[133.896,33.802],[133.891,33.804],[133.885,33.803],[133.874,33.806],[133.869,33.797],[133.861,33.787],[133.854,33.784],[133.854,33.775],[133.843,33.774],[133.839,33.769],[133.832,33.762],[133.832,33.756],[133.824,33.754],[133.821,33.749],[133.816,33.744],[133.811,33.749],[133.805,33.747],[133.799,33.743],[133.791,33.734],[133.787,33.732],[133.784,33.724],[133.776,33.725],[133.771,33.733],[133.764,33.733],[133.759,33.732],[133.755,33.732],[133.744,33.725],[133.74,33.724],[133.737,33.722],[133.735,33.715],[133.736,33.712],[133.73,33.709],[133.722,33.702],[133.712,33.697],[133.709,33.697],[133.704,33.695],[133.702,33.69],[133.697,33.687],[133.691,33.684],[133.686,33.684],[133.68,33.693],[133.674,33.697],[133.665,33.701],[133.657,33.707],[133.653,33.712],[133.649,33.713],[133.646,33.717],[133.641,33.72],[133.634,33.717],[133.629,33.715],[133.621,33.714],[133.619,33.71],[133.612,33.708],[133.604,33.703],[133.597,33.702],[133.601,33.691],[133.607,33.689],[133.61,33.684],[133.615,33.678],[133.617,33.671],[133.618,33.663],[133.635,33.665],[133.639,33.664],[133.643,33.657],[133.651,33.655],[133.66,33.659],[133.665,33.659],[133.665,33.655],[133.667,33.634],[133.663,33.629],[133.665,33.624],[133.662,33.61],[133.668,33.608],[133.672,33.593],[133.671,33.589],[133.677,33.588],[133.676,33.585],[133.684,33.585],[133.684,33.58],[133.692,33.588],[133.694,33.594],[133.704,33.6],[133.702,33.594],[133.713,33.598],[133.716,33.597],[133.721,33.6],[133.725,33.6],[133.725,33.597],[133.731,33.593],[133.737,33.594],[133.741,33.598],[133.746,33.597],[133.759,33.605],[133.767,33.606],[133.768,33.611],[133.776,33.613],[133.786,33.617],[133.79,33.611],[133.794,33.601],[133.806,33.61],[133.814,33.615],[133.818,33.622],[133.827,33.63],[133.833,33.63],[133.838,33.635],[133.835,33.64],[133.837,33.645],[133.844,33.647],[133.849,33.651],[133.851,33.654],[133.857,33.658],[133.863,33.659],[133.876,33.663],[133.879,33.662],[133.886,33.653],[133.894,33.654],[133.898,33.658],[133.901,33.653],[133.901,33.647],[133.905,33.647],[133.909,33.649],[133.916,33.644],[133.926,33.648],[133.932,33.652],[133.942,33.655],[133.945,33.66],[133.96,33.666],[133.964,33.674],[133.968,33.674],[133.971,33.677],[133.974,33.682],[133.978,33.689],[133.981,33.688],[133.991,33.694],[133.995,33.699],[133.996,33.708],[134.002,33.712],[134.007,33.712],[134.015,33.714],[134.02,33.712],[134.027,33.719],[134.035,33.712],[134.042,33.714],[134.053,33.715],[134.062,33.72],[134.065,33.719]]]]}},{"type":"Feature","properties":{"name":"安芸郡奈半利町","code":"39302"},"geometry":{"type":"MultiPolygon","coordinates":[[[[134.108,33.447],[134.105,33.448],[134.1,33.448],[134.09,33.448],[134.086,33.446],[134.08,33.446],[134.077,33.442],[134.07,33.441],[134.064,33.435],[134.05,33.436],[134.034,33.438],[134.03,33.441],[134.024,33.435],[134.016,33.428],[134.011,33.422],[134.015,33.424],[134.02,33.422],[134.022,33.418],[134.029,33.414],[134.032,33.411],[134.038,33.393],[134.036,33.386],[134.034,33.378],[134.038,33.382],[134.048,33.386],[134.053,33.392],[134.056,33.392],[134.066,33.396],[134.069,33.4],[134.071,33.405],[134.076,33.414],[134.087,33.417],[134.088,33.423],[134.087,33.427],[134.096,33.433],[134.096,33.44],[134.107,33.443],[134.108,33.447]]]]}},{"type":"Feature","properties":{"name":"安芸郡田野町","code":"39303"},"geometry":{"type":"MultiPolygon","coordinates":[[[[134.03,33.441],[134.03,33.446],[134.026,33.447],[134.022,33.446],[134.018,33.45],[134.024,33.456],[134.025,33.459],[134.014,33.458],[134.01,33.449],[134.006,33.446],[134.008,33.442],[134.006,33.437],[133.994,33.436],[133.992,33.431],[133.997,33.427],[134.011,33.422],[134.016,33.428],[134.024,33.435],[134.03,33.441]]]]}},{"type":"Feature","properties":{"name":"安芸郡安田町","code":"39304"},"geometry":{"type":"MultiPolygon","coordinates":[[[[133.956,33.446],[133.959,33.443],[133.963,33.442],[133.973,33.439],[133.977,33.437],[133.983,33.435],[133.987,33.431],[133.993,33.428],[133.994,33.436],[134.006,33.437],[134.008,33.442],[134.006,33.446],[134.01,33.449],[134.012,33.456],[134.022,33.458],[134.023,33.467],[134.026,33.474],[134.024,33.481],[134.027,33.487],[134.027,33.496],[134.029,33.504],[134.036,33.51],[134.041,33.513],[134.046,33.512],[134.056,33.52],[134.067,33.523],[134.069,33.527],[134.064,33.531],[134.06,33.531],[134.053,33.535],[134.041,33.539],[134.037,33.538],[134.031,33.545],[134.026,33.547],[134.019,33.542],[134.017,33.539],[134.014,33.539],[134.009,33.531],[134.002,33.518],[133.997,33.517],[133.991,33.512],[133.988,33.504],[133.99,33.498],[133.986,33.496],[133.983,33.49],[133.979,33.483],[133.982,33.478],[133.978,33.474],[133.976,33.47],[133.973,33.471],[133.968,33.469],[133.964,33.462],[133.96,33.457],[133.96,33.451],[133.956,33.446]]]]}},{"type":"Feature","properties":{"name":"安芸郡北川村","code":"39305"},"geometry":{"type":"MultiPolygon","coordinates":[[[[134.195,33.488],[134.199,33.493],[134.194,33.499],[134.198,33.502],[134.205,33.497],[134.21,33.497],[134.211,33.506],[134.214,33.507],[134.216,33.513],[134.213,33.516],[134.205,33.52],[134.201,33.525],[134.201,33.534],[134.193,33.537],[134.195,33.547],[134.198,33.552],[134.196,33.555],[134.196,33.561],[134.195,33.569],[134.192,33.574],[134.188,33.576],[134.189,33.581],[134.185,33.589],[134.179,33.594],[134.171,33.597],[134.17,33.602],[134.176,33.607],[134.173,33.61],[134.165,33.61],[134.161,33.613],[134.156,33.612],[134.155,33.605],[134.151,33.604],[134.146,33.592],[134.138,33.589],[134.126,33.593],[134.121,33.596],[134.112,33.598],[134.106,33.598],[134.102,33.593],[134.098,33.593],[134.094,33.591],[134.096,33.584],[134.094,33.577],[134.092,33.571],[134.084,33.568],[134.083,33.561],[134.09,33.551],[134.085,33.55],[134.082,33.547],[134.078,33.539],[134.078,33.535],[134.077,33.532],[134.069,33.527],[134.067,33.523],[134.056,33.52],[134.048,33.515],[134.041,33.513],[134.036,33.51],[134.029,33.504],[134.027,33.496],[134.027,33.487],[134.024,33.481],[134.026,33.474],[134.023,33.467],[134.025,33.459],[134.024,33.456],[134.019,33.452],[134.022,33.446],[134.026,33.447],[134.03,33.446],[134.03,33.441],[134.034,33.438],[134.05,33.436],[134.064,33.435],[134.069,33.439],[134.077,33.442],[134.08,33.446],[134.084,33.448],[134.09,33.448],[134.097,33.449],[134.105,33.448],[134.108,33.447],[134.109,33.451],[134.112,33.455],[134.113,33.458],[134.118,33.461],[134.126,33.466],[134.132,33.475],[134.137,33.473],[134.144,33.468],[134.155,33.477],[134.161,33.479],[134.165,33.478],[134.169,33.479],[134.176,33.484],[134.192,33.486]]]]}},{"type":"Feature","properties":{"name":"安芸郡馬路村","code":"39306"},"geometry":{"type":"MultiPolygon","coordinates":[[[[134.026,33.547],[134.031,33.545],[134.034,33.539],[134.041,33.539],[134.053,33.535],[134.06,33.531],[134.064,33.531],[134.069,33.527],[134.077,33.532],[134.078,33.535],[134.078,33.539],[134.082,33.547],[134.085,33.55],[134.09,33.551],[134.083,33.561],[134.084,33.568],[134.092,33.571],[134.095,33.575],[134.096,33.584],[134.094,33.591],[134.098,33.593],[134.102,33.593],[134.106,33.598],[134.112,33.598],[134.121,33.596],[134.126,33.593],[134.138,33.589],[134.144,33.591],[134.151,33.604],[134.155,33.605],[134.156,33.612],[134.152,33.618],[134.155,33.623],[134.149,33.627],[134.15,33.631],[134.156,33.633],[134.164,33.635],[134.171,33.642],[134.175,33.643],[134.184,33.649],[134.178,33.654],[134.171,33.658],[134.175,33.662],[134.172,33.665],[134.169,33.671],[134.173,33.675],[134.175,33.684],[134.164,33.688],[134.149,33.686],[134.143,33.687],[134.136,33.691],[134.133,33.694],[134.126,33.696],[134.12,33.695],[134.112,33.696],[134.106,33.694],[134.1,33.695],[134.095,33.692],[134.09,33.693],[134.081,33.69],[134.076,33.691],[134.066,33.689],[134.058,33.691],[134.054,33.688],[134.053,33.683],[134.047,33.68],[134.052,33.673],[134.063,33.672],[134.069,33.668],[134.071,33.664],[134.064,33.658],[134.061,33.655],[134.055,33.652],[134.056,33.646],[134.051,33.644],[134.045,33.646],[134.035,33.638],[134.031,33.64],[134.027,33.636],[134.026,33.632],[134.023,33.628],[134.023,33.625],[134.019,33.621],[134.017,33.612],[134.013,33.608],[134.019,33.605],[134.023,33.603],[134.02,33.597],[134.021,33.591],[134.019,33.588],[134.014,33.589],[134.01,33.587],[134.009,33.579],[134.008,33.573],[134.012,33.568],[134.021,33.57],[134.027,33.563],[134.027,33.56],[134.03,33.555],[134.028,33.549]]]]}},{"type":"Feature","properties":{"name":"安芸郡芸西村","code":"39307"},"geometry":{"type":"MultiPolygon","coordinates":[[[[133.865,33.593],[133.859,33.591],[133.848,33.582],[133.843,33.577],[133.835,33.58],[133.829,33.584],[133.827,33.58],[133.821,33.58],[133.817,33.575],[133.822,33.567],[133.813,33.557],[133.808,33.556],[133.802,33.55],[133.794,33.549],[133.787,33.541],[133.782,33.535],[133.781,33.529],[133.778,33.525],[133.77,33.518],[133.78,33.517],[133.815,33.516],[133.82,33.515],[133.825,33.525],[133.836,33.528],[133.837,33.521],[133.844,33.525],[133.851,33.528],[133.857,33.536],[133.856,33.544],[133.859,33.554],[133.859,33.558],[133.865,33.563],[133.869,33.564],[133.869,33.571],[133.87,33.579],[133.87,33.584],[133.867,33.592]]]]}},{"type":"Feature","properties":{"name":"長岡郡本山町","code":"39341"},"geometry":{"type":"MultiPolygon","coordinates":[[[[133.597,33.702],[133.604,33.703],[133.612,33.708],[133.619,33.71],[133.621,33.714],[133.629,33.715],[133.634,33.717],[133.64,33.721],[133.637,33.727],[133.638,33.731],[133.643,33.736],[133.643,33.74],[133.638,33.744],[133.64,33.75],[133.643,33.756],[133.641,33.764],[133.636,33.77],[133.636,33.773],[133.631,33.776],[133.63,33.783],[133.627,33.787],[133.629,33.791],[133.633,33.792],[133.637,33.8],[133.634,33.805],[133.636,33.809],[133.633,33.814],[133.626,33.816],[133.623,33.823],[133.613,33.829],[133.608,33.83],[133.6,33.829],[133.595,33.831],[133.586,33.837],[133.582,33.844],[133.584,33.852],[133.58,33.856],[133.583,33.868],[133.578,33.868],[133.571,33.87],[133.566,33.875],[133.562,33.875],[133.557,33.882],[133.55,33.882],[133.544,33.879],[133.54,33.879],[133.54,33.875],[133.536,33.871],[133.536,33.866],[133.526,33.862],[133.526,33.854],[133.523,33.852],[133.518,33.847],[133.51,33.848],[133.507,33.84],[133.508,33.836],[133.511,33.831],[133.515,33.828],[133.523,33.823],[133.524,33.819],[133.53,33.814],[133.529,33.809],[133.533,33.807],[133.534,33.794],[133.539,33.791],[133.54,33.788],[133.546,33.781],[133.549,33.773],[133.547,33.767],[133.545,33.763],[133.547,33.759],[133.563,33.749],[133.569,33.748],[133.576,33.738],[133.572,33.735],[133.572,33.727],[133.577,33.726],[133.58,33.718],[133.581,33.715],[133.583,33.706],[133.589,33.706],[133.594,33.702]]]]}},{"type":"Feature","properties":{"name":"長岡郡大豊町","code":"39344"},"geometry":{"type":"MultiPolygon","coordinates":[[[[133.874,33.806],[133.872,33.81],[133.866,33.819],[133.86,33.826],[133.854,33.835],[133.848,33.835],[133.844,33.838],[133.839,33.845],[133.833,33.844],[133.828,33.845],[133.818,33.837],[133.809,33.838],[133.799,33.837],[133.789,33.836],[133.787,33.841],[133.776,33.842],[133.767,33.84],[133.756,33.836],[133.748,33.837],[133.741,33.843],[133.74,33.848],[133.729,33.851],[133.719,33.849],[133.715,33.851],[133.708,33.852],[133.702,33.85],[133.698,33.852],[133.695,33.856],[133.687,33.857],[133.681,33.86],[133.678,33.859],[133.674,33.861],[133.672,33.865],[133.666,33.866],[133.663,33.87],[133.661,33.877],[133.661,33.881],[133.654,33.882],[133.644,33.883],[133.635,33.88],[133.63,33.873],[133.617,33.877],[133.611,33.881],[133.607,33.882],[133.603,33.88],[133.596,33.88],[133.593,33.875],[133.585,33.871],[133.583,33.868],[133.58,33.856],[133.584,33.852],[133.582,33.844],[133.586,33.837],[133.593,33.834],[133.6,33.829],[133.608,33.83],[133.613,33.829],[133.623,33.823],[133.626,33.816],[133.633,33.814],[133.636,33.809],[133.634,33.805],[133.637,33.8],[133.633,33.792],[133.629,33.791],[133.627,33.787],[133.63,33.783],[133.631,33.776],[133.636,33.773],[133.636,33.77],[133.641,33.764],[133.64,33.759],[133.64,33.75],[133.638,33.744],[133.643,33.74],[133.643,33.736],[133.638,33.731],[133.637,33.727],[133.64,33.721],[133.646,33.717],[133.649,33.713],[133.653,33.712],[133.657,33.707],[133.665,33.701],[133.674,33.697],[133.677,33.693],[133.686,33.684],[133.691,33.684],[133.697,33.687],[133.702,33.69],[133.704,33.695],[133.709,33.697],[133.712,33.697],[133.722,33.702],[133.73,33.709],[133.736,33.712],[133.735,33.715],[133.737,33.722],[133.74,33.724],[133.744,33.725],[133.755,33.732],[133.759,33.732],[133.764,33.733],[133.771,33.733],[133.776,33.725],[133.784,33.724],[133.787,33.732],[133.791,33.734],[133.799,33.743],[133.805,33.747],[133.811,33.749],[133.816,33.744],[133.821,33.749],[133.824,33.754],[133.832,33.756],[133.832,33.762],[133.839,33.769],[133.843,33.774],[133.854,33.775],[133.854,33.784],[133.858,33.787],[133.869,33.797],[133.871,33.804]]]]}},{"type":"Feature","properties":{"name":"土佐郡土佐町","code":"39363"},"geometry":{"type":"MultiPolygon","coordinates":[[[[133.563,33.666],[133.565,33.67],[133.565,33.674],[133.564,33.679],[133.56,33.693],[133.568,33.694],[133.579,33.7],[133.58,33.704],[133.584,33.712],[133.58,33.718],[133.577,33.723],[133.572,33.727],[133.572,33.735],[133.576,33.738],[133.569,33.748],[133.563,33.749],[133.547,33.759],[133.545,33.763],[133.547,33.767],[133.547,33.771],[133.546,33.781],[133.543,33.786],[133.539,33.791],[133.534,33.794],[133.533,33.807],[133.529,33.809],[133.53,33.814],[133.524,33.819],[133.523,33.823],[133.516,33.826],[133.511,33.831],[133.508,33.836],[133.5,33.829],[133.493,33.832],[133.487,33.83],[133.483,33.827],[133.482,33.817],[133.48,33.811],[133.484,33.802],[133.49,33.799],[133.493,33.796],[133.491,33.793],[133.485,33.789],[133.481,33.782],[133.472,33.778],[133.465,33.775],[133.462,33.775],[133.458,33.771],[133.453,33.771],[133.449,33.768],[133.44,33.767],[133.434,33.766],[133.429,33.767],[133.423,33.765],[133.417,33.768],[133.413,33.765],[133.406,33.761],[133.402,33.762],[133.394,33.761],[133.392,33.755],[133.382,33.757],[133.378,33.756],[133.368,33.755],[133.363,33.752],[133.36,33.747],[133.363,33.746],[133.363,33.742],[133.36,33.734],[133.362,33.728],[133.369,33.726],[133.369,33.719],[133.381,33.714],[133.382,33.709],[133.385,33.708],[133.383,33.703],[133.396,33.7],[133.401,33.694],[133.399,33.691],[133.396,33.681],[133.405,33.685],[133.414,33.686],[133.427,33.691],[133.43,33.691],[133.435,33.694],[133.446,33.685],[133.45,33.678],[133.449,33.672],[133.453,33.67],[133.456,33.666],[133.46,33.663],[133.465,33.662],[133.47,33.666],[133.473,33.671],[133.481,33.671],[133.488,33.67],[133.495,33.671],[133.499,33.669],[133.506,33.67],[133.515,33.679],[133.531,33.678],[133.536,33.678],[133.539,33.673],[133.54,33.665],[133.55,33.663],[133.555,33.666],[133.563,33.666]]]]}},{"type":"Feature","properties":{"name":"土佐郡大川村","code":"39364"},"geometry":{"type":"MultiPolygon","coordinates":[[[[133.487,33.83],[133.483,33.833],[133.473,33.834],[133.47,33.837],[133.464,33.835],[133.454,33.837],[133.448,33.834],[133.441,33.834],[133.432,33.835],[133.428,33.837],[133.412,33.839],[133.406,33.836],[133.401,33.836],[133.397,33.831],[133.393,33.828],[133.392,33.824],[133.376,33.829],[133.369,33.829],[133.362,33.833],[133.356,33.834],[133.352,33.833],[133.35,33.829],[133.346,33.825],[133.341,33.824],[133.333,33.821],[133.326,33.815],[133.328,33.81],[133.336,33.804],[133.34,33.803],[133.346,33.798],[133.349,33.798],[133.354,33.793],[133.359,33.79],[133.353,33.786],[133.351,33.783],[133.361,33.777],[133.365,33.773],[133.364,33.769],[133.368,33.755],[133.378,33.756],[133.382,33.757],[133.389,33.757],[133.394,33.761],[133.402,33.762],[133.406,33.761],[133.413,33.765],[133.417,33.768],[133.423,33.765],[133.429,33.767],[133.434,33.766],[133.44,33.767],[133.449,33.768],[133.453,33.771],[133.458,33.771],[133.462,33.775],[133.465,33.775],[133.472,33.778],[133.478,33.78],[133.485,33.789],[133.491,33.793],[133.493,33.796],[133.49,33.799],[133.484,33.802],[133.482,33.809],[133.482,33.817],[133.483,33.827],[133.487,33.83]]]]}},{"type":"Feature","properties":{"name":"吾川郡いの町","code":"39386"},"geometry":{"type":"MultiPolygon","coordinates":[[[[133.449,33.672],[133.45,33.678],[133.446,33.685],[133.435,33.694],[133.43,33.691],[133.427,33.691],[133.414,33.686],[133.407,33.684],[133.399,33.68],[133.399,33.691],[133.401,33.694],[133.396,33.7],[133.383,33.703],[133.385,33.708],[133.382,33.709],[133.381,33.714],[133.369,33.719],[133.369,33.726],[133.362,33.728],[133.36,33.734],[133.363,33.742],[133.363,33.746],[133.36,33.747],[133.363,33.752],[133.368,33.755],[133.364,33.769],[133.365,33.773],[133.361,33.777],[133.353,33.78],[133.353,33.786],[133.359,33.79],[133.354,33.793],[133.349,33.798],[133.346,33.798],[133.34,33.803],[133.336,33.804],[133.328,33.81],[133.326,33.815],[133.319,33.816],[133.31,33.816],[133.302,33.823],[133.294,33.829],[133.289,33.829],[133.284,33.832],[133.277,33.831],[133.269,33.826],[133.268,33.821],[133.261,33.811],[133.262,33.805],[133.259,33.798],[133.257,33.794],[133.25,33.788],[133.246,33.789],[133.237,33.783],[133.232,33.784],[133.22,33.78],[133.216,33.786],[133.204,33.795],[133.193,33.794],[133.19,33.787],[133.19,33.784],[133.187,33.777],[133.182,33.771],[133.184,33.768],[133.18,33.764],[133.177,33.764],[133.176,33.761],[133.171,33.758],[133.165,33.756],[133.158,33.75],[133.159,33.743],[133.159,33.734],[133.167,33.729],[133.168,33.725],[133.166,33.721],[133.172,33.714],[133.174,33.708],[133.187,33.701],[133.193,33.701],[133.198,33.697],[133.207,33.693],[133.212,33.686],[133.22,33.686],[133.226,33.683],[133.23,33.676],[133.228,33.669],[133.226,33.662],[133.23,33.658],[133.231,33.653],[133.234,33.649],[133.233,33.642],[133.235,33.639],[133.228,33.634],[133.223,33.632],[133.223,33.626],[133.225,33.618],[133.224,33.613],[133.228,33.605],[133.232,33.605],[133.238,33.602],[133.243,33.604],[133.245,33.608],[133.252,33.611],[133.256,33.61],[133.259,33.613],[133.266,33.613],[133.269,33.609],[133.274,33.608],[133.281,33.602],[133.278,33.595],[133.286,33.592],[133.289,33.586],[133.294,33.587],[133.304,33.592],[133.305,33.586],[133.311,33.579],[133.313,33.574],[133.324,33.571],[133.331,33.559],[133.339,33.562],[133.342,33.565],[133.347,33.564],[133.349,33.559],[133.353,33.559],[133.357,33.561],[133.356,33.575],[133.359,33.58],[133.363,33.58],[133.363,33.573],[133.365,33.566],[133.372,33.561],[133.376,33.557],[133.383,33.555],[133.397,33.545],[133.401,33.543],[133.403,33.537],[133.399,33.533],[133.398,33.527],[133.394,33.523],[133.394,33.519],[133.408,33.521],[133.43,33.523],[133.432,33.518],[133.437,33.51],[133.442,33.514],[133.449,33.514],[133.458,33.524],[133.458,33.527],[133.456,33.533],[133.463,33.536],[133.463,33.544],[133.468,33.554],[133.471,33.557],[133.475,33.563],[133.472,33.566],[133.469,33.566],[133.463,33.573],[133.458,33.574],[133.452,33.572],[133.447,33.567],[133.443,33.571],[133.438,33.572],[133.433,33.576],[133.429,33.575],[133.418,33.576],[133.413,33.582],[133.413,33.587],[133.402,33.592],[133.401,33.595],[133.406,33.599],[133.409,33.605],[133.416,33.608],[133.413,33.615],[133.409,33.619],[133.406,33.617],[133.399,33.62],[133.396,33.629],[133.395,33.64],[133.4,33.643],[133.401,33.651],[133.413,33.661],[133.428,33.665],[133.434,33.668],[133.449,33.672]]]]}},{"type":"Feature","properties":{"name":"吾川郡仁淀川町","code":"39387"},"geometry":{"type":"MultiPolygon","coordinates":[[[[133.161,33.732],[133.152,33.725],[133.146,33.722],[133.14,33.716],[133.141,33.71],[133.145,33.707],[133.134,33.7],[133.125,33.698],[133.122,33.693],[133.119,33.689],[133.119,33.679],[133.122,33.674],[133.118,33.668],[133.117,33.66],[133.107,33.657],[133.097,33.658],[133.091,33.658],[133.085,33.655],[133.078,33.654],[133.072,33.638],[133.07,33.631],[133.067,33.623],[133.073,33.614],[133.079,33.612],[133.07,33.601],[133.064,33.599],[133.057,33.596],[133.055,33.59],[133.049,33.585],[133.048,33.582],[133.047,33.575],[133.054,33.57],[133.062,33.561],[133.06,33.554],[133.062,33.551],[133.063,33.545],[133.059,33.539],[133.046,33.53],[133.038,33.526],[133.038,33.519],[133.034,33.512],[133.031,33.508],[133.026,33.505],[133.021,33.496],[133.013,33.491],[133.015,33.481],[133.024,33.482],[133.027,33.48],[133.034,33.479],[133.045,33.475],[133.052,33.477],[133.056,33.48],[133.059,33.48],[133.059,33.476],[133.061,33.469],[133.068,33.466],[133.069,33.459],[133.074,33.456],[133.073,33.453],[133.091,33.452],[133.093,33.448],[133.102,33.443],[133.112,33.45],[133.117,33.45],[133.126,33.456],[133.137,33.457],[133.151,33.461],[133.155,33.465],[133.159,33.467],[133.158,33.479],[133.153,33.479],[133.146,33.485],[133.148,33.492],[133.151,33.496],[133.147,33.501],[133.152,33.505],[133.151,33.513],[133.148,33.519],[133.158,33.524],[133.162,33.53],[133.167,33.533],[133.175,33.536],[133.181,33.546],[133.181,33.551],[133.185,33.555],[133.181,33.563],[133.184,33.566],[133.195,33.566],[133.196,33.573],[133.204,33.57],[133.21,33.569],[133.214,33.57],[133.213,33.575],[133.215,33.586],[133.214,33.597],[133.22,33.602],[133.224,33.601],[133.228,33.605],[133.226,33.611],[133.225,33.618],[133.223,33.626],[133.223,33.632],[133.228,33.634],[133.235,33.639],[133.233,33.642],[133.234,33.649],[133.231,33.653],[133.23,33.658],[133.226,33.662],[133.226,33.666],[133.23,33.676],[133.226,33.683],[133.22,33.686],[133.212,33.686],[133.207,33.693],[133.199,33.695],[133.193,33.701],[133.187,33.701],[133.174,33.708],[133.172,33.714],[133.166,33.721],[133.168,33.725],[133.167,33.729],[133.161,33.732]]]]}},{"type":"Feature","properties":{"name":"高岡郡中土佐町","code":"39401"},"geometry":{"type":"MultiPolygon","coordinates":[[[[133.175,33.399],[133.169,33.408],[133.168,33.414],[133.17,33.417],[133.158,33.421],[133.152,33.419],[133.15,33.415],[133.141,33.416],[133.132,33.421],[133.126,33.42],[133.12,33.42],[133.116,33.422],[133.111,33.42],[133.111,33.415],[133.107,33.411],[133.109,33.408],[133.108,33.403],[133.106,33.395],[133.108,33.392],[133.106,33.387],[133.1,33.385],[133.099,33.375],[133.094,33.372],[133.091,33.375],[133.088,33.381],[133.082,33.385],[133.076,33.389],[133.071,33.388],[133.07,33.384],[133.063,33.379],[133.058,33.376],[133.057,33.372],[133.053,33.369],[133.05,33.361],[133.051,33.356],[133.063,33.355],[133.072,33.349],[133.071,33.344],[133.063,33.345],[133.057,33.343],[133.058,33.336],[133.067,33.335],[133.072,33.338],[133.076,33.335],[133.077,33.329],[133.088,33.32],[133.089,33.317],[133.094,33.314],[133.098,33.31],[133.106,33.312],[133.105,33.319],[133.113,33.317],[133.117,33.313],[133.122,33.307],[133.125,33.305],[133.132,33.303],[133.136,33.304],[133.14,33.303],[133.149,33.307],[133.163,33.31],[133.164,33.316],[133.169,33.317],[133.172,33.321],[133.177,33.32],[133.185,33.32],[133.179,33.309],[133.182,33.305],[133.188,33.302],[133.188,33.298],[133.19,33.295],[133.195,33.295],[133.198,33.29],[133.195,33.286],[133.195,33.273],[133.194,33.265],[133.192,33.26],[133.193,33.257],[133.198,33.254],[133.206,33.254],[133.212,33.251],[133.216,33.251],[133.22,33.246],[133.223,33.241],[133.229,33.236],[133.235,33.235],[133.241,33.237],[133.249,33.237],[133.256,33.238],[133.253,33.241],[133.248,33.244],[133.248,33.25],[133.255,33.25],[133.256,33.253],[133.264,33.257],[133.258,33.261],[133.258,33.265],[133.255,33.27],[133.258,33.275],[133.258,33.281],[133.252,33.28],[133.25,33.275],[133.245,33.274],[133.242,33.276],[133.242,33.28],[133.243,33.29],[133.246,33.292],[133.239,33.294],[133.241,33.3],[133.245,33.301],[133.248,33.3],[133.249,33.305],[133.253,33.308],[133.26,33.31],[133.257,33.313],[133.244,33.318],[133.237,33.323],[133.232,33.324],[133.232,33.328],[133.238,33.33],[133.243,33.333],[133.248,33.331],[133.256,33.333],[133.257,33.337],[133.26,33.341],[133.264,33.341],[133.254,33.348],[133.251,33.351],[133.25,33.354],[133.244,33.358],[133.241,33.365],[133.235,33.367],[133.231,33.369],[133.229,33.374],[133.228,33.379],[133.214,33.378],[133.209,33.382],[133.201,33.381],[133.195,33.378],[133.184,33.378],[133.177,33.376],[133.179,33.383],[133.175,33.394],[133.175,33.399]]]]}},{"type":"Feature","properties":{"name":"高岡郡佐川町","code":"39402"},"geometry":{"type":"MultiPolygon","coordinates":[[[[133.336,33.502],[133.337,33.505],[133.341,33.506],[133.342,33.516],[133.338,33.518],[133.332,33.518],[133.328,33.523],[133.329,33.53],[133.328,33.535],[133.325,33.539],[133.321,33.544],[133.317,33.548],[133.314,33.557],[133.311,33.559],[133.302,33.554],[133.281,33.558],[133.274,33.557],[133.262,33.552],[133.261,33.547],[133.265,33.541],[133.264,33.536],[133.267,33.529],[133.267,33.524],[133.26,33.524],[133.257,33.523],[133.255,33.52],[133.248,33.516],[133.249,33.504],[133.244,33.502],[133.235,33.506],[133.226,33.508],[133.212,33.513],[133.208,33.512],[133.214,33.508],[133.202,33.508],[133.201,33.505],[133.201,33.5],[133.2,33.493],[133.196,33.488],[133.195,33.482],[133.197,33.479],[133.197,33.474],[133.202,33.472],[133.205,33.467],[133.215,33.467],[133.221,33.462],[133.233,33.461],[133.246,33.455],[133.25,33.454],[133.252,33.445],[133.258,33.441],[133.271,33.44],[133.275,33.441],[133.28,33.444],[133.283,33.447],[133.287,33.447],[133.294,33.452],[133.306,33.459],[133.307,33.462],[133.308,33.47],[133.32,33.475],[133.324,33.477],[133.327,33.482],[133.323,33.49],[133.326,33.494],[133.33,33.498],[133.336,33.502]]]]}},{"type":"Feature","properties":{"name":"高岡郡越知町","code":"39403"},"geometry":{"type":"MultiPolygon","coordinates":[[[[133.228,33.605],[133.224,33.601],[133.22,33.602],[133.214,33.597],[133.215,33.586],[133.213,33.575],[133.214,33.57],[133.21,33.569],[133.204,33.57],[133.199,33.574],[133.195,33.566],[133.184,33.566],[133.181,33.563],[133.185,33.555],[133.181,33.551],[133.181,33.546],[133.175,33.536],[133.167,33.533],[133.162,33.53],[133.158,33.524],[133.151,33.521],[133.151,33.513],[133.152,33.505],[133.147,33.501],[133.151,33.496],[133.148,33.492],[133.146,33.485],[133.153,33.479],[133.158,33.479],[133.159,33.467],[133.167,33.464],[133.178,33.465],[133.183,33.473],[133.189,33.471],[133.197,33.474],[133.197,33.479],[133.195,33.482],[133.196,33.488],[133.2,33.493],[133.201,33.5],[133.204,33.503],[133.202,33.508],[133.213,33.506],[133.208,33.512],[133.212,33.513],[133.224,33.51],[133.233,33.505],[133.244,33.502],[133.249,33.504],[133.248,33.516],[133.255,33.52],[133.257,33.523],[133.26,33.524],[133.267,33.524],[133.267,33.529],[133.264,33.536],[133.265,33.541],[133.261,33.547],[133.262,33.552],[133.274,33.557],[133.281,33.558],[133.302,33.554],[133.302,33.559],[133.3,33.564],[133.297,33.565],[133.301,33.574],[133.3,33.579],[133.307,33.581],[133.311,33.579],[133.305,33.586],[133.304,33.592],[133.294,33.587],[133.289,33.586],[133.286,33.589],[133.281,33.593],[133.281,33.602],[133.274,33.608],[133.269,33.609],[133.266,33.613],[133.259,33.613],[133.256,33.61],[133.252,33.611],[133.245,33.608],[133.243,33.604],[133.238,33.602],[133.234,33.603],[133.228,33.605]]]]}},{"type":"Feature","properties":{"name":"高岡郡梼原町","code":"39405"},"geometry":{"type":"MultiPolygon","coordinates":[[[[132.989,33.474],[132.979,33.473],[132.973,33.47],[132.96,33.466],[132.952,33.467],[132.947,33.469],[132.944,33.472],[132.939,33.472],[132.931,33.47],[132.915,33.468],[132.9,33.47],[132.894,33.472],[132.884,33.473],[132.881,33.471],[132.874,33.471],[132.865,33.472],[132.852,33.478],[132.848,33.479],[132.84,33.475],[132.834,33.474],[132.827,33.472],[132.823,33.473],[132.819,33.467],[132.815,33.464],[132.811,33.466],[132.807,33.461],[132.808,33.454],[132.813,33.451],[132.822,33.449],[132.827,33.446],[132.828,33.438],[132.825,33.435],[132.823,33.43],[132.825,33.423],[132.834,33.42],[132.833,33.412],[132.832,33.409],[132.835,33.401],[132.841,33.398],[132.855,33.398],[132.856,33.395],[132.856,33.39],[132.857,33.383],[132.857,33.378],[132.859,33.374],[132.86,33.368],[132.867,33.368],[132.874,33.364],[132.884,33.362],[132.887,33.359],[132.89,33.358],[132.895,33.35],[132.9,33.344],[132.903,33.338],[132.904,33.331],[132.902,33.327],[132.911,33.327],[132.916,33.325],[132.919,33.326],[132.929,33.323],[132.933,33.319],[132.941,33.315],[132.952,33.313],[132.956,33.309],[132.96,33.3],[132.959,33.296],[132.964,33.293],[132.968,33.292],[132.971,33.286],[132.98,33.284],[132.98,33.288],[132.994,33.298],[132.998,33.306],[133.007,33.308],[133.014,33.31],[133.019,33.307],[133.026,33.306],[133.028,33.309],[133.029,33.314],[133.031,33.319],[133.036,33.321],[133.032,33.328],[133.031,33.334],[133.028,33.343],[133.018,33.346],[133.013,33.351],[133.008,33.354],[133.002,33.355],[132.992,33.361],[132.994,33.374],[132.997,33.381],[132.989,33.387],[132.986,33.392],[132.98,33.391],[132.978,33.387],[132.969,33.383],[132.966,33.388],[132.963,33.392],[132.958,33.394],[132.956,33.401],[132.96,33.409],[132.963,33.413],[132.967,33.414],[132.971,33.412],[132.976,33.415],[132.983,33.414],[132.984,33.425],[132.989,33.426],[132.994,33.43],[132.987,33.435],[132.989,33.441],[132.994,33.443],[132.997,33.447],[132.996,33.453],[132.994,33.461],[132.993,33.469],[132.989,33.474]]]]}},{"type":"Feature","properties":{"name":"高岡郡日高村","code":"39410"},"geometry":{"type":"MultiPolygon","coordinates":[[[[133.394,33.519],[133.394,33.523],[133.398,33.527],[133.399,33.533],[133.403,33.537],[133.401,33.543],[133.397,33.545],[133.383,33.555],[133.376,33.557],[133.372,33.561],[133.365,33.566],[133.363,33.573],[133.365,33.578],[133.359,33.58],[133.356,33.575],[133.357,33.561],[133.353,33.559],[133.349,33.559],[133.347,33.564],[133.342,33.565],[133.339,33.562],[133.333,33.558],[133.326,33.569],[133.313,33.574],[133.311,33.579],[133.307,33.581],[133.3,33.579],[133.301,33.574],[133.299,33.568],[133.3,33.564],[133.302,33.559],[133.302,33.554],[133.308,33.556],[133.314,33.557],[133.317,33.548],[133.321,33.544],[133.323,33.54],[133.328,33.535],[133.329,33.53],[133.328,33.523],[133.332,33.518],[133.338,33.518],[133.342,33.516],[133.341,33.506],[133.337,33.505],[133.336,33.502],[133.344,33.498],[133.358,33.502],[133.363,33.505],[133.372,33.508],[133.377,33.509],[133.38,33.511],[133.385,33.51],[133.396,33.511],[133.392,33.516]]]]}},{"type":"Feature","properties":{"name":"高岡郡津野町","code":"39411"},"geometry":{"type":"MultiPolygon","coordinates":[[[[133.258,33.441],[133.252,33.445],[133.251,33.452],[133.246,33.455],[133.233,33.461],[133.221,33.462],[133.215,33.467],[133.205,33.467],[133.202,33.472],[133.197,33.474],[133.189,33.471],[133.183,33.473],[133.178,33.465],[133.167,33.464],[133.159,33.467],[133.155,33.465],[133.151,33.461],[133.14,33.458],[133.126,33.456],[133.119,33.453],[133.112,33.45],[133.102,33.443],[133.093,33.448],[133.091,33.452],[133.073,33.453],[133.074,33.456],[133.069,33.459],[133.068,33.466],[133.061,33.469],[133.059,33.476],[133.059,33.48],[133.056,33.48],[133.052,33.477],[133.045,33.475],[133.034,33.479],[133.027,33.48],[133.024,33.482],[133.015,33.481],[132.999,33.476],[132.993,33.476],[132.989,33.474],[132.993,33.469],[132.992,33.464],[132.993,33.456],[132.997,33.447],[132.994,33.443],[132.989,33.441],[132.987,33.435],[132.994,33.43],[132.989,33.426],[132.984,33.425],[132.985,33.415],[132.976,33.415],[132.971,33.412],[132.967,33.414],[132.963,33.413],[132.96,33.409],[132.956,33.401],[132.958,33.394],[132.963,33.392],[132.966,33.388],[132.969,33.383],[132.978,33.387],[132.98,33.391],[132.986,33.392],[132.989,33.387],[132.997,33.381],[132.997,33.376],[132.994,33.362],[133.002,33.355],[133.008,33.354],[133.013,33.351],[133.018,33.346],[133.028,33.343],[133.036,33.345],[133.041,33.347],[133.042,33.352],[133.049,33.354],[133.05,33.361],[133.053,33.369],[133.057,33.372],[133.058,33.376],[133.063,33.379],[133.067,33.383],[133.071,33.388],[133.076,33.389],[133.082,33.385],[133.088,33.381],[133.091,33.375],[133.094,33.372],[133.099,33.375],[133.099,33.383],[133.106,33.387],[133.108,33.392],[133.106,33.395],[133.11,33.401],[133.109,33.408],[133.107,33.411],[133.111,33.415],[133.111,33.42],[133.116,33.422],[133.12,33.42],[133.126,33.42],[133.132,33.421],[133.14,33.418],[133.15,33.415],[133.152,33.419],[133.158,33.421],[133.17,33.417],[133.168,33.414],[133.169,33.408],[133.175,33.399],[133.184,33.4],[133.196,33.398],[133.203,33.403],[133.21,33.405],[133.207,33.41],[133.208,33.418],[133.208,33.429],[133.217,33.431],[133.224,33.429],[133.232,33.429],[133.236,33.431],[133.243,33.433],[133.251,33.433],[133.256,33.438],[133.258,33.441]]]]}},{"type":"Feature","properties":{"name":"高岡郡四万十町","code":"39412"},"geometry":{"type":"MultiPolygon","coordinates":[[[[133.164,33.135],[133.166,33.138],[133.167,33.146],[133.171,33.15],[133.183,33.16],[133.185,33.164],[133.192,33.167],[133.199,33.167],[133.207,33.165],[133.205,33.159],[133.212,33.148],[133.215,33.151],[133.223,33.153],[133.22,33.157],[133.219,33.167],[133.222,33.174],[133.216,33.176],[133.215,33.18],[133.211,33.181],[133.211,33.184],[133.215,33.192],[133.219,33.194],[133.227,33.196],[133.231,33.198],[133.236,33.198],[133.24,33.201],[133.235,33.202],[133.239,33.209],[133.239,33.217],[133.244,33.219],[133.248,33.222],[133.256,33.225],[133.255,33.229],[133.249,33.233],[133.256,33.238],[133.251,33.239],[133.241,33.237],[133.235,33.235],[133.229,33.236],[133.223,33.241],[133.22,33.246],[133.216,33.251],[133.212,33.251],[133.206,33.254],[133.198,33.254],[133.193,33.257],[133.192,33.26],[133.194,33.265],[133.197,33.271],[133.195,33.286],[133.198,33.29],[133.197,33.294],[133.19,33.295],[133.188,33.298],[133.188,33.302],[133.182,33.305],[133.179,33.309],[133.182,33.317],[133.179,33.322],[133.172,33.321],[133.169,33.317],[133.164,33.316],[133.163,33.31],[133.149,33.307],[133.14,33.303],[133.136,33.304],[133.132,33.303],[133.125,33.305],[133.122,33.307],[133.117,33.313],[133.113,33.317],[133.105,33.319],[133.106,33.312],[133.098,33.31],[133.094,33.314],[133.089,33.317],[133.088,33.32],[133.077,33.329],[133.076,33.335],[133.072,33.338],[133.067,33.335],[133.058,33.333],[133.057,33.343],[133.063,33.345],[133.068,33.341],[133.072,33.349],[133.064,33.353],[133.051,33.356],[133.042,33.352],[133.041,33.347],[133.036,33.345],[133.028,33.343],[133.031,33.334],[133.033,33.33],[133.036,33.321],[133.031,33.319],[133.029,33.314],[133.028,33.309],[133.026,33.306],[133.019,33.307],[133.014,33.31],[133.007,33.308],[133.0,33.309],[132.994,33.298],[132.982,33.291],[132.98,33.284],[132.971,33.286],[132.968,33.292],[132.964,33.293],[132.959,33.296],[132.96,33.3],[132.956,33.309],[132.952,33.313],[132.941,33.315],[132.933,33.319],[132.929,33.323],[132.919,33.326],[132.916,33.325],[132.911,33.327],[132.902,33.327],[132.901,33.321],[132.899,33.315],[132.885,33.307],[132.872,33.305],[132.863,33.298],[132.858,33.293],[132.851,33.292],[132.84,33.288],[132.833,33.285],[132.824,33.282],[132.818,33.284],[132.815,33.281],[132.81,33.28],[132.801,33.275],[132.793,33.275],[132.789,33.27],[132.787,33.262],[132.791,33.257],[132.795,33.252],[132.8,33.248],[132.8,33.244],[132.805,33.236],[132.815,33.238],[132.822,33.24],[132.827,33.238],[132.826,33.229],[132.823,33.223],[132.819,33.223],[132.818,33.214],[132.825,33.207],[132.825,33.202],[132.819,33.192],[132.826,33.191],[132.834,33.187],[132.839,33.189],[132.846,33.185],[132.861,33.177],[132.868,33.18],[132.878,33.18],[132.878,33.174],[132.88,33.167],[132.876,33.161],[132.88,33.159],[132.884,33.154],[132.891,33.153],[132.893,33.149],[132.899,33.144],[132.912,33.144],[132.918,33.142],[132.924,33.139],[132.935,33.138],[132.94,33.145],[132.946,33.146],[132.951,33.149],[132.959,33.147],[132.963,33.148],[132.966,33.155],[132.969,33.156],[132.973,33.161],[132.979,33.16],[132.985,33.157],[132.989,33.157],[132.994,33.16],[133.003,33.156],[133.0,33.151],[133.003,33.147],[133.011,33.146],[133.017,33.15],[133.022,33.15],[133.027,33.145],[133.031,33.145],[133.034,33.14],[133.043,33.138],[133.048,33.136],[133.057,33.133],[133.057,33.13],[133.053,33.123],[133.059,33.118],[133.065,33.122],[133.071,33.123],[133.072,33.13],[133.073,33.136],[133.073,33.142],[133.076,33.147],[133.089,33.146],[133.092,33.143],[133.095,33.144],[133.094,33.151],[133.089,33.154],[133.091,33.158],[133.099,33.165],[133.105,33.163],[133.111,33.164],[133.114,33.159],[133.121,33.162],[133.125,33.162],[133.131,33.17],[133.139,33.167],[133.146,33.172],[133.152,33.179],[133.156,33.182],[133.16,33.183],[133.164,33.188],[133.173,33.19],[133.177,33.189],[133.183,33.182],[133.183,33.178],[133.176,33.173],[133.174,33.169],[133.166,33.16],[133.161,33.155],[133.156,33.152],[133.153,33.147],[133.158,33.138],[133.164,33.135]]]]}}]}