{"type":"FeatureCollection","features":[{"type":"Feature","properties":{"name":"北九州市門司区","code":"40101"},"geometry":{"type":"MultiPolygon","coordinates":[[[[130.977,33.844],[130.983,33.846],[130.988,33.851],[130.993,33.851],[130.998,33.868],[130.989,33.869],[130.984,33.864],[130.982,33.867],[130.987,33.872],[130.987,33.881],[130.991,33.886],[130.995,33.885],[130.994,33.875],[131.0,33.874],[131.004,33.89],[130.991,33.896],[130.989,33.9],[130.994,33.902],[130.997,33.907],[131.0,33.904],[131.004,33.904],[131.002,33.91],[131.005,33.915],[131.013,33.916],[131.015,33.919],[131.001,33.925],[131.011,33.93],[131.008,33.934],[131.011,33.942],[131.021,33.942],[131.022,33.947],[131.018,33.951],[131.024,33.958],[131.02,33.962],[131.011,33.965],[131.002,33.97],[130.992,33.962],[130.974,33.959],[130.971,33.961],[130.963,33.962],[130.962,33.957],[130.962,33.948],[130.955,33.942],[130.946,33.938],[130.942,33.932],[130.941,33.924],[130.932,33.908],[130.926,33.903],[130.917,33.896],[130.917,33.892],[130.915,33.888],[130.916,33.883],[130.923,33.874],[130.927,33.873],[130.929,33.869],[130.941,33.869],[130.947,33.868],[130.952,33.861],[130.957,33.859],[130.958,33.854],[130.965,33.855],[130.97,33.849],[130.977,33.844]]]]}},{"type":"Feature","properties":{"name":"北九州市若松区","code":"40103"},"geometry":{"type":"MultiPolygon","coordinates":[[[[130.744,33.888],[130.75,33.879],[130.754,33.878],[130.784,33.886],[130.785,33.891],[130.796,33.89],[130.8,33.893],[130.807,33.9],[130.814,33.902],[130.817,33.914],[130.81,33.915],[130.81,33.918],[130.817,33.917],[130.819,33.923],[130.816,33.926],[130.813,33.926],[130.807,33.93],[130.778,33.934],[130.775,33.927],[130.757,33.92],[130.752,33.923],[130.769,33.929],[130.769,33.934],[130.76,33.934],[130.76,33.94],[130.769,33.941],[130.769,33.947],[130.753,33.945],[130.753,33.932],[130.74,33.932],[130.738,33.927],[130.732,33.929],[130.729,33.934],[130.722,33.935],[130.717,33.938],[130.701,33.939],[130.695,33.938],[130.687,33.934],[130.682,33.924],[130.673,33.919],[130.677,33.916],[130.678,33.912],[130.675,33.907],[130.686,33.897],[130.685,33.893],[130.682,33.889],[130.692,33.884],[130.696,33.885],[130.705,33.884],[130.715,33.885],[130.722,33.893],[130.723,33.899],[130.73,33.896],[130.736,33.892],[130.743,33.89]]],[[[130.809,33.949],[130.8,33.946],[130.777,33.946],[130.777,33.94],[130.784,33.941],[130.784,33.935],[130.81,33.933],[130.815,33.934],[130.822,33.93],[130.832,33.934],[130.845,33.939],[130.832,33.95],[130.814,33.943],[130.812,33.948],[130.809,33.949]]],[[[130.725,34.019],[130.722,34.017],[130.724,34.012],[130.729,34.009],[130.732,34.016],[130.727,34.016],[130.725,34.019]]]]}},{"type":"Feature","properties":{"name":"北九州市戸畑区","code":"40105"},"geometry":{"type":"MultiPolygon","coordinates":[[[[130.851,33.907],[130.852,33.91],[130.869,33.917],[130.85,33.915],[130.848,33.919],[130.858,33.924],[130.855,33.929],[130.845,33.928],[130.825,33.921],[130.822,33.911],[130.824,33.907],[130.823,33.904],[130.816,33.9],[130.806,33.892],[130.807,33.885],[130.814,33.884],[130.821,33.886],[130.822,33.878],[130.826,33.875],[130.825,33.87],[130.835,33.871],[130.836,33.875],[130.844,33.873],[130.842,33.878],[130.844,33.889],[130.847,33.894],[130.85,33.896],[130.849,33.899],[130.851,33.907]]]]}},{"type":"Feature","properties":{"name":"北九州市小倉北区","code":"40106"},"geometry":{"type":"MultiPolygon","coordinates":[[[[130.915,33.896],[130.905,33.894],[130.901,33.891],[130.895,33.892],[130.892,33.888],[130.888,33.888],[130.888,33.893],[130.893,33.896],[130.888,33.902],[130.874,33.897],[130.884,33.905],[130.872,33.916],[130.855,33.909],[130.851,33.907],[130.849,33.899],[130.85,33.896],[130.847,33.894],[130.844,33.889],[130.842,33.878],[130.841,33.874],[130.847,33.867],[130.848,33.857],[130.841,33.853],[130.84,33.846],[130.841,33.841],[130.849,33.839],[130.852,33.842],[130.857,33.842],[130.858,33.846],[130.864,33.85],[130.872,33.847],[130.878,33.864],[130.894,33.854],[130.897,33.85],[130.904,33.853],[130.908,33.857],[130.921,33.86],[130.924,33.867],[130.929,33.869],[130.927,33.873],[130.923,33.874],[130.916,33.883],[130.915,33.888],[130.917,33.892],[130.915,33.896]]],[[[130.813,34.001],[130.814,33.996],[130.817,33.989],[130.823,33.987],[130.82,33.995],[130.813,34.001]]]]}},{"type":"Feature","properties":{"name":"北九州市小倉南区","code":"40107"},"geometry":{"type":"MultiPolygon","coordinates":[[[[131.039,33.836],[131.034,33.858],[131.025,33.857],[131.029,33.834],[131.039,33.836]]],[[[130.929,33.869],[130.924,33.867],[130.921,33.86],[130.908,33.857],[130.904,33.853],[130.897,33.85],[130.894,33.854],[130.878,33.864],[130.872,33.847],[130.864,33.85],[130.858,33.846],[130.857,33.842],[130.852,33.842],[130.849,33.839],[130.841,33.841],[130.829,33.833],[130.825,33.827],[130.819,33.828],[130.815,33.827],[130.808,33.823],[130.808,33.819],[130.805,33.817],[130.801,33.812],[130.805,33.804],[130.801,33.798],[130.8,33.794],[130.799,33.786],[130.801,33.779],[130.802,33.771],[130.799,33.765],[130.802,33.759],[130.802,33.751],[130.804,33.742],[130.806,33.735],[130.811,33.734],[130.814,33.728],[130.821,33.725],[130.822,33.721],[130.827,33.724],[130.838,33.726],[130.845,33.724],[130.85,33.733],[130.855,33.736],[130.863,33.736],[130.868,33.734],[130.878,33.742],[130.889,33.742],[130.892,33.735],[130.895,33.739],[130.899,33.747],[130.902,33.753],[130.907,33.746],[130.91,33.751],[130.913,33.757],[130.91,33.767],[130.917,33.771],[130.916,33.775],[130.927,33.78],[130.934,33.776],[130.941,33.778],[130.945,33.778],[130.953,33.781],[130.958,33.791],[130.974,33.805],[130.981,33.811],[130.967,33.809],[130.964,33.817],[130.957,33.83],[130.96,33.839],[130.976,33.834],[130.977,33.844],[130.97,33.849],[130.965,33.855],[130.958,33.854],[130.957,33.859],[130.952,33.861],[130.947,33.868],[130.941,33.869],[130.929,33.869]]]]}},{"type":"Feature","properties":{"name":"北九州市八幡東区","code":"40108"},"geometry":{"type":"MultiPolygon","coordinates":[[[[130.807,33.885],[130.809,33.879],[130.806,33.876],[130.8,33.875],[130.805,33.882],[130.804,33.891],[130.797,33.886],[130.785,33.883],[130.782,33.878],[130.782,33.867],[130.786,33.857],[130.785,33.847],[130.79,33.84],[130.786,33.837],[130.779,33.825],[130.789,33.817],[130.787,33.81],[130.79,33.805],[130.788,33.802],[130.797,33.8],[130.8,33.794],[130.801,33.798],[130.805,33.804],[130.801,33.812],[130.805,33.817],[130.808,33.819],[130.808,33.823],[130.815,33.827],[130.819,33.828],[130.825,33.827],[130.829,33.833],[130.841,33.841],[130.84,33.846],[130.841,33.853],[130.848,33.857],[130.846,33.866],[130.844,33.873],[130.836,33.875],[130.835,33.871],[130.825,33.87],[130.826,33.875],[130.822,33.878],[130.821,33.886],[130.816,33.887],[130.807,33.885]]]]}},{"type":"Feature","properties":{"name":"北九州市八幡西区","code":"40109"},"geometry":{"type":"MultiPolygon","coordinates":[[[[130.682,33.888],[130.688,33.88],[130.692,33.878],[130.695,33.872],[130.693,33.868],[130.699,33.862],[130.701,33.858],[130.704,33.858],[130.706,33.853],[130.712,33.849],[130.718,33.844],[130.721,33.839],[130.718,33.834],[130.729,33.831],[130.73,33.825],[130.734,33.822],[130.743,33.82],[130.743,33.816],[130.738,33.814],[130.731,33.813],[130.725,33.803],[130.722,33.807],[130.717,33.807],[130.707,33.804],[130.704,33.801],[130.707,33.796],[130.714,33.788],[130.721,33.774],[130.73,33.774],[130.738,33.771],[130.746,33.772],[130.757,33.769],[130.768,33.777],[130.767,33.782],[130.773,33.786],[130.785,33.785],[130.789,33.78],[130.795,33.78],[130.799,33.777],[130.799,33.786],[130.8,33.794],[130.797,33.8],[130.788,33.802],[130.79,33.805],[130.787,33.81],[130.789,33.817],[130.779,33.825],[130.786,33.837],[130.79,33.84],[130.784,33.844],[130.786,33.857],[130.78,33.864],[130.782,33.878],[130.782,33.882],[130.75,33.874],[130.744,33.888],[130.736,33.892],[130.73,33.896],[130.723,33.899],[130.722,33.893],[130.715,33.885],[130.707,33.886],[130.696,33.885],[130.692,33.884],[130.682,33.888]]]]}},{"type":"Feature","properties":{"name":"福岡市西区","code":"40135"},"geometry":{"type":"MultiPolygon","coordinates":[[[[130.302,33.638],[130.298,33.636],[130.299,33.627],[130.298,33.62],[130.298,33.609],[130.301,33.607],[130.308,33.608],[130.309,33.612],[130.314,33.616],[130.314,33.623],[130.308,33.63],[130.308,33.635],[130.302,33.638]]],[[[130.343,33.596],[130.332,33.597],[130.327,33.594],[130.324,33.594],[130.323,33.598],[130.314,33.598],[130.312,33.588],[130.304,33.583],[130.293,33.58],[130.286,33.583],[130.28,33.581],[130.273,33.583],[130.267,33.587],[130.264,33.594],[130.26,33.591],[130.252,33.597],[130.251,33.6],[130.263,33.603],[130.266,33.597],[130.271,33.596],[130.275,33.61],[130.266,33.613],[130.262,33.611],[130.247,33.612],[130.238,33.614],[130.232,33.617],[130.229,33.623],[130.23,33.626],[130.225,33.632],[130.225,33.637],[130.229,33.638],[130.229,33.642],[130.235,33.644],[130.237,33.649],[130.233,33.651],[130.231,33.655],[130.222,33.659],[130.21,33.667],[130.206,33.664],[130.207,33.656],[130.207,33.647],[130.2,33.645],[130.198,33.64],[130.204,33.635],[130.204,33.632],[130.207,33.629],[130.205,33.623],[130.206,33.61],[130.21,33.606],[130.21,33.597],[130.212,33.589],[130.219,33.581],[130.223,33.579],[130.227,33.581],[130.238,33.58],[130.241,33.573],[130.239,33.567],[130.239,33.559],[130.236,33.555],[130.24,33.552],[130.245,33.558],[130.25,33.556],[130.255,33.558],[130.266,33.557],[130.266,33.55],[130.27,33.547],[130.278,33.544],[130.284,33.54],[130.289,33.539],[130.289,33.531],[130.287,33.526],[130.288,33.523],[130.292,33.519],[130.292,33.513],[130.294,33.508],[130.297,33.506],[130.308,33.506],[130.313,33.507],[130.313,33.512],[130.318,33.515],[130.323,33.521],[130.322,33.537],[130.323,33.548],[130.325,33.553],[130.328,33.576],[130.339,33.582],[130.343,33.588],[130.343,33.596]]],[[[130.229,33.694],[130.224,33.691],[130.227,33.687],[130.233,33.683],[130.237,33.684],[130.238,33.69],[130.235,33.693],[130.229,33.694]]],[[[130.036,33.874],[130.033,33.866],[130.037,33.863],[130.039,33.869],[130.036,33.874]]]]}},{"type":"Feature","properties":{"name":"福岡市東区","code":"40131"},"geometry":{"type":"MultiPolygon","coordinates":[[[[130.421,33.675],[130.416,33.675],[130.402,33.667],[130.395,33.665],[130.398,33.656],[130.414,33.661],[130.418,33.658],[130.426,33.662],[130.428,33.665],[130.425,33.672],[130.421,33.675]]],[[[130.3,33.69],[130.29,33.685],[130.286,33.679],[130.29,33.671],[130.298,33.663],[130.308,33.659],[130.316,33.662],[130.316,33.666],[130.31,33.679],[130.303,33.688],[130.3,33.69]]],[[[130.469,33.68],[130.464,33.683],[130.455,33.68],[130.45,33.69],[130.448,33.698],[130.441,33.699],[130.431,33.708],[130.418,33.713],[130.416,33.707],[130.416,33.703],[130.406,33.694],[130.4,33.687],[130.387,33.679],[130.373,33.672],[130.367,33.669],[130.353,33.666],[130.346,33.662],[130.335,33.66],[130.325,33.66],[130.334,33.649],[130.339,33.652],[130.35,33.648],[130.354,33.644],[130.361,33.644],[130.359,33.649],[130.36,33.658],[130.364,33.66],[130.368,33.665],[130.398,33.671],[130.405,33.675],[130.404,33.681],[130.409,33.684],[130.415,33.684],[130.419,33.686],[130.43,33.687],[130.433,33.683],[130.432,33.679],[130.426,33.675],[130.434,33.662],[130.433,33.659],[130.426,33.661],[130.405,33.652],[130.413,33.648],[130.417,33.649],[130.422,33.647],[130.421,33.641],[130.411,33.644],[130.407,33.642],[130.404,33.634],[130.41,33.633],[130.405,33.629],[130.404,33.623],[130.412,33.62],[130.414,33.617],[130.404,33.619],[130.401,33.618],[130.4,33.614],[130.406,33.61],[130.416,33.606],[130.419,33.609],[130.423,33.606],[130.429,33.609],[130.439,33.606],[130.442,33.606],[130.441,33.613],[130.452,33.619],[130.454,33.625],[130.457,33.624],[130.46,33.629],[130.466,33.631],[130.472,33.637],[130.475,33.634],[130.482,33.63],[130.486,33.627],[130.494,33.632],[130.492,33.642],[130.495,33.646],[130.49,33.649],[130.479,33.649],[130.48,33.654],[130.469,33.667],[130.467,33.674],[130.469,33.68]]]]}},{"type":"Feature","properties":{"name":"福岡市博多区","code":"40132"},"geometry":{"type":"MultiPolygon","coordinates":[[[[130.4,33.614],[130.396,33.61],[130.402,33.605],[130.397,33.603],[130.403,33.593],[130.41,33.588],[130.41,33.583],[130.415,33.577],[130.424,33.574],[130.428,33.569],[130.44,33.563],[130.447,33.556],[130.452,33.549],[130.46,33.539],[130.463,33.536],[130.469,33.538],[130.471,33.544],[130.468,33.548],[130.469,33.553],[130.462,33.561],[130.467,33.563],[130.474,33.553],[130.478,33.553],[130.486,33.56],[130.482,33.565],[130.477,33.567],[130.479,33.573],[130.478,33.578],[130.469,33.587],[130.463,33.591],[130.459,33.597],[130.456,33.596],[130.451,33.602],[130.442,33.606],[130.439,33.606],[130.429,33.609],[130.423,33.606],[130.419,33.609],[130.416,33.606],[130.409,33.611],[130.4,33.614]]]]}},{"type":"Feature","properties":{"name":"福岡市中央区","code":"40133"},"geometry":{"type":"MultiPolygon","coordinates":[[[[130.397,33.603],[130.39,33.61],[130.385,33.608],[130.388,33.602],[130.393,33.597],[130.386,33.594],[130.381,33.603],[130.374,33.605],[130.369,33.602],[130.359,33.597],[130.365,33.582],[130.373,33.579],[130.376,33.571],[130.377,33.562],[130.388,33.56],[130.391,33.558],[130.397,33.562],[130.399,33.566],[130.398,33.57],[130.403,33.573],[130.415,33.577],[130.41,33.583],[130.41,33.588],[130.403,33.593],[130.397,33.603]]]]}},{"type":"Feature","properties":{"name":"福岡市南区","code":"40134"},"geometry":{"type":"MultiPolygon","coordinates":[[[[130.415,33.577],[130.403,33.573],[130.398,33.57],[130.399,33.566],[130.397,33.562],[130.391,33.558],[130.388,33.56],[130.388,33.555],[130.39,33.546],[130.391,33.54],[130.386,33.538],[130.385,33.531],[130.383,33.527],[130.377,33.522],[130.375,33.516],[130.365,33.518],[130.365,33.512],[130.371,33.505],[130.377,33.508],[130.382,33.506],[130.386,33.507],[130.396,33.507],[130.398,33.513],[130.404,33.514],[130.404,33.519],[130.411,33.522],[130.417,33.523],[130.421,33.528],[130.427,33.53],[130.428,33.523],[130.434,33.523],[130.437,33.525],[130.436,33.529],[130.443,33.533],[130.44,33.538],[130.44,33.543],[130.446,33.548],[130.452,33.549],[130.447,33.556],[130.44,33.563],[130.428,33.569],[130.424,33.574],[130.415,33.577]]]]}},{"type":"Feature","properties":{"name":"福岡市城南区","code":"40136"},"geometry":{"type":"MultiPolygon","coordinates":[[[[130.365,33.582],[130.363,33.575],[130.358,33.575],[130.355,33.564],[130.355,33.557],[130.351,33.556],[130.348,33.549],[130.35,33.544],[130.356,33.543],[130.36,33.534],[130.364,33.533],[130.364,33.525],[130.365,33.518],[130.375,33.516],[130.377,33.522],[130.383,33.527],[130.385,33.531],[130.386,33.538],[130.391,33.54],[130.39,33.546],[130.388,33.555],[130.388,33.56],[130.377,33.562],[130.376,33.571],[130.373,33.579],[130.365,33.582]]]]}},{"type":"Feature","properties":{"name":"福岡市早良区","code":"40137"},"geometry":{"type":"MultiPolygon","coordinates":[[[[130.292,33.513],[130.286,33.507],[130.28,33.507],[130.278,33.502],[130.272,33.495],[130.276,33.489],[130.273,33.488],[130.274,33.484],[130.272,33.479],[130.277,33.479],[130.288,33.47],[130.296,33.464],[130.303,33.461],[130.311,33.462],[130.314,33.458],[130.32,33.459],[130.332,33.451],[130.335,33.45],[130.336,33.445],[130.345,33.445],[130.356,33.433],[130.363,33.435],[130.371,33.433],[130.375,33.43],[130.378,33.425],[130.387,33.428],[130.391,33.426],[130.396,33.427],[130.396,33.44],[130.403,33.438],[130.399,33.445],[130.399,33.449],[130.388,33.455],[130.386,33.462],[130.388,33.466],[130.383,33.475],[130.381,33.48],[130.381,33.487],[130.378,33.497],[130.371,33.505],[130.365,33.512],[130.365,33.518],[130.367,33.523],[130.364,33.533],[130.36,33.534],[130.356,33.543],[130.35,33.544],[130.348,33.549],[130.351,33.556],[130.355,33.557],[130.355,33.564],[130.358,33.575],[130.363,33.575],[130.365,33.582],[130.356,33.597],[130.353,33.595],[130.343,33.596],[130.343,33.588],[130.339,33.582],[130.328,33.576],[130.325,33.553],[130.323,33.548],[130.324,33.54],[130.322,33.524],[130.318,33.515],[130.313,33.512],[130.313,33.507],[130.308,33.506],[130.297,33.506],[130.294,33.508],[130.292,33.513]]]]}},{"type":"Feature","properties":{"name":"大牟田市","code":"40202"},"geometry":{"type":"MultiPolygon","coordinates":[[[[130.542,33.082],[130.539,33.09],[130.536,33.091],[130.534,33.086],[130.523,33.083],[130.52,33.087],[130.52,33.091],[130.517,33.096],[130.514,33.098],[130.508,33.098],[130.507,33.092],[130.496,33.09],[130.492,33.087],[130.483,33.085],[130.472,33.089],[130.45,33.088],[130.445,33.079],[130.439,33.076],[130.432,33.075],[130.418,33.072],[130.425,33.053],[130.422,33.045],[130.419,33.036],[130.423,33.03],[130.408,33.017],[130.41,33.013],[130.414,33.017],[130.419,33.008],[130.409,33.009],[130.397,33.005],[130.397,33.0],[130.413,33.004],[130.425,33.005],[130.436,33.005],[130.445,33.002],[130.451,33.004],[130.468,33.003],[130.475,33.001],[130.479,33.003],[130.484,33.002],[130.491,33.003],[130.499,33.007],[130.507,33.004],[130.509,33.007],[130.513,33.008],[130.516,33.014],[130.511,33.023],[130.506,33.026],[130.504,33.034],[130.495,33.049],[130.497,33.052],[130.504,33.056],[130.513,33.062],[130.517,33.066],[130.532,33.066],[130.535,33.078],[130.542,33.082]]]]}},{"type":"Feature","properties":{"name":"久留米市","code":"40203"},"geometry":{"type":"MultiPolygon","coordinates":[[[[130.667,33.362],[130.651,33.363],[130.64,33.358],[130.631,33.353],[130.627,33.362],[130.629,33.367],[130.615,33.367],[130.612,33.366],[130.606,33.367],[130.578,33.367],[130.577,33.36],[130.571,33.355],[130.562,33.355],[130.557,33.351],[130.55,33.348],[130.541,33.346],[130.536,33.343],[130.532,33.345],[130.527,33.34],[130.52,33.34],[130.512,33.344],[130.507,33.341],[130.506,33.331],[130.499,33.326],[130.484,33.333],[130.478,33.329],[130.477,33.326],[130.483,33.321],[130.488,33.32],[130.489,33.316],[130.485,33.306],[130.478,33.304],[130.467,33.305],[130.458,33.303],[130.456,33.294],[130.466,33.29],[130.465,33.285],[130.453,33.283],[130.449,33.278],[130.448,33.275],[130.451,33.27],[130.45,33.265],[130.442,33.264],[130.436,33.27],[130.435,33.276],[130.438,33.284],[130.438,33.289],[130.434,33.292],[130.427,33.29],[130.43,33.286],[130.431,33.281],[130.43,33.275],[130.426,33.271],[130.421,33.272],[130.417,33.267],[130.42,33.262],[130.415,33.253],[130.411,33.25],[130.402,33.249],[130.4,33.259],[130.392,33.26],[130.389,33.257],[130.391,33.249],[130.39,33.245],[130.385,33.24],[130.392,33.239],[130.395,33.232],[130.401,33.23],[130.412,33.232],[130.414,33.228],[130.412,33.225],[130.418,33.226],[130.423,33.224],[130.425,33.23],[130.438,33.229],[130.435,33.237],[130.442,33.237],[130.442,33.244],[130.449,33.242],[130.458,33.237],[130.459,33.23],[130.461,33.224],[130.466,33.228],[130.469,33.228],[130.472,33.234],[130.478,33.242],[130.482,33.24],[130.487,33.244],[130.496,33.244],[130.501,33.247],[130.505,33.245],[130.508,33.247],[130.512,33.254],[130.513,33.26],[130.517,33.258],[130.524,33.259],[130.531,33.258],[130.535,33.26],[130.546,33.26],[130.557,33.265],[130.566,33.266],[130.568,33.274],[130.576,33.277],[130.58,33.275],[130.587,33.269],[130.593,33.273],[130.602,33.274],[130.608,33.28],[130.614,33.283],[130.617,33.286],[130.617,33.291],[130.622,33.293],[130.628,33.292],[130.631,33.296],[130.637,33.299],[130.647,33.298],[130.654,33.301],[130.663,33.302],[130.677,33.304],[130.68,33.302],[130.689,33.304],[130.699,33.305],[130.705,33.306],[130.724,33.302],[130.729,33.303],[130.725,33.321],[130.723,33.325],[130.724,33.338],[130.731,33.34],[130.731,33.347],[130.726,33.347],[130.725,33.351],[130.718,33.353],[130.726,33.358],[130.728,33.353],[130.731,33.353],[130.732,33.359],[130.723,33.361],[130.72,33.359],[130.708,33.36],[130.705,33.364],[130.7,33.362],[130.684,33.363],[130.673,33.362],[130.667,33.362]]]]}},{"type":"Feature","properties":{"name":"直方市","code":"40204"},"geometry":{"type":"MultiPolygon","coordinates":[[[[130.799,33.777],[130.795,33.78],[130.789,33.78],[130.785,33.785],[130.773,33.786],[130.767,33.782],[130.768,33.777],[130.757,33.769],[130.746,33.772],[130.738,33.771],[130.73,33.774],[130.721,33.774],[130.714,33.785],[130.707,33.796],[130.7,33.791],[130.695,33.785],[130.7,33.777],[130.698,33.768],[130.693,33.768],[130.68,33.763],[130.684,33.748],[130.687,33.744],[130.694,33.747],[130.698,33.747],[130.707,33.743],[130.71,33.735],[130.714,33.733],[130.72,33.729],[130.724,33.732],[130.727,33.729],[130.727,33.718],[130.727,33.707],[130.734,33.705],[130.739,33.7],[130.744,33.702],[130.747,33.704],[130.746,33.709],[130.748,33.716],[130.773,33.723],[130.782,33.727],[130.789,33.739],[130.792,33.741],[130.797,33.739],[130.804,33.742],[130.805,33.75],[130.802,33.759],[130.799,33.765],[130.802,33.771],[130.799,33.777]]]]}},{"type":"Feature","properties":{"name":"飯塚市","code":"40205"},"geometry":{"type":"MultiPolygon","coordinates":[[[[130.727,33.707],[130.726,33.702],[130.721,33.7],[130.716,33.702],[130.712,33.701],[130.712,33.696],[130.715,33.693],[130.713,33.688],[130.708,33.683],[130.703,33.682],[130.699,33.685],[130.689,33.685],[130.685,33.686],[130.682,33.683],[130.678,33.683],[130.675,33.688],[130.671,33.691],[130.659,33.691],[130.65,33.687],[130.643,33.688],[130.639,33.683],[130.639,33.678],[130.637,33.672],[130.627,33.666],[130.622,33.669],[130.62,33.665],[130.62,33.66],[130.616,33.656],[130.609,33.651],[130.604,33.653],[130.597,33.651],[130.586,33.649],[130.582,33.647],[130.575,33.638],[130.586,33.632],[130.587,33.626],[130.584,33.619],[130.592,33.619],[130.597,33.616],[130.594,33.609],[130.586,33.603],[130.58,33.603],[130.568,33.607],[130.561,33.6],[130.563,33.593],[130.566,33.591],[130.568,33.58],[130.573,33.577],[130.575,33.568],[130.579,33.565],[130.58,33.559],[130.584,33.555],[130.596,33.546],[130.598,33.538],[130.612,33.525],[130.61,33.52],[130.618,33.516],[130.621,33.506],[130.628,33.505],[130.635,33.507],[130.642,33.506],[130.649,33.51],[130.653,33.511],[130.659,33.508],[130.662,33.504],[130.666,33.517],[130.663,33.523],[130.667,33.529],[130.672,33.529],[130.669,33.535],[130.671,33.539],[130.677,33.545],[130.678,33.551],[130.673,33.554],[130.666,33.552],[130.664,33.563],[130.661,33.567],[130.666,33.579],[130.659,33.58],[130.66,33.587],[130.656,33.589],[130.649,33.589],[130.654,33.596],[130.667,33.597],[130.67,33.6],[130.677,33.6],[130.682,33.602],[130.685,33.597],[130.691,33.596],[130.7,33.6],[130.701,33.615],[130.703,33.623],[130.706,33.624],[130.715,33.616],[130.722,33.619],[130.733,33.613],[130.74,33.613],[130.739,33.607],[130.741,33.601],[130.745,33.595],[130.751,33.589],[130.762,33.586],[130.765,33.592],[130.773,33.595],[130.772,33.599],[130.776,33.603],[130.775,33.609],[130.77,33.612],[130.764,33.612],[130.759,33.619],[130.759,33.622],[130.754,33.629],[130.75,33.632],[130.751,33.635],[130.748,33.64],[130.752,33.644],[130.754,33.65],[130.757,33.65],[130.76,33.654],[130.757,33.664],[130.753,33.673],[130.752,33.681],[130.755,33.685],[130.748,33.7],[130.744,33.702],[130.739,33.7],[130.734,33.705],[130.729,33.704]]]]}},{"type":"Feature","properties":{"name":"田川市","code":"40206"},"geometry":{"type":"MultiPolygon","coordinates":[[[[130.762,33.586],[130.764,33.582],[130.775,33.575],[130.773,33.571],[130.777,33.569],[130.785,33.568],[130.79,33.573],[130.795,33.575],[130.793,33.578],[130.798,33.582],[130.797,33.589],[130.8,33.594],[130.796,33.599],[130.801,33.612],[130.794,33.617],[130.795,33.623],[130.799,33.624],[130.817,33.617],[130.823,33.613],[130.824,33.61],[130.83,33.61],[130.832,33.605],[130.84,33.611],[130.843,33.616],[130.846,33.617],[130.841,33.627],[130.836,33.632],[130.838,33.638],[130.843,33.64],[130.843,33.645],[130.834,33.65],[130.83,33.654],[130.835,33.656],[130.837,33.661],[130.829,33.661],[130.825,33.665],[130.825,33.669],[130.828,33.681],[130.826,33.688],[130.829,33.695],[130.819,33.694],[130.811,33.695],[130.806,33.691],[130.807,33.683],[130.804,33.68],[130.808,33.671],[130.792,33.67],[130.793,33.667],[130.788,33.666],[130.793,33.656],[130.793,33.651],[130.772,33.644],[130.765,33.643],[130.758,33.639],[130.752,33.644],[130.748,33.64],[130.751,33.635],[130.75,33.632],[130.754,33.629],[130.759,33.622],[130.759,33.619],[130.764,33.612],[130.77,33.612],[130.775,33.609],[130.776,33.603],[130.772,33.599],[130.773,33.595],[130.765,33.592],[130.762,33.586]]]]}},{"type":"Feature","properties":{"name":"柳川市","code":"40207"},"geometry":{"type":"MultiPolygon","coordinates":[[[[130.428,33.194],[130.42,33.195],[130.402,33.193],[130.398,33.189],[130.397,33.185],[130.392,33.179],[130.388,33.183],[130.38,33.186],[130.372,33.186],[130.369,33.183],[130.366,33.178],[130.368,33.174],[130.363,33.171],[130.36,33.173],[130.352,33.171],[130.354,33.162],[130.356,33.154],[130.356,33.14],[130.367,33.139],[130.373,33.141],[130.374,33.136],[130.377,33.128],[130.373,33.123],[130.373,33.12],[130.388,33.111],[130.398,33.108],[130.388,33.097],[130.412,33.087],[130.419,33.092],[130.431,33.108],[130.435,33.115],[130.437,33.12],[130.443,33.123],[130.448,33.134],[130.454,33.139],[130.452,33.143],[130.454,33.147],[130.461,33.148],[130.462,33.155],[130.461,33.159],[130.453,33.162],[130.459,33.164],[130.459,33.168],[130.475,33.167],[130.476,33.171],[130.465,33.172],[130.456,33.176],[130.46,33.18],[130.457,33.186],[130.446,33.185],[130.435,33.181],[130.435,33.187],[130.43,33.195]]]]}},{"type":"Feature","properties":{"name":"八女市","code":"40210"},"geometry":{"type":"MultiPolygon","coordinates":[[[[130.617,33.286],[130.617,33.279],[130.618,33.271],[130.62,33.266],[130.619,33.26],[130.627,33.248],[130.63,33.238],[130.623,33.236],[130.619,33.237],[130.611,33.237],[130.606,33.238],[130.603,33.245],[130.599,33.245],[130.587,33.238],[130.578,33.235],[130.57,33.235],[130.56,33.232],[130.551,33.232],[130.545,33.23],[130.535,33.234],[130.529,33.232],[130.524,33.233],[130.519,33.231],[130.526,33.23],[130.521,33.226],[130.523,33.216],[130.52,33.216],[130.522,33.206],[130.517,33.201],[130.523,33.199],[130.528,33.201],[130.526,33.193],[130.536,33.184],[130.542,33.185],[130.546,33.182],[130.542,33.179],[130.54,33.17],[130.539,33.16],[130.541,33.155],[130.547,33.158],[130.553,33.155],[130.55,33.144],[130.554,33.139],[130.552,33.129],[130.552,33.125],[130.557,33.12],[130.558,33.113],[130.556,33.107],[130.562,33.104],[130.571,33.107],[130.573,33.112],[130.58,33.116],[130.585,33.116],[130.59,33.114],[130.601,33.115],[130.607,33.11],[130.616,33.109],[130.621,33.111],[130.634,33.113],[130.64,33.113],[130.656,33.109],[130.655,33.115],[130.66,33.118],[130.66,33.125],[130.663,33.135],[130.669,33.139],[130.666,33.143],[130.668,33.157],[130.679,33.164],[130.678,33.167],[130.68,33.171],[130.685,33.169],[130.693,33.16],[130.691,33.155],[130.693,33.151],[130.697,33.154],[130.704,33.152],[130.709,33.152],[130.712,33.155],[130.723,33.152],[130.728,33.154],[130.735,33.153],[130.737,33.146],[130.742,33.143],[130.745,33.143],[130.75,33.139],[130.754,33.137],[130.755,33.134],[130.759,33.132],[130.764,33.132],[130.765,33.129],[130.771,33.124],[130.778,33.123],[130.782,33.125],[130.789,33.124],[130.799,33.12],[130.807,33.116],[130.812,33.117],[130.821,33.111],[130.82,33.107],[130.837,33.105],[130.843,33.106],[130.853,33.109],[130.856,33.113],[130.862,33.118],[130.859,33.121],[130.863,33.123],[130.866,33.127],[130.867,33.134],[130.871,33.142],[130.871,33.148],[130.88,33.153],[130.877,33.159],[130.877,33.165],[130.874,33.168],[130.878,33.174],[130.886,33.176],[130.887,33.186],[130.875,33.189],[130.87,33.194],[130.864,33.193],[130.859,33.198],[130.847,33.203],[130.844,33.207],[130.836,33.211],[130.839,33.217],[130.844,33.219],[130.845,33.223],[130.849,33.223],[130.86,33.229],[130.853,33.232],[130.833,33.234],[130.826,33.237],[130.825,33.241],[130.827,33.245],[130.825,33.253],[130.819,33.258],[130.814,33.257],[130.804,33.263],[130.793,33.264],[130.792,33.27],[130.787,33.271],[130.781,33.269],[130.773,33.275],[130.768,33.282],[130.752,33.283],[130.747,33.28],[130.743,33.281],[130.739,33.285],[130.73,33.288],[130.73,33.292],[130.725,33.296],[130.724,33.302],[130.705,33.306],[130.699,33.305],[130.689,33.306],[130.68,33.302],[130.677,33.304],[130.663,33.302],[130.654,33.301],[130.647,33.298],[130.637,33.299],[130.631,33.296],[130.628,33.292],[130.622,33.293],[130.617,33.291],[130.617,33.286]]]]}},{"type":"Feature","properties":{"name":"筑後市","code":"40211"},"geometry":{"type":"MultiPolygon","coordinates":[[[[130.464,33.224],[130.461,33.221],[130.458,33.207],[130.452,33.205],[130.454,33.192],[130.46,33.191],[130.457,33.186],[130.46,33.18],[130.456,33.176],[130.465,33.174],[130.476,33.171],[130.477,33.183],[130.488,33.183],[130.49,33.178],[130.487,33.177],[130.488,33.173],[130.496,33.173],[130.502,33.18],[130.505,33.183],[130.514,33.181],[130.526,33.182],[130.536,33.184],[130.526,33.193],[130.528,33.201],[130.523,33.199],[130.517,33.201],[130.522,33.206],[130.52,33.216],[130.523,33.216],[130.521,33.226],[130.526,33.23],[130.519,33.23],[130.514,33.238],[130.509,33.239],[130.513,33.248],[130.512,33.254],[130.508,33.247],[130.505,33.245],[130.501,33.247],[130.496,33.244],[130.487,33.244],[130.482,33.24],[130.478,33.242],[130.475,33.233],[130.469,33.228],[130.466,33.228],[130.464,33.224]]]]}},{"type":"Feature","properties":{"name":"大川市","code":"40212"},"geometry":{"type":"MultiPolygon","coordinates":[[[[130.385,33.24],[130.379,33.241],[130.373,33.244],[130.37,33.24],[130.371,33.236],[130.379,33.229],[130.379,33.222],[130.362,33.215],[130.355,33.209],[130.343,33.208],[130.34,33.205],[130.341,33.188],[130.347,33.182],[130.353,33.18],[130.352,33.171],[130.36,33.173],[130.363,33.171],[130.368,33.174],[130.366,33.178],[130.369,33.183],[130.372,33.186],[130.379,33.183],[130.388,33.183],[130.392,33.179],[130.397,33.185],[130.398,33.189],[130.402,33.193],[130.42,33.195],[130.421,33.2],[130.419,33.203],[130.421,33.208],[130.419,33.211],[130.423,33.221],[130.413,33.223],[130.414,33.228],[130.412,33.232],[130.401,33.23],[130.395,33.232],[130.392,33.239],[130.385,33.24]]]]}},{"type":"Feature","properties":{"name":"行橋市","code":"40213"},"geometry":{"type":"MultiPolygon","coordinates":[[[[130.894,33.734],[130.899,33.722],[130.904,33.72],[130.906,33.714],[130.912,33.712],[130.914,33.721],[130.918,33.721],[130.931,33.72],[130.939,33.711],[130.935,33.708],[130.929,33.699],[130.93,33.695],[130.928,33.682],[130.928,33.678],[130.926,33.672],[130.934,33.672],[130.939,33.674],[130.949,33.678],[130.955,33.678],[130.965,33.687],[130.969,33.687],[130.971,33.691],[130.977,33.69],[130.984,33.692],[130.99,33.689],[130.995,33.695],[131.003,33.69],[131.005,33.686],[131.004,33.681],[131.006,33.678],[131.011,33.676],[131.016,33.679],[131.023,33.683],[131.03,33.679],[131.037,33.68],[131.046,33.685],[131.046,33.689],[131.039,33.692],[131.035,33.702],[131.031,33.705],[131.025,33.717],[131.021,33.731],[131.015,33.735],[131.018,33.739],[131.019,33.745],[131.016,33.751],[131.01,33.75],[131.012,33.747],[131.008,33.744],[131.004,33.75],[131.0,33.749],[130.992,33.743],[130.986,33.741],[130.979,33.745],[130.976,33.742],[130.97,33.742],[130.965,33.739],[130.959,33.738],[130.951,33.736],[130.943,33.737],[130.932,33.741],[130.929,33.745],[130.924,33.745],[130.918,33.748],[130.91,33.749],[130.902,33.753],[130.899,33.747],[130.897,33.741],[130.894,33.734]]]]}},{"type":"Feature","properties":{"name":"豊前市","code":"40214"},"geometry":{"type":"MultiPolygon","coordinates":[[[[131.166,33.617],[131.162,33.616],[131.155,33.62],[131.148,33.623],[131.132,33.627],[131.124,33.626],[131.121,33.63],[131.115,33.631],[131.113,33.624],[131.108,33.624],[131.109,33.618],[131.1,33.618],[131.094,33.628],[131.087,33.634],[131.082,33.626],[131.077,33.624],[131.066,33.609],[131.056,33.603],[131.049,33.596],[131.046,33.587],[131.036,33.573],[131.029,33.565],[131.024,33.564],[131.012,33.554],[131.012,33.549],[131.009,33.544],[131.011,33.54],[131.002,33.533],[130.994,33.527],[130.99,33.517],[130.99,33.509],[130.998,33.51],[131.001,33.512],[131.015,33.509],[131.019,33.513],[131.027,33.514],[131.03,33.519],[131.036,33.519],[131.042,33.514],[131.053,33.508],[131.063,33.51],[131.068,33.509],[131.076,33.518],[131.082,33.519],[131.091,33.525],[131.095,33.531],[131.093,33.536],[131.11,33.543],[131.113,33.548],[131.116,33.554],[131.119,33.557],[131.122,33.568],[131.128,33.574],[131.131,33.579],[131.138,33.583],[131.142,33.586],[131.152,33.59],[131.157,33.598],[131.153,33.602],[131.16,33.608],[131.166,33.617]]]]}},{"type":"Feature","properties":{"name":"中間市","code":"40215"},"geometry":{"type":"MultiPolygon","coordinates":[[[[130.718,33.834],[130.709,33.839],[130.702,33.842],[130.703,33.835],[130.696,33.83],[130.691,33.834],[130.685,33.831],[130.677,33.83],[130.675,33.827],[130.669,33.823],[130.67,33.82],[130.674,33.822],[130.679,33.817],[130.681,33.811],[130.688,33.813],[130.692,33.807],[130.701,33.806],[130.704,33.801],[130.707,33.804],[130.717,33.807],[130.722,33.807],[130.725,33.803],[130.731,33.813],[130.738,33.814],[130.743,33.816],[130.743,33.82],[130.734,33.822],[130.73,33.825],[130.729,33.831],[130.718,33.834]]]]}},{"type":"Feature","properties":{"name":"小郡市","code":"40216"},"geometry":{"type":"MultiPolygon","coordinates":[[[[130.578,33.367],[130.578,33.373],[130.583,33.383],[130.593,33.403],[130.599,33.403],[130.6,33.41],[130.609,33.412],[130.605,33.419],[130.586,33.43],[130.58,33.437],[130.572,33.441],[130.561,33.448],[130.554,33.45],[130.552,33.444],[130.54,33.442],[130.536,33.439],[130.535,33.434],[130.537,33.426],[130.541,33.421],[130.542,33.404],[130.542,33.366],[130.536,33.343],[130.541,33.346],[130.55,33.345],[130.557,33.351],[130.562,33.355],[130.571,33.355],[130.577,33.36],[130.578,33.367]]]]}},{"type":"Feature","properties":{"name":"筑紫野市","code":"40217"},"geometry":{"type":"MultiPolygon","coordinates":[[[[130.584,33.555],[130.579,33.553],[130.575,33.545],[130.572,33.542],[130.569,33.54],[130.565,33.531],[130.561,33.529],[130.558,33.524],[130.55,33.521],[130.547,33.524],[130.542,33.522],[130.54,33.515],[130.546,33.51],[130.549,33.506],[130.547,33.498],[130.541,33.491],[130.536,33.493],[130.531,33.498],[130.531,33.503],[130.521,33.507],[130.52,33.503],[130.514,33.5],[130.508,33.5],[130.503,33.506],[130.496,33.496],[130.496,33.49],[130.493,33.484],[130.495,33.48],[130.494,33.475],[130.49,33.47],[130.482,33.465],[130.475,33.466],[130.466,33.466],[130.464,33.462],[130.457,33.457],[130.458,33.453],[130.461,33.445],[130.457,33.442],[130.456,33.436],[130.458,33.431],[130.461,33.428],[130.474,33.435],[130.48,33.436],[130.491,33.44],[130.496,33.445],[130.504,33.447],[130.51,33.444],[130.511,33.449],[130.522,33.446],[130.534,33.441],[130.54,33.442],[130.55,33.441],[130.554,33.45],[130.561,33.448],[130.571,33.443],[130.58,33.437],[130.585,33.441],[130.576,33.445],[130.571,33.453],[130.566,33.457],[130.562,33.463],[130.562,33.474],[130.566,33.477],[130.572,33.474],[130.58,33.473],[130.588,33.481],[130.589,33.486],[130.602,33.489],[130.61,33.493],[130.61,33.496],[130.619,33.505],[130.618,33.516],[130.612,33.517],[130.612,33.525],[130.598,33.538],[130.595,33.543],[130.586,33.552]]]]}},{"type":"Feature","properties":{"name":"春日市","code":"40218"},"geometry":{"type":"MultiPolygon","coordinates":[[[[130.452,33.549],[130.446,33.548],[130.44,33.543],[130.44,33.538],[130.443,33.533],[130.436,33.529],[130.437,33.525],[130.434,33.523],[130.439,33.514],[130.448,33.509],[130.445,33.503],[130.45,33.499],[130.455,33.501],[130.461,33.505],[130.47,33.51],[130.475,33.511],[130.475,33.515],[130.478,33.52],[130.479,33.528],[130.475,33.531],[130.477,33.536],[130.473,33.539],[130.469,33.538],[130.463,33.536],[130.46,33.539],[130.452,33.549]]]]}},{"type":"Feature","properties":{"name":"大野城市","code":"40219"},"geometry":{"type":"MultiPolygon","coordinates":[[[[130.469,33.538],[130.473,33.539],[130.477,33.536],[130.475,33.531],[130.479,33.528],[130.478,33.52],[130.475,33.515],[130.475,33.511],[130.47,33.51],[130.461,33.505],[130.455,33.501],[130.45,33.499],[130.456,33.471],[130.462,33.47],[130.466,33.466],[130.473,33.464],[130.482,33.465],[130.49,33.47],[130.486,33.482],[130.483,33.49],[130.484,33.5],[130.489,33.504],[130.486,33.51],[130.495,33.52],[130.489,33.53],[130.494,33.533],[130.5,33.531],[130.514,33.537],[130.508,33.543],[130.509,33.547],[130.503,33.55],[130.504,33.554],[130.502,33.56],[130.499,33.561],[130.489,33.559],[130.486,33.56],[130.478,33.553],[130.474,33.553],[130.467,33.563],[130.462,33.561],[130.469,33.553],[130.468,33.548],[130.471,33.544],[130.469,33.538]]]]}},{"type":"Feature","properties":{"name":"宗像市","code":"40220"},"geometry":{"type":"MultiPolygon","coordinates":[[[[130.543,33.889],[130.529,33.888],[130.53,33.881],[130.528,33.873],[130.521,33.863],[130.511,33.857],[130.496,33.852],[130.488,33.851],[130.482,33.853],[130.482,33.849],[130.483,33.845],[130.49,33.845],[130.494,33.837],[130.5,33.831],[130.499,33.818],[130.505,33.812],[130.498,33.804],[130.499,33.799],[130.495,33.794],[130.508,33.788],[130.517,33.781],[130.521,33.775],[130.526,33.78],[130.535,33.78],[130.539,33.778],[130.539,33.774],[130.545,33.772],[130.542,33.764],[130.549,33.758],[130.552,33.751],[130.555,33.751],[130.56,33.755],[130.578,33.756],[130.584,33.757],[130.591,33.762],[130.599,33.762],[130.604,33.765],[130.601,33.771],[130.605,33.777],[130.613,33.777],[130.615,33.782],[130.619,33.783],[130.623,33.781],[130.632,33.78],[130.631,33.785],[130.634,33.791],[130.64,33.791],[130.634,33.8],[130.633,33.804],[130.637,33.807],[130.636,33.813],[130.629,33.816],[130.624,33.821],[130.613,33.823],[130.608,33.822],[130.603,33.823],[130.597,33.819],[130.592,33.818],[130.586,33.824],[130.583,33.833],[130.582,33.841],[130.572,33.845],[130.567,33.854],[130.57,33.857],[130.564,33.864],[130.557,33.864],[130.552,33.87],[130.542,33.884],[130.543,33.889]]],[[[130.489,33.913],[130.495,33.905],[130.496,33.899],[130.501,33.895],[130.506,33.897],[130.507,33.901],[130.499,33.907],[130.497,33.912],[130.489,33.913]]],[[[130.439,33.915],[130.431,33.913],[130.428,33.909],[130.419,33.913],[130.41,33.911],[130.407,33.896],[130.41,33.893],[130.427,33.887],[130.431,33.888],[130.432,33.896],[130.438,33.902],[130.448,33.912],[130.444,33.915],[130.439,33.915]]],[[[130.112,34.25],[130.103,34.249],[130.098,34.242],[130.105,34.24],[130.112,34.246],[130.112,34.25]]]]}},{"type":"Feature","properties":{"name":"太宰府市","code":"40221"},"geometry":{"type":"MultiPolygon","coordinates":[[[[130.572,33.542],[130.566,33.545],[130.557,33.552],[130.549,33.556],[130.541,33.555],[130.542,33.549],[130.534,33.544],[130.529,33.543],[130.529,33.536],[130.52,33.53],[130.514,33.533],[130.514,33.537],[130.5,33.531],[130.494,33.533],[130.489,33.53],[130.495,33.52],[130.486,33.513],[130.489,33.504],[130.484,33.5],[130.483,33.49],[130.487,33.483],[130.49,33.47],[130.494,33.475],[130.495,33.48],[130.493,33.484],[130.496,33.49],[130.496,33.496],[130.503,33.506],[130.508,33.5],[130.514,33.5],[130.52,33.503],[130.521,33.507],[130.529,33.506],[130.531,33.498],[130.536,33.493],[130.541,33.491],[130.547,33.498],[130.547,33.504],[130.546,33.51],[130.54,33.513],[130.542,33.522],[130.547,33.524],[130.55,33.521],[130.558,33.524],[130.561,33.529],[130.565,33.531],[130.569,33.54],[130.572,33.542]]]]}},{"type":"Feature","properties":{"name":"古賀市","code":"40223"},"geometry":{"type":"MultiPolygon","coordinates":[[[[130.548,33.731],[130.542,33.735],[130.541,33.738],[130.513,33.741],[130.509,33.74],[130.499,33.745],[130.489,33.747],[130.481,33.752],[130.477,33.752],[130.467,33.754],[130.461,33.741],[130.458,33.736],[130.447,33.725],[130.459,33.719],[130.462,33.714],[130.469,33.708],[130.468,33.703],[130.467,33.696],[130.473,33.694],[130.478,33.695],[130.492,33.692],[130.5,33.697],[130.505,33.689],[130.508,33.687],[130.513,33.688],[130.519,33.693],[130.522,33.702],[130.533,33.71],[130.541,33.711],[130.545,33.71],[130.548,33.718],[130.559,33.72],[130.558,33.724],[130.554,33.728],[130.548,33.731]]]]}},{"type":"Feature","properties":{"name":"福津市","code":"40224"},"geometry":{"type":"MultiPolygon","coordinates":[[[[130.48,33.851],[130.482,33.843],[130.478,33.828],[130.473,33.819],[130.466,33.812],[130.452,33.811],[130.448,33.817],[130.444,33.815],[130.446,33.809],[130.45,33.806],[130.451,33.802],[130.446,33.795],[130.446,33.791],[130.45,33.785],[130.461,33.788],[130.466,33.786],[130.47,33.779],[130.471,33.774],[130.469,33.758],[130.467,33.754],[130.477,33.752],[130.481,33.752],[130.489,33.747],[130.499,33.745],[130.509,33.74],[130.513,33.741],[130.541,33.738],[130.542,33.735],[130.548,33.731],[130.549,33.734],[130.553,33.738],[130.552,33.744],[130.555,33.751],[130.552,33.751],[130.549,33.758],[130.542,33.764],[130.545,33.772],[130.539,33.774],[130.539,33.778],[130.535,33.78],[130.526,33.78],[130.521,33.775],[130.517,33.781],[130.508,33.788],[130.495,33.794],[130.499,33.799],[130.498,33.804],[130.505,33.809],[130.499,33.818],[130.5,33.831],[130.494,33.837],[130.49,33.845],[130.483,33.845],[130.482,33.849]]]]}},{"type":"Feature","properties":{"name":"うきは市","code":"40225"},"geometry":{"type":"MultiPolygon","coordinates":[[[[130.724,33.302],[130.725,33.296],[130.73,33.292],[130.73,33.288],[130.739,33.285],[130.743,33.281],[130.747,33.28],[130.752,33.283],[130.768,33.282],[130.773,33.275],[130.781,33.269],[130.787,33.271],[130.792,33.27],[130.793,33.264],[130.804,33.263],[130.814,33.257],[130.819,33.258],[130.825,33.253],[130.829,33.257],[130.838,33.258],[130.845,33.258],[130.849,33.261],[130.855,33.263],[130.864,33.261],[130.868,33.264],[130.868,33.268],[130.861,33.267],[130.857,33.27],[130.856,33.275],[130.852,33.277],[130.857,33.285],[130.864,33.289],[130.865,33.297],[130.862,33.303],[130.856,33.319],[130.854,33.325],[130.855,33.329],[130.851,33.337],[130.845,33.339],[130.835,33.344],[130.829,33.35],[130.818,33.356],[130.815,33.359],[130.809,33.36],[130.795,33.355],[130.789,33.349],[130.782,33.349],[130.777,33.353],[130.773,33.361],[130.764,33.361],[130.759,33.365],[130.754,33.364],[130.748,33.365],[130.747,33.36],[130.74,33.363],[130.732,33.373],[130.727,33.373],[130.723,33.367],[130.723,33.361],[130.732,33.359],[130.731,33.353],[130.728,33.353],[130.726,33.358],[130.719,33.356],[130.725,33.351],[130.726,33.347],[130.731,33.347],[130.731,33.34],[130.726,33.34],[130.723,33.325],[130.725,33.321],[130.729,33.303],[130.724,33.302]]]]}},{"type":"Feature","properties":{"name":"宮若市","code":"40226"},"geometry":{"type":"MultiPolygon","coordinates":[[[[130.684,33.748],[130.668,33.741],[130.659,33.74],[130.655,33.743],[130.655,33.748],[130.652,33.751],[130.652,33.763],[130.649,33.771],[130.645,33.782],[130.64,33.791],[130.634,33.791],[130.631,33.785],[130.632,33.78],[130.623,33.781],[130.619,33.783],[130.615,33.782],[130.613,33.777],[130.605,33.777],[130.601,33.771],[130.604,33.765],[130.599,33.762],[130.591,33.762],[130.585,33.76],[130.578,33.756],[130.56,33.755],[130.555,33.751],[130.552,33.744],[130.553,33.738],[130.549,33.734],[130.548,33.731],[130.554,33.728],[130.558,33.724],[130.559,33.72],[130.548,33.718],[130.545,33.71],[130.543,33.703],[130.541,33.698],[130.545,33.694],[130.54,33.681],[130.541,33.676],[130.55,33.673],[130.551,33.668],[130.562,33.666],[130.571,33.663],[130.575,33.658],[130.574,33.654],[130.569,33.651],[130.566,33.647],[130.573,33.641],[130.575,33.638],[130.582,33.647],[130.586,33.649],[130.597,33.651],[130.604,33.653],[130.609,33.651],[130.616,33.656],[130.62,33.66],[130.62,33.665],[130.622,33.669],[130.627,33.666],[130.637,33.672],[130.639,33.678],[130.639,33.683],[130.643,33.688],[130.65,33.687],[130.659,33.691],[130.671,33.691],[130.673,33.696],[130.681,33.699],[130.683,33.703],[130.686,33.699],[130.696,33.699],[130.699,33.701],[130.697,33.705],[130.695,33.72],[130.704,33.726],[130.711,33.725],[130.71,33.73],[130.714,33.733],[130.71,33.735],[130.707,33.743],[130.698,33.747],[130.694,33.747],[130.687,33.744],[130.684,33.748]]]]}},{"type":"Feature","properties":{"name":"嘉麻市","code":"40227"},"geometry":{"type":"MultiPolygon","coordinates":[[[[130.7,33.6],[130.705,33.591],[130.704,33.582],[130.699,33.57],[130.692,33.566],[130.694,33.557],[130.691,33.551],[130.687,33.551],[130.685,33.542],[130.681,33.538],[130.677,33.531],[130.672,33.529],[130.667,33.529],[130.663,33.523],[130.666,33.517],[130.664,33.506],[130.669,33.498],[130.673,33.499],[130.682,33.493],[130.687,33.491],[130.712,33.491],[130.717,33.486],[130.727,33.484],[130.742,33.488],[130.749,33.485],[130.759,33.488],[130.766,33.488],[130.78,33.482],[130.787,33.48],[130.791,33.471],[130.806,33.472],[130.809,33.475],[130.808,33.483],[130.812,33.487],[130.818,33.489],[130.814,33.493],[130.814,33.497],[130.811,33.502],[130.81,33.51],[130.804,33.511],[130.804,33.517],[130.807,33.537],[130.803,33.547],[130.793,33.556],[130.792,33.56],[130.785,33.568],[130.777,33.569],[130.773,33.571],[130.775,33.575],[130.764,33.582],[130.762,33.586],[130.751,33.589],[130.745,33.595],[130.741,33.601],[130.739,33.607],[130.74,33.613],[130.733,33.613],[130.722,33.619],[130.715,33.616],[130.706,33.624],[130.703,33.623],[130.698,33.618],[130.698,33.602]]]]}},{"type":"Feature","properties":{"name":"朝倉市","code":"40228"},"geometry":{"type":"MultiPolygon","coordinates":[[[[130.723,33.361],[130.723,33.367],[130.727,33.373],[130.732,33.373],[130.74,33.363],[130.747,33.36],[130.748,33.365],[130.754,33.364],[130.759,33.365],[130.764,33.361],[130.773,33.361],[130.777,33.353],[130.782,33.349],[130.789,33.349],[130.795,33.355],[130.809,33.36],[130.815,33.359],[130.818,33.356],[130.829,33.35],[130.835,33.344],[130.84,33.346],[130.842,33.35],[130.85,33.354],[130.862,33.363],[130.86,33.373],[130.859,33.388],[130.857,33.393],[130.86,33.4],[130.854,33.408],[130.851,33.409],[130.849,33.418],[130.842,33.416],[130.837,33.421],[130.834,33.428],[130.834,33.433],[130.831,33.439],[130.829,33.447],[130.818,33.457],[130.811,33.458],[130.803,33.455],[130.798,33.457],[130.791,33.454],[130.787,33.455],[130.783,33.452],[130.777,33.451],[130.77,33.453],[130.771,33.456],[130.775,33.458],[130.78,33.467],[130.783,33.469],[130.791,33.471],[130.787,33.48],[130.78,33.482],[130.766,33.488],[130.759,33.488],[130.75,33.487],[130.742,33.488],[130.727,33.484],[130.717,33.486],[130.712,33.491],[130.689,33.494],[130.682,33.493],[130.673,33.499],[130.669,33.498],[130.665,33.493],[130.666,33.486],[130.659,33.473],[130.655,33.47],[130.653,33.464],[130.649,33.461],[130.648,33.456],[130.649,33.452],[130.647,33.448],[130.655,33.446],[130.659,33.441],[130.658,33.436],[130.654,33.431],[130.646,33.423],[130.636,33.412],[130.624,33.412],[130.616,33.407],[130.615,33.4],[130.618,33.396],[130.624,33.394],[130.626,33.391],[130.646,33.386],[130.645,33.379],[130.64,33.373],[130.647,33.372],[130.652,33.374],[130.654,33.368],[130.667,33.362],[130.673,33.362],[130.684,33.363],[130.7,33.362],[130.705,33.364],[130.708,33.36],[130.72,33.359],[130.723,33.361]]]]}},{"type":"Feature","properties":{"name":"みやま市","code":"40229"},"geometry":{"type":"MultiPolygon","coordinates":[[[[130.542,33.082],[130.547,33.081],[130.549,33.084],[130.552,33.083],[130.556,33.086],[130.566,33.087],[130.565,33.092],[130.561,33.096],[130.562,33.104],[130.556,33.107],[130.558,33.113],[130.557,33.12],[130.552,33.125],[130.552,33.129],[130.554,33.139],[130.55,33.144],[130.553,33.155],[130.547,33.158],[130.541,33.155],[130.539,33.16],[130.54,33.17],[130.542,33.179],[130.546,33.182],[130.542,33.185],[130.536,33.184],[130.526,33.182],[130.514,33.181],[130.505,33.183],[130.502,33.18],[130.496,33.173],[130.488,33.173],[130.487,33.177],[130.49,33.178],[130.488,33.183],[130.477,33.183],[130.476,33.171],[130.475,33.167],[130.459,33.168],[130.459,33.164],[130.453,33.162],[130.461,33.159],[130.462,33.155],[130.461,33.148],[130.454,33.147],[130.452,33.143],[130.454,33.139],[130.448,33.134],[130.443,33.123],[130.437,33.12],[130.435,33.115],[130.431,33.108],[130.419,33.092],[130.412,33.087],[130.412,33.081],[130.418,33.072],[130.432,33.075],[130.439,33.076],[130.445,33.079],[130.451,33.085],[130.472,33.089],[130.483,33.085],[130.492,33.087],[130.496,33.09],[130.507,33.092],[130.508,33.098],[130.514,33.098],[130.517,33.096],[130.52,33.091],[130.52,33.087],[130.523,33.083],[130.531,33.084],[130.536,33.091],[130.539,33.09],[130.542,33.082]]]]}},{"type":"Feature","properties":{"name":"糸島市","code":"40230"},"geometry":{"type":"MultiPolygon","coordinates":[[[[130.048,33.576],[130.044,33.572],[130.045,33.569],[130.05,33.566],[130.054,33.571],[130.053,33.575],[130.048,33.576]]],[[[130.198,33.64],[130.184,33.633],[130.18,33.633],[130.175,33.63],[130.169,33.63],[130.157,33.628],[130.154,33.621],[130.158,33.615],[130.162,33.613],[130.161,33.608],[130.154,33.601],[130.149,33.597],[130.138,33.592],[130.128,33.59],[130.118,33.592],[130.108,33.596],[130.106,33.593],[130.109,33.588],[130.106,33.585],[130.103,33.588],[130.092,33.585],[130.089,33.583],[130.088,33.578],[130.097,33.574],[130.099,33.569],[130.098,33.564],[130.107,33.567],[130.108,33.57],[130.115,33.572],[130.12,33.575],[130.126,33.573],[130.13,33.567],[130.135,33.566],[130.135,33.561],[130.12,33.558],[130.117,33.554],[130.116,33.547],[130.12,33.548],[130.126,33.557],[130.135,33.556],[130.141,33.55],[130.147,33.551],[130.156,33.56],[130.164,33.561],[130.165,33.555],[130.163,33.549],[130.159,33.548],[130.159,33.545],[130.155,33.543],[130.154,33.537],[130.143,33.535],[130.135,33.529],[130.131,33.529],[130.125,33.524],[130.132,33.523],[130.133,33.517],[130.127,33.51],[130.119,33.508],[130.114,33.508],[130.106,33.51],[130.103,33.513],[130.095,33.507],[130.086,33.505],[130.078,33.503],[130.071,33.503],[130.063,33.498],[130.048,33.495],[130.049,33.487],[130.042,33.479],[130.041,33.471],[130.045,33.467],[130.051,33.469],[130.061,33.47],[130.068,33.473],[130.074,33.469],[130.089,33.469],[130.098,33.47],[130.102,33.472],[130.103,33.476],[130.118,33.475],[130.13,33.476],[130.139,33.47],[130.143,33.474],[130.148,33.477],[130.157,33.477],[130.164,33.472],[130.165,33.469],[130.176,33.466],[130.183,33.467],[130.189,33.471],[130.189,33.475],[130.195,33.476],[130.198,33.479],[130.206,33.481],[130.223,33.478],[130.227,33.477],[130.233,33.479],[130.238,33.474],[130.244,33.474],[130.252,33.471],[130.258,33.476],[130.272,33.479],[130.274,33.484],[130.273,33.488],[130.276,33.489],[130.272,33.495],[130.278,33.502],[130.28,33.507],[130.286,33.507],[130.292,33.513],[130.292,33.519],[130.288,33.523],[130.287,33.526],[130.289,33.531],[130.289,33.539],[130.284,33.54],[130.278,33.544],[130.27,33.547],[130.266,33.55],[130.266,33.557],[130.258,33.555],[130.25,33.556],[130.245,33.558],[130.24,33.552],[130.236,33.555],[130.239,33.559],[130.237,33.566],[130.241,33.573],[130.238,33.58],[130.227,33.581],[130.223,33.579],[130.219,33.581],[130.212,33.589],[130.21,33.597],[130.21,33.606],[130.206,33.61],[130.205,33.623],[130.207,33.629],[130.204,33.632],[130.204,33.635],[130.198,33.64]]]]}},{"type":"Feature","properties":{"name":"那珂川市","code":"40231"},"geometry":{"type":"MultiPolygon","coordinates":[[[[130.371,33.505],[130.378,33.497],[130.381,33.487],[130.381,33.48],[130.383,33.475],[130.388,33.466],[130.386,33.462],[130.388,33.455],[130.399,33.449],[130.399,33.445],[130.404,33.441],[130.396,33.44],[130.396,33.427],[130.405,33.416],[130.415,33.409],[130.408,33.399],[130.411,33.395],[130.419,33.401],[130.429,33.397],[130.438,33.4],[130.437,33.405],[130.441,33.41],[130.442,33.416],[130.447,33.419],[130.458,33.42],[130.458,33.425],[130.461,33.428],[130.458,33.431],[130.456,33.436],[130.457,33.442],[130.461,33.445],[130.46,33.45],[130.457,33.457],[130.464,33.462],[130.466,33.466],[130.462,33.47],[130.456,33.471],[130.45,33.499],[130.445,33.503],[130.448,33.509],[130.439,33.514],[130.434,33.523],[130.428,33.523],[130.427,33.53],[130.421,33.528],[130.417,33.523],[130.411,33.522],[130.404,33.519],[130.404,33.514],[130.398,33.513],[130.396,33.507],[130.386,33.507],[130.382,33.506],[130.377,33.508],[130.371,33.505]]]]}},{"type":"Feature","properties":{"name":"糟屋郡宇美町","code":"40341"},"geometry":{"type":"MultiPolygon","coordinates":[[[[130.486,33.56],[130.489,33.559],[130.499,33.561],[130.502,33.56],[130.504,33.554],[130.503,33.55],[130.509,33.547],[130.508,33.543],[130.514,33.537],[130.514,33.533],[130.52,33.53],[130.529,33.536],[130.529,33.543],[130.534,33.544],[130.542,33.549],[130.541,33.555],[130.549,33.556],[130.557,33.552],[130.566,33.545],[130.572,33.542],[130.575,33.545],[130.579,33.553],[130.584,33.555],[130.58,33.559],[130.579,33.565],[130.575,33.568],[130.573,33.577],[130.568,33.58],[130.566,33.591],[130.563,33.593],[130.56,33.593],[130.548,33.587],[130.546,33.579],[130.532,33.576],[130.525,33.576],[130.51,33.577],[130.504,33.581],[130.499,33.58],[130.497,33.577],[130.488,33.57],[130.488,33.564],[130.486,33.56]]]]}},{"type":"Feature","properties":{"name":"糟屋郡篠栗町","code":"40342"},"geometry":{"type":"MultiPolygon","coordinates":[[[[130.575,33.638],[130.573,33.641],[130.566,33.647],[130.569,33.651],[130.574,33.654],[130.575,33.658],[130.571,33.663],[130.562,33.666],[130.554,33.659],[130.549,33.656],[130.547,33.653],[130.548,33.647],[130.543,33.644],[130.536,33.643],[130.536,33.639],[130.529,33.636],[130.524,33.639],[130.52,33.638],[130.516,33.64],[130.512,33.637],[130.508,33.638],[130.498,33.635],[130.496,33.63],[130.5,33.615],[130.507,33.611],[130.512,33.608],[130.517,33.603],[130.525,33.601],[130.531,33.6],[130.538,33.595],[130.55,33.599],[130.558,33.599],[130.568,33.607],[130.58,33.603],[130.586,33.603],[130.594,33.609],[130.597,33.616],[130.592,33.619],[130.584,33.619],[130.587,33.626],[130.586,33.632],[130.577,33.638]]]]}},{"type":"Feature","properties":{"name":"糟屋郡志免町","code":"40343"},"geometry":{"type":"MultiPolygon","coordinates":[[[[130.442,33.606],[130.451,33.602],[130.456,33.596],[130.459,33.597],[130.463,33.591],[130.469,33.587],[130.478,33.578],[130.479,33.573],[130.477,33.567],[130.482,33.565],[130.486,33.56],[130.488,33.564],[130.488,33.57],[130.497,33.577],[130.499,33.58],[130.492,33.586],[130.489,33.593],[130.483,33.595],[130.479,33.593],[130.474,33.598],[130.464,33.603],[130.458,33.61],[130.454,33.61],[130.449,33.607],[130.442,33.607]]]]}},{"type":"Feature","properties":{"name":"糟屋郡須恵町","code":"40344"},"geometry":{"type":"MultiPolygon","coordinates":[[[[130.558,33.599],[130.55,33.599],[130.538,33.595],[130.531,33.6],[130.525,33.601],[130.517,33.603],[130.512,33.608],[130.507,33.611],[130.502,33.612],[130.489,33.61],[130.489,33.601],[130.492,33.597],[130.489,33.593],[130.492,33.586],[130.499,33.58],[130.504,33.581],[130.51,33.577],[130.525,33.576],[130.532,33.576],[130.546,33.579],[130.548,33.587],[130.56,33.593],[130.563,33.593],[130.558,33.599]]]]}},{"type":"Feature","properties":{"name":"糟屋郡新宮町","code":"40345"},"geometry":{"type":"MultiPolygon","coordinates":[[[[130.469,33.68],[130.474,33.676],[130.482,33.676],[130.489,33.674],[130.492,33.678],[130.508,33.687],[130.505,33.689],[130.503,33.697],[130.492,33.692],[130.478,33.695],[130.473,33.694],[130.467,33.696],[130.466,33.701],[130.469,33.708],[130.462,33.714],[130.459,33.719],[130.447,33.725],[130.432,33.716],[130.427,33.715],[130.421,33.718],[130.418,33.713],[130.431,33.708],[130.441,33.699],[130.448,33.698],[130.45,33.69],[130.455,33.68],[130.464,33.683],[130.469,33.68]]],[[[130.364,33.767],[130.359,33.762],[130.363,33.755],[130.367,33.761],[130.376,33.76],[130.373,33.765],[130.364,33.767]]]]}},{"type":"Feature","properties":{"name":"糟屋郡久山町","code":"40348"},"geometry":{"type":"MultiPolygon","coordinates":[[[[130.494,33.635],[130.498,33.635],[130.508,33.638],[130.512,33.637],[130.516,33.64],[130.52,33.638],[130.524,33.639],[130.529,33.636],[130.536,33.639],[130.536,33.643],[130.543,33.644],[130.548,33.647],[130.547,33.653],[130.549,33.656],[130.554,33.659],[130.562,33.666],[130.551,33.668],[130.55,33.673],[130.541,33.676],[130.54,33.681],[130.545,33.694],[130.541,33.698],[130.543,33.703],[130.542,33.707],[130.541,33.711],[130.533,33.71],[130.522,33.702],[130.519,33.693],[130.513,33.688],[130.508,33.687],[130.492,33.678],[130.489,33.674],[130.482,33.676],[130.474,33.676],[130.469,33.68],[130.467,33.674],[130.471,33.67],[130.48,33.654],[130.479,33.649],[130.49,33.649],[130.495,33.646],[130.492,33.642],[130.494,33.635]]]]}},{"type":"Feature","properties":{"name":"糟屋郡粕屋町","code":"40349"},"geometry":{"type":"MultiPolygon","coordinates":[[[[130.442,33.607],[130.449,33.607],[130.454,33.61],[130.458,33.61],[130.464,33.603],[130.474,33.598],[130.479,33.593],[130.483,33.595],[130.489,33.593],[130.492,33.597],[130.489,33.601],[130.489,33.61],[130.5,33.615],[130.499,33.627],[130.498,33.635],[130.494,33.635],[130.486,33.627],[130.482,33.63],[130.475,33.634],[130.472,33.637],[130.466,33.631],[130.46,33.629],[130.457,33.624],[130.454,33.625],[130.452,33.619],[130.441,33.613],[130.445,33.609]]]]}},{"type":"Feature","properties":{"name":"遠賀郡芦屋町","code":"40381"},"geometry":{"type":"MultiPolygon","coordinates":[[[[130.673,33.919],[130.662,33.913],[130.665,33.91],[130.662,33.908],[130.663,33.901],[130.653,33.895],[130.636,33.885],[130.643,33.881],[130.644,33.877],[130.643,33.868],[130.649,33.871],[130.658,33.87],[130.666,33.873],[130.671,33.88],[130.675,33.885],[130.677,33.89],[130.682,33.889],[130.685,33.893],[130.686,33.897],[130.675,33.907],[130.678,33.912],[130.677,33.916],[130.673,33.919]]]]}},{"type":"Feature","properties":{"name":"遠賀郡水巻町","code":"40382"},"geometry":{"type":"MultiPolygon","coordinates":[[[[130.682,33.889],[130.677,33.89],[130.68,33.858],[130.685,33.845],[130.689,33.837],[130.696,33.83],[130.703,33.835],[130.702,33.842],[130.709,33.839],[130.717,33.837],[130.721,33.839],[130.718,33.844],[130.713,33.847],[130.706,33.853],[130.704,33.858],[130.701,33.858],[130.699,33.862],[130.693,33.868],[130.695,33.872],[130.692,33.878],[130.688,33.88],[130.682,33.888]]]]}},{"type":"Feature","properties":{"name":"遠賀郡岡垣町","code":"40383"},"geometry":{"type":"MultiPolygon","coordinates":[[[[130.636,33.813],[130.641,33.813],[130.644,33.82],[130.642,33.828],[130.643,33.833],[130.647,33.839],[130.649,33.844],[130.653,33.847],[130.653,33.851],[130.647,33.849],[130.638,33.85],[130.642,33.857],[130.644,33.866],[130.644,33.877],[130.643,33.881],[130.637,33.883],[130.63,33.883],[130.606,33.879],[130.591,33.878],[130.577,33.878],[130.57,33.88],[130.566,33.885],[130.563,33.89],[130.555,33.891],[130.544,33.888],[130.542,33.884],[130.552,33.87],[130.557,33.864],[130.564,33.864],[130.57,33.857],[130.567,33.854],[130.572,33.845],[130.582,33.841],[130.583,33.833],[130.586,33.824],[130.592,33.818],[130.597,33.819],[130.603,33.823],[130.608,33.822],[130.613,33.823],[130.624,33.821],[130.629,33.816],[130.636,33.813]]]]}},{"type":"Feature","properties":{"name":"遠賀郡遠賀町","code":"40384"},"geometry":{"type":"MultiPolygon","coordinates":[[[[130.691,33.834],[130.685,33.845],[130.68,33.858],[130.677,33.89],[130.675,33.885],[130.671,33.88],[130.666,33.873],[130.66,33.872],[130.649,33.871],[130.643,33.868],[130.642,33.857],[130.638,33.85],[130.647,33.849],[130.653,33.851],[130.653,33.847],[130.649,33.844],[130.647,33.839],[130.643,33.833],[130.642,33.828],[130.644,33.82],[130.641,33.813],[130.636,33.813],[130.641,33.809],[130.649,33.81],[130.653,33.816],[130.658,33.819],[130.67,33.82],[130.669,33.823],[130.675,33.827],[130.677,33.83],[130.685,33.831],[130.691,33.834]]]]}},{"type":"Feature","properties":{"name":"鞍手郡小竹町","code":"40401"},"geometry":{"type":"MultiPolygon","coordinates":[[[[130.714,33.733],[130.71,33.73],[130.711,33.725],[130.704,33.726],[130.695,33.72],[130.697,33.705],[130.699,33.701],[130.696,33.699],[130.686,33.699],[130.683,33.703],[130.681,33.699],[130.673,33.696],[130.671,33.691],[130.675,33.688],[130.678,33.683],[130.682,33.683],[130.685,33.686],[130.689,33.685],[130.699,33.685],[130.703,33.682],[130.708,33.683],[130.713,33.688],[130.715,33.693],[130.712,33.696],[130.712,33.701],[130.716,33.702],[130.721,33.7],[130.726,33.702],[130.727,33.707],[130.725,33.717],[130.727,33.729],[130.724,33.732],[130.72,33.729],[130.714,33.733]]]]}},{"type":"Feature","properties":{"name":"鞍手郡鞍手町","code":"40402"},"geometry":{"type":"MultiPolygon","coordinates":[[[[130.704,33.801],[130.701,33.806],[130.692,33.807],[130.688,33.813],[130.681,33.811],[130.679,33.817],[130.674,33.822],[130.67,33.82],[130.658,33.819],[130.653,33.816],[130.649,33.81],[130.641,33.809],[130.636,33.813],[130.637,33.807],[130.633,33.804],[130.634,33.8],[130.64,33.791],[130.645,33.785],[130.651,33.772],[130.652,33.763],[130.652,33.751],[130.655,33.748],[130.655,33.743],[130.659,33.74],[130.668,33.741],[130.684,33.748],[130.68,33.763],[130.693,33.768],[130.698,33.768],[130.7,33.777],[130.695,33.785],[130.7,33.791],[130.707,33.796],[130.704,33.801]]]]}},{"type":"Feature","properties":{"name":"嘉穂郡桂川町","code":"40421"},"geometry":{"type":"MultiPolygon","coordinates":[[[[130.672,33.529],[130.677,33.531],[130.681,33.538],[130.685,33.542],[130.687,33.551],[130.691,33.551],[130.694,33.557],[130.692,33.566],[130.699,33.57],[130.704,33.582],[130.705,33.591],[130.703,33.597],[130.691,33.596],[130.685,33.597],[130.682,33.602],[130.677,33.6],[130.67,33.6],[130.667,33.597],[130.654,33.596],[130.649,33.589],[130.656,33.589],[130.66,33.587],[130.656,33.582],[130.666,33.579],[130.661,33.567],[130.664,33.563],[130.666,33.552],[130.673,33.554],[130.678,33.551],[130.677,33.545],[130.671,33.539],[130.669,33.535],[130.672,33.529]]]]}},{"type":"Feature","properties":{"name":"朝倉郡筑前町","code":"40447"},"geometry":{"type":"MultiPolygon","coordinates":[[[[130.621,33.506],[130.61,33.496],[130.61,33.493],[130.604,33.491],[130.589,33.486],[130.588,33.481],[130.58,33.473],[130.572,33.474],[130.566,33.477],[130.562,33.474],[130.562,33.463],[130.566,33.457],[130.571,33.453],[130.576,33.445],[130.585,33.441],[130.58,33.437],[130.586,33.43],[130.605,33.419],[130.609,33.412],[130.616,33.405],[130.624,33.412],[130.636,33.412],[130.643,33.421],[130.651,33.432],[130.658,33.436],[130.659,33.441],[130.655,33.446],[130.647,33.448],[130.649,33.452],[130.648,33.456],[130.649,33.461],[130.653,33.464],[130.655,33.47],[130.659,33.473],[130.666,33.486],[130.667,33.491],[130.669,33.498],[130.662,33.504],[130.659,33.508],[130.653,33.511],[130.649,33.51],[130.642,33.506],[130.636,33.505],[130.628,33.505],[130.621,33.506]]]]}},{"type":"Feature","properties":{"name":"朝倉郡東峰村","code":"40448"},"geometry":{"type":"MultiPolygon","coordinates":[[[[130.791,33.471],[130.783,33.469],[130.78,33.467],[130.775,33.458],[130.771,33.456],[130.77,33.453],[130.777,33.451],[130.783,33.452],[130.787,33.455],[130.791,33.454],[130.798,33.457],[130.803,33.455],[130.811,33.458],[130.818,33.457],[130.829,33.447],[130.828,33.44],[130.834,33.433],[130.834,33.428],[130.837,33.421],[130.842,33.416],[130.849,33.418],[130.851,33.409],[130.854,33.408],[130.86,33.4],[130.857,33.393],[130.859,33.388],[130.86,33.373],[130.862,33.377],[130.886,33.379],[130.885,33.389],[130.888,33.401],[130.888,33.404],[130.892,33.406],[130.89,33.415],[130.893,33.42],[130.892,33.43],[130.895,33.433],[130.898,33.439],[130.895,33.446],[130.9,33.449],[130.891,33.453],[130.879,33.451],[130.872,33.45],[130.864,33.451],[130.861,33.447],[130.853,33.448],[130.846,33.457],[130.844,33.462],[130.836,33.468],[130.836,33.472],[130.842,33.474],[130.848,33.479],[130.843,33.486],[130.838,33.484],[130.829,33.488],[130.821,33.488],[130.818,33.489],[130.812,33.487],[130.808,33.483],[130.809,33.475],[130.806,33.472],[130.794,33.472]]]]}},{"type":"Feature","properties":{"name":"三井郡大刀洗町","code":"40503"},"geometry":{"type":"MultiPolygon","coordinates":[[[[130.667,33.362],[130.654,33.368],[130.652,33.374],[130.647,33.372],[130.64,33.373],[130.645,33.379],[130.646,33.386],[130.626,33.391],[130.624,33.394],[130.618,33.396],[130.615,33.4],[130.616,33.405],[130.609,33.412],[130.6,33.41],[130.599,33.403],[130.593,33.403],[130.586,33.384],[130.578,33.373],[130.578,33.367],[130.606,33.367],[130.612,33.366],[130.615,33.367],[130.629,33.367],[130.627,33.362],[130.631,33.353],[130.64,33.358],[130.651,33.363],[130.667,33.362]]]]}},{"type":"Feature","properties":{"name":"三潴郡大木町","code":"40522"},"geometry":{"type":"MultiPolygon","coordinates":[[[[130.412,33.225],[130.423,33.221],[130.419,33.211],[130.421,33.208],[130.419,33.203],[130.421,33.2],[130.42,33.195],[130.428,33.194],[130.435,33.187],[130.435,33.181],[130.446,33.185],[130.457,33.186],[130.46,33.191],[130.454,33.192],[130.452,33.205],[130.458,33.207],[130.461,33.221],[130.464,33.224],[130.459,33.23],[130.458,33.237],[130.449,33.242],[130.444,33.245],[130.442,33.237],[130.435,33.237],[130.438,33.229],[130.425,33.23],[130.423,33.224],[130.418,33.226],[130.412,33.225]]]]}},{"type":"Feature","properties":{"name":"八女郡広川町","code":"40544"},"geometry":{"type":"MultiPolygon","coordinates":[[[[130.512,33.254],[130.513,33.248],[130.509,33.239],[130.514,33.238],[130.519,33.231],[130.524,33.233],[130.529,33.232],[130.535,33.234],[130.545,33.23],[130.551,33.232],[130.56,33.232],[130.57,33.235],[130.578,33.235],[130.587,33.238],[130.599,33.245],[130.603,33.245],[130.606,33.238],[130.611,33.237],[130.619,33.237],[130.623,33.236],[130.63,33.238],[130.63,33.246],[130.619,33.26],[130.62,33.266],[130.618,33.271],[130.617,33.279],[130.619,33.285],[130.614,33.283],[130.608,33.28],[130.602,33.274],[130.593,33.273],[130.587,33.269],[130.58,33.275],[130.576,33.277],[130.568,33.274],[130.566,33.266],[130.557,33.265],[130.546,33.26],[130.535,33.263],[130.531,33.258],[130.526,33.26],[130.517,33.258],[130.513,33.26],[130.512,33.254]]]]}},{"type":"Feature","properties":{"name":"田川郡香春町","code":"40601"},"geometry":{"type":"MultiPolygon","coordinates":[[[[130.822,33.721],[130.825,33.718],[130.827,33.713],[130.83,33.711],[130.831,33.704],[130.828,33.697],[130.826,33.688],[130.828,33.681],[130.825,33.669],[130.825,33.665],[130.829,33.661],[130.837,33.661],[130.835,33.656],[130.83,33.654],[130.834,33.65],[130.843,33.645],[130.856,33.646],[130.865,33.643],[130.868,33.64],[130.876,33.641],[130.886,33.647],[130.891,33.65],[130.885,33.652],[130.882,33.658],[130.886,33.661],[130.89,33.669],[130.883,33.682],[130.876,33.689],[130.875,33.694],[130.878,33.7],[130.872,33.705],[130.869,33.715],[130.87,33.723],[130.868,33.731],[130.868,33.734],[130.863,33.736],[130.855,33.736],[130.85,33.733],[130.847,33.726],[130.838,33.726],[130.827,33.724],[130.822,33.721]]]]}},{"type":"Feature","properties":{"name":"田川郡添田町","code":"40602"},"geometry":{"type":"MultiPolygon","coordinates":[[[[130.818,33.489],[130.821,33.488],[130.829,33.488],[130.838,33.484],[130.843,33.486],[130.848,33.479],[130.842,33.474],[130.836,33.472],[130.836,33.468],[130.844,33.462],[130.846,33.457],[130.853,33.448],[130.861,33.447],[130.864,33.451],[130.872,33.45],[130.879,33.451],[130.888,33.451],[130.899,33.451],[130.911,33.45],[130.916,33.455],[130.926,33.458],[130.929,33.461],[130.93,33.467],[130.942,33.486],[130.95,33.488],[130.947,33.496],[130.938,33.499],[130.94,33.509],[130.935,33.513],[130.935,33.52],[130.931,33.525],[130.933,33.532],[130.927,33.541],[130.92,33.552],[130.922,33.557],[130.917,33.56],[130.914,33.565],[130.906,33.568],[130.902,33.574],[130.895,33.578],[130.889,33.581],[130.884,33.576],[130.879,33.575],[130.874,33.572],[130.868,33.585],[130.862,33.581],[130.857,33.584],[130.856,33.59],[130.845,33.586],[130.84,33.587],[130.836,33.591],[130.832,33.59],[130.834,33.586],[130.832,33.582],[130.838,33.579],[130.837,33.573],[130.832,33.567],[130.832,33.554],[130.83,33.548],[130.833,33.543],[130.832,33.534],[130.827,33.521],[130.821,33.518],[130.815,33.517],[130.812,33.515],[130.81,33.51],[130.811,33.502],[130.814,33.497],[130.814,33.493],[130.818,33.489]]]]}},{"type":"Feature","properties":{"name":"田川郡糸田町","code":"40604"},"geometry":{"type":"MultiPolygon","coordinates":[[[[130.752,33.644],[130.758,33.639],[130.765,33.643],[130.772,33.644],[130.793,33.651],[130.793,33.656],[130.788,33.666],[130.784,33.671],[130.779,33.671],[130.766,33.665],[130.757,33.664],[130.76,33.654],[130.757,33.65],[130.754,33.65],[130.752,33.644]]]]}},{"type":"Feature","properties":{"name":"田川郡川崎町","code":"40605"},"geometry":{"type":"MultiPolygon","coordinates":[[[[130.785,33.568],[130.792,33.56],[130.793,33.556],[130.803,33.547],[130.804,33.538],[130.804,33.517],[130.804,33.511],[130.81,33.51],[130.812,33.515],[130.815,33.517],[130.821,33.518],[130.827,33.521],[130.832,33.534],[130.833,33.543],[130.83,33.548],[130.832,33.554],[130.832,33.567],[130.839,33.57],[130.838,33.579],[130.832,33.582],[130.834,33.586],[130.832,33.59],[130.836,33.591],[130.842,33.599],[130.837,33.601],[130.832,33.605],[130.83,33.61],[130.824,33.61],[130.823,33.613],[130.817,33.617],[130.802,33.622],[130.795,33.623],[130.794,33.617],[130.801,33.612],[130.796,33.599],[130.8,33.594],[130.797,33.589],[130.798,33.582],[130.793,33.578],[130.795,33.575],[130.79,33.573],[130.785,33.568]]]]}},{"type":"Feature","properties":{"name":"田川郡大任町","code":"40608"},"geometry":{"type":"MultiPolygon","coordinates":[[[[130.832,33.605],[130.837,33.601],[130.842,33.599],[130.836,33.591],[130.84,33.587],[130.845,33.586],[130.856,33.59],[130.857,33.584],[130.862,33.581],[130.868,33.585],[130.871,33.591],[130.864,33.604],[130.865,33.608],[130.863,33.614],[130.86,33.621],[130.861,33.625],[130.861,33.639],[130.856,33.646],[130.843,33.645],[130.843,33.64],[130.838,33.638],[130.836,33.632],[130.841,33.627],[130.846,33.617],[130.843,33.616],[130.84,33.611],[130.832,33.605]]]]}},{"type":"Feature","properties":{"name":"田川郡赤村","code":"40609"},"geometry":{"type":"MultiPolygon","coordinates":[[[[130.856,33.646],[130.861,33.639],[130.859,33.627],[130.86,33.621],[130.863,33.614],[130.865,33.608],[130.864,33.604],[130.871,33.591],[130.868,33.585],[130.874,33.572],[130.879,33.575],[130.884,33.576],[130.889,33.581],[130.895,33.578],[130.902,33.574],[130.906,33.568],[130.914,33.565],[130.917,33.56],[130.922,33.557],[130.924,33.56],[130.921,33.565],[130.922,33.575],[130.918,33.586],[130.911,33.589],[130.911,33.596],[130.903,33.604],[130.903,33.61],[130.898,33.615],[130.906,33.627],[130.906,33.634],[130.903,33.64],[130.894,33.636],[130.89,33.641],[130.891,33.65],[130.886,33.647],[130.876,33.641],[130.868,33.64],[130.865,33.643],[130.856,33.646]]]]}},{"type":"Feature","properties":{"name":"田川郡福智町","code":"40610"},"geometry":{"type":"MultiPolygon","coordinates":[[[[130.804,33.742],[130.797,33.739],[130.792,33.741],[130.789,33.739],[130.782,33.727],[130.774,33.725],[130.748,33.716],[130.749,33.711],[130.747,33.704],[130.744,33.702],[130.748,33.7],[130.755,33.685],[130.752,33.681],[130.751,33.674],[130.754,33.665],[130.766,33.665],[130.779,33.671],[130.784,33.671],[130.788,33.666],[130.793,33.667],[130.792,33.67],[130.808,33.671],[130.804,33.68],[130.807,33.683],[130.806,33.691],[130.811,33.695],[130.819,33.694],[130.828,33.697],[130.831,33.704],[130.83,33.711],[130.827,33.713],[130.825,33.718],[130.822,33.721],[130.821,33.725],[130.814,33.728],[130.811,33.734],[130.806,33.735],[130.804,33.742]]]]}},{"type":"Feature","properties":{"name":"京都郡苅田町","code":"40621"},"geometry":{"type":"MultiPolygon","coordinates":[[[[130.91,33.749],[130.918,33.748],[130.924,33.745],[130.929,33.745],[130.932,33.741],[130.943,33.74],[130.951,33.736],[130.959,33.738],[130.965,33.739],[130.97,33.742],[130.976,33.742],[130.979,33.745],[130.986,33.741],[130.992,33.743],[131.0,33.749],[131.004,33.75],[131.001,33.757],[131.018,33.768],[131.012,33.777],[130.999,33.769],[130.994,33.775],[131.003,33.781],[130.998,33.792],[131.002,33.794],[130.999,33.797],[130.994,33.795],[130.991,33.789],[130.987,33.792],[130.988,33.797],[131.001,33.802],[130.999,33.807],[131.004,33.806],[131.015,33.811],[131.012,33.82],[130.985,33.81],[130.981,33.811],[130.974,33.805],[130.96,33.791],[130.953,33.781],[130.945,33.778],[130.941,33.778],[130.934,33.776],[130.927,33.78],[130.916,33.775],[130.917,33.771],[130.91,33.767],[130.913,33.757],[130.91,33.751]]],[[[131.029,33.834],[131.032,33.82],[131.042,33.821],[131.039,33.836],[131.029,33.834]]]]}},{"type":"Feature","properties":{"name":"京都郡みやこ町","code":"40625"},"geometry":{"type":"MultiPolygon","coordinates":[[[[130.868,33.734],[130.868,33.731],[130.87,33.723],[130.869,33.715],[130.872,33.705],[130.878,33.7],[130.875,33.694],[130.876,33.689],[130.883,33.682],[130.89,33.669],[130.886,33.661],[130.882,33.658],[130.885,33.652],[130.891,33.65],[130.893,33.644],[130.894,33.636],[130.903,33.64],[130.908,33.637],[130.906,33.627],[130.898,33.615],[130.903,33.61],[130.903,33.604],[130.911,33.596],[130.911,33.589],[130.918,33.586],[130.922,33.575],[130.921,33.565],[130.924,33.56],[130.922,33.557],[130.92,33.552],[130.927,33.541],[130.933,33.532],[130.931,33.525],[130.935,33.52],[130.935,33.513],[130.94,33.509],[130.938,33.499],[130.947,33.496],[130.95,33.488],[130.956,33.492],[130.962,33.494],[130.963,33.498],[130.97,33.501],[130.972,33.505],[130.982,33.508],[130.971,33.516],[130.966,33.526],[130.967,33.538],[130.965,33.543],[130.97,33.547],[130.969,33.55],[130.974,33.56],[130.97,33.561],[130.962,33.566],[130.961,33.572],[130.963,33.582],[130.961,33.585],[130.965,33.589],[130.966,33.594],[130.973,33.611],[130.976,33.618],[130.981,33.63],[130.986,33.637],[130.991,33.641],[130.988,33.646],[130.988,33.652],[130.992,33.658],[130.99,33.661],[131.002,33.671],[131.008,33.673],[131.006,33.678],[131.004,33.681],[131.005,33.686],[131.003,33.69],[130.995,33.695],[130.99,33.689],[130.984,33.692],[130.977,33.69],[130.971,33.691],[130.969,33.687],[130.965,33.687],[130.955,33.678],[130.951,33.681],[130.941,33.677],[130.934,33.672],[130.926,33.672],[130.928,33.678],[130.928,33.682],[130.93,33.695],[130.929,33.699],[130.935,33.708],[130.939,33.711],[130.931,33.72],[130.921,33.718],[130.914,33.721],[130.912,33.712],[130.906,33.714],[130.904,33.72],[130.899,33.722],[130.894,33.734],[130.889,33.742],[130.878,33.742],[130.868,33.734]]]]}},{"type":"Feature","properties":{"name":"築上郡吉富町","code":"40642"},"geometry":{"type":"MultiPolygon","coordinates":[[[[131.157,33.598],[131.165,33.595],[131.166,33.589],[131.172,33.588],[131.178,33.597],[131.178,33.605],[131.185,33.616],[131.185,33.62],[131.179,33.621],[131.166,33.617],[131.16,33.608],[131.153,33.602],[131.157,33.598]]]]}},{"type":"Feature","properties":{"name":"築上郡上毛町","code":"40646"},"geometry":{"type":"MultiPolygon","coordinates":[[[[131.068,33.509],[131.08,33.505],[131.094,33.507],[131.101,33.505],[131.106,33.508],[131.119,33.502],[131.13,33.502],[131.134,33.506],[131.142,33.505],[131.155,33.506],[131.163,33.508],[131.167,33.506],[131.176,33.507],[131.174,33.513],[131.168,33.516],[131.17,33.521],[131.167,33.529],[131.177,33.534],[131.187,33.544],[131.191,33.558],[131.189,33.563],[131.186,33.568],[131.176,33.575],[131.173,33.578],[131.172,33.588],[131.166,33.589],[131.165,33.595],[131.157,33.598],[131.152,33.59],[131.142,33.586],[131.138,33.583],[131.131,33.579],[131.128,33.574],[131.122,33.568],[131.119,33.557],[131.116,33.554],[131.113,33.548],[131.11,33.543],[131.093,33.536],[131.095,33.531],[131.091,33.525],[131.082,33.519],[131.076,33.518],[131.068,33.509]]]]}},{"type":"Feature","properties":{"name":"築上郡築上町","code":"40647"},"geometry":{"type":"MultiPolygon","coordinates":[[[[131.011,33.676],[131.002,33.671],[130.99,33.661],[130.992,33.658],[130.988,33.652],[130.988,33.646],[130.991,33.641],[130.986,33.637],[130.983,33.631],[130.976,33.618],[130.973,33.613],[130.969,33.597],[130.965,33.589],[130.961,33.585],[130.963,33.582],[130.961,33.572],[130.962,33.566],[130.97,33.561],[130.974,33.56],[130.969,33.55],[130.97,33.547],[130.965,33.543],[130.967,33.538],[130.966,33.526],[130.971,33.516],[130.982,33.508],[130.987,33.507],[130.99,33.509],[130.99,33.517],[130.994,33.527],[131.0,33.533],[131.011,33.54],[131.009,33.544],[131.012,33.549],[131.012,33.554],[131.024,33.564],[131.029,33.565],[131.036,33.573],[131.046,33.587],[131.049,33.596],[131.056,33.603],[131.066,33.609],[131.077,33.624],[131.082,33.626],[131.087,33.634],[131.08,33.648],[131.073,33.657],[131.067,33.659],[131.066,33.665],[131.062,33.672],[131.052,33.686],[131.046,33.689],[131.046,33.685],[131.037,33.68],[131.03,33.679],[131.023,33.683],[131.016,33.679],[131.011,33.676]]]]}}]}