{"type":"FeatureCollection","features":[{"type":"Feature","properties":{"name":"佐賀市","code":"41201"},"geometry":{"type":"MultiPolygon","coordinates":[[[[130.34,33.445],[130.335,33.45],[130.32,33.459],[130.311,33.462],[130.303,33.461],[130.296,33.464],[130.277,33.479],[130.271,33.48],[130.258,33.476],[130.252,33.471],[130.244,33.474],[130.238,33.474],[130.233,33.479],[130.223,33.478],[130.206,33.481],[130.189,33.475],[130.189,33.471],[130.183,33.467],[130.169,33.468],[130.17,33.463],[130.166,33.459],[130.169,33.452],[130.168,33.432],[130.164,33.423],[130.158,33.422],[130.16,33.416],[130.17,33.415],[130.165,33.41],[130.156,33.409],[130.158,33.401],[130.154,33.393],[130.141,33.381],[130.139,33.372],[130.145,33.364],[130.146,33.352],[130.141,33.346],[130.143,33.339],[130.161,33.34],[130.168,33.338],[130.182,33.341],[130.195,33.342],[130.21,33.341],[130.222,33.335],[130.226,33.329],[130.224,33.32],[130.227,33.314],[130.232,33.309],[130.235,33.296],[130.245,33.273],[130.244,33.267],[130.244,33.253],[130.236,33.252],[130.23,33.256],[130.22,33.252],[130.219,33.246],[130.223,33.24],[130.221,33.229],[130.23,33.215],[130.229,33.204],[130.235,33.204],[130.235,33.198],[130.23,33.193],[130.233,33.194],[130.247,33.192],[130.246,33.203],[130.254,33.203],[130.256,33.197],[130.251,33.19],[130.26,33.18],[130.279,33.169],[130.279,33.164],[130.286,33.162],[130.284,33.156],[130.289,33.147],[130.307,33.146],[130.341,33.141],[130.356,33.14],[130.356,33.154],[130.352,33.17],[130.353,33.18],[130.347,33.182],[130.341,33.188],[130.34,33.205],[130.343,33.208],[130.355,33.209],[130.362,33.215],[130.376,33.22],[130.379,33.229],[130.371,33.236],[130.374,33.244],[130.374,33.257],[130.35,33.256],[130.35,33.25],[130.344,33.25],[130.344,33.26],[130.341,33.269],[130.341,33.278],[130.336,33.298],[130.342,33.299],[130.343,33.307],[130.337,33.329],[130.338,33.333],[130.331,33.356],[130.324,33.36],[130.31,33.359],[130.305,33.352],[130.298,33.358],[130.289,33.369],[130.293,33.372],[130.294,33.379],[130.287,33.383],[130.282,33.38],[130.274,33.387],[130.277,33.392],[130.275,33.398],[130.279,33.403],[130.294,33.404],[130.298,33.409],[130.308,33.413],[130.313,33.412],[130.32,33.421],[130.327,33.422],[130.331,33.435],[130.34,33.445]]]]}},{"type":"Feature","properties":{"name":"唐津市","code":"41202"},"geometry":{"type":"MultiPolygon","coordinates":[[[[129.992,33.48],[129.985,33.478],[129.986,33.473],[129.994,33.473],[129.992,33.48]]],[[[129.974,33.544],[129.965,33.529],[129.974,33.529],[129.978,33.538],[129.974,33.544]]],[[[130.169,33.468],[130.157,33.477],[130.148,33.477],[130.139,33.47],[130.13,33.476],[130.103,33.476],[130.098,33.47],[130.089,33.469],[130.074,33.469],[130.068,33.473],[130.045,33.467],[130.039,33.469],[130.036,33.466],[130.041,33.458],[130.038,33.453],[130.027,33.448],[130.016,33.446],[129.999,33.447],[129.986,33.452],[129.971,33.455],[129.96,33.469],[129.967,33.47],[129.971,33.475],[129.965,33.483],[129.96,33.483],[129.957,33.476],[129.948,33.472],[129.942,33.475],[129.937,33.482],[129.946,33.485],[129.944,33.493],[129.958,33.506],[129.965,33.506],[129.969,33.511],[129.957,33.518],[129.953,33.53],[129.946,33.528],[129.93,33.537],[129.931,33.545],[129.914,33.542],[129.909,33.549],[129.901,33.545],[129.898,33.549],[129.886,33.542],[129.882,33.534],[129.873,33.536],[129.858,33.544],[129.858,33.551],[129.851,33.553],[129.847,33.547],[129.848,33.538],[129.856,33.533],[129.849,33.516],[129.857,33.511],[129.869,33.509],[129.877,33.501],[129.882,33.501],[129.889,33.492],[129.897,33.49],[129.902,33.482],[129.905,33.471],[129.896,33.467],[129.898,33.461],[129.894,33.458],[129.888,33.446],[129.886,33.441],[129.881,33.441],[129.879,33.433],[129.872,33.431],[129.87,33.435],[129.861,33.435],[129.859,33.439],[129.863,33.446],[129.852,33.447],[129.843,33.445],[129.842,33.449],[129.835,33.451],[129.839,33.458],[129.837,33.464],[129.826,33.468],[129.824,33.474],[129.827,33.479],[129.806,33.486],[129.8,33.475],[129.794,33.472],[129.799,33.464],[129.806,33.462],[129.804,33.455],[129.79,33.459],[129.784,33.456],[129.783,33.451],[129.791,33.442],[129.802,33.44],[129.803,33.436],[129.812,33.435],[129.815,33.427],[129.825,33.424],[129.822,33.414],[129.833,33.414],[129.847,33.406],[129.86,33.407],[129.864,33.411],[129.869,33.401],[129.865,33.393],[129.876,33.387],[129.884,33.391],[129.88,33.397],[129.882,33.407],[129.891,33.406],[129.904,33.412],[129.906,33.407],[129.913,33.403],[129.92,33.393],[129.915,33.378],[129.926,33.358],[129.93,33.357],[129.936,33.347],[129.944,33.345],[129.95,33.335],[129.954,33.324],[129.96,33.329],[129.955,33.342],[129.956,33.346],[129.963,33.346],[129.968,33.336],[129.982,33.326],[129.993,33.327],[129.999,33.321],[130.009,33.315],[130.01,33.303],[130.015,33.294],[130.021,33.291],[130.025,33.283],[130.035,33.278],[130.045,33.286],[130.054,33.288],[130.063,33.297],[130.074,33.3],[130.082,33.307],[130.086,33.312],[130.098,33.314],[130.112,33.325],[130.117,33.327],[130.12,33.333],[130.127,33.34],[130.143,33.339],[130.141,33.346],[130.146,33.352],[130.145,33.364],[130.139,33.372],[130.141,33.381],[130.154,33.393],[130.158,33.401],[130.156,33.409],[130.165,33.41],[130.17,33.415],[130.16,33.416],[130.158,33.422],[130.164,33.423],[130.168,33.432],[130.169,33.452],[130.166,33.459],[130.17,33.463],[130.169,33.468]]],[[[129.882,33.568],[129.874,33.559],[129.876,33.551],[129.873,33.544],[129.881,33.545],[129.89,33.552],[129.89,33.56],[129.882,33.568]]],[[[129.761,33.583],[129.754,33.578],[129.747,33.583],[129.74,33.573],[129.75,33.569],[129.755,33.564],[129.763,33.564],[129.766,33.569],[129.773,33.572],[129.769,33.582],[129.761,33.583]]],[[[129.846,33.592],[129.837,33.59],[129.844,33.585],[129.846,33.592]]],[[[129.898,33.604],[129.893,33.598],[129.895,33.594],[129.903,33.596],[129.903,33.602],[129.898,33.604]]],[[[129.863,33.618],[129.852,33.607],[129.848,33.599],[129.852,33.595],[129.865,33.588],[129.867,33.597],[129.862,33.597],[129.859,33.603],[129.865,33.615]]]]}},{"type":"Feature","properties":{"name":"鳥栖市","code":"41203"},"geometry":{"type":"MultiPolygon","coordinates":[[[[130.542,33.394],[130.539,33.403],[130.53,33.403],[130.527,33.411],[130.52,33.412],[130.508,33.409],[130.502,33.406],[130.493,33.41],[130.484,33.42],[130.478,33.424],[130.462,33.428],[130.458,33.425],[130.458,33.42],[130.447,33.419],[130.442,33.416],[130.437,33.405],[130.438,33.401],[130.44,33.392],[130.447,33.377],[130.453,33.373],[130.457,33.363],[130.456,33.356],[130.459,33.348],[130.464,33.351],[130.469,33.347],[130.473,33.338],[130.479,33.337],[130.48,33.331],[130.487,33.333],[130.499,33.326],[130.506,33.331],[130.507,33.341],[130.512,33.344],[130.52,33.34],[130.527,33.34],[130.536,33.343],[130.54,33.365],[130.542,33.394]]]]}},{"type":"Feature","properties":{"name":"多久市","code":"41204"},"geometry":{"type":"MultiPolygon","coordinates":[[[[130.028,33.281],[130.024,33.268],[130.023,33.258],[130.028,33.254],[130.027,33.25],[130.04,33.251],[130.048,33.247],[130.055,33.239],[130.063,33.244],[130.069,33.24],[130.079,33.237],[130.096,33.239],[130.103,33.235],[130.112,33.239],[130.126,33.234],[130.139,33.247],[130.144,33.247],[130.16,33.252],[130.166,33.244],[130.172,33.244],[130.183,33.25],[130.181,33.256],[130.171,33.269],[130.166,33.278],[130.172,33.283],[130.169,33.288],[130.157,33.293],[130.158,33.302],[130.148,33.31],[130.138,33.311],[130.137,33.32],[130.14,33.326],[130.138,33.333],[130.143,33.339],[130.127,33.34],[130.12,33.333],[130.117,33.327],[130.112,33.325],[130.098,33.314],[130.086,33.312],[130.082,33.307],[130.074,33.3],[130.063,33.297],[130.054,33.288],[130.045,33.286],[130.035,33.278],[130.028,33.281]]]]}},{"type":"Feature","properties":{"name":"伊万里市","code":"41205"},"geometry":{"type":"MultiPolygon","coordinates":[[[[129.865,33.393],[129.865,33.385],[129.867,33.376],[129.863,33.376],[129.859,33.37],[129.849,33.365],[129.851,33.359],[129.845,33.354],[129.844,33.349],[129.848,33.344],[129.83,33.336],[129.833,33.329],[129.841,33.332],[129.847,33.328],[129.842,33.323],[129.841,33.317],[129.836,33.312],[129.828,33.312],[129.831,33.304],[129.839,33.304],[129.847,33.301],[129.854,33.294],[129.851,33.29],[129.844,33.293],[129.842,33.287],[129.831,33.294],[129.818,33.315],[129.813,33.315],[129.803,33.332],[129.804,33.338],[129.794,33.337],[129.789,33.34],[129.777,33.333],[129.769,33.319],[129.759,33.291],[129.764,33.29],[129.772,33.28],[129.78,33.267],[129.791,33.257],[129.798,33.253],[129.81,33.243],[129.814,33.236],[129.826,33.237],[129.832,33.235],[129.843,33.236],[129.861,33.241],[129.87,33.238],[129.873,33.231],[129.879,33.226],[129.897,33.224],[129.905,33.228],[129.922,33.227],[129.931,33.23],[129.936,33.238],[129.945,33.246],[129.953,33.257],[129.961,33.255],[129.965,33.26],[129.971,33.261],[129.972,33.268],[129.981,33.275],[130.002,33.281],[130.008,33.28],[130.013,33.282],[130.022,33.281],[130.025,33.283],[130.021,33.291],[130.015,33.294],[130.01,33.303],[130.009,33.315],[129.999,33.321],[129.993,33.327],[129.982,33.326],[129.968,33.336],[129.963,33.346],[129.956,33.346],[129.955,33.342],[129.96,33.329],[129.954,33.324],[129.95,33.335],[129.944,33.345],[129.936,33.347],[129.93,33.357],[129.926,33.358],[129.915,33.378],[129.92,33.393],[129.913,33.403],[129.906,33.407],[129.904,33.412],[129.891,33.406],[129.882,33.407],[129.88,33.397],[129.884,33.391],[129.876,33.387],[129.865,33.393]]]]}},{"type":"Feature","properties":{"name":"武雄市","code":"41206"},"geometry":{"type":"MultiPolygon","coordinates":[[[[130.025,33.283],[130.022,33.281],[130.013,33.282],[130.008,33.28],[130.002,33.281],[129.981,33.275],[129.972,33.268],[129.971,33.261],[129.965,33.26],[129.961,33.255],[129.953,33.257],[129.945,33.246],[129.936,33.238],[129.931,33.23],[129.922,33.227],[129.905,33.228],[129.897,33.224],[129.9,33.22],[129.907,33.199],[129.912,33.198],[129.912,33.186],[129.918,33.183],[129.917,33.172],[129.927,33.174],[129.939,33.165],[129.941,33.16],[129.949,33.134],[129.956,33.129],[129.957,33.118],[129.951,33.11],[129.969,33.115],[129.976,33.11],[129.986,33.117],[129.994,33.117],[129.995,33.127],[129.988,33.134],[129.993,33.137],[130.004,33.139],[130.004,33.145],[130.02,33.152],[130.029,33.148],[130.034,33.154],[130.033,33.158],[130.049,33.159],[130.057,33.162],[130.06,33.167],[130.072,33.167],[130.077,33.172],[130.07,33.182],[130.084,33.184],[130.089,33.199],[130.098,33.205],[130.093,33.215],[130.1,33.224],[130.103,33.235],[130.096,33.239],[130.079,33.237],[130.069,33.24],[130.063,33.244],[130.055,33.239],[130.048,33.247],[130.04,33.251],[130.027,33.25],[130.028,33.254],[130.023,33.258],[130.024,33.268],[130.028,33.281]]]]}},{"type":"Feature","properties":{"name":"鹿島市","code":"41207"},"geometry":{"type":"MultiPolygon","coordinates":[[[[130.13,33.118],[130.129,33.123],[130.121,33.125],[130.111,33.131],[130.096,33.131],[130.092,33.129],[130.082,33.131],[130.079,33.117],[130.082,33.113],[130.081,33.107],[130.076,33.103],[130.075,33.098],[130.064,33.1],[130.063,33.095],[130.054,33.087],[130.05,33.087],[130.039,33.079],[130.041,33.071],[130.048,33.063],[130.045,33.044],[130.038,33.03],[130.045,33.024],[130.043,33.014],[130.047,33.008],[130.044,33.004],[130.054,32.992],[130.061,32.986],[130.076,32.988],[130.08,32.993],[130.088,32.994],[130.096,33.001],[130.097,33.014],[130.108,33.021],[130.121,33.024],[130.143,33.037],[130.154,33.04],[130.17,33.051],[130.162,33.055],[130.159,33.061],[130.15,33.067],[130.146,33.077],[130.143,33.08],[130.146,33.086],[130.14,33.094],[130.136,33.095],[130.132,33.104],[130.128,33.104],[130.13,33.118]]]]}},{"type":"Feature","properties":{"name":"小城市","code":"41208"},"geometry":{"type":"MultiPolygon","coordinates":[[[[130.143,33.339],[130.138,33.333],[130.14,33.326],[130.137,33.32],[130.138,33.311],[130.148,33.31],[130.158,33.302],[130.157,33.293],[130.169,33.288],[130.172,33.283],[130.166,33.278],[130.171,33.269],[130.181,33.256],[130.183,33.25],[130.172,33.244],[130.166,33.244],[130.16,33.237],[130.162,33.229],[130.179,33.228],[130.185,33.22],[130.188,33.222],[130.193,33.214],[130.199,33.214],[130.2,33.206],[130.191,33.206],[130.2,33.195],[130.207,33.194],[130.216,33.197],[130.23,33.193],[130.235,33.198],[130.235,33.204],[130.229,33.204],[130.23,33.215],[130.221,33.229],[130.223,33.24],[130.219,33.246],[130.22,33.252],[130.23,33.256],[130.236,33.252],[130.244,33.253],[130.244,33.267],[130.245,33.273],[130.238,33.294],[130.232,33.309],[130.227,33.314],[130.224,33.32],[130.226,33.329],[130.222,33.335],[130.21,33.341],[130.195,33.342],[130.182,33.341],[130.168,33.338],[130.161,33.34],[130.143,33.339]]]]}},{"type":"Feature","properties":{"name":"嬉野市","code":"41209"},"geometry":{"type":"MultiPolygon","coordinates":[[[[129.951,33.11],[129.941,33.113],[129.933,33.111],[129.925,33.106],[129.927,33.102],[129.922,33.09],[129.933,33.088],[129.939,33.074],[129.955,33.066],[129.964,33.064],[129.978,33.057],[129.983,33.057],[129.988,33.051],[129.994,33.048],[129.994,33.037],[130.0,33.032],[130.001,33.026],[130.008,33.02],[130.015,33.017],[130.027,33.02],[130.028,33.012],[130.038,33.009],[130.044,33.004],[130.047,33.008],[130.043,33.014],[130.045,33.024],[130.038,33.03],[130.045,33.044],[130.048,33.063],[130.041,33.071],[130.039,33.079],[130.05,33.087],[130.054,33.087],[130.063,33.095],[130.064,33.1],[130.075,33.098],[130.076,33.103],[130.081,33.107],[130.082,33.113],[130.079,33.117],[130.082,33.131],[130.072,33.131],[130.074,33.138],[130.084,33.142],[130.088,33.152],[130.084,33.155],[130.077,33.172],[130.072,33.167],[130.06,33.167],[130.057,33.162],[130.049,33.159],[130.033,33.158],[130.034,33.154],[130.029,33.148],[130.02,33.152],[130.004,33.145],[130.004,33.139],[129.993,33.137],[129.988,33.134],[129.995,33.127],[129.994,33.117],[129.986,33.117],[129.976,33.11],[129.969,33.115],[129.951,33.11]]]]}},{"type":"Feature","properties":{"name":"神埼市","code":"41210"},"geometry":{"type":"MultiPolygon","coordinates":[[[[130.374,33.244],[130.385,33.241],[130.39,33.245],[130.389,33.257],[130.392,33.26],[130.4,33.259],[130.402,33.249],[130.415,33.253],[130.42,33.262],[130.417,33.268],[130.41,33.269],[130.407,33.274],[130.406,33.285],[130.402,33.286],[130.397,33.283],[130.387,33.318],[130.384,33.318],[130.386,33.336],[130.382,33.349],[130.375,33.371],[130.377,33.378],[130.372,33.378],[130.365,33.389],[130.37,33.395],[130.378,33.395],[130.384,33.405],[130.384,33.409],[130.378,33.414],[130.378,33.425],[130.375,33.43],[130.363,33.435],[130.356,33.433],[130.345,33.445],[130.34,33.445],[130.331,33.435],[130.327,33.422],[130.32,33.421],[130.313,33.412],[130.308,33.413],[130.298,33.409],[130.294,33.404],[130.279,33.403],[130.275,33.398],[130.277,33.392],[130.274,33.387],[130.282,33.38],[130.287,33.383],[130.294,33.379],[130.293,33.372],[130.289,33.369],[130.298,33.358],[130.305,33.352],[130.31,33.359],[130.324,33.36],[130.331,33.356],[130.338,33.333],[130.337,33.329],[130.343,33.307],[130.342,33.299],[130.336,33.298],[130.341,33.278],[130.341,33.269],[130.344,33.26],[130.344,33.25],[130.35,33.25],[130.35,33.256],[130.374,33.257],[130.374,33.244]]]]}},{"type":"Feature","properties":{"name":"神埼郡吉野ヶ里町","code":"41327"},"geometry":{"type":"MultiPolygon","coordinates":[[[[130.402,33.286],[130.405,33.29],[130.406,33.297],[130.406,33.303],[130.413,33.315],[130.415,33.329],[130.419,33.336],[130.411,33.36],[130.42,33.375],[130.42,33.384],[130.411,33.395],[130.408,33.399],[130.415,33.409],[130.405,33.416],[130.398,33.427],[130.387,33.428],[130.378,33.425],[130.378,33.414],[130.384,33.409],[130.384,33.405],[130.378,33.395],[130.37,33.395],[130.365,33.389],[130.372,33.378],[130.377,33.378],[130.375,33.371],[130.382,33.349],[130.386,33.336],[130.384,33.318],[130.387,33.318],[130.397,33.283],[130.402,33.286]]]]}},{"type":"Feature","properties":{"name":"三養基郡基山町","code":"41341"},"geometry":{"type":"MultiPolygon","coordinates":[[[[130.542,33.394],[130.541,33.421],[130.537,33.426],[130.534,33.441],[130.511,33.449],[130.496,33.445],[130.491,33.44],[130.474,33.435],[130.462,33.428],[130.478,33.424],[130.484,33.42],[130.493,33.41],[130.502,33.406],[130.508,33.409],[130.52,33.412],[130.527,33.411],[130.53,33.403],[130.539,33.403],[130.542,33.394]]]]}},{"type":"Feature","properties":{"name":"三養基郡上峰町","code":"41345"},"geometry":{"type":"MultiPolygon","coordinates":[[[[130.406,33.297],[130.416,33.297],[130.416,33.302],[130.423,33.303],[130.425,33.298],[130.432,33.299],[130.433,33.306],[130.439,33.309],[130.438,33.316],[130.428,33.321],[130.425,33.334],[130.432,33.339],[130.429,33.357],[130.423,33.398],[130.419,33.401],[130.411,33.395],[130.42,33.384],[130.42,33.375],[130.411,33.36],[130.419,33.336],[130.415,33.329],[130.413,33.315],[130.406,33.303],[130.406,33.297]]]]}},{"type":"Feature","properties":{"name":"三養基郡みやき町","code":"41346"},"geometry":{"type":"MultiPolygon","coordinates":[[[[130.438,33.401],[130.429,33.397],[130.423,33.398],[130.429,33.357],[130.432,33.339],[130.425,33.334],[130.428,33.321],[130.438,33.316],[130.439,33.309],[130.433,33.306],[130.432,33.299],[130.425,33.298],[130.423,33.303],[130.416,33.302],[130.416,33.297],[130.406,33.297],[130.405,33.29],[130.402,33.286],[130.406,33.285],[130.407,33.274],[130.41,33.269],[130.417,33.268],[130.426,33.271],[130.431,33.281],[130.427,33.29],[130.434,33.292],[130.438,33.289],[130.435,33.276],[130.436,33.27],[130.442,33.264],[130.45,33.265],[130.449,33.278],[130.453,33.283],[130.465,33.285],[130.466,33.29],[130.456,33.294],[130.456,33.301],[130.467,33.305],[130.478,33.304],[130.485,33.306],[130.489,33.316],[130.477,33.326],[130.48,33.331],[130.479,33.337],[130.473,33.338],[130.469,33.347],[130.464,33.351],[130.459,33.348],[130.456,33.356],[130.457,33.363],[130.453,33.373],[130.447,33.377],[130.44,33.392],[130.438,33.401]]]]}},{"type":"Feature","properties":{"name":"東松浦郡玄海町","code":"41387"},"geometry":{"type":"MultiPolygon","coordinates":[[[[129.857,33.511],[129.85,33.512],[129.843,33.517],[129.831,33.52],[129.833,33.512],[129.83,33.505],[129.84,33.495],[129.837,33.487],[129.844,33.481],[129.834,33.476],[129.835,33.472],[129.843,33.471],[129.848,33.476],[129.857,33.465],[129.857,33.459],[129.851,33.453],[129.852,33.447],[129.863,33.446],[129.859,33.439],[129.861,33.435],[129.87,33.435],[129.872,33.431],[129.879,33.433],[129.881,33.441],[129.886,33.441],[129.888,33.446],[129.894,33.458],[129.898,33.461],[129.896,33.467],[129.905,33.471],[129.902,33.482],[129.897,33.49],[129.889,33.492],[129.882,33.501],[129.877,33.501],[129.869,33.509],[129.857,33.511]]]]}},{"type":"Feature","properties":{"name":"西松浦郡有田町","code":"41401"},"geometry":{"type":"MultiPolygon","coordinates":[[[[129.814,33.236],[129.81,33.23],[129.813,33.221],[129.807,33.211],[129.81,33.202],[129.817,33.192],[129.817,33.185],[129.837,33.174],[129.843,33.177],[129.853,33.176],[129.858,33.171],[129.869,33.169],[129.879,33.162],[129.886,33.161],[129.888,33.156],[129.895,33.16],[129.906,33.158],[129.912,33.162],[129.918,33.16],[129.928,33.164],[129.939,33.165],[129.927,33.174],[129.917,33.172],[129.918,33.183],[129.912,33.186],[129.912,33.198],[129.907,33.199],[129.9,33.22],[129.897,33.224],[129.879,33.226],[129.873,33.231],[129.87,33.238],[129.861,33.241],[129.843,33.236],[129.832,33.235],[129.826,33.237],[129.814,33.236]]]]}},{"type":"Feature","properties":{"name":"杵島郡大町町","code":"41423"},"geometry":{"type":"MultiPolygon","coordinates":[[[[130.103,33.235],[130.1,33.224],[130.093,33.215],[130.1,33.207],[130.111,33.203],[130.126,33.196],[130.13,33.198],[130.128,33.206],[130.135,33.209],[130.138,33.216],[130.13,33.222],[130.126,33.234],[130.112,33.239],[130.103,33.235]]]]}},{"type":"Feature","properties":{"name":"杵島郡江北町","code":"41424"},"geometry":{"type":"MultiPolygon","coordinates":[[[[130.126,33.234],[130.13,33.222],[130.138,33.216],[130.135,33.209],[130.142,33.203],[130.136,33.2],[130.139,33.196],[130.154,33.193],[130.16,33.189],[130.167,33.192],[130.166,33.2],[130.17,33.203],[130.179,33.2],[130.191,33.206],[130.2,33.206],[130.199,33.214],[130.193,33.214],[130.188,33.222],[130.185,33.22],[130.179,33.228],[130.162,33.229],[130.16,33.237],[130.166,33.244],[130.16,33.252],[130.144,33.247],[130.139,33.247],[130.126,33.234]]]]}},{"type":"Feature","properties":{"name":"杵島郡白石町","code":"41425"},"geometry":{"type":"MultiPolygon","coordinates":[[[[130.23,33.193],[130.216,33.197],[130.207,33.194],[130.2,33.195],[130.191,33.206],[130.179,33.2],[130.17,33.203],[130.166,33.2],[130.167,33.192],[130.16,33.189],[130.154,33.193],[130.139,33.196],[130.136,33.2],[130.142,33.203],[130.135,33.209],[130.128,33.206],[130.13,33.198],[130.126,33.196],[130.111,33.203],[130.098,33.205],[130.089,33.199],[130.084,33.184],[130.073,33.184],[130.077,33.172],[130.084,33.155],[130.088,33.152],[130.084,33.142],[130.074,33.138],[130.072,33.131],[130.082,33.131],[130.092,33.129],[130.096,33.131],[130.111,33.131],[130.121,33.125],[130.129,33.123],[130.13,33.118],[130.15,33.113],[130.169,33.13],[130.192,33.142],[130.19,33.146],[130.222,33.165],[130.232,33.183],[130.231,33.192]]]]}},{"type":"Feature","properties":{"name":"藤津郡太良町","code":"41441"},"geometry":{"type":"MultiPolygon","coordinates":[[[[130.224,32.958],[130.217,32.959],[130.215,32.952],[130.223,32.954],[130.224,32.958]]],[[[130.076,32.988],[130.086,32.979],[130.089,32.974],[130.103,32.975],[130.131,32.968],[130.139,32.969],[130.144,32.972],[130.15,32.963],[130.162,32.961],[130.173,32.962],[130.187,32.959],[130.201,32.959],[130.21,32.957],[130.224,32.962],[130.223,32.974],[130.215,32.98],[130.209,32.98],[130.21,32.986],[130.201,32.992],[130.196,32.989],[130.187,33.005],[130.188,33.011],[130.183,33.013],[130.179,33.03],[130.171,33.035],[130.17,33.051],[130.154,33.04],[130.143,33.037],[130.121,33.024],[130.108,33.021],[130.097,33.014],[130.096,33.001],[130.088,32.994],[130.08,32.993],[130.076,32.988]]]]}}]}