{"type":"FeatureCollection","features":[{"type":"Feature","properties":{"name":"熊本市中央区","code":"43101"},"geometry":{"type":"MultiPolygon","coordinates":[[[[130.747,32.819],[130.74,32.826],[130.735,32.826],[130.726,32.823],[130.722,32.824],[130.71,32.821],[130.702,32.819],[130.703,32.81],[130.694,32.811],[130.689,32.802],[130.689,32.797],[130.694,32.793],[130.694,32.785],[130.692,32.779],[130.699,32.78],[130.704,32.777],[130.719,32.779],[130.719,32.774],[130.727,32.773],[130.729,32.77],[130.731,32.778],[130.739,32.777],[130.743,32.78],[130.749,32.788],[130.75,32.793],[130.757,32.799],[130.762,32.806],[130.759,32.81],[130.751,32.807],[130.741,32.808],[130.739,32.812],[130.744,32.818],[130.747,32.819]]]]}},{"type":"Feature","properties":{"name":"熊本市東区","code":"43102"},"geometry":{"type":"MultiPolygon","coordinates":[[[[130.729,32.77],[130.728,32.766],[130.729,32.75],[130.747,32.754],[130.754,32.762],[130.761,32.764],[130.765,32.76],[130.771,32.763],[130.778,32.763],[130.796,32.77],[130.792,32.778],[130.788,32.779],[130.785,32.785],[130.783,32.796],[130.778,32.805],[130.783,32.805],[130.787,32.8],[130.806,32.806],[130.809,32.812],[130.816,32.815],[130.829,32.815],[130.828,32.825],[130.828,32.831],[130.821,32.839],[130.808,32.837],[130.805,32.852],[130.791,32.853],[130.786,32.846],[130.781,32.848],[130.772,32.847],[130.767,32.842],[130.762,32.829],[130.754,32.827],[130.747,32.819],[130.744,32.818],[130.739,32.812],[130.741,32.808],[130.751,32.807],[130.759,32.81],[130.762,32.806],[130.757,32.799],[130.75,32.793],[130.749,32.788],[130.743,32.78],[130.739,32.777],[130.731,32.778],[130.729,32.77]]]]}},{"type":"Feature","properties":{"name":"熊本市西区","code":"43103"},"geometry":{"type":"MultiPolygon","coordinates":[[[[130.593,32.769],[130.574,32.768],[130.573,32.763],[130.591,32.763],[130.593,32.769]]],[[[130.71,32.821],[130.71,32.831],[130.705,32.831],[130.697,32.837],[130.692,32.831],[130.686,32.838],[130.676,32.837],[130.67,32.83],[130.662,32.826],[130.657,32.827],[130.656,32.832],[130.667,32.84],[130.669,32.849],[130.674,32.856],[130.67,32.861],[130.663,32.863],[130.651,32.863],[130.643,32.859],[130.635,32.861],[130.626,32.862],[130.631,32.854],[130.625,32.853],[130.622,32.845],[130.613,32.843],[130.6,32.847],[130.596,32.847],[130.573,32.853],[130.572,32.849],[130.579,32.841],[130.582,32.832],[130.582,32.827],[130.588,32.827],[130.592,32.824],[130.596,32.811],[130.6,32.811],[130.605,32.806],[130.604,32.801],[130.614,32.793],[130.607,32.79],[130.603,32.784],[130.603,32.779],[130.598,32.778],[130.599,32.767],[130.604,32.757],[130.614,32.756],[130.632,32.763],[130.642,32.761],[130.648,32.769],[130.657,32.769],[130.664,32.772],[130.675,32.773],[130.689,32.77],[130.692,32.779],[130.694,32.785],[130.694,32.793],[130.689,32.797],[130.689,32.802],[130.694,32.811],[130.703,32.81],[130.702,32.819],[130.71,32.821]]]]}},{"type":"Feature","properties":{"name":"熊本市南区","code":"43104"},"geometry":{"type":"MultiPolygon","coordinates":[[[[130.692,32.779],[130.689,32.77],[130.675,32.773],[130.664,32.772],[130.657,32.769],[130.648,32.769],[130.642,32.761],[130.632,32.763],[130.614,32.756],[130.606,32.754],[130.607,32.743],[130.604,32.731],[130.608,32.716],[130.616,32.714],[130.627,32.709],[130.637,32.711],[130.644,32.717],[130.655,32.711],[130.659,32.706],[130.664,32.707],[130.669,32.703],[130.671,32.696],[130.682,32.694],[130.69,32.691],[130.697,32.693],[130.699,32.69],[130.71,32.688],[130.716,32.685],[130.717,32.681],[130.725,32.676],[130.728,32.671],[130.734,32.667],[130.734,32.661],[130.742,32.664],[130.752,32.673],[130.753,32.666],[130.764,32.668],[130.777,32.666],[130.771,32.683],[130.764,32.686],[130.765,32.693],[130.754,32.7],[130.753,32.709],[130.762,32.712],[130.76,32.72],[130.757,32.728],[130.747,32.735],[130.738,32.735],[130.725,32.737],[130.714,32.735],[130.699,32.736],[130.707,32.741],[130.713,32.738],[130.72,32.745],[130.726,32.743],[130.729,32.75],[130.728,32.766],[130.729,32.77],[130.727,32.773],[130.719,32.774],[130.719,32.779],[130.704,32.777],[130.699,32.78],[130.692,32.779]]]]}},{"type":"Feature","properties":{"name":"熊本市北区","code":"43105"},"geometry":{"type":"MultiPolygon","coordinates":[[[[130.747,32.819],[130.754,32.827],[130.762,32.829],[130.767,32.842],[130.772,32.847],[130.781,32.848],[130.786,32.846],[130.791,32.853],[130.787,32.858],[130.78,32.856],[130.776,32.858],[130.76,32.857],[130.752,32.855],[130.749,32.858],[130.741,32.854],[130.732,32.852],[130.726,32.854],[130.731,32.862],[130.73,32.888],[130.724,32.888],[130.72,32.897],[130.723,32.9],[130.722,32.907],[130.725,32.918],[130.73,32.928],[130.731,32.939],[130.728,32.944],[130.73,32.959],[130.728,32.966],[130.734,32.972],[130.725,32.977],[130.719,32.975],[130.709,32.977],[130.709,32.973],[130.704,32.968],[130.701,32.96],[130.696,32.955],[130.692,32.96],[130.674,32.952],[130.667,32.937],[130.662,32.934],[130.655,32.935],[130.652,32.932],[130.646,32.932],[130.637,32.916],[130.647,32.908],[130.649,32.893],[130.652,32.888],[130.645,32.885],[130.64,32.873],[130.638,32.865],[130.635,32.861],[130.643,32.859],[130.651,32.863],[130.663,32.863],[130.67,32.861],[130.674,32.856],[130.669,32.849],[130.667,32.84],[130.656,32.832],[130.657,32.827],[130.662,32.826],[130.67,32.83],[130.676,32.837],[130.686,32.838],[130.692,32.831],[130.697,32.837],[130.705,32.831],[130.71,32.831],[130.71,32.821],[130.722,32.824],[130.726,32.823],[130.735,32.826],[130.74,32.826],[130.747,32.819]]]]}},{"type":"Feature","properties":{"name":"八代市","code":"43202"},"geometry":{"type":"MultiPolygon","coordinates":[[[[130.724,32.559],[130.715,32.557],[130.711,32.549],[130.704,32.544],[130.696,32.544],[130.701,32.536],[130.687,32.528],[130.676,32.54],[130.664,32.545],[130.67,32.553],[130.67,32.561],[130.677,32.563],[130.674,32.568],[130.667,32.575],[130.658,32.582],[130.633,32.602],[130.616,32.588],[130.609,32.593],[130.59,32.576],[130.576,32.558],[130.562,32.538],[130.556,32.543],[130.547,32.536],[130.536,32.526],[130.563,32.512],[130.568,32.507],[130.533,32.523],[130.553,32.51],[130.565,32.505],[130.563,32.499],[130.552,32.501],[130.547,32.5],[130.542,32.494],[130.542,32.485],[130.545,32.479],[130.549,32.477],[130.565,32.476],[130.565,32.468],[130.569,32.464],[130.565,32.456],[130.573,32.441],[130.569,32.434],[130.556,32.423],[130.547,32.422],[130.541,32.412],[130.538,32.41],[130.543,32.406],[130.539,32.4],[130.535,32.398],[130.535,32.393],[130.53,32.386],[130.534,32.383],[130.528,32.374],[130.531,32.367],[130.541,32.365],[130.55,32.373],[130.553,32.38],[130.561,32.382],[130.567,32.377],[130.578,32.372],[130.588,32.377],[130.6,32.373],[130.607,32.376],[130.62,32.374],[130.625,32.365],[130.631,32.367],[130.642,32.365],[130.645,32.37],[130.652,32.374],[130.657,32.373],[130.657,32.368],[130.659,32.36],[130.665,32.354],[130.671,32.34],[130.679,32.343],[130.684,32.339],[130.694,32.342],[130.701,32.347],[130.697,32.354],[130.702,32.357],[130.702,32.363],[130.71,32.368],[130.721,32.386],[130.731,32.392],[130.739,32.393],[130.742,32.401],[130.736,32.405],[130.724,32.406],[130.724,32.413],[130.72,32.419],[130.729,32.428],[130.728,32.436],[130.723,32.444],[130.722,32.449],[130.729,32.452],[130.741,32.453],[130.738,32.462],[130.738,32.472],[130.742,32.469],[130.752,32.469],[130.751,32.475],[130.758,32.478],[130.768,32.48],[130.786,32.485],[130.795,32.494],[130.807,32.494],[130.816,32.491],[130.84,32.499],[130.844,32.492],[130.848,32.493],[130.852,32.488],[130.858,32.493],[130.863,32.494],[130.876,32.485],[130.88,32.478],[130.89,32.477],[130.901,32.467],[130.9,32.456],[130.898,32.452],[130.903,32.443],[130.912,32.441],[130.929,32.442],[130.936,32.438],[130.941,32.439],[130.953,32.444],[130.959,32.45],[130.978,32.451],[130.98,32.448],[130.987,32.447],[131.0,32.452],[131.008,32.46],[131.014,32.463],[131.016,32.473],[131.014,32.48],[131.007,32.49],[131.01,32.509],[131.009,32.515],[131.015,32.516],[131.018,32.52],[131.025,32.52],[131.025,32.532],[131.019,32.542],[131.019,32.549],[131.01,32.561],[131.0,32.57],[130.996,32.569],[130.988,32.571],[130.979,32.577],[130.969,32.58],[130.963,32.578],[130.954,32.577],[130.951,32.579],[130.947,32.577],[130.939,32.578],[130.923,32.575],[130.922,32.579],[130.914,32.585],[130.907,32.584],[130.909,32.576],[130.892,32.571],[130.884,32.574],[130.871,32.572],[130.861,32.574],[130.852,32.573],[130.846,32.569],[130.842,32.571],[130.828,32.562],[130.821,32.561],[130.815,32.567],[130.804,32.568],[130.793,32.579],[130.789,32.594],[130.783,32.595],[130.776,32.585],[130.769,32.581],[130.765,32.574],[130.759,32.574],[130.754,32.567],[130.754,32.564],[130.742,32.559],[130.736,32.562],[130.724,32.559]]]]}},{"type":"Feature","properties":{"name":"人吉市","code":"43203"},"geometry":{"type":"MultiPolygon","coordinates":[[[[130.787,32.231],[130.783,32.238],[130.778,32.233],[130.764,32.229],[130.759,32.231],[130.752,32.248],[130.741,32.247],[130.741,32.27],[130.738,32.277],[130.731,32.28],[130.731,32.29],[130.717,32.295],[130.711,32.285],[130.72,32.276],[130.72,32.266],[130.731,32.263],[130.734,32.256],[130.732,32.251],[130.726,32.245],[130.724,32.24],[130.719,32.241],[130.714,32.23],[130.701,32.225],[130.681,32.205],[130.68,32.196],[130.672,32.185],[130.665,32.184],[130.664,32.174],[130.667,32.169],[130.657,32.169],[130.656,32.157],[130.652,32.151],[130.655,32.141],[130.655,32.136],[130.67,32.129],[130.69,32.115],[130.699,32.107],[130.714,32.104],[130.721,32.101],[130.728,32.102],[130.733,32.108],[130.74,32.105],[130.739,32.101],[130.754,32.103],[130.759,32.097],[130.767,32.102],[130.779,32.099],[130.808,32.099],[130.821,32.095],[130.823,32.1],[130.831,32.105],[130.839,32.107],[130.849,32.104],[130.857,32.1],[130.862,32.102],[130.869,32.115],[130.876,32.117],[130.878,32.121],[130.871,32.129],[130.869,32.137],[130.859,32.134],[130.856,32.13],[130.851,32.129],[130.841,32.142],[130.834,32.14],[130.828,32.135],[130.825,32.142],[130.82,32.149],[130.822,32.152],[130.815,32.161],[130.819,32.165],[130.814,32.17],[130.815,32.179],[130.812,32.183],[130.805,32.182],[130.797,32.19],[130.789,32.194],[130.785,32.193],[130.782,32.205],[130.782,32.215],[130.787,32.214],[130.785,32.222],[130.79,32.226],[130.787,32.231]]]]}},{"type":"Feature","properties":{"name":"荒尾市","code":"43204"},"geometry":{"type":"MultiPolygon","coordinates":[[[[130.528,32.988],[130.52,32.997],[130.521,33.001],[130.516,33.012],[130.507,33.004],[130.499,33.007],[130.484,33.002],[130.451,33.004],[130.445,33.002],[130.436,33.005],[130.425,33.005],[130.414,33.002],[130.418,32.993],[130.426,32.994],[130.43,32.987],[130.432,32.96],[130.438,32.942],[130.444,32.945],[130.454,32.946],[130.458,32.94],[130.466,32.94],[130.476,32.951],[130.487,32.949],[130.495,32.951],[130.492,32.939],[130.497,32.937],[130.499,32.941],[130.505,32.943],[130.512,32.947],[130.513,32.955],[130.522,32.964],[130.53,32.978],[130.528,32.988]]]]}},{"type":"Feature","properties":{"name":"水俣市","code":"43205"},"geometry":{"type":"MultiPolygon","coordinates":[[[[130.432,32.231],[130.423,32.238],[130.415,32.233],[130.407,32.231],[130.402,32.235],[130.399,32.228],[130.394,32.227],[130.387,32.214],[130.379,32.206],[130.372,32.201],[130.38,32.192],[130.375,32.187],[130.378,32.182],[130.378,32.176],[130.371,32.177],[130.368,32.181],[130.36,32.182],[130.363,32.174],[130.361,32.167],[130.372,32.159],[130.38,32.151],[130.387,32.147],[130.392,32.134],[130.403,32.124],[130.403,32.12],[130.425,32.117],[130.43,32.115],[130.441,32.114],[130.449,32.117],[130.455,32.114],[130.463,32.119],[130.467,32.116],[130.474,32.119],[130.476,32.123],[130.477,32.139],[130.482,32.14],[130.492,32.134],[130.499,32.135],[130.509,32.141],[130.517,32.136],[130.54,32.137],[130.546,32.149],[130.558,32.154],[130.583,32.155],[130.589,32.168],[130.597,32.176],[130.595,32.183],[130.592,32.186],[130.579,32.194],[130.575,32.193],[130.547,32.196],[130.53,32.19],[130.525,32.186],[130.52,32.186],[130.515,32.183],[130.503,32.189],[130.499,32.195],[130.493,32.198],[130.483,32.199],[130.472,32.206],[130.47,32.21],[130.466,32.209],[130.45,32.21],[130.438,32.217],[130.437,32.226],[130.432,32.231]]]]}},{"type":"Feature","properties":{"name":"玉名市","code":"43206"},"geometry":{"type":"MultiPolygon","coordinates":[[[[130.626,32.862],[130.612,32.875],[130.607,32.885],[130.607,32.891],[130.617,32.897],[130.618,32.904],[130.615,32.915],[130.606,32.918],[130.609,32.924],[130.613,32.926],[130.621,32.934],[130.626,32.941],[130.616,32.949],[130.612,32.946],[130.608,32.952],[130.611,32.955],[130.607,32.96],[130.599,32.961],[130.593,32.957],[130.59,32.961],[130.595,32.964],[130.597,32.974],[130.603,32.977],[130.6,32.985],[130.592,32.989],[130.583,32.988],[130.58,32.991],[130.571,32.992],[130.558,32.995],[130.528,32.988],[130.53,32.978],[130.522,32.964],[130.513,32.955],[130.512,32.947],[130.505,32.943],[130.499,32.941],[130.497,32.937],[130.497,32.93],[130.49,32.925],[130.488,32.92],[130.476,32.905],[130.495,32.893],[130.499,32.893],[130.523,32.881],[130.527,32.877],[130.523,32.87],[130.523,32.853],[130.529,32.851],[130.565,32.842],[130.572,32.849],[130.573,32.853],[130.596,32.847],[130.6,32.847],[130.613,32.843],[130.622,32.845],[130.625,32.853],[130.631,32.854],[130.626,32.862]]]]}},{"type":"Feature","properties":{"name":"山鹿市","code":"43208"},"geometry":{"type":"MultiPolygon","coordinates":[[[[130.734,32.972],[130.737,32.976],[130.743,32.975],[130.755,32.984],[130.766,32.996],[130.781,32.992],[130.785,32.998],[130.795,33.0],[130.798,33.009],[130.806,33.012],[130.808,33.015],[130.807,33.026],[130.808,33.035],[130.815,33.049],[130.823,33.054],[130.816,33.064],[130.828,33.073],[130.836,33.071],[130.838,33.085],[130.845,33.088],[130.846,33.092],[130.837,33.105],[130.82,33.107],[130.821,33.111],[130.812,33.117],[130.807,33.116],[130.799,33.12],[130.789,33.124],[130.778,33.123],[130.771,33.124],[130.759,33.132],[130.754,33.137],[130.737,33.146],[130.735,33.153],[130.728,33.154],[130.723,33.152],[130.712,33.155],[130.704,33.152],[130.691,33.155],[130.693,33.16],[130.685,33.169],[130.68,33.171],[130.679,33.164],[130.668,33.157],[130.666,33.143],[130.669,33.139],[130.663,33.135],[130.66,33.125],[130.66,33.118],[130.655,33.115],[130.656,33.109],[130.651,33.103],[130.656,33.097],[130.655,33.089],[130.651,33.084],[130.639,33.08],[130.632,33.073],[130.633,33.067],[130.636,33.061],[130.635,33.054],[130.65,33.052],[130.653,33.048],[130.652,33.036],[130.648,33.026],[130.636,33.023],[130.632,33.02],[130.638,33.014],[130.637,33.009],[130.647,33.006],[130.646,32.998],[130.642,32.994],[130.648,32.987],[130.643,32.976],[130.651,32.975],[130.655,32.972],[130.651,32.963],[130.636,32.966],[130.632,32.961],[130.629,32.945],[130.635,32.944],[130.64,32.938],[130.644,32.938],[130.652,32.932],[130.655,32.935],[130.662,32.934],[130.667,32.937],[130.671,32.95],[130.692,32.96],[130.696,32.955],[130.701,32.96],[130.704,32.968],[130.709,32.973],[130.709,32.977],[130.719,32.975],[130.725,32.977],[130.734,32.972]]]]}},{"type":"Feature","properties":{"name":"菊池市","code":"43210"},"geometry":{"type":"MultiPolygon","coordinates":[[[[130.73,32.928],[130.735,32.926],[130.752,32.927],[130.766,32.921],[130.774,32.92],[130.791,32.911],[130.795,32.914],[130.808,32.913],[130.816,32.909],[130.826,32.908],[130.832,32.902],[130.838,32.908],[130.839,32.915],[130.837,32.919],[130.84,32.924],[130.865,32.919],[130.861,32.927],[130.863,32.931],[130.888,32.93],[130.909,32.936],[130.925,32.935],[130.93,32.941],[130.937,32.945],[130.938,32.95],[130.951,32.949],[130.956,32.954],[130.943,32.964],[130.953,32.976],[130.957,32.989],[130.956,33.004],[130.97,33.024],[130.959,33.037],[130.957,33.047],[130.947,33.053],[130.937,33.052],[130.923,33.052],[130.917,33.056],[130.907,33.065],[130.9,33.064],[130.897,33.073],[130.891,33.076],[130.89,33.084],[130.886,33.087],[130.877,33.092],[130.867,33.091],[130.864,33.095],[130.848,33.094],[130.845,33.088],[130.838,33.085],[130.836,33.071],[130.828,33.073],[130.816,33.064],[130.823,33.054],[130.815,33.049],[130.808,33.035],[130.807,33.026],[130.808,33.015],[130.806,33.012],[130.798,33.009],[130.795,33.0],[130.785,32.998],[130.781,32.992],[130.766,32.996],[130.755,32.984],[130.743,32.975],[130.737,32.976],[130.734,32.972],[130.728,32.966],[130.73,32.959],[130.728,32.944],[130.731,32.939],[130.73,32.928]]]]}},{"type":"Feature","properties":{"name":"宇土市","code":"43211"},"geometry":{"type":"MultiPolygon","coordinates":[[[[130.608,32.716],[130.597,32.711],[130.588,32.704],[130.575,32.702],[130.568,32.699],[130.564,32.694],[130.553,32.687],[130.542,32.669],[130.538,32.665],[130.524,32.664],[130.51,32.655],[130.499,32.654],[130.501,32.648],[130.511,32.646],[130.532,32.648],[130.549,32.652],[130.554,32.655],[130.567,32.657],[130.576,32.653],[130.594,32.656],[130.607,32.661],[130.608,32.665],[130.615,32.671],[130.623,32.67],[130.634,32.664],[130.639,32.664],[130.645,32.668],[130.652,32.663],[130.661,32.667],[130.666,32.661],[130.671,32.663],[130.679,32.658],[130.685,32.669],[130.691,32.671],[130.696,32.677],[130.703,32.675],[130.712,32.675],[130.717,32.681],[130.716,32.685],[130.71,32.688],[130.699,32.69],[130.697,32.693],[130.69,32.691],[130.682,32.694],[130.671,32.696],[130.669,32.703],[130.664,32.707],[130.659,32.706],[130.655,32.711],[130.644,32.717],[130.637,32.711],[130.627,32.709],[130.616,32.714],[130.608,32.716]]]]}},{"type":"Feature","properties":{"name":"上天草市","code":"43212"},"geometry":{"type":"MultiPolygon","coordinates":[[[[130.324,32.382],[130.319,32.378],[130.319,32.371],[130.326,32.373],[130.324,32.382]]],[[[130.415,32.399],[130.409,32.384],[130.421,32.379],[130.416,32.37],[130.423,32.371],[130.431,32.377],[130.424,32.382],[130.423,32.394],[130.415,32.399]]],[[[130.347,32.398],[130.356,32.377],[130.362,32.381],[130.363,32.386],[130.367,32.39],[130.377,32.389],[130.382,32.387],[130.389,32.393],[130.4,32.398],[130.403,32.405],[130.411,32.415],[130.404,32.422],[130.416,32.422],[130.416,32.43],[130.408,32.433],[130.414,32.44],[130.419,32.45],[130.429,32.455],[130.431,32.464],[130.436,32.47],[130.438,32.486],[130.452,32.507],[130.456,32.515],[130.456,32.524],[130.447,32.523],[130.442,32.529],[130.436,32.526],[130.432,32.519],[130.424,32.518],[130.419,32.523],[130.411,32.517],[130.405,32.515],[130.395,32.5],[130.391,32.502],[130.381,32.496],[130.382,32.485],[130.379,32.478],[130.374,32.48],[130.366,32.477],[130.355,32.478],[130.351,32.482],[130.344,32.482],[130.341,32.475],[130.343,32.471],[130.337,32.461],[130.339,32.455],[130.348,32.445],[130.365,32.44],[130.369,32.443],[130.382,32.445],[130.383,32.437],[130.375,32.418],[130.367,32.411],[130.367,32.405],[130.362,32.402],[130.354,32.405],[130.351,32.402],[130.347,32.398]]],[[[130.404,32.544],[130.396,32.54],[130.404,32.536],[130.408,32.542],[130.404,32.544]]],[[[130.411,32.548],[130.415,32.54],[130.429,32.541],[130.411,32.548]]],[[[130.39,32.587],[130.38,32.583],[130.385,32.579],[130.39,32.587]]],[[[130.473,32.588],[130.468,32.585],[130.466,32.58],[130.461,32.573],[130.464,32.565],[130.462,32.561],[130.466,32.556],[130.463,32.541],[130.466,32.541],[130.471,32.546],[130.47,32.551],[130.487,32.57],[130.473,32.588]]],[[[130.337,32.607],[130.331,32.605],[130.333,32.601],[130.341,32.599],[130.344,32.604],[130.337,32.607]]],[[[130.443,32.626],[130.436,32.622],[130.431,32.617],[130.422,32.617],[130.414,32.61],[130.406,32.598],[130.395,32.591],[130.394,32.586],[130.4,32.583],[130.406,32.584],[130.417,32.581],[130.42,32.575],[130.415,32.574],[130.407,32.565],[130.407,32.56],[130.404,32.555],[130.405,32.551],[130.417,32.551],[130.423,32.553],[130.428,32.548],[130.439,32.548],[130.44,32.553],[130.45,32.56],[130.451,32.567],[130.447,32.572],[130.452,32.576],[130.458,32.586],[130.453,32.587],[130.448,32.591],[130.445,32.599],[130.456,32.609],[130.458,32.615],[130.451,32.617],[130.443,32.626]]]]}},{"type":"Feature","properties":{"name":"宇城市","code":"43213"},"geometry":{"type":"MultiPolygon","coordinates":[[[[130.493,32.61],[130.487,32.609],[130.474,32.603],[130.481,32.597],[130.48,32.59],[130.486,32.592],[130.493,32.59],[130.486,32.583],[130.492,32.576],[130.501,32.586],[130.509,32.592],[130.51,32.599],[130.509,32.607],[130.493,32.61]]],[[[130.717,32.681],[130.712,32.675],[130.703,32.675],[130.696,32.677],[130.691,32.671],[130.685,32.669],[130.679,32.658],[130.671,32.663],[130.666,32.661],[130.661,32.667],[130.652,32.663],[130.645,32.668],[130.639,32.664],[130.634,32.664],[130.623,32.67],[130.615,32.671],[130.608,32.665],[130.607,32.661],[130.594,32.656],[130.576,32.653],[130.567,32.657],[130.554,32.655],[130.549,32.652],[130.532,32.648],[130.511,32.646],[130.501,32.648],[130.499,32.654],[130.489,32.647],[130.482,32.645],[130.478,32.639],[130.462,32.634],[130.453,32.627],[130.461,32.617],[130.459,32.608],[130.467,32.605],[130.473,32.609],[130.479,32.608],[130.486,32.613],[130.51,32.612],[130.519,32.613],[130.521,32.617],[130.533,32.621],[130.536,32.619],[130.541,32.624],[130.545,32.623],[130.56,32.625],[130.579,32.622],[130.59,32.626],[130.598,32.625],[130.616,32.632],[130.627,32.633],[130.637,32.635],[130.652,32.642],[130.655,32.635],[130.661,32.632],[130.653,32.627],[130.657,32.618],[130.654,32.613],[130.641,32.623],[130.63,32.623],[130.641,32.614],[130.645,32.616],[130.652,32.61],[130.679,32.598],[130.678,32.592],[130.698,32.58],[130.706,32.585],[130.714,32.578],[130.707,32.572],[130.716,32.563],[130.724,32.559],[130.736,32.562],[130.742,32.559],[130.754,32.564],[130.754,32.567],[130.759,32.574],[130.765,32.574],[130.769,32.581],[130.776,32.585],[130.783,32.595],[130.779,32.601],[130.78,32.628],[130.778,32.64],[130.774,32.652],[130.776,32.663],[130.764,32.668],[130.753,32.666],[130.752,32.673],[130.742,32.664],[130.734,32.661],[130.734,32.667],[130.728,32.671],[130.725,32.676],[130.717,32.681]]]]}},{"type":"Feature","properties":{"name":"阿蘇市","code":"43214"},"geometry":{"type":"MultiPolygon","coordinates":[[[[130.956,32.954],[130.959,32.949],[130.965,32.947],[130.958,32.942],[130.96,32.935],[130.966,32.924],[130.957,32.914],[130.967,32.903],[130.979,32.9],[130.988,32.903],[130.985,32.907],[130.988,32.91],[131.0,32.909],[131.02,32.902],[131.02,32.897],[131.026,32.896],[131.032,32.898],[131.042,32.895],[131.052,32.889],[131.061,32.885],[131.066,32.88],[131.09,32.885],[131.098,32.883],[131.103,32.883],[131.107,32.886],[131.116,32.887],[131.139,32.885],[131.143,32.883],[131.152,32.887],[131.162,32.889],[131.171,32.884],[131.178,32.878],[131.178,32.875],[131.197,32.88],[131.207,32.885],[131.229,32.899],[131.249,32.907],[131.254,32.909],[131.253,32.925],[131.248,32.931],[131.246,32.94],[131.253,32.946],[131.248,32.948],[131.247,32.953],[131.252,32.957],[131.246,32.961],[131.237,32.962],[131.228,32.96],[131.224,32.963],[131.219,32.962],[131.217,32.971],[131.198,32.973],[131.193,32.971],[131.187,32.972],[131.185,32.991],[131.181,32.993],[131.185,32.999],[131.181,33.003],[131.171,33.006],[131.167,33.012],[131.154,33.013],[131.151,33.023],[131.162,33.027],[131.165,33.039],[131.161,33.041],[131.143,33.041],[131.127,33.046],[131.122,33.04],[131.113,33.038],[131.094,33.031],[131.088,33.043],[131.074,33.04],[131.069,33.04],[131.063,33.03],[131.007,33.019],[130.998,33.028],[130.991,33.024],[130.977,33.025],[130.97,33.024],[130.956,33.004],[130.957,32.989],[130.953,32.976],[130.943,32.964],[130.956,32.954]]]]}},{"type":"Feature","properties":{"name":"天草市","code":"43215"},"geometry":{"type":"MultiPolygon","coordinates":[[[[130.029,32.191],[130.021,32.188],[130.023,32.182],[130.019,32.18],[130.015,32.172],[130.018,32.162],[130.022,32.161],[130.024,32.17],[130.032,32.175],[130.038,32.167],[130.045,32.159],[130.049,32.167],[130.036,32.176],[130.04,32.181],[130.033,32.185],[130.029,32.191]]],[[[130.078,32.202],[130.07,32.196],[130.078,32.195],[130.078,32.202]]],[[[130.141,32.278],[130.134,32.272],[130.132,32.266],[130.135,32.263],[130.146,32.265],[130.151,32.269],[130.148,32.274],[130.141,32.278]]],[[[130.355,32.352],[130.345,32.349],[130.337,32.338],[130.33,32.333],[130.334,32.317],[130.322,32.317],[130.316,32.311],[130.309,32.311],[130.305,32.306],[130.322,32.308],[130.331,32.306],[130.336,32.311],[130.345,32.312],[130.36,32.326],[130.364,32.335],[130.374,32.343],[130.372,32.35],[130.364,32.346],[130.355,32.352]]],[[[130.315,32.368],[130.311,32.358],[130.304,32.363],[130.3,32.359],[130.302,32.351],[130.308,32.351],[130.316,32.348],[130.314,32.344],[130.321,32.34],[130.33,32.348],[130.339,32.347],[130.341,32.352],[130.333,32.355],[130.331,32.358],[130.32,32.363],[130.322,32.367],[130.315,32.368]]],[[[130.351,32.372],[130.342,32.371],[130.341,32.367],[130.349,32.361],[130.355,32.364],[130.351,32.372]]],[[[130.236,32.381],[130.23,32.377],[130.23,32.367],[130.236,32.368],[130.236,32.381]]],[[[130.391,32.502],[130.391,32.508],[130.389,32.514],[130.369,32.518],[130.37,32.525],[130.36,32.527],[130.343,32.522],[130.335,32.522],[130.326,32.519],[130.316,32.518],[130.311,32.511],[130.294,32.498],[130.295,32.492],[130.282,32.484],[130.273,32.483],[130.268,32.48],[130.259,32.479],[130.251,32.47],[130.24,32.466],[130.233,32.461],[130.23,32.462],[130.217,32.457],[130.21,32.453],[130.205,32.451],[130.206,32.442],[130.21,32.437],[130.21,32.431],[130.219,32.423],[130.225,32.412],[130.232,32.415],[130.241,32.415],[130.244,32.412],[130.244,32.402],[130.246,32.397],[130.234,32.387],[130.243,32.384],[130.252,32.388],[130.252,32.393],[130.261,32.404],[130.262,32.411],[130.275,32.412],[130.278,32.403],[130.286,32.399],[130.29,32.401],[130.301,32.399],[130.309,32.396],[130.329,32.399],[130.334,32.403],[130.342,32.406],[130.351,32.418],[130.354,32.405],[130.362,32.402],[130.367,32.405],[130.367,32.411],[130.375,32.418],[130.383,32.437],[130.382,32.445],[130.369,32.443],[130.365,32.44],[130.348,32.445],[130.339,32.455],[130.337,32.461],[130.343,32.471],[130.341,32.475],[130.344,32.482],[130.351,32.482],[130.355,32.478],[130.366,32.477],[130.374,32.48],[130.379,32.478],[130.382,32.485],[130.381,32.496],[130.391,32.502]]],[[[130.018,32.439],[130.007,32.428],[130.003,32.414],[130.004,32.411],[129.998,32.404],[129.996,32.391],[129.988,32.384],[129.994,32.383],[129.994,32.377],[129.988,32.375],[129.98,32.366],[129.975,32.356],[129.978,32.346],[129.981,32.342],[129.979,32.334],[129.981,32.325],[129.987,32.322],[129.992,32.323],[129.995,32.315],[129.994,32.307],[130.005,32.309],[130.018,32.314],[130.018,32.31],[130.028,32.309],[130.031,32.303],[130.037,32.305],[130.038,32.313],[130.054,32.309],[130.058,32.303],[130.066,32.306],[130.071,32.3],[130.067,32.296],[130.061,32.296],[130.067,32.289],[130.063,32.285],[130.063,32.279],[130.052,32.279],[130.051,32.287],[130.044,32.298],[130.035,32.302],[130.03,32.294],[130.032,32.29],[130.026,32.287],[130.025,32.301],[130.011,32.298],[130.005,32.289],[129.994,32.283],[129.988,32.277],[129.987,32.272],[129.982,32.269],[129.971,32.248],[129.97,32.243],[129.975,32.24],[129.983,32.246],[129.99,32.24],[130.013,32.235],[130.015,32.222],[130.009,32.219],[130.0,32.218],[129.997,32.204],[129.992,32.201],[130.002,32.193],[130.013,32.199],[130.013,32.19],[130.023,32.189],[130.033,32.2],[130.029,32.209],[130.04,32.209],[130.045,32.202],[130.056,32.208],[130.058,32.211],[130.073,32.211],[130.081,32.218],[130.072,32.225],[130.082,32.23],[130.079,32.235],[130.08,32.243],[130.089,32.243],[130.087,32.238],[130.09,32.228],[130.101,32.232],[130.103,32.249],[130.094,32.247],[130.093,32.254],[130.103,32.256],[130.107,32.254],[130.115,32.268],[130.123,32.278],[130.134,32.288],[130.138,32.289],[130.143,32.284],[130.149,32.283],[130.161,32.29],[130.166,32.296],[130.163,32.302],[130.148,32.302],[130.144,32.297],[130.14,32.298],[130.142,32.306],[130.148,32.312],[130.157,32.314],[130.152,32.322],[130.159,32.324],[130.156,32.33],[130.158,32.334],[130.165,32.329],[130.175,32.339],[130.177,32.335],[130.168,32.326],[130.168,32.317],[130.173,32.31],[130.179,32.311],[130.186,32.314],[130.195,32.324],[130.2,32.323],[130.203,32.333],[130.208,32.335],[130.207,32.347],[130.212,32.355],[130.218,32.365],[130.226,32.369],[130.221,32.377],[130.217,32.38],[130.223,32.386],[130.219,32.393],[130.209,32.396],[130.205,32.395],[130.199,32.385],[130.194,32.387],[130.201,32.392],[130.201,32.402],[130.198,32.405],[130.202,32.411],[130.21,32.414],[130.208,32.422],[130.216,32.422],[130.209,32.431],[130.208,32.438],[130.205,32.441],[130.202,32.449],[130.203,32.454],[130.197,32.459],[130.205,32.464],[130.209,32.472],[130.206,32.479],[130.197,32.488],[130.192,32.496],[130.198,32.505],[130.193,32.525],[130.195,32.532],[130.188,32.549],[130.171,32.551],[130.147,32.55],[130.138,32.546],[130.121,32.547],[130.118,32.544],[130.118,32.54],[130.126,32.532],[130.12,32.521],[130.122,32.517],[130.117,32.513],[130.115,32.506],[130.119,32.504],[130.118,32.494],[130.106,32.482],[130.097,32.482],[130.088,32.471],[130.083,32.46],[130.094,32.451],[130.095,32.44],[130.095,32.429],[130.091,32.429],[130.084,32.436],[130.077,32.439],[130.056,32.439],[130.041,32.434],[130.037,32.435],[130.021,32.436]]]]}},{"type":"Feature","properties":{"name":"合志市","code":"43216"},"geometry":{"type":"MultiPolygon","coordinates":[[[[130.749,32.858],[130.756,32.864],[130.766,32.866],[130.768,32.861],[130.781,32.868],[130.788,32.871],[130.788,32.876],[130.794,32.875],[130.803,32.877],[130.825,32.884],[130.826,32.887],[130.836,32.892],[130.847,32.893],[130.84,32.895],[130.832,32.902],[130.826,32.908],[130.816,32.909],[130.808,32.913],[130.795,32.914],[130.791,32.911],[130.774,32.92],[130.766,32.921],[130.752,32.927],[130.735,32.926],[130.73,32.928],[130.725,32.918],[130.722,32.907],[130.723,32.9],[130.72,32.897],[130.724,32.888],[130.73,32.888],[130.731,32.862],[130.726,32.854],[130.732,32.852],[130.741,32.854],[130.749,32.858]]]]}},{"type":"Feature","properties":{"name":"下益城郡美里町","code":"43348"},"geometry":{"type":"MultiPolygon","coordinates":[[[[130.951,32.579],[130.948,32.585],[130.958,32.595],[130.966,32.599],[130.964,32.614],[130.957,32.629],[130.949,32.635],[130.953,32.639],[130.967,32.638],[130.977,32.643],[130.973,32.647],[130.962,32.647],[130.959,32.649],[130.948,32.648],[130.943,32.651],[130.939,32.657],[130.921,32.657],[130.903,32.665],[130.892,32.662],[130.876,32.664],[130.872,32.662],[130.874,32.655],[130.867,32.647],[130.862,32.647],[130.842,32.638],[130.838,32.628],[130.825,32.628],[130.82,32.626],[130.816,32.629],[130.807,32.639],[130.808,32.643],[130.8,32.653],[130.8,32.659],[130.793,32.658],[130.785,32.662],[130.776,32.663],[130.774,32.652],[130.778,32.64],[130.777,32.629],[130.779,32.601],[130.783,32.595],[130.789,32.594],[130.793,32.579],[130.804,32.568],[130.815,32.567],[130.821,32.561],[130.828,32.562],[130.842,32.571],[130.846,32.569],[130.852,32.573],[130.861,32.574],[130.871,32.572],[130.884,32.574],[130.892,32.571],[130.909,32.576],[130.907,32.584],[130.914,32.585],[130.922,32.579],[130.923,32.575],[130.939,32.578],[130.947,32.577],[130.951,32.579]]]]}},{"type":"Feature","properties":{"name":"玉名郡玉東町","code":"43364"},"geometry":{"type":"MultiPolygon","coordinates":[[[[130.635,32.861],[130.638,32.865],[130.64,32.873],[130.645,32.885],[130.652,32.888],[130.649,32.893],[130.647,32.908],[130.637,32.916],[130.646,32.932],[130.652,32.932],[130.644,32.938],[130.64,32.938],[130.635,32.944],[130.629,32.945],[130.626,32.941],[130.621,32.934],[130.613,32.926],[130.609,32.924],[130.606,32.918],[130.615,32.915],[130.618,32.904],[130.617,32.897],[130.607,32.891],[130.607,32.885],[130.612,32.875],[130.626,32.862],[130.635,32.861]]]]}},{"type":"Feature","properties":{"name":"玉名郡南関町","code":"43367"},"geometry":{"type":"MultiPolygon","coordinates":[[[[130.528,32.988],[130.558,32.995],[130.571,32.992],[130.58,32.991],[130.589,32.997],[130.585,33.0],[130.587,33.006],[130.585,33.016],[130.594,33.016],[130.599,33.028],[130.596,33.041],[130.591,33.052],[130.585,33.051],[130.582,33.058],[130.574,33.068],[130.576,33.073],[130.572,33.084],[130.566,33.087],[130.556,33.086],[130.547,33.081],[130.541,33.082],[130.535,33.078],[130.532,33.066],[130.517,33.066],[130.513,33.062],[130.504,33.058],[130.495,33.049],[130.504,33.037],[130.506,33.026],[130.511,33.023],[130.516,33.012],[130.521,33.001],[130.52,32.997],[130.528,32.988]]]]}},{"type":"Feature","properties":{"name":"玉名郡長洲町","code":"43368"},"geometry":{"type":"MultiPolygon","coordinates":[[[[130.438,32.942],[130.443,32.928],[130.44,32.921],[130.444,32.915],[130.452,32.909],[130.456,32.914],[130.463,32.912],[130.457,32.905],[130.463,32.901],[130.471,32.9],[130.476,32.905],[130.488,32.92],[130.49,32.925],[130.497,32.93],[130.497,32.937],[130.492,32.939],[130.495,32.951],[130.487,32.949],[130.476,32.951],[130.466,32.94],[130.458,32.94],[130.454,32.946],[130.444,32.945],[130.438,32.942]]]]}},{"type":"Feature","properties":{"name":"玉名郡和水町","code":"43369"},"geometry":{"type":"MultiPolygon","coordinates":[[[[130.626,32.941],[130.629,32.945],[130.632,32.961],[130.636,32.966],[130.651,32.963],[130.655,32.972],[130.651,32.975],[130.643,32.976],[130.648,32.987],[130.642,32.994],[130.646,32.998],[130.647,33.006],[130.637,33.009],[130.638,33.014],[130.632,33.02],[130.636,33.023],[130.648,33.026],[130.652,33.036],[130.653,33.048],[130.65,33.052],[130.635,33.054],[130.636,33.061],[130.633,33.067],[130.632,33.073],[130.639,33.08],[130.651,33.084],[130.655,33.089],[130.656,33.097],[130.651,33.103],[130.656,33.109],[130.64,33.113],[130.621,33.111],[130.616,33.109],[130.607,33.11],[130.601,33.115],[130.59,33.114],[130.58,33.116],[130.573,33.112],[130.571,33.107],[130.562,33.104],[130.561,33.096],[130.565,33.092],[130.566,33.087],[130.572,33.084],[130.576,33.073],[130.574,33.068],[130.582,33.058],[130.585,33.051],[130.591,33.052],[130.596,33.041],[130.599,33.028],[130.594,33.016],[130.585,33.016],[130.587,33.006],[130.585,33.0],[130.589,32.997],[130.58,32.991],[130.583,32.988],[130.592,32.989],[130.6,32.985],[130.603,32.977],[130.597,32.974],[130.595,32.964],[130.59,32.961],[130.593,32.957],[130.599,32.961],[130.607,32.96],[130.611,32.955],[130.608,32.952],[130.612,32.946],[130.616,32.949],[130.626,32.941]]]]}},{"type":"Feature","properties":{"name":"菊池郡大津町","code":"43403"},"geometry":{"type":"MultiPolygon","coordinates":[[[[130.832,32.902],[130.84,32.895],[130.847,32.893],[130.854,32.885],[130.852,32.871],[130.853,32.858],[130.857,32.855],[130.864,32.854],[130.864,32.845],[130.874,32.843],[130.875,32.837],[130.882,32.838],[130.886,32.845],[130.893,32.848],[130.901,32.848],[130.898,32.854],[130.902,32.858],[130.911,32.858],[130.922,32.861],[130.926,32.861],[130.943,32.865],[130.946,32.867],[130.962,32.867],[130.974,32.863],[130.978,32.863],[130.985,32.868],[130.988,32.875],[130.978,32.872],[130.972,32.876],[130.957,32.873],[130.949,32.878],[130.967,32.903],[130.957,32.914],[130.966,32.924],[130.96,32.935],[130.958,32.942],[130.965,32.947],[130.959,32.949],[130.956,32.954],[130.951,32.949],[130.938,32.95],[130.937,32.945],[130.93,32.941],[130.925,32.935],[130.909,32.936],[130.888,32.93],[130.863,32.931],[130.861,32.927],[130.865,32.919],[130.84,32.924],[130.837,32.919],[130.839,32.915],[130.838,32.908],[130.832,32.902]]]]}},{"type":"Feature","properties":{"name":"菊池郡菊陽町","code":"43404"},"geometry":{"type":"MultiPolygon","coordinates":[[[[130.828,32.825],[130.834,32.822],[130.838,32.827],[130.846,32.832],[130.86,32.835],[130.864,32.835],[130.874,32.84],[130.864,32.845],[130.864,32.854],[130.857,32.855],[130.853,32.858],[130.852,32.871],[130.854,32.885],[130.847,32.893],[130.836,32.892],[130.826,32.887],[130.825,32.884],[130.803,32.877],[130.794,32.875],[130.788,32.876],[130.788,32.871],[130.781,32.868],[130.768,32.861],[130.766,32.866],[130.756,32.864],[130.749,32.858],[130.752,32.855],[130.76,32.857],[130.776,32.858],[130.78,32.856],[130.787,32.858],[130.791,32.853],[130.805,32.852],[130.808,32.837],[130.821,32.839],[130.828,32.831],[130.828,32.825]]]]}},{"type":"Feature","properties":{"name":"阿蘇郡南小国町","code":"43423"},"geometry":{"type":"MultiPolygon","coordinates":[[[[131.165,33.039],[131.171,33.052],[131.183,33.062],[131.197,33.071],[131.193,33.078],[131.186,33.074],[131.175,33.083],[131.172,33.09],[131.175,33.097],[131.173,33.105],[131.165,33.103],[131.147,33.106],[131.142,33.104],[131.139,33.099],[131.134,33.098],[131.127,33.1],[131.123,33.097],[131.116,33.098],[131.105,33.097],[131.092,33.1],[131.088,33.097],[131.082,33.105],[131.08,33.112],[131.071,33.116],[131.064,33.106],[131.058,33.104],[131.054,33.108],[131.056,33.113],[131.036,33.108],[131.034,33.098],[131.02,33.096],[131.024,33.088],[131.019,33.081],[131.014,33.08],[131.011,33.07],[131.018,33.064],[131.013,33.052],[131.015,33.048],[131.012,33.043],[131.005,33.04],[131.003,33.033],[130.998,33.028],[131.007,33.019],[131.063,33.03],[131.069,33.04],[131.074,33.04],[131.088,33.043],[131.094,33.031],[131.113,33.038],[131.122,33.04],[131.127,33.046],[131.143,33.041],[131.161,33.041],[131.165,33.039]]]]}},{"type":"Feature","properties":{"name":"阿蘇郡小国町","code":"43424"},"geometry":{"type":"MultiPolygon","coordinates":[[[[131.173,33.105],[131.166,33.111],[131.164,33.116],[131.166,33.12],[131.167,33.129],[131.161,33.141],[131.158,33.142],[131.148,33.15],[131.148,33.155],[131.134,33.16],[131.129,33.167],[131.121,33.168],[131.116,33.18],[131.106,33.186],[131.099,33.188],[131.095,33.185],[131.082,33.189],[131.067,33.191],[131.06,33.195],[131.039,33.194],[131.036,33.188],[131.028,33.186],[131.017,33.178],[131.006,33.178],[130.994,33.184],[130.993,33.177],[130.989,33.176],[130.985,33.168],[130.985,33.161],[130.982,33.156],[130.984,33.152],[130.979,33.142],[130.985,33.135],[130.992,33.13],[130.994,33.119],[131.0,33.116],[131.005,33.11],[131.009,33.109],[131.018,33.094],[131.031,33.096],[131.036,33.108],[131.056,33.113],[131.054,33.108],[131.058,33.104],[131.064,33.106],[131.071,33.116],[131.08,33.112],[131.082,33.105],[131.088,33.097],[131.092,33.1],[131.105,33.097],[131.116,33.098],[131.123,33.097],[131.127,33.1],[131.134,33.098],[131.139,33.099],[131.142,33.104],[131.147,33.106],[131.165,33.103],[131.173,33.105]]]]}},{"type":"Feature","properties":{"name":"阿蘇郡産山村","code":"43425"},"geometry":{"type":"MultiPolygon","coordinates":[[[[131.246,32.961],[131.256,32.963],[131.261,32.969],[131.263,32.977],[131.257,32.98],[131.247,32.982],[131.246,32.989],[131.248,32.995],[131.241,33.0],[131.235,33.009],[131.228,33.012],[131.224,33.017],[131.226,33.024],[131.221,33.03],[131.216,33.051],[131.197,33.071],[131.183,33.062],[131.171,33.052],[131.165,33.039],[131.162,33.027],[131.151,33.023],[131.154,33.013],[131.167,33.012],[131.171,33.006],[131.181,33.003],[131.185,32.999],[131.181,32.993],[131.185,32.991],[131.187,32.972],[131.193,32.971],[131.198,32.973],[131.214,32.973],[131.219,32.962],[131.224,32.963],[131.228,32.96],[131.237,32.962],[131.246,32.961]]]]}},{"type":"Feature","properties":{"name":"阿蘇郡高森町","code":"43428"},"geometry":{"type":"MultiPolygon","coordinates":[[[[131.098,32.883],[131.099,32.879],[131.095,32.874],[131.098,32.866],[131.105,32.856],[131.106,32.85],[131.112,32.841],[131.106,32.841],[131.104,32.836],[131.107,32.832],[131.113,32.833],[131.114,32.828],[131.111,32.807],[131.115,32.796],[131.127,32.795],[131.136,32.799],[131.142,32.805],[131.143,32.816],[131.149,32.82],[131.159,32.819],[131.17,32.814],[131.178,32.805],[131.192,32.803],[131.2,32.796],[131.205,32.787],[131.204,32.781],[131.2,32.775],[131.202,32.768],[131.208,32.766],[131.213,32.758],[131.234,32.753],[131.237,32.758],[131.242,32.76],[131.246,32.769],[131.237,32.777],[131.237,32.784],[131.245,32.787],[131.247,32.799],[131.255,32.805],[131.255,32.809],[131.258,32.818],[131.263,32.818],[131.265,32.826],[131.273,32.824],[131.276,32.829],[131.286,32.831],[131.292,32.828],[131.302,32.83],[131.309,32.828],[131.323,32.829],[131.327,32.837],[131.322,32.844],[131.31,32.853],[131.295,32.857],[131.279,32.87],[131.273,32.871],[131.272,32.877],[131.264,32.879],[131.257,32.887],[131.253,32.898],[131.254,32.909],[131.249,32.907],[131.23,32.902],[131.207,32.885],[131.197,32.88],[131.178,32.875],[131.178,32.878],[131.171,32.884],[131.162,32.889],[131.152,32.887],[131.143,32.883],[131.139,32.885],[131.116,32.887],[131.107,32.886],[131.103,32.883],[131.098,32.883]]]]}},{"type":"Feature","properties":{"name":"阿蘇郡西原村","code":"43432"},"geometry":{"type":"MultiPolygon","coordinates":[[[[130.875,32.837],[130.88,32.82],[130.876,32.817],[130.876,32.811],[130.872,32.807],[130.874,32.801],[130.88,32.799],[130.89,32.786],[130.897,32.783],[130.912,32.786],[130.926,32.784],[130.933,32.78],[130.942,32.785],[130.948,32.791],[130.955,32.789],[130.96,32.784],[130.983,32.797],[130.991,32.804],[130.996,32.805],[130.99,32.814],[130.977,32.815],[130.979,32.823],[130.976,32.825],[130.972,32.834],[130.975,32.84],[130.98,32.841],[130.979,32.85],[130.973,32.857],[130.978,32.863],[130.974,32.863],[130.962,32.867],[130.946,32.867],[130.943,32.865],[130.926,32.861],[130.922,32.861],[130.911,32.858],[130.902,32.858],[130.898,32.854],[130.901,32.848],[130.893,32.848],[130.886,32.845],[130.882,32.838],[130.875,32.837]]]]}},{"type":"Feature","properties":{"name":"阿蘇郡南阿蘇村","code":"43433"},"geometry":{"type":"MultiPolygon","coordinates":[[[[130.967,32.903],[130.949,32.878],[130.957,32.873],[130.972,32.876],[130.978,32.872],[130.988,32.875],[130.985,32.868],[130.978,32.863],[130.973,32.857],[130.979,32.85],[130.98,32.841],[130.975,32.84],[130.972,32.834],[130.976,32.825],[130.979,32.823],[130.977,32.815],[130.99,32.814],[130.996,32.805],[130.995,32.799],[130.999,32.792],[131.003,32.789],[131.014,32.786],[131.024,32.787],[131.03,32.789],[131.038,32.784],[131.046,32.785],[131.05,32.789],[131.067,32.793],[131.073,32.792],[131.081,32.795],[131.085,32.791],[131.094,32.795],[131.108,32.792],[131.115,32.796],[131.111,32.807],[131.114,32.828],[131.113,32.833],[131.107,32.832],[131.104,32.836],[131.106,32.841],[131.112,32.841],[131.106,32.85],[131.105,32.856],[131.098,32.866],[131.095,32.874],[131.099,32.879],[131.098,32.883],[131.09,32.885],[131.066,32.88],[131.061,32.885],[131.052,32.889],[131.042,32.895],[131.032,32.898],[131.026,32.896],[131.02,32.897],[131.02,32.902],[131.002,32.907],[130.988,32.91],[130.985,32.907],[130.988,32.903],[130.979,32.9],[130.967,32.903]]]]}},{"type":"Feature","properties":{"name":"上益城郡御船町","code":"43441"},"geometry":{"type":"MultiPolygon","coordinates":[[[[130.76,32.72],[130.767,32.717],[130.781,32.714],[130.79,32.707],[130.788,32.702],[130.79,32.696],[130.796,32.693],[130.799,32.702],[130.806,32.701],[130.816,32.693],[130.828,32.692],[130.841,32.698],[130.846,32.69],[130.857,32.689],[130.86,32.684],[130.86,32.679],[130.867,32.68],[130.868,32.677],[130.875,32.674],[130.876,32.664],[130.892,32.662],[130.903,32.665],[130.899,32.666],[130.891,32.671],[130.89,32.681],[130.895,32.684],[130.897,32.689],[130.894,32.693],[130.892,32.718],[130.888,32.72],[130.892,32.732],[130.891,32.744],[130.899,32.745],[130.908,32.752],[130.918,32.756],[130.928,32.763],[130.944,32.77],[130.959,32.778],[130.96,32.784],[130.955,32.789],[130.948,32.791],[130.942,32.785],[130.933,32.78],[130.926,32.784],[130.912,32.786],[130.897,32.783],[130.89,32.786],[130.888,32.777],[130.876,32.771],[130.84,32.767],[130.84,32.759],[130.83,32.753],[130.835,32.735],[130.829,32.736],[130.826,32.733],[130.817,32.731],[130.814,32.738],[130.808,32.746],[130.799,32.747],[130.79,32.742],[130.785,32.743],[130.776,32.738],[130.771,32.733],[130.765,32.733],[130.757,32.728],[130.76,32.72]]]]}},{"type":"Feature","properties":{"name":"上益城郡嘉島町","code":"43442"},"geometry":{"type":"MultiPolygon","coordinates":[[[[130.729,32.75],[130.726,32.743],[130.72,32.745],[130.713,32.738],[130.707,32.741],[130.699,32.736],[130.714,32.735],[130.725,32.737],[130.738,32.735],[130.747,32.735],[130.757,32.728],[130.765,32.733],[130.771,32.733],[130.776,32.738],[130.785,32.743],[130.79,32.742],[130.797,32.749],[130.788,32.756],[130.784,32.757],[130.778,32.763],[130.771,32.763],[130.765,32.76],[130.761,32.764],[130.754,32.762],[130.747,32.754],[130.729,32.75]]]]}},{"type":"Feature","properties":{"name":"上益城郡益城町","code":"43443"},"geometry":{"type":"MultiPolygon","coordinates":[[[[130.778,32.763],[130.784,32.757],[130.788,32.756],[130.797,32.749],[130.808,32.746],[130.814,32.738],[130.817,32.731],[130.826,32.733],[130.829,32.736],[130.835,32.735],[130.83,32.753],[130.84,32.759],[130.84,32.767],[130.876,32.771],[130.888,32.777],[130.89,32.786],[130.88,32.799],[130.874,32.801],[130.872,32.807],[130.876,32.811],[130.876,32.817],[130.88,32.82],[130.875,32.837],[130.874,32.84],[130.864,32.835],[130.86,32.835],[130.846,32.832],[130.838,32.827],[130.834,32.822],[130.828,32.825],[130.829,32.815],[130.816,32.815],[130.809,32.812],[130.806,32.806],[130.787,32.8],[130.783,32.805],[130.778,32.805],[130.783,32.796],[130.785,32.785],[130.788,32.779],[130.792,32.778],[130.796,32.77],[130.778,32.763]]]]}},{"type":"Feature","properties":{"name":"上益城郡甲佐町","code":"43444"},"geometry":{"type":"MultiPolygon","coordinates":[[[[130.777,32.666],[130.785,32.662],[130.793,32.658],[130.8,32.659],[130.8,32.653],[130.808,32.643],[130.807,32.639],[130.816,32.629],[130.82,32.626],[130.825,32.628],[130.838,32.628],[130.843,32.635],[130.862,32.647],[130.867,32.647],[130.874,32.655],[130.872,32.662],[130.876,32.664],[130.875,32.674],[130.868,32.677],[130.867,32.68],[130.86,32.679],[130.86,32.684],[130.857,32.689],[130.846,32.69],[130.841,32.698],[130.828,32.692],[130.816,32.693],[130.806,32.701],[130.799,32.702],[130.796,32.693],[130.79,32.696],[130.788,32.702],[130.79,32.707],[130.781,32.714],[130.767,32.717],[130.76,32.72],[130.762,32.712],[130.753,32.709],[130.754,32.7],[130.765,32.693],[130.764,32.686],[130.771,32.683],[130.777,32.666]]]]}},{"type":"Feature","properties":{"name":"上益城郡山都町","code":"43447"},"geometry":{"type":"MultiPolygon","coordinates":[[[[131.019,32.549],[131.024,32.553],[131.039,32.554],[131.04,32.561],[131.038,32.565],[131.042,32.574],[131.043,32.582],[131.052,32.588],[131.068,32.584],[131.074,32.585],[131.079,32.582],[131.088,32.579],[131.099,32.578],[131.108,32.582],[131.106,32.589],[131.113,32.591],[131.12,32.599],[131.121,32.605],[131.116,32.609],[131.116,32.621],[131.12,32.629],[131.116,32.635],[131.116,32.643],[131.124,32.645],[131.127,32.654],[131.14,32.665],[131.143,32.67],[131.143,32.676],[131.151,32.68],[131.158,32.678],[131.163,32.672],[131.175,32.672],[131.175,32.679],[131.172,32.685],[131.176,32.687],[131.175,32.693],[131.18,32.7],[131.182,32.706],[131.179,32.71],[131.19,32.722],[131.206,32.73],[131.212,32.729],[131.231,32.744],[131.235,32.744],[131.234,32.753],[131.213,32.758],[131.208,32.766],[131.202,32.768],[131.2,32.775],[131.204,32.781],[131.205,32.787],[131.2,32.796],[131.192,32.803],[131.178,32.805],[131.17,32.814],[131.162,32.816],[131.149,32.82],[131.143,32.816],[131.142,32.805],[131.136,32.799],[131.127,32.795],[131.115,32.796],[131.108,32.792],[131.096,32.792],[131.085,32.791],[131.081,32.795],[131.073,32.792],[131.067,32.793],[131.05,32.789],[131.046,32.785],[131.038,32.784],[131.03,32.789],[131.024,32.787],[131.014,32.786],[131.003,32.789],[130.999,32.792],[130.995,32.799],[130.996,32.805],[130.991,32.804],[130.983,32.797],[130.96,32.784],[130.959,32.778],[130.944,32.77],[130.928,32.763],[130.918,32.756],[130.908,32.752],[130.899,32.745],[130.891,32.744],[130.892,32.732],[130.888,32.72],[130.892,32.718],[130.894,32.693],[130.897,32.689],[130.895,32.684],[130.89,32.681],[130.891,32.671],[130.899,32.666],[130.903,32.665],[130.921,32.657],[130.939,32.657],[130.943,32.651],[130.948,32.648],[130.959,32.649],[130.962,32.647],[130.973,32.647],[130.977,32.643],[130.967,32.638],[130.953,32.639],[130.949,32.635],[130.957,32.629],[130.964,32.614],[130.966,32.599],[130.958,32.595],[130.948,32.585],[130.951,32.579],[130.954,32.577],[130.963,32.578],[130.969,32.58],[130.979,32.577],[130.988,32.571],[130.996,32.569],[131.0,32.57],[131.01,32.561],[131.019,32.549]]]]}},{"type":"Feature","properties":{"name":"八代郡氷川町","code":"43468"},"geometry":{"type":"MultiPolygon","coordinates":[[[[130.724,32.559],[130.716,32.563],[130.707,32.572],[130.714,32.578],[130.706,32.585],[130.698,32.58],[130.678,32.592],[130.679,32.598],[130.652,32.61],[130.645,32.616],[130.641,32.614],[130.63,32.623],[130.618,32.619],[130.619,32.615],[130.634,32.603],[130.658,32.582],[130.667,32.575],[130.674,32.568],[130.677,32.563],[130.67,32.561],[130.67,32.553],[130.664,32.545],[130.676,32.54],[130.687,32.528],[130.701,32.536],[130.696,32.544],[130.704,32.544],[130.711,32.549],[130.715,32.557],[130.724,32.559]]]]}},{"type":"Feature","properties":{"name":"葦北郡芦北町","code":"43482"},"geometry":{"type":"MultiPolygon","coordinates":[[[[130.538,32.41],[130.52,32.394],[130.514,32.392],[130.512,32.388],[130.489,32.366],[130.488,32.361],[130.496,32.362],[130.508,32.358],[130.507,32.355],[130.494,32.351],[130.483,32.342],[130.48,32.335],[130.485,32.334],[130.48,32.327],[130.474,32.332],[130.466,32.321],[130.472,32.316],[130.472,32.301],[130.49,32.3],[130.478,32.287],[130.466,32.296],[130.468,32.286],[130.467,32.279],[130.464,32.277],[130.469,32.269],[130.466,32.259],[130.469,32.256],[130.49,32.25],[130.49,32.245],[130.495,32.242],[130.492,32.226],[130.492,32.214],[130.47,32.21],[130.472,32.206],[130.483,32.199],[130.493,32.198],[130.499,32.195],[130.503,32.189],[130.515,32.183],[130.52,32.186],[130.525,32.186],[130.53,32.19],[130.547,32.196],[130.575,32.193],[130.579,32.194],[130.587,32.207],[130.582,32.211],[130.582,32.219],[130.587,32.229],[130.585,32.236],[130.585,32.242],[130.592,32.249],[130.593,32.258],[130.591,32.262],[130.597,32.269],[130.614,32.277],[130.605,32.279],[130.604,32.292],[130.599,32.295],[130.609,32.305],[130.612,32.311],[130.601,32.327],[130.604,32.343],[130.61,32.348],[130.616,32.347],[130.636,32.355],[130.642,32.36],[130.642,32.365],[130.631,32.367],[130.625,32.365],[130.62,32.374],[130.607,32.376],[130.6,32.373],[130.588,32.377],[130.578,32.372],[130.567,32.377],[130.561,32.382],[130.553,32.38],[130.55,32.373],[130.541,32.365],[130.531,32.367],[130.528,32.374],[130.534,32.383],[130.53,32.386],[130.535,32.393],[130.535,32.398],[130.539,32.4],[130.543,32.406],[130.538,32.41]]]]}},{"type":"Feature","properties":{"name":"葦北郡津奈木町","code":"43484"},"geometry":{"type":"MultiPolygon","coordinates":[[[[130.47,32.21],[130.492,32.214],[130.492,32.226],[130.495,32.242],[130.49,32.245],[130.49,32.25],[130.469,32.256],[130.466,32.259],[130.469,32.269],[130.464,32.277],[130.458,32.29],[130.449,32.288],[130.453,32.281],[130.448,32.276],[130.451,32.273],[130.443,32.269],[130.439,32.271],[130.433,32.263],[130.431,32.253],[130.424,32.25],[130.431,32.241],[130.436,32.241],[130.435,32.233],[130.437,32.226],[130.438,32.217],[130.45,32.21],[130.466,32.209],[130.47,32.21]]]]}},{"type":"Feature","properties":{"name":"球磨郡錦町","code":"43501"},"geometry":{"type":"MultiPolygon","coordinates":[[[[130.878,32.121],[130.897,32.126],[130.901,32.132],[130.906,32.134],[130.913,32.13],[130.908,32.137],[130.902,32.136],[130.895,32.142],[130.896,32.147],[130.903,32.152],[130.908,32.161],[130.89,32.179],[130.883,32.184],[130.879,32.191],[130.879,32.197],[130.874,32.206],[130.864,32.204],[130.855,32.209],[130.867,32.221],[130.861,32.232],[130.862,32.235],[130.859,32.243],[130.85,32.252],[130.842,32.247],[130.828,32.241],[130.821,32.239],[130.816,32.242],[130.811,32.239],[130.812,32.234],[130.808,32.23],[130.808,32.217],[130.816,32.217],[130.819,32.21],[130.812,32.206],[130.807,32.207],[130.8,32.205],[130.782,32.205],[130.785,32.193],[130.789,32.194],[130.797,32.19],[130.805,32.182],[130.812,32.183],[130.815,32.179],[130.814,32.17],[130.819,32.165],[130.815,32.161],[130.822,32.152],[130.82,32.149],[130.825,32.142],[130.828,32.135],[130.834,32.14],[130.841,32.142],[130.851,32.129],[130.856,32.13],[130.859,32.134],[130.869,32.137],[130.871,32.129],[130.878,32.121]]]]}},{"type":"Feature","properties":{"name":"球磨郡多良木町","code":"43505"},"geometry":{"type":"MultiPolygon","coordinates":[[[[130.944,32.356],[130.935,32.355],[130.931,32.359],[130.926,32.359],[130.92,32.354],[130.906,32.355],[130.899,32.35],[130.892,32.339],[130.891,32.332],[130.885,32.326],[130.891,32.322],[130.899,32.313],[130.904,32.309],[130.908,32.301],[130.904,32.296],[130.907,32.288],[130.907,32.281],[130.912,32.273],[130.92,32.266],[130.915,32.262],[130.916,32.254],[130.925,32.25],[130.936,32.253],[130.937,32.247],[130.947,32.24],[130.952,32.233],[130.955,32.233],[130.966,32.225],[130.971,32.225],[130.983,32.211],[130.98,32.208],[130.977,32.19],[130.984,32.188],[130.986,32.182],[130.982,32.173],[130.985,32.162],[130.992,32.158],[130.998,32.161],[131.004,32.17],[131.013,32.174],[131.019,32.17],[131.026,32.171],[131.038,32.17],[131.045,32.161],[131.06,32.156],[131.07,32.16],[131.083,32.155],[131.096,32.152],[131.102,32.158],[131.109,32.16],[131.108,32.166],[131.101,32.173],[131.104,32.182],[131.102,32.186],[131.104,32.192],[131.1,32.196],[131.101,32.202],[131.094,32.205],[131.084,32.206],[131.074,32.224],[131.069,32.225],[131.071,32.235],[131.057,32.246],[131.047,32.244],[131.047,32.24],[131.037,32.238],[131.027,32.244],[131.017,32.239],[131.017,32.231],[131.011,32.229],[131.006,32.234],[131.003,32.24],[130.982,32.244],[130.972,32.253],[130.969,32.26],[130.972,32.265],[130.968,32.268],[130.971,32.274],[130.964,32.281],[130.973,32.285],[130.974,32.291],[130.981,32.299],[130.967,32.317],[130.959,32.322],[130.955,32.327],[130.951,32.338],[130.952,32.344],[130.949,32.35],[130.944,32.356]]]]}},{"type":"Feature","properties":{"name":"球磨郡湯前町","code":"43506"},"geometry":{"type":"MultiPolygon","coordinates":[[[[131.047,32.244],[131.043,32.248],[131.042,32.258],[131.045,32.263],[131.054,32.267],[131.055,32.272],[131.05,32.283],[131.051,32.286],[131.047,32.287],[131.042,32.294],[131.039,32.3],[131.034,32.304],[131.029,32.304],[131.021,32.307],[131.017,32.313],[131.01,32.314],[131.0,32.305],[130.992,32.293],[130.973,32.285],[130.964,32.281],[130.971,32.274],[130.968,32.268],[130.972,32.265],[130.969,32.26],[130.972,32.253],[130.982,32.244],[131.003,32.24],[131.006,32.234],[131.011,32.229],[131.017,32.231],[131.017,32.239],[131.027,32.244],[131.037,32.238],[131.047,32.24],[131.047,32.244]]]]}},{"type":"Feature","properties":{"name":"球磨郡水上村","code":"43507"},"geometry":{"type":"MultiPolygon","coordinates":[[[[130.941,32.439],[130.939,32.425],[130.945,32.421],[130.949,32.414],[130.949,32.41],[130.959,32.405],[130.961,32.392],[130.958,32.385],[130.951,32.383],[130.949,32.376],[130.944,32.369],[130.944,32.356],[130.949,32.35],[130.952,32.344],[130.951,32.338],[130.955,32.327],[130.959,32.322],[130.967,32.317],[130.981,32.299],[130.974,32.291],[130.973,32.285],[130.992,32.293],[131.0,32.305],[131.01,32.314],[131.017,32.313],[131.021,32.307],[131.029,32.304],[131.034,32.304],[131.039,32.3],[131.042,32.294],[131.047,32.287],[131.051,32.286],[131.059,32.287],[131.071,32.28],[131.079,32.281],[131.079,32.285],[131.09,32.294],[131.093,32.3],[131.106,32.324],[131.112,32.33],[131.107,32.333],[131.096,32.351],[131.091,32.35],[131.078,32.355],[131.074,32.361],[131.074,32.366],[131.08,32.374],[131.074,32.383],[131.069,32.384],[131.073,32.391],[131.068,32.408],[131.056,32.407],[131.044,32.408],[131.041,32.415],[131.033,32.421],[131.031,32.427],[131.022,32.437],[131.017,32.448],[131.017,32.46],[131.008,32.46],[131.0,32.452],[130.987,32.447],[130.98,32.448],[130.978,32.451],[130.959,32.45],[130.953,32.444],[130.941,32.439]]]]}},{"type":"Feature","properties":{"name":"球磨郡相良村","code":"43510"},"geometry":{"type":"MultiPolygon","coordinates":[[[[130.782,32.205],[130.8,32.205],[130.807,32.207],[130.812,32.206],[130.819,32.21],[130.816,32.217],[130.808,32.217],[130.808,32.23],[130.812,32.234],[130.811,32.239],[130.816,32.242],[130.821,32.239],[130.828,32.241],[130.842,32.247],[130.85,32.252],[130.848,32.272],[130.851,32.278],[130.856,32.278],[130.865,32.287],[130.875,32.294],[130.87,32.297],[130.871,32.308],[130.87,32.312],[130.877,32.32],[130.884,32.322],[130.885,32.326],[130.891,32.332],[130.892,32.339],[130.899,32.35],[130.887,32.352],[130.865,32.353],[130.859,32.35],[130.851,32.343],[130.841,32.345],[130.836,32.356],[130.827,32.36],[130.823,32.365],[130.815,32.366],[130.809,32.371],[130.805,32.379],[130.793,32.371],[130.78,32.374],[130.78,32.364],[130.786,32.356],[130.793,32.35],[130.79,32.34],[130.794,32.335],[130.795,32.322],[130.793,32.311],[130.803,32.316],[130.81,32.312],[130.815,32.306],[130.812,32.3],[130.813,32.296],[130.805,32.29],[130.807,32.279],[130.806,32.272],[130.801,32.263],[130.804,32.259],[130.798,32.256],[130.795,32.251],[130.796,32.241],[130.787,32.231],[130.79,32.226],[130.785,32.222],[130.787,32.214],[130.782,32.215],[130.782,32.205]]]]}},{"type":"Feature","properties":{"name":"球磨郡五木村","code":"43511"},"geometry":{"type":"MultiPolygon","coordinates":[[[[130.739,32.393],[130.746,32.385],[130.766,32.387],[130.777,32.383],[130.78,32.374],[130.793,32.371],[130.805,32.379],[130.809,32.371],[130.815,32.366],[130.823,32.365],[130.827,32.36],[130.836,32.356],[130.841,32.345],[130.851,32.343],[130.859,32.35],[130.865,32.353],[130.887,32.352],[130.899,32.35],[130.906,32.355],[130.92,32.354],[130.926,32.359],[130.931,32.359],[130.935,32.355],[130.944,32.356],[130.944,32.369],[130.949,32.376],[130.951,32.383],[130.958,32.385],[130.961,32.392],[130.959,32.405],[130.949,32.41],[130.949,32.414],[130.945,32.421],[130.939,32.425],[130.941,32.439],[130.936,32.438],[130.929,32.442],[130.912,32.441],[130.903,32.443],[130.898,32.452],[130.9,32.456],[130.901,32.467],[130.89,32.477],[130.88,32.478],[130.876,32.485],[130.863,32.494],[130.858,32.493],[130.852,32.488],[130.848,32.493],[130.844,32.492],[130.84,32.499],[130.816,32.491],[130.807,32.494],[130.795,32.494],[130.786,32.485],[130.768,32.48],[130.758,32.478],[130.751,32.475],[130.752,32.469],[130.742,32.469],[130.738,32.472],[130.738,32.462],[130.741,32.453],[130.729,32.452],[130.722,32.449],[130.723,32.444],[130.728,32.436],[130.729,32.428],[130.72,32.419],[130.724,32.413],[130.724,32.406],[130.736,32.405],[130.742,32.401],[130.739,32.393]]]]}},{"type":"Feature","properties":{"name":"球磨郡山江村","code":"43512"},"geometry":{"type":"MultiPolygon","coordinates":[[[[130.694,32.342],[130.703,32.327],[130.715,32.313],[130.712,32.308],[130.717,32.295],[130.731,32.29],[130.731,32.28],[130.738,32.277],[130.741,32.27],[130.741,32.247],[130.752,32.248],[130.759,32.231],[130.764,32.229],[130.778,32.233],[130.783,32.238],[130.787,32.231],[130.796,32.241],[130.795,32.251],[130.798,32.256],[130.804,32.259],[130.801,32.263],[130.806,32.272],[130.807,32.279],[130.805,32.29],[130.813,32.296],[130.812,32.3],[130.815,32.306],[130.81,32.312],[130.803,32.316],[130.793,32.311],[130.795,32.322],[130.794,32.335],[130.79,32.34],[130.793,32.35],[130.786,32.356],[130.78,32.364],[130.78,32.374],[130.777,32.383],[130.766,32.387],[130.746,32.385],[130.739,32.393],[130.731,32.392],[130.721,32.386],[130.71,32.368],[130.702,32.363],[130.702,32.357],[130.697,32.354],[130.701,32.347],[130.694,32.342]]]]}},{"type":"Feature","properties":{"name":"球磨郡球磨村","code":"43513"},"geometry":{"type":"MultiPolygon","coordinates":[[[[130.642,32.365],[130.642,32.36],[130.636,32.355],[130.616,32.347],[130.61,32.348],[130.604,32.343],[130.601,32.327],[130.612,32.311],[130.609,32.305],[130.599,32.295],[130.604,32.292],[130.605,32.279],[130.614,32.277],[130.597,32.269],[130.591,32.262],[130.593,32.258],[130.592,32.249],[130.585,32.242],[130.585,32.236],[130.587,32.229],[130.582,32.219],[130.582,32.211],[130.587,32.207],[130.579,32.194],[130.592,32.186],[130.61,32.187],[130.615,32.176],[130.618,32.163],[130.623,32.156],[130.637,32.155],[130.641,32.152],[130.652,32.151],[130.656,32.157],[130.657,32.169],[130.667,32.169],[130.664,32.174],[130.665,32.184],[130.672,32.185],[130.68,32.196],[130.681,32.205],[130.701,32.225],[130.714,32.23],[130.719,32.241],[130.724,32.24],[130.726,32.245],[130.732,32.251],[130.734,32.256],[130.731,32.263],[130.72,32.266],[130.72,32.276],[130.711,32.285],[130.717,32.295],[130.712,32.308],[130.715,32.313],[130.703,32.327],[130.694,32.342],[130.684,32.339],[130.679,32.343],[130.671,32.34],[130.665,32.354],[130.659,32.36],[130.657,32.368],[130.657,32.373],[130.652,32.374],[130.645,32.37],[130.642,32.365]]]]}},{"type":"Feature","properties":{"name":"球磨郡あさぎり町","code":"43514"},"geometry":{"type":"MultiPolygon","coordinates":[[[[130.913,32.13],[130.916,32.125],[130.927,32.122],[130.933,32.116],[130.944,32.12],[130.955,32.115],[130.961,32.12],[130.975,32.121],[130.973,32.128],[130.975,32.137],[130.984,32.143],[130.993,32.148],[130.996,32.156],[130.992,32.158],[130.985,32.162],[130.982,32.173],[130.986,32.182],[130.984,32.188],[130.977,32.19],[130.98,32.208],[130.983,32.211],[130.971,32.225],[130.966,32.225],[130.955,32.233],[130.952,32.233],[130.947,32.24],[130.937,32.247],[130.936,32.253],[130.927,32.253],[130.916,32.254],[130.915,32.262],[130.92,32.266],[130.912,32.273],[130.907,32.281],[130.907,32.288],[130.904,32.296],[130.908,32.301],[130.904,32.309],[130.899,32.313],[130.891,32.322],[130.885,32.326],[130.884,32.322],[130.877,32.32],[130.87,32.312],[130.871,32.308],[130.87,32.297],[130.875,32.294],[130.865,32.287],[130.856,32.278],[130.851,32.278],[130.848,32.272],[130.851,32.254],[130.859,32.243],[130.862,32.235],[130.861,32.232],[130.867,32.221],[130.855,32.209],[130.864,32.204],[130.874,32.206],[130.879,32.197],[130.879,32.191],[130.883,32.184],[130.89,32.179],[130.908,32.161],[130.903,32.152],[130.896,32.147],[130.895,32.142],[130.902,32.136],[130.908,32.137],[130.913,32.13]]]]}},{"type":"Feature","properties":{"name":"天草郡苓北町","code":"43531"},"geometry":{"type":"MultiPolygon","coordinates":[[[[130.118,32.544],[130.097,32.534],[130.092,32.529],[130.082,32.524],[130.072,32.521],[130.066,32.516],[130.044,32.515],[130.034,32.522],[130.033,32.526],[130.038,32.536],[130.026,32.538],[130.012,32.529],[130.027,32.52],[130.035,32.517],[130.036,32.511],[130.04,32.51],[130.045,32.499],[130.047,32.491],[130.041,32.49],[130.035,32.477],[130.038,32.475],[130.038,32.466],[130.028,32.456],[130.018,32.439],[130.037,32.435],[130.041,32.434],[130.056,32.439],[130.077,32.439],[130.084,32.436],[130.091,32.429],[130.095,32.429],[130.095,32.44],[130.094,32.451],[130.083,32.46],[130.088,32.471],[130.097,32.482],[130.106,32.482],[130.118,32.494],[130.119,32.504],[130.115,32.506],[130.117,32.513],[130.122,32.517],[130.12,32.521],[130.126,32.532],[130.118,32.54],[130.118,32.544]]]]}}]}