{"type":"FeatureCollection","features":[{"type":"Feature","properties":{"name":"大分市","code":"44201"},"geometry":{"type":"MultiPolygon","coordinates":[[[[131.956,33.279],[131.94,33.277],[131.945,33.272],[131.95,33.274],[131.956,33.275],[131.956,33.279]]],[[[131.849,33.188],[131.858,33.196],[131.862,33.195],[131.869,33.201],[131.864,33.202],[131.866,33.213],[131.872,33.216],[131.873,33.221],[131.877,33.226],[131.871,33.232],[131.879,33.244],[131.889,33.244],[131.899,33.26],[131.903,33.262],[131.903,33.267],[131.897,33.268],[131.884,33.265],[131.876,33.263],[131.867,33.259],[131.87,33.253],[131.871,33.249],[131.86,33.252],[131.857,33.256],[131.85,33.252],[131.842,33.252],[131.842,33.249],[131.823,33.247],[131.806,33.242],[131.797,33.242],[131.783,33.245],[131.779,33.248],[131.77,33.245],[131.77,33.25],[131.766,33.252],[131.755,33.252],[131.755,33.242],[131.747,33.244],[131.751,33.248],[131.742,33.249],[131.734,33.253],[131.734,33.257],[131.719,33.266],[131.713,33.26],[131.71,33.262],[131.715,33.268],[131.705,33.275],[131.692,33.279],[131.681,33.279],[131.685,33.266],[131.68,33.268],[131.676,33.278],[131.667,33.275],[131.672,33.26],[131.667,33.258],[131.661,33.273],[131.625,33.264],[131.614,33.262],[131.6,33.257],[131.602,33.253],[131.593,33.25],[131.594,33.247],[131.589,33.246],[131.571,33.251],[131.561,33.255],[131.551,33.258],[131.548,33.257],[131.54,33.257],[131.524,33.265],[131.518,33.265],[131.516,33.26],[131.516,33.254],[131.521,33.249],[131.529,33.244],[131.537,33.245],[131.541,33.243],[131.543,33.237],[131.538,33.237],[131.536,33.231],[131.538,33.227],[131.533,33.216],[131.538,33.209],[131.532,33.204],[131.536,33.199],[131.529,33.195],[131.52,33.191],[131.512,33.182],[131.508,33.179],[131.504,33.172],[131.504,33.169],[131.49,33.166],[131.49,33.16],[131.485,33.16],[131.473,33.153],[131.467,33.146],[131.46,33.147],[131.458,33.139],[131.453,33.143],[131.444,33.143],[131.439,33.135],[131.43,33.132],[131.427,33.128],[131.429,33.123],[131.435,33.12],[131.431,33.113],[131.434,33.109],[131.428,33.101],[131.419,33.096],[131.419,33.092],[131.422,33.09],[131.42,33.081],[131.424,33.079],[131.441,33.088],[131.444,33.094],[131.457,33.094],[131.454,33.09],[131.457,33.08],[131.46,33.075],[131.466,33.072],[131.475,33.07],[131.483,33.074],[131.495,33.076],[131.502,33.087],[131.497,33.092],[131.508,33.1],[131.515,33.102],[131.522,33.103],[131.526,33.107],[131.532,33.11],[131.539,33.111],[131.542,33.117],[131.554,33.118],[131.559,33.111],[131.568,33.11],[131.575,33.102],[131.582,33.101],[131.588,33.098],[131.594,33.102],[131.599,33.103],[131.605,33.102],[131.616,33.096],[131.625,33.093],[131.628,33.09],[131.638,33.089],[131.641,33.087],[131.643,33.083],[131.646,33.082],[131.654,33.085],[131.661,33.089],[131.678,33.086],[131.683,33.082],[131.687,33.083],[131.693,33.077],[131.707,33.079],[131.704,33.085],[131.705,33.094],[131.714,33.102],[131.71,33.108],[131.712,33.113],[131.72,33.13],[131.716,33.136],[131.721,33.138],[131.721,33.142],[131.724,33.148],[131.723,33.152],[131.718,33.155],[131.727,33.166],[131.729,33.171],[131.737,33.177],[131.743,33.172],[131.752,33.176],[131.756,33.182],[131.76,33.181],[131.781,33.187],[131.784,33.19],[131.791,33.192],[131.795,33.19],[131.805,33.197],[131.814,33.2],[131.82,33.2],[131.827,33.205],[131.834,33.207],[131.84,33.206],[131.845,33.199],[131.849,33.188]]]]}},{"type":"Feature","properties":{"name":"別府市","code":"44202"},"geometry":{"type":"MultiPolygon","coordinates":[[[[131.518,33.265],[131.513,33.267],[131.508,33.275],[131.503,33.301],[131.504,33.31],[131.496,33.33],[131.497,33.339],[131.496,33.346],[131.486,33.352],[131.483,33.352],[131.471,33.354],[131.466,33.352],[131.456,33.351],[131.45,33.348],[131.442,33.349],[131.44,33.345],[131.433,33.343],[131.429,33.345],[131.423,33.343],[131.417,33.346],[131.416,33.349],[131.412,33.349],[131.407,33.351],[131.401,33.35],[131.403,33.343],[131.399,33.341],[131.397,33.334],[131.399,33.325],[131.413,33.319],[131.421,33.325],[131.428,33.326],[131.434,33.323],[131.434,33.318],[131.423,33.309],[131.418,33.296],[131.42,33.291],[131.406,33.282],[131.395,33.282],[131.391,33.28],[131.39,33.272],[131.394,33.27],[131.394,33.264],[131.388,33.257],[131.384,33.255],[131.378,33.247],[131.38,33.243],[131.379,33.236],[131.392,33.23],[131.395,33.229],[131.404,33.227],[131.409,33.228],[131.416,33.233],[131.424,33.235],[131.43,33.236],[131.434,33.239],[131.439,33.239],[131.441,33.234],[131.451,33.236],[131.45,33.239],[131.456,33.242],[131.461,33.242],[131.464,33.236],[131.467,33.235],[131.476,33.229],[131.484,33.226],[131.488,33.23],[131.499,33.228],[131.503,33.224],[131.506,33.228],[131.506,33.238],[131.504,33.25],[131.51,33.252],[131.516,33.248],[131.521,33.249],[131.516,33.254],[131.516,33.26],[131.518,33.265]]]]}},{"type":"Feature","properties":{"name":"中津市","code":"44203"},"geometry":{"type":"MultiPolygon","coordinates":[[[[131.279,33.581],[131.273,33.584],[131.272,33.588],[131.267,33.589],[131.268,33.593],[131.256,33.599],[131.259,33.603],[131.254,33.608],[131.251,33.607],[131.245,33.611],[131.239,33.601],[131.23,33.602],[131.222,33.605],[131.214,33.605],[131.217,33.609],[131.21,33.612],[131.205,33.617],[131.191,33.618],[131.185,33.616],[131.178,33.605],[131.178,33.597],[131.173,33.591],[131.172,33.582],[131.176,33.575],[131.186,33.568],[131.189,33.563],[131.191,33.558],[131.187,33.544],[131.177,33.534],[131.167,33.529],[131.17,33.521],[131.168,33.516],[131.174,33.513],[131.176,33.507],[131.167,33.506],[131.163,33.508],[131.156,33.508],[131.142,33.505],[131.134,33.506],[131.13,33.502],[131.119,33.502],[131.106,33.508],[131.101,33.505],[131.094,33.507],[131.08,33.505],[131.07,33.507],[131.063,33.51],[131.053,33.508],[131.042,33.514],[131.036,33.519],[131.03,33.519],[131.027,33.514],[131.019,33.513],[131.015,33.509],[131.001,33.512],[130.998,33.51],[130.99,33.509],[130.987,33.507],[130.977,33.507],[130.972,33.505],[130.97,33.501],[130.963,33.498],[130.962,33.494],[130.956,33.492],[130.95,33.488],[130.942,33.486],[130.93,33.467],[130.929,33.461],[130.926,33.458],[130.929,33.452],[130.936,33.452],[130.943,33.446],[130.942,33.442],[130.946,33.441],[130.946,33.434],[130.96,33.43],[130.966,33.429],[130.966,33.423],[130.977,33.412],[130.984,33.41],[130.994,33.398],[131.009,33.392],[131.012,33.386],[131.01,33.381],[131.013,33.376],[131.021,33.372],[131.022,33.365],[131.025,33.359],[131.033,33.36],[131.041,33.36],[131.052,33.361],[131.057,33.361],[131.06,33.372],[131.068,33.384],[131.08,33.384],[131.09,33.388],[131.099,33.388],[131.108,33.38],[131.116,33.376],[131.115,33.372],[131.125,33.368],[131.128,33.368],[131.134,33.378],[131.146,33.379],[131.148,33.373],[131.151,33.371],[131.153,33.366],[131.158,33.363],[131.168,33.37],[131.175,33.363],[131.179,33.354],[131.185,33.356],[131.19,33.356],[131.192,33.352],[131.198,33.348],[131.205,33.354],[131.205,33.358],[131.216,33.361],[131.218,33.365],[131.226,33.369],[131.23,33.379],[131.226,33.381],[131.221,33.387],[131.223,33.393],[131.229,33.398],[131.229,33.405],[131.225,33.409],[131.236,33.411],[131.243,33.414],[131.255,33.413],[131.255,33.419],[131.253,33.427],[131.252,33.436],[131.246,33.442],[131.244,33.45],[131.247,33.455],[131.245,33.462],[131.241,33.464],[131.244,33.469],[131.242,33.478],[131.248,33.476],[131.26,33.481],[131.263,33.487],[131.273,33.499],[131.27,33.502],[131.257,33.525],[131.256,33.53],[131.252,33.537],[131.254,33.542],[131.26,33.554],[131.264,33.555],[131.272,33.553],[131.273,33.558],[131.276,33.566],[131.277,33.578]]]]}},{"type":"Feature","properties":{"name":"日田市","code":"44204"},"geometry":{"type":"MultiPolygon","coordinates":[[[[130.926,33.458],[130.916,33.455],[130.911,33.45],[130.9,33.449],[130.895,33.446],[130.898,33.439],[130.895,33.433],[130.892,33.43],[130.893,33.42],[130.89,33.415],[130.892,33.406],[130.888,33.404],[130.888,33.401],[130.885,33.389],[130.886,33.379],[130.862,33.377],[130.86,33.373],[130.862,33.363],[130.85,33.354],[130.842,33.35],[130.84,33.346],[130.835,33.344],[130.842,33.337],[130.851,33.337],[130.855,33.329],[130.854,33.325],[130.856,33.319],[130.863,33.305],[130.866,33.292],[130.857,33.285],[130.852,33.277],[130.856,33.275],[130.857,33.27],[130.861,33.267],[130.868,33.268],[130.868,33.264],[130.864,33.261],[130.855,33.263],[130.849,33.261],[130.845,33.258],[130.838,33.258],[130.829,33.257],[130.825,33.251],[130.827,33.245],[130.825,33.241],[130.826,33.237],[130.833,33.234],[130.853,33.232],[130.86,33.229],[130.849,33.223],[130.845,33.223],[130.844,33.219],[130.839,33.217],[130.836,33.211],[130.844,33.207],[130.847,33.203],[130.859,33.198],[130.864,33.193],[130.87,33.194],[130.875,33.189],[130.887,33.186],[130.886,33.176],[130.878,33.174],[130.874,33.168],[130.877,33.165],[130.877,33.159],[130.88,33.153],[130.871,33.148],[130.871,33.142],[130.867,33.134],[130.866,33.127],[130.863,33.123],[130.862,33.118],[130.856,33.113],[130.853,33.109],[130.844,33.108],[130.84,33.105],[130.84,33.1],[130.843,33.094],[130.856,33.094],[130.864,33.095],[130.867,33.091],[130.877,33.092],[130.886,33.087],[130.89,33.084],[130.891,33.076],[130.897,33.073],[130.9,33.064],[130.907,33.065],[130.911,33.062],[130.917,33.056],[130.923,33.052],[130.929,33.052],[130.935,33.055],[130.947,33.053],[130.957,33.047],[130.959,33.044],[130.959,33.037],[130.97,33.024],[130.977,33.025],[130.991,33.024],[131.003,33.033],[131.005,33.04],[131.012,33.043],[131.015,33.048],[131.013,33.052],[131.014,33.059],[131.018,33.064],[131.011,33.07],[131.014,33.08],[131.019,33.081],[131.024,33.088],[131.019,33.092],[131.016,33.098],[131.009,33.109],[131.005,33.11],[131.0,33.116],[130.994,33.119],[130.992,33.13],[130.985,33.135],[130.979,33.142],[130.985,33.144],[130.982,33.148],[130.984,33.152],[130.982,33.156],[130.985,33.161],[130.985,33.168],[130.989,33.176],[130.993,33.177],[130.992,33.182],[131.003,33.181],[131.017,33.178],[131.028,33.186],[131.036,33.188],[131.039,33.194],[131.06,33.195],[131.067,33.191],[131.082,33.189],[131.085,33.199],[131.085,33.208],[131.088,33.218],[131.087,33.235],[131.091,33.237],[131.079,33.246],[131.074,33.247],[131.072,33.25],[131.071,33.257],[131.068,33.265],[131.06,33.265],[131.057,33.26],[131.052,33.262],[131.041,33.259],[131.041,33.264],[131.038,33.267],[131.038,33.272],[131.043,33.272],[131.044,33.278],[131.04,33.277],[131.04,33.287],[131.043,33.294],[131.05,33.297],[131.057,33.307],[131.056,33.314],[131.062,33.318],[131.066,33.325],[131.074,33.323],[131.074,33.327],[131.069,33.332],[131.072,33.336],[131.068,33.337],[131.062,33.335],[131.058,33.336],[131.059,33.348],[131.063,33.353],[131.063,33.359],[131.057,33.361],[131.052,33.361],[131.041,33.36],[131.033,33.36],[131.025,33.359],[131.022,33.365],[131.021,33.372],[131.013,33.376],[131.01,33.381],[131.012,33.386],[131.008,33.39],[130.994,33.398],[130.984,33.41],[130.977,33.412],[130.966,33.423],[130.966,33.429],[130.96,33.43],[130.946,33.434],[130.946,33.441],[130.942,33.442],[130.943,33.446],[130.936,33.452],[130.929,33.452],[130.926,33.458]]]]}},{"type":"Feature","properties":{"name":"佐伯市","code":"44205"},"geometry":{"type":"MultiPolygon","coordinates":[[[[131.927,32.727],[131.923,32.724],[131.921,32.72],[131.926,32.714],[131.93,32.717],[131.931,32.722],[131.927,32.727]]],[[[131.909,32.781],[131.911,32.775],[131.908,32.771],[131.911,32.769],[131.923,32.77],[131.923,32.775],[131.916,32.777],[131.909,32.781]]],[[[132.075,32.977],[132.076,32.974],[132.073,32.972],[132.074,32.968],[132.067,32.964],[132.067,32.959],[132.071,32.955],[132.077,32.959],[132.08,32.964],[132.078,32.969],[132.075,32.977]]],[[[131.935,33.016],[131.93,33.016],[131.924,33.012],[131.925,33.0],[131.919,32.995],[131.913,32.992],[131.912,32.984],[131.917,32.981],[131.925,32.982],[131.931,32.99],[131.935,32.991],[131.943,32.997],[131.933,32.998],[131.931,33.002],[131.937,33.008],[131.938,33.013],[131.942,33.011],[131.944,33.015],[131.935,33.016]]],[[[131.475,32.837],[131.484,32.825],[131.493,32.816],[131.503,32.814],[131.502,32.81],[131.508,32.806],[131.517,32.801],[131.514,32.792],[131.508,32.781],[131.51,32.778],[131.509,32.774],[131.512,32.77],[131.518,32.768],[131.524,32.764],[131.533,32.763],[131.536,32.759],[131.547,32.758],[131.556,32.755],[131.565,32.756],[131.569,32.754],[131.579,32.761],[131.588,32.77],[131.59,32.774],[131.597,32.775],[131.601,32.772],[131.605,32.774],[131.618,32.773],[131.625,32.775],[131.63,32.772],[131.641,32.77],[131.648,32.772],[131.661,32.769],[131.676,32.768],[131.691,32.772],[131.696,32.775],[131.707,32.772],[131.712,32.774],[131.715,32.78],[131.715,32.785],[131.718,32.791],[131.728,32.797],[131.731,32.816],[131.735,32.818],[131.737,32.826],[131.736,32.831],[131.741,32.834],[131.747,32.833],[131.754,32.836],[131.769,32.837],[131.787,32.834],[131.788,32.828],[131.794,32.822],[131.798,32.825],[131.807,32.822],[131.814,32.826],[131.825,32.83],[131.826,32.826],[131.832,32.824],[131.834,32.82],[131.841,32.82],[131.848,32.818],[131.855,32.823],[131.859,32.821],[131.86,32.806],[131.854,32.798],[131.849,32.79],[131.849,32.783],[131.844,32.777],[131.846,32.774],[131.847,32.766],[131.85,32.756],[131.844,32.748],[131.847,32.742],[131.847,32.736],[131.858,32.738],[131.861,32.74],[131.874,32.74],[131.882,32.745],[131.883,32.75],[131.874,32.749],[131.876,32.755],[131.876,32.759],[131.88,32.762],[131.875,32.768],[131.872,32.769],[131.869,32.775],[131.876,32.779],[131.876,32.782],[131.873,32.786],[131.875,32.79],[131.88,32.791],[131.884,32.781],[131.889,32.777],[131.895,32.779],[131.885,32.79],[131.889,32.803],[131.9,32.802],[131.9,32.795],[131.895,32.788],[131.903,32.785],[131.906,32.793],[131.912,32.792],[131.913,32.789],[131.92,32.786],[131.92,32.791],[131.917,32.796],[131.921,32.8],[131.925,32.801],[131.923,32.794],[131.927,32.791],[131.929,32.786],[131.936,32.784],[131.944,32.79],[131.949,32.797],[131.946,32.804],[131.954,32.808],[131.961,32.807],[131.966,32.802],[131.963,32.794],[131.971,32.792],[131.976,32.795],[131.976,32.8],[131.972,32.803],[131.976,32.808],[131.984,32.812],[131.986,32.816],[131.99,32.818],[132.002,32.822],[132.008,32.827],[132.011,32.834],[132.008,32.837],[131.998,32.838],[131.986,32.846],[131.98,32.845],[131.976,32.841],[131.983,32.837],[131.988,32.831],[131.982,32.825],[131.978,32.825],[131.976,32.828],[131.97,32.831],[131.965,32.82],[131.962,32.821],[131.959,32.829],[131.96,32.833],[131.957,32.837],[131.949,32.834],[131.944,32.835],[131.953,32.84],[131.954,32.845],[131.949,32.851],[131.95,32.855],[131.962,32.847],[131.972,32.857],[131.975,32.857],[131.976,32.864],[131.979,32.867],[131.983,32.863],[131.987,32.866],[131.987,32.87],[131.992,32.873],[131.995,32.878],[132.001,32.879],[132.001,32.885],[132.005,32.889],[132.012,32.891],[132.005,32.891],[131.999,32.895],[131.998,32.898],[131.989,32.89],[131.986,32.891],[131.988,32.898],[131.984,32.9],[131.985,32.907],[131.984,32.913],[131.979,32.922],[131.995,32.921],[131.993,32.915],[131.999,32.91],[132.004,32.91],[132.01,32.906],[132.008,32.921],[132.012,32.925],[132.016,32.924],[132.018,32.931],[132.024,32.932],[132.026,32.935],[132.035,32.937],[132.041,32.934],[132.04,32.927],[132.045,32.926],[132.05,32.932],[132.047,32.936],[132.058,32.936],[132.063,32.934],[132.068,32.937],[132.076,32.931],[132.085,32.932],[132.082,32.937],[132.082,32.943],[132.075,32.944],[132.071,32.948],[132.068,32.946],[132.059,32.945],[132.054,32.947],[132.044,32.947],[132.034,32.952],[132.034,32.94],[132.026,32.938],[132.023,32.94],[132.017,32.936],[132.01,32.933],[132.007,32.935],[131.997,32.938],[132.0,32.945],[131.998,32.949],[132.004,32.955],[132.002,32.959],[131.997,32.954],[131.993,32.954],[131.992,32.946],[131.986,32.943],[131.982,32.939],[131.977,32.941],[131.972,32.946],[131.974,32.95],[131.963,32.954],[131.965,32.949],[131.959,32.946],[131.946,32.96],[131.945,32.955],[131.937,32.954],[131.936,32.962],[131.924,32.965],[131.927,32.973],[131.918,32.976],[131.916,32.97],[131.912,32.974],[131.905,32.978],[131.902,32.982],[131.896,32.983],[131.898,32.988],[131.893,32.988],[131.89,32.992],[131.898,32.999],[131.903,32.992],[131.908,33.0],[131.901,33.01],[131.906,33.014],[131.913,33.021],[131.919,33.026],[131.922,33.033],[131.92,33.038],[131.922,33.045],[131.926,33.048],[131.928,33.051],[131.932,33.053],[131.937,33.048],[131.943,33.054],[131.95,33.05],[131.956,33.051],[131.964,33.048],[131.974,33.046],[131.98,33.047],[131.986,33.049],[131.988,33.054],[131.996,33.056],[132.002,33.054],[132.015,33.057],[132.015,33.061],[132.007,33.061],[132.003,33.07],[131.996,33.066],[131.988,33.064],[131.987,33.06],[131.973,33.053],[131.968,33.055],[131.964,33.058],[131.957,33.062],[131.951,33.058],[131.944,33.062],[131.938,33.064],[131.929,33.062],[131.918,33.057],[131.908,33.056],[131.899,33.052],[131.89,33.042],[131.883,33.041],[131.862,33.042],[131.851,33.042],[131.846,33.039],[131.84,33.038],[131.835,33.039],[131.822,33.029],[131.815,33.033],[131.804,33.032],[131.8,33.035],[131.79,33.034],[131.793,33.027],[131.785,33.022],[131.781,33.011],[131.774,33.003],[131.777,32.999],[131.775,32.992],[131.783,32.979],[131.776,32.979],[131.761,32.97],[131.751,32.972],[131.746,32.969],[131.742,32.97],[131.734,32.968],[131.727,32.968],[131.721,32.97],[131.714,32.969],[131.702,32.965],[131.697,32.962],[131.694,32.958],[131.69,32.958],[131.685,32.956],[131.681,32.951],[131.677,32.952],[131.671,32.951],[131.666,32.952],[131.659,32.96],[131.644,32.952],[131.644,32.948],[131.64,32.943],[131.639,32.94],[131.631,32.942],[131.619,32.931],[131.619,32.927],[131.626,32.928],[131.629,32.919],[131.624,32.917],[131.622,32.922],[131.615,32.924],[131.609,32.922],[131.612,32.911],[131.607,32.906],[131.607,32.899],[131.605,32.895],[131.6,32.895],[131.595,32.891],[131.591,32.892],[131.59,32.885],[131.591,32.881],[131.582,32.879],[131.564,32.884],[131.552,32.878],[131.549,32.875],[131.541,32.871],[131.538,32.865],[131.527,32.86],[131.522,32.856],[131.514,32.854],[131.503,32.853],[131.5,32.851],[131.494,32.851],[131.49,32.845],[131.484,32.843],[131.482,32.839],[131.475,32.837]]]]}},{"type":"Feature","properties":{"name":"臼杵市","code":"44206"},"geometry":{"type":"MultiPolygon","coordinates":[[[[131.678,33.086],[131.672,33.085],[131.669,33.081],[131.661,33.079],[131.657,33.069],[131.653,33.066],[131.652,33.058],[131.654,33.053],[131.66,33.05],[131.661,33.045],[131.659,33.037],[131.65,33.034],[131.647,33.031],[131.637,33.035],[131.635,33.029],[131.632,33.025],[131.632,33.019],[131.635,33.009],[131.633,33.005],[131.639,33.005],[131.644,33.002],[131.645,32.996],[131.65,32.99],[131.651,32.985],[131.657,32.979],[131.661,32.968],[131.662,32.963],[131.659,32.96],[131.666,32.952],[131.671,32.951],[131.677,32.952],[131.681,32.951],[131.685,32.956],[131.69,32.958],[131.694,32.958],[131.697,32.962],[131.702,32.965],[131.714,32.969],[131.721,32.97],[131.727,32.968],[131.734,32.968],[131.742,32.97],[131.746,32.969],[131.751,32.972],[131.758,32.967],[131.774,32.976],[131.783,32.979],[131.777,32.99],[131.777,32.999],[131.774,33.003],[131.781,33.011],[131.785,33.022],[131.793,33.027],[131.79,33.034],[131.791,33.041],[131.798,33.046],[131.797,33.05],[131.8,33.054],[131.806,33.056],[131.788,33.057],[131.784,33.065],[131.782,33.073],[131.789,33.079],[131.799,33.081],[131.805,33.086],[131.808,33.091],[131.813,33.09],[131.82,33.094],[131.827,33.095],[131.827,33.1],[131.831,33.102],[131.84,33.104],[131.85,33.103],[131.864,33.108],[131.868,33.111],[131.877,33.116],[131.891,33.116],[131.899,33.122],[131.908,33.123],[131.911,33.127],[131.899,33.129],[131.893,33.125],[131.886,33.124],[131.874,33.124],[131.878,33.131],[131.869,33.131],[131.862,33.128],[131.86,33.123],[131.852,33.118],[131.847,33.118],[131.846,33.115],[131.835,33.119],[131.839,33.123],[131.833,33.125],[131.828,33.122],[131.816,33.123],[131.811,33.127],[131.801,33.126],[131.81,33.135],[131.809,33.138],[131.819,33.144],[131.829,33.15],[131.824,33.156],[131.822,33.162],[131.826,33.169],[131.829,33.17],[131.829,33.174],[131.834,33.178],[131.833,33.181],[131.838,33.183],[131.839,33.187],[131.849,33.188],[131.845,33.199],[131.84,33.206],[131.834,33.207],[131.827,33.205],[131.82,33.2],[131.814,33.2],[131.805,33.197],[131.795,33.19],[131.791,33.192],[131.784,33.19],[131.781,33.187],[131.76,33.181],[131.756,33.182],[131.752,33.176],[131.743,33.172],[131.737,33.177],[131.729,33.171],[131.727,33.166],[131.718,33.155],[131.723,33.152],[131.724,33.148],[131.721,33.142],[131.721,33.138],[131.716,33.136],[131.72,33.13],[131.712,33.113],[131.71,33.108],[131.714,33.102],[131.705,33.094],[131.704,33.085],[131.707,33.079],[131.693,33.077],[131.687,33.083],[131.683,33.082],[131.678,33.086]]]]}},{"type":"Feature","properties":{"name":"津久見市","code":"44207"},"geometry":{"type":"MultiPolygon","coordinates":[[[[132.011,33.111],[132.004,33.108],[132.006,33.104],[132.012,33.101],[132.017,33.107],[132.013,33.108],[132.011,33.111]]],[[[132.003,33.07],[132.001,33.076],[131.996,33.078],[131.996,33.086],[131.999,33.091],[131.989,33.091],[131.989,33.085],[131.985,33.079],[131.989,33.074],[131.989,33.068],[131.981,33.066],[131.977,33.067],[131.975,33.063],[131.968,33.062],[131.968,33.072],[131.955,33.072],[131.954,33.066],[131.948,33.066],[131.944,33.069],[131.944,33.074],[131.939,33.076],[131.937,33.081],[131.938,33.093],[131.932,33.094],[131.935,33.082],[131.929,33.074],[131.928,33.068],[131.922,33.067],[131.919,33.07],[131.912,33.067],[131.913,33.076],[131.907,33.081],[131.902,33.075],[131.895,33.077],[131.886,33.083],[131.881,33.078],[131.875,33.079],[131.868,33.076],[131.861,33.077],[131.861,33.082],[131.852,33.089],[131.864,33.089],[131.869,33.093],[131.868,33.096],[131.876,33.1],[131.876,33.106],[131.879,33.109],[131.887,33.109],[131.893,33.107],[131.897,33.11],[131.897,33.115],[131.901,33.118],[131.915,33.123],[131.911,33.127],[131.908,33.123],[131.899,33.122],[131.891,33.116],[131.88,33.115],[131.868,33.111],[131.864,33.108],[131.85,33.103],[131.84,33.104],[131.831,33.102],[131.827,33.1],[131.827,33.095],[131.82,33.094],[131.813,33.09],[131.808,33.091],[131.805,33.086],[131.799,33.081],[131.789,33.079],[131.782,33.073],[131.784,33.065],[131.788,33.057],[131.806,33.056],[131.8,33.054],[131.797,33.05],[131.798,33.046],[131.791,33.041],[131.79,33.034],[131.8,33.035],[131.804,33.032],[131.813,33.032],[131.822,33.029],[131.835,33.039],[131.84,33.038],[131.846,33.039],[131.851,33.042],[131.862,33.042],[131.883,33.041],[131.89,33.042],[131.899,33.052],[131.908,33.056],[131.918,33.057],[131.929,33.062],[131.938,33.064],[131.944,33.062],[131.951,33.058],[131.957,33.062],[131.964,33.058],[131.968,33.055],[131.973,33.053],[131.987,33.06],[131.988,33.064],[131.996,33.066],[132.003,33.07]]],[[[131.992,33.171],[131.983,33.17],[131.983,33.164],[131.988,33.166],[131.992,33.171]]]]}},{"type":"Feature","properties":{"name":"竹田市","code":"44208"},"geometry":{"type":"MultiPolygon","coordinates":[[[[131.458,33.139],[131.454,33.146],[131.448,33.15],[131.441,33.151],[131.435,33.149],[131.429,33.15],[131.424,33.153],[131.417,33.154],[131.407,33.153],[131.4,33.151],[131.391,33.152],[131.388,33.146],[131.381,33.144],[131.377,33.14],[131.375,33.132],[131.37,33.125],[131.366,33.123],[131.359,33.119],[131.353,33.119],[131.358,33.111],[131.352,33.106],[131.346,33.105],[131.342,33.107],[131.337,33.105],[131.332,33.109],[131.319,33.107],[131.311,33.105],[131.292,33.121],[131.281,33.118],[131.271,33.125],[131.257,33.123],[131.253,33.122],[131.254,33.111],[131.247,33.106],[131.242,33.096],[131.238,33.093],[131.237,33.089],[131.226,33.086],[131.222,33.088],[131.205,33.09],[131.2,33.088],[131.199,33.083],[131.193,33.078],[131.199,33.073],[131.21,33.058],[131.217,33.053],[131.22,33.039],[131.221,33.03],[131.226,33.024],[131.224,33.017],[131.228,33.012],[131.235,33.009],[131.241,33.0],[131.248,32.995],[131.246,32.989],[131.247,32.982],[131.257,32.98],[131.263,32.977],[131.261,32.969],[131.256,32.963],[131.246,32.962],[131.246,32.959],[131.252,32.957],[131.247,32.953],[131.248,32.948],[131.253,32.946],[131.246,32.94],[131.248,32.931],[131.253,32.925],[131.253,32.911],[131.254,32.907],[131.253,32.898],[131.257,32.887],[131.264,32.879],[131.273,32.882],[131.272,32.877],[131.273,32.871],[131.279,32.87],[131.295,32.857],[131.31,32.853],[131.322,32.844],[131.323,32.841],[131.327,32.837],[131.329,32.833],[131.34,32.833],[131.347,32.828],[131.35,32.832],[131.356,32.834],[131.362,32.834],[131.369,32.838],[131.374,32.839],[131.377,32.842],[131.387,32.847],[131.397,32.861],[131.388,32.867],[131.389,32.87],[131.394,32.874],[131.401,32.881],[131.4,32.889],[131.398,32.896],[131.397,32.904],[131.393,32.909],[131.397,32.911],[131.401,32.922],[131.399,32.929],[131.402,32.93],[131.408,32.935],[131.409,32.948],[131.411,32.953],[131.417,32.96],[131.42,32.962],[131.423,32.968],[131.42,32.971],[131.422,32.979],[131.417,32.985],[131.421,32.989],[131.418,33.003],[131.413,33.004],[131.407,33.008],[131.396,33.01],[131.395,33.014],[131.391,33.017],[131.383,33.016],[131.379,33.026],[131.379,33.03],[131.39,33.031],[131.392,33.038],[131.397,33.04],[131.399,33.045],[131.406,33.049],[131.402,33.051],[131.407,33.057],[131.399,33.057],[131.396,33.061],[131.404,33.065],[131.399,33.072],[131.405,33.078],[131.406,33.082],[131.412,33.085],[131.413,33.088],[131.419,33.092],[131.419,33.096],[131.428,33.101],[131.434,33.109],[131.431,33.113],[131.435,33.12],[131.429,33.123],[131.427,33.128],[131.43,33.132],[131.439,33.135],[131.444,33.143],[131.453,33.143],[131.458,33.139]]]]}},{"type":"Feature","properties":{"name":"豊後高田市","code":"44209"},"geometry":{"type":"MultiPolygon","coordinates":[[[[131.545,33.677],[131.537,33.68],[131.527,33.682],[131.53,33.674],[131.515,33.669],[131.508,33.675],[131.506,33.671],[131.5,33.671],[131.497,33.664],[131.505,33.657],[131.495,33.655],[131.498,33.646],[131.495,33.644],[131.487,33.648],[131.486,33.644],[131.482,33.643],[131.48,33.639],[131.484,33.637],[131.475,33.631],[131.474,33.621],[131.468,33.614],[131.462,33.619],[131.424,33.592],[131.424,33.583],[131.427,33.577],[131.435,33.57],[131.429,33.568],[131.416,33.564],[131.415,33.558],[131.412,33.554],[131.418,33.55],[131.423,33.55],[131.423,33.544],[131.425,33.538],[131.434,33.537],[131.442,33.532],[131.448,33.527],[131.45,33.519],[131.458,33.509],[131.463,33.508],[131.474,33.505],[131.483,33.493],[131.49,33.493],[131.494,33.49],[131.499,33.489],[131.506,33.484],[131.506,33.481],[131.515,33.48],[131.523,33.475],[131.528,33.478],[131.535,33.477],[131.533,33.491],[131.531,33.497],[131.532,33.502],[131.537,33.505],[131.547,33.52],[131.554,33.533],[131.554,33.537],[131.559,33.54],[131.565,33.548],[131.57,33.55],[131.577,33.556],[131.586,33.559],[131.592,33.561],[131.596,33.577],[131.589,33.584],[131.586,33.583],[131.58,33.583],[131.578,33.591],[131.574,33.594],[131.572,33.604],[131.578,33.614],[131.576,33.617],[131.569,33.619],[131.556,33.627],[131.558,33.631],[131.558,33.637],[131.555,33.642],[131.552,33.65],[131.549,33.662],[131.549,33.667],[131.545,33.677]]]]}},{"type":"Feature","properties":{"name":"杵築市","code":"44210"},"geometry":{"type":"MultiPolygon","coordinates":[[[[131.448,33.527],[131.444,33.524],[131.435,33.522],[131.428,33.518],[131.433,33.515],[131.434,33.511],[131.439,33.51],[131.439,33.5],[131.426,33.505],[131.422,33.505],[131.418,33.499],[131.412,33.497],[131.407,33.485],[131.412,33.482],[131.414,33.477],[131.421,33.475],[131.425,33.469],[131.424,33.463],[131.429,33.452],[131.427,33.448],[131.432,33.444],[131.433,33.435],[131.428,33.431],[131.429,33.424],[131.425,33.42],[131.425,33.416],[131.417,33.413],[131.42,33.401],[131.414,33.398],[131.411,33.391],[131.406,33.381],[131.408,33.376],[131.425,33.373],[131.431,33.365],[131.433,33.357],[131.453,33.374],[131.449,33.379],[131.453,33.386],[131.453,33.393],[131.458,33.392],[131.473,33.386],[131.477,33.387],[131.481,33.384],[131.484,33.389],[131.49,33.39],[131.495,33.389],[131.5,33.391],[131.51,33.391],[131.513,33.397],[131.525,33.397],[131.522,33.404],[131.531,33.41],[131.533,33.414],[131.537,33.415],[131.543,33.419],[131.544,33.426],[131.554,33.428],[131.557,33.422],[131.562,33.416],[131.557,33.412],[131.561,33.408],[131.558,33.399],[131.561,33.397],[131.568,33.398],[131.571,33.389],[131.58,33.39],[131.588,33.396],[131.597,33.394],[131.604,33.389],[131.611,33.39],[131.615,33.386],[131.615,33.377],[131.617,33.372],[131.623,33.375],[131.634,33.374],[131.644,33.375],[131.646,33.383],[131.647,33.392],[131.638,33.399],[131.637,33.406],[131.627,33.411],[131.629,33.414],[131.635,33.416],[131.636,33.423],[131.641,33.421],[131.653,33.42],[131.656,33.423],[131.66,33.423],[131.672,33.417],[131.672,33.413],[131.681,33.409],[131.686,33.406],[131.692,33.405],[131.701,33.406],[131.704,33.409],[131.706,33.424],[131.71,33.435],[131.713,33.442],[131.719,33.448],[131.707,33.452],[131.695,33.45],[131.691,33.446],[131.685,33.443],[131.683,33.438],[131.676,33.438],[131.663,33.434],[131.65,33.438],[131.653,33.442],[131.653,33.447],[131.659,33.454],[131.652,33.456],[131.636,33.456],[131.632,33.457],[131.629,33.466],[131.618,33.467],[131.618,33.471],[131.609,33.471],[131.604,33.482],[131.607,33.485],[131.603,33.488],[131.602,33.504],[131.597,33.508],[131.598,33.513],[131.59,33.521],[131.589,33.53],[131.585,33.535],[131.585,33.544],[131.589,33.553],[131.589,33.559],[131.577,33.556],[131.57,33.55],[131.565,33.548],[131.559,33.54],[131.554,33.537],[131.554,33.533],[131.547,33.52],[131.537,33.505],[131.532,33.502],[131.531,33.497],[131.533,33.491],[131.535,33.477],[131.528,33.478],[131.523,33.475],[131.515,33.48],[131.506,33.481],[131.506,33.484],[131.499,33.489],[131.494,33.49],[131.49,33.493],[131.483,33.493],[131.474,33.505],[131.465,33.506],[131.458,33.509],[131.45,33.519],[131.448,33.527]]]]}},{"type":"Feature","properties":{"name":"宇佐市","code":"44211"},"geometry":{"type":"MultiPolygon","coordinates":[[[[131.416,33.349],[131.427,33.354],[131.433,33.357],[131.431,33.365],[131.425,33.373],[131.408,33.376],[131.406,33.381],[131.411,33.391],[131.414,33.398],[131.42,33.401],[131.417,33.413],[131.425,33.416],[131.425,33.42],[131.429,33.424],[131.428,33.431],[131.433,33.435],[131.432,33.444],[131.427,33.448],[131.429,33.452],[131.424,33.463],[131.425,33.469],[131.421,33.475],[131.414,33.477],[131.412,33.482],[131.407,33.485],[131.412,33.497],[131.418,33.499],[131.422,33.505],[131.426,33.505],[131.439,33.5],[131.439,33.51],[131.434,33.511],[131.433,33.515],[131.428,33.518],[131.435,33.522],[131.444,33.524],[131.448,33.527],[131.442,33.532],[131.436,33.54],[131.425,33.538],[131.423,33.544],[131.426,33.547],[131.418,33.55],[131.412,33.554],[131.415,33.558],[131.416,33.564],[131.429,33.568],[131.421,33.569],[131.42,33.573],[131.413,33.574],[131.406,33.572],[131.394,33.576],[131.381,33.576],[131.374,33.58],[131.372,33.577],[131.358,33.577],[131.349,33.573],[131.339,33.573],[131.335,33.576],[131.335,33.581],[131.321,33.583],[131.317,33.581],[131.311,33.582],[131.304,33.581],[131.295,33.581],[131.291,33.579],[131.279,33.581],[131.276,33.566],[131.273,33.558],[131.272,33.553],[131.264,33.555],[131.26,33.554],[131.254,33.542],[131.252,33.537],[131.256,33.53],[131.257,33.525],[131.27,33.502],[131.273,33.499],[131.263,33.487],[131.26,33.481],[131.248,33.476],[131.242,33.478],[131.244,33.469],[131.241,33.464],[131.245,33.462],[131.247,33.455],[131.244,33.45],[131.246,33.442],[131.252,33.436],[131.254,33.429],[131.255,33.419],[131.255,33.413],[131.243,33.414],[131.236,33.411],[131.227,33.412],[131.229,33.405],[131.229,33.398],[131.223,33.393],[131.221,33.387],[131.226,33.381],[131.23,33.379],[131.226,33.369],[131.218,33.365],[131.216,33.361],[131.226,33.362],[131.229,33.357],[131.241,33.357],[131.242,33.362],[131.249,33.361],[131.253,33.358],[131.259,33.356],[131.261,33.353],[131.268,33.35],[131.272,33.344],[131.279,33.335],[131.29,33.336],[131.299,33.335],[131.303,33.337],[131.308,33.332],[131.308,33.328],[131.313,33.323],[131.327,33.32],[131.333,33.318],[131.336,33.316],[131.35,33.313],[131.355,33.31],[131.359,33.315],[131.368,33.316],[131.375,33.321],[131.375,33.325],[131.382,33.327],[131.388,33.326],[131.399,33.325],[131.397,33.334],[131.4,33.338],[131.403,33.343],[131.401,33.35],[131.407,33.351],[131.412,33.349],[131.416,33.349]]]]}},{"type":"Feature","properties":{"name":"豊後大野市","code":"44212"},"geometry":{"type":"MultiPolygon","coordinates":[[[[131.419,33.092],[131.413,33.088],[131.412,33.085],[131.406,33.082],[131.405,33.078],[131.399,33.072],[131.404,33.065],[131.396,33.061],[131.399,33.057],[131.407,33.057],[131.402,33.051],[131.406,33.049],[131.399,33.045],[131.397,33.04],[131.392,33.038],[131.39,33.031],[131.379,33.03],[131.379,33.026],[131.383,33.016],[131.391,33.017],[131.395,33.014],[131.396,33.01],[131.407,33.008],[131.413,33.004],[131.418,33.003],[131.421,32.989],[131.417,32.985],[131.422,32.979],[131.42,32.971],[131.423,32.968],[131.42,32.962],[131.417,32.96],[131.411,32.953],[131.409,32.948],[131.408,32.935],[131.402,32.93],[131.399,32.929],[131.401,32.922],[131.397,32.911],[131.393,32.909],[131.397,32.904],[131.399,32.898],[131.4,32.889],[131.401,32.881],[131.394,32.874],[131.389,32.87],[131.388,32.867],[131.397,32.861],[131.387,32.85],[131.377,32.842],[131.374,32.839],[131.369,32.838],[131.362,32.834],[131.356,32.834],[131.35,32.832],[131.347,32.828],[131.35,32.824],[131.351,32.817],[131.349,32.811],[131.356,32.805],[131.364,32.803],[131.378,32.809],[131.384,32.809],[131.389,32.812],[131.395,32.811],[131.4,32.813],[131.406,32.812],[131.416,32.813],[131.421,32.812],[131.426,32.816],[131.431,32.818],[131.437,32.829],[131.444,32.83],[131.454,32.829],[131.463,32.831],[131.475,32.837],[131.482,32.839],[131.484,32.843],[131.49,32.845],[131.494,32.851],[131.5,32.851],[131.503,32.853],[131.514,32.854],[131.522,32.856],[131.527,32.86],[131.538,32.865],[131.541,32.871],[131.549,32.875],[131.552,32.878],[131.564,32.884],[131.582,32.879],[131.591,32.881],[131.59,32.885],[131.591,32.892],[131.595,32.891],[131.6,32.895],[131.605,32.895],[131.607,32.899],[131.607,32.906],[131.612,32.911],[131.609,32.922],[131.615,32.924],[131.622,32.922],[131.624,32.917],[131.629,32.919],[131.626,32.928],[131.619,32.927],[131.619,32.931],[131.631,32.942],[131.639,32.94],[131.64,32.943],[131.644,32.948],[131.644,32.952],[131.659,32.96],[131.662,32.963],[131.661,32.968],[131.657,32.979],[131.651,32.985],[131.65,32.99],[131.645,32.996],[131.644,33.002],[131.639,33.005],[131.633,33.005],[131.635,33.009],[131.632,33.019],[131.632,33.025],[131.635,33.029],[131.637,33.035],[131.647,33.031],[131.65,33.034],[131.659,33.037],[131.661,33.045],[131.66,33.05],[131.654,33.053],[131.652,33.058],[131.653,33.066],[131.657,33.069],[131.661,33.079],[131.669,33.081],[131.672,33.085],[131.678,33.086],[131.661,33.089],[131.654,33.085],[131.646,33.082],[131.643,33.083],[131.641,33.087],[131.638,33.089],[131.628,33.09],[131.625,33.093],[131.616,33.096],[131.605,33.102],[131.599,33.103],[131.594,33.102],[131.588,33.098],[131.582,33.101],[131.575,33.102],[131.568,33.11],[131.559,33.111],[131.554,33.118],[131.542,33.117],[131.539,33.111],[131.532,33.11],[131.526,33.107],[131.522,33.103],[131.515,33.102],[131.508,33.1],[131.497,33.092],[131.502,33.087],[131.495,33.076],[131.483,33.074],[131.475,33.07],[131.466,33.072],[131.46,33.075],[131.457,33.08],[131.454,33.09],[131.457,33.094],[131.444,33.094],[131.441,33.088],[131.424,33.079],[131.42,33.081],[131.422,33.09],[131.419,33.092]]]]}},{"type":"Feature","properties":{"name":"由布市","code":"44213"},"geometry":{"type":"MultiPolygon","coordinates":[[[[131.521,33.249],[131.516,33.248],[131.51,33.252],[131.504,33.25],[131.506,33.238],[131.506,33.228],[131.503,33.224],[131.499,33.228],[131.488,33.23],[131.484,33.226],[131.476,33.229],[131.467,33.235],[131.464,33.236],[131.461,33.242],[131.456,33.242],[131.45,33.239],[131.451,33.236],[131.441,33.234],[131.439,33.239],[131.434,33.239],[131.43,33.236],[131.424,33.235],[131.416,33.233],[131.409,33.228],[131.404,33.227],[131.395,33.229],[131.392,33.23],[131.382,33.233],[131.38,33.243],[131.378,33.247],[131.384,33.255],[131.388,33.257],[131.394,33.264],[131.394,33.27],[131.39,33.272],[131.391,33.28],[131.395,33.282],[131.406,33.282],[131.42,33.291],[131.418,33.296],[131.423,33.309],[131.434,33.318],[131.434,33.323],[131.428,33.326],[131.421,33.325],[131.413,33.319],[131.399,33.323],[131.388,33.326],[131.382,33.327],[131.375,33.325],[131.375,33.321],[131.368,33.316],[131.359,33.315],[131.355,33.31],[131.35,33.313],[131.336,33.316],[131.333,33.318],[131.331,33.313],[131.326,33.311],[131.325,33.308],[131.316,33.306],[131.332,33.295],[131.329,33.29],[131.311,33.273],[131.299,33.265],[131.296,33.26],[131.295,33.25],[131.287,33.245],[131.285,33.241],[131.28,33.236],[131.269,33.231],[131.274,33.223],[131.282,33.215],[131.284,33.209],[131.289,33.199],[131.291,33.195],[131.295,33.196],[131.309,33.188],[131.307,33.179],[131.302,33.181],[131.296,33.18],[131.308,33.172],[131.318,33.178],[131.324,33.174],[131.317,33.168],[131.315,33.164],[131.305,33.159],[131.3,33.161],[131.288,33.157],[131.275,33.149],[131.269,33.143],[131.259,33.137],[131.257,33.123],[131.271,33.125],[131.281,33.118],[131.292,33.121],[131.311,33.105],[131.319,33.107],[131.332,33.109],[131.337,33.105],[131.342,33.107],[131.346,33.105],[131.352,33.106],[131.358,33.111],[131.352,33.117],[131.359,33.119],[131.366,33.123],[131.37,33.125],[131.375,33.132],[131.377,33.14],[131.381,33.144],[131.388,33.146],[131.391,33.152],[131.4,33.151],[131.407,33.153],[131.417,33.154],[131.424,33.153],[131.429,33.15],[131.435,33.149],[131.441,33.151],[131.448,33.15],[131.454,33.146],[131.458,33.139],[131.46,33.147],[131.467,33.146],[131.473,33.153],[131.485,33.16],[131.49,33.16],[131.49,33.166],[131.504,33.169],[131.504,33.172],[131.508,33.179],[131.512,33.182],[131.52,33.191],[131.529,33.195],[131.536,33.199],[131.532,33.204],[131.538,33.209],[131.533,33.216],[131.538,33.227],[131.536,33.231],[131.538,33.237],[131.543,33.237],[131.541,33.243],[131.537,33.245],[131.529,33.244],[131.523,33.249]]]]}},{"type":"Feature","properties":{"name":"国東市","code":"44214"},"geometry":{"type":"MultiPolygon","coordinates":[[[[131.589,33.559],[131.589,33.553],[131.585,33.544],[131.585,33.535],[131.589,33.53],[131.59,33.521],[131.598,33.513],[131.597,33.508],[131.602,33.504],[131.604,33.491],[131.607,33.485],[131.604,33.482],[131.609,33.471],[131.618,33.471],[131.618,33.467],[131.629,33.466],[131.632,33.457],[131.636,33.456],[131.652,33.456],[131.656,33.457],[131.653,33.447],[131.653,33.442],[131.65,33.438],[131.663,33.434],[131.676,33.438],[131.683,33.438],[131.685,33.443],[131.691,33.446],[131.695,33.45],[131.707,33.452],[131.719,33.448],[131.722,33.451],[131.723,33.456],[131.727,33.466],[131.739,33.465],[131.739,33.494],[131.731,33.491],[131.729,33.501],[131.732,33.517],[131.739,33.535],[131.743,33.537],[131.744,33.543],[131.741,33.546],[131.74,33.563],[131.736,33.567],[131.733,33.575],[131.734,33.581],[131.73,33.588],[131.725,33.589],[131.715,33.605],[131.707,33.605],[131.701,33.614],[131.697,33.629],[131.693,33.64],[131.689,33.642],[131.684,33.64],[131.674,33.65],[131.671,33.658],[131.666,33.66],[131.667,33.664],[131.661,33.67],[131.654,33.666],[131.652,33.661],[131.647,33.663],[131.646,33.667],[131.648,33.671],[131.643,33.673],[131.636,33.682],[131.631,33.679],[131.63,33.674],[131.625,33.674],[131.62,33.681],[131.618,33.677],[131.613,33.677],[131.607,33.679],[131.608,33.687],[131.602,33.686],[131.594,33.687],[131.586,33.692],[131.582,33.692],[131.574,33.687],[131.573,33.68],[131.576,33.675],[131.566,33.675],[131.562,33.686],[131.555,33.686],[131.548,33.679],[131.545,33.677],[131.549,33.667],[131.549,33.662],[131.552,33.65],[131.557,33.645],[131.558,33.637],[131.558,33.631],[131.556,33.627],[131.569,33.619],[131.576,33.617],[131.578,33.614],[131.575,33.607],[131.574,33.594],[131.578,33.591],[131.58,33.583],[131.586,33.583],[131.589,33.584],[131.596,33.577],[131.592,33.561]]]]}},{"type":"Feature","properties":{"name":"東国東郡姫島村","code":"44322"},"geometry":{"type":"MultiPolygon","coordinates":[[[[131.672,33.739],[131.667,33.74],[131.661,33.737],[131.655,33.73],[131.645,33.73],[131.638,33.723],[131.631,33.721],[131.633,33.717],[131.646,33.722],[131.658,33.721],[131.666,33.717],[131.671,33.718],[131.676,33.725],[131.685,33.728],[131.69,33.732],[131.684,33.734],[131.672,33.739]]]]}},{"type":"Feature","properties":{"name":"速見郡日出町","code":"44341"},"geometry":{"type":"MultiPolygon","coordinates":[[[[131.496,33.346],[131.499,33.35],[131.499,33.36],[131.506,33.362],[131.523,33.367],[131.539,33.365],[131.543,33.358],[131.543,33.355],[131.553,33.35],[131.562,33.352],[131.575,33.348],[131.585,33.347],[131.591,33.347],[131.597,33.35],[131.599,33.36],[131.596,33.363],[131.598,33.37],[131.602,33.371],[131.614,33.371],[131.615,33.377],[131.615,33.386],[131.611,33.39],[131.604,33.389],[131.597,33.394],[131.588,33.396],[131.58,33.39],[131.571,33.389],[131.568,33.398],[131.561,33.397],[131.558,33.399],[131.561,33.408],[131.557,33.412],[131.562,33.416],[131.557,33.422],[131.554,33.428],[131.544,33.426],[131.543,33.419],[131.537,33.415],[131.533,33.414],[131.531,33.41],[131.522,33.404],[131.525,33.397],[131.513,33.397],[131.51,33.391],[131.5,33.391],[131.495,33.389],[131.49,33.39],[131.484,33.389],[131.481,33.384],[131.477,33.387],[131.473,33.386],[131.458,33.392],[131.453,33.393],[131.453,33.386],[131.449,33.379],[131.453,33.374],[131.435,33.357],[131.427,33.354],[131.419,33.352],[131.417,33.346],[131.423,33.343],[131.429,33.345],[131.433,33.343],[131.44,33.345],[131.442,33.349],[131.45,33.348],[131.456,33.351],[131.466,33.352],[131.471,33.354],[131.483,33.352],[131.486,33.352],[131.496,33.346]]]]}},{"type":"Feature","properties":{"name":"玖珠郡九重町","code":"44461"},"geometry":{"type":"MultiPolygon","coordinates":[[[[131.257,33.123],[131.259,33.137],[131.269,33.143],[131.275,33.149],[131.288,33.157],[131.3,33.161],[131.305,33.159],[131.315,33.164],[131.317,33.168],[131.324,33.174],[131.318,33.178],[131.308,33.172],[131.296,33.18],[131.302,33.181],[131.307,33.179],[131.309,33.188],[131.295,33.196],[131.291,33.195],[131.289,33.199],[131.284,33.209],[131.282,33.215],[131.274,33.223],[131.269,33.231],[131.28,33.236],[131.285,33.241],[131.287,33.245],[131.295,33.25],[131.287,33.262],[131.271,33.263],[131.274,33.267],[131.273,33.273],[131.264,33.272],[131.257,33.275],[131.26,33.281],[131.254,33.294],[131.248,33.299],[131.248,33.304],[131.237,33.301],[131.232,33.298],[131.221,33.299],[131.215,33.298],[131.206,33.292],[131.205,33.285],[131.202,33.282],[131.198,33.283],[131.187,33.28],[131.186,33.275],[131.172,33.268],[131.168,33.255],[131.163,33.255],[131.157,33.253],[131.152,33.253],[131.145,33.248],[131.144,33.237],[131.131,33.228],[131.124,33.216],[131.122,33.207],[131.117,33.199],[131.111,33.183],[131.116,33.18],[131.118,33.17],[131.129,33.167],[131.133,33.164],[131.134,33.16],[131.138,33.16],[131.148,33.155],[131.148,33.15],[131.158,33.142],[131.161,33.141],[131.167,33.129],[131.166,33.12],[131.164,33.116],[131.166,33.111],[131.173,33.105],[131.173,33.1],[131.175,33.097],[131.172,33.09],[131.175,33.083],[131.178,33.079],[131.186,33.074],[131.193,33.078],[131.199,33.083],[131.2,33.088],[131.205,33.09],[131.222,33.088],[131.226,33.086],[131.237,33.089],[131.238,33.093],[131.242,33.096],[131.247,33.106],[131.254,33.111],[131.253,33.122],[131.257,33.123]]]]}},{"type":"Feature","properties":{"name":"玖珠郡玖珠町","code":"44462"},"geometry":{"type":"MultiPolygon","coordinates":[[[[131.057,33.361],[131.063,33.359],[131.063,33.353],[131.059,33.348],[131.058,33.336],[131.062,33.335],[131.068,33.337],[131.072,33.336],[131.069,33.332],[131.074,33.327],[131.074,33.323],[131.066,33.325],[131.062,33.318],[131.056,33.314],[131.057,33.307],[131.05,33.297],[131.043,33.294],[131.04,33.287],[131.04,33.277],[131.044,33.278],[131.043,33.272],[131.038,33.272],[131.038,33.267],[131.041,33.264],[131.041,33.259],[131.049,33.259],[131.057,33.26],[131.06,33.265],[131.068,33.265],[131.071,33.257],[131.072,33.25],[131.074,33.247],[131.079,33.246],[131.091,33.237],[131.087,33.235],[131.088,33.218],[131.085,33.208],[131.085,33.199],[131.082,33.189],[131.095,33.185],[131.099,33.188],[131.111,33.183],[131.117,33.199],[131.122,33.207],[131.124,33.216],[131.131,33.225],[131.144,33.237],[131.145,33.248],[131.152,33.253],[131.157,33.253],[131.163,33.255],[131.168,33.255],[131.172,33.268],[131.186,33.275],[131.187,33.28],[131.198,33.283],[131.202,33.282],[131.205,33.285],[131.206,33.292],[131.215,33.298],[131.221,33.299],[131.232,33.298],[131.237,33.301],[131.248,33.304],[131.248,33.299],[131.254,33.294],[131.26,33.281],[131.257,33.275],[131.264,33.272],[131.27,33.275],[131.274,33.267],[131.271,33.263],[131.287,33.262],[131.295,33.25],[131.296,33.26],[131.299,33.265],[131.311,33.273],[131.329,33.29],[131.332,33.295],[131.316,33.306],[131.325,33.308],[131.326,33.311],[131.331,33.313],[131.333,33.318],[131.327,33.32],[131.313,33.323],[131.308,33.328],[131.308,33.332],[131.303,33.337],[131.299,33.335],[131.29,33.336],[131.279,33.335],[131.272,33.341],[131.268,33.35],[131.261,33.353],[131.259,33.356],[131.253,33.358],[131.249,33.361],[131.242,33.362],[131.241,33.357],[131.229,33.357],[131.226,33.362],[131.216,33.361],[131.205,33.358],[131.205,33.354],[131.198,33.348],[131.192,33.352],[131.19,33.356],[131.185,33.356],[131.179,33.354],[131.175,33.363],[131.168,33.37],[131.158,33.363],[131.153,33.366],[131.151,33.371],[131.148,33.373],[131.146,33.379],[131.134,33.378],[131.128,33.368],[131.125,33.368],[131.115,33.372],[131.116,33.376],[131.108,33.38],[131.099,33.388],[131.09,33.388],[131.08,33.384],[131.068,33.384],[131.06,33.372],[131.057,33.361]]]]}}]}