{"type":"FeatureCollection","features":[{"type":"Feature","properties":{"name":"宮崎市","code":"45201"},"geometry":{"type":"MultiPolygon","coordinates":[[[[131.433,32.056],[131.425,32.052],[131.422,32.055],[131.421,32.058],[131.417,32.062],[131.411,32.063],[131.407,32.066],[131.403,32.066],[131.402,32.061],[131.398,32.054],[131.394,32.052],[131.396,32.048],[131.391,32.042],[131.391,32.035],[131.386,32.033],[131.387,32.021],[131.387,32.018],[131.389,32.015],[131.386,32.008],[131.38,32.005],[131.38,32.001],[131.376,31.997],[131.38,31.992],[131.377,31.987],[131.375,31.983],[131.375,31.977],[131.371,31.968],[131.368,31.971],[131.36,31.977],[131.356,31.978],[131.351,31.977],[131.348,31.981],[131.343,31.981],[131.339,31.979],[131.332,31.978],[131.331,31.975],[131.329,31.97],[131.327,31.965],[131.322,31.967],[131.312,31.966],[131.304,31.971],[131.299,31.975],[131.294,31.979],[131.287,31.982],[131.283,31.98],[131.277,31.983],[131.273,31.981],[131.27,31.981],[131.266,31.982],[131.257,31.978],[131.253,31.981],[131.243,31.976],[131.237,31.974],[131.233,31.975],[131.23,31.973],[131.225,31.973],[131.224,31.978],[131.221,31.983],[131.218,31.987],[131.217,31.992],[131.214,31.996],[131.197,31.988],[131.201,31.981],[131.204,31.98],[131.208,31.982],[131.209,31.978],[131.204,31.975],[131.205,31.964],[131.2,31.964],[131.193,31.951],[131.195,31.944],[131.199,31.94],[131.208,31.937],[131.206,31.933],[131.214,31.931],[131.22,31.919],[131.209,31.913],[131.203,31.917],[131.2,31.918],[131.196,31.912],[131.191,31.91],[131.189,31.9],[131.192,31.897],[131.192,31.892],[131.19,31.888],[131.19,31.881],[131.193,31.878],[131.196,31.87],[131.201,31.868],[131.207,31.863],[131.211,31.872],[131.214,31.875],[131.217,31.881],[131.229,31.88],[131.239,31.877],[131.243,31.879],[131.243,31.885],[131.248,31.888],[131.248,31.884],[131.247,31.879],[131.248,31.876],[131.254,31.877],[131.25,31.872],[131.25,31.866],[131.254,31.861],[131.249,31.857],[131.239,31.858],[131.237,31.851],[131.242,31.851],[131.241,31.841],[131.237,31.841],[131.228,31.836],[131.226,31.83],[131.222,31.829],[131.23,31.821],[131.23,31.816],[131.234,31.814],[131.238,31.808],[131.24,31.798],[131.238,31.788],[131.238,31.783],[131.241,31.778],[131.245,31.777],[131.252,31.779],[131.261,31.78],[131.264,31.781],[131.267,31.778],[131.266,31.769],[131.27,31.769],[131.282,31.766],[131.288,31.764],[131.301,31.767],[131.308,31.766],[131.31,31.771],[131.309,31.781],[131.314,31.779],[131.319,31.782],[131.326,31.781],[131.334,31.781],[131.339,31.779],[131.345,31.777],[131.348,31.774],[131.358,31.771],[131.373,31.773],[131.374,31.778],[131.38,31.779],[131.383,31.772],[131.39,31.768],[131.396,31.768],[131.398,31.762],[131.398,31.757],[131.396,31.752],[131.404,31.751],[131.41,31.749],[131.415,31.745],[131.416,31.738],[131.424,31.734],[131.427,31.732],[131.432,31.73],[131.435,31.731],[131.444,31.73],[131.448,31.728],[131.457,31.728],[131.46,31.729],[131.464,31.726],[131.464,31.721],[131.468,31.721],[131.466,31.726],[131.464,31.731],[131.463,31.734],[131.465,31.737],[131.468,31.738],[131.473,31.737],[131.471,31.744],[131.468,31.749],[131.468,31.753],[131.471,31.758],[131.477,31.758],[131.477,31.763],[131.478,31.767],[131.485,31.78],[131.489,31.785],[131.483,31.786],[131.476,31.794],[131.47,31.798],[131.472,31.803],[131.465,31.805],[131.458,31.812],[131.455,31.817],[131.452,31.835],[131.452,31.85],[131.453,31.861],[131.454,31.869],[131.457,31.874],[131.462,31.876],[131.463,31.879],[131.459,31.88],[131.457,31.883],[131.458,31.89],[131.461,31.897],[131.465,31.896],[131.467,31.905],[131.469,31.913],[131.464,31.914],[131.461,31.901],[131.458,31.906],[131.46,31.916],[131.466,31.919],[131.467,31.922],[131.472,31.923],[131.469,31.928],[131.472,31.946],[131.482,31.975],[131.497,32.021],[131.504,32.041],[131.503,32.044],[131.508,32.046],[131.503,32.047],[131.492,32.043],[131.487,32.041],[131.479,32.045],[131.473,32.047],[131.468,32.05],[131.46,32.05],[131.453,32.052],[131.449,32.055],[131.441,32.057],[131.433,32.056]]]]}},{"type":"Feature","properties":{"name":"都城市","code":"45202"},"geometry":{"type":"MultiPolygon","coordinates":[[[[131.199,31.94],[131.195,31.939],[131.189,31.942],[131.181,31.942],[131.176,31.945],[131.17,31.939],[131.164,31.94],[131.157,31.94],[131.153,31.943],[131.15,31.944],[131.142,31.942],[131.137,31.943],[131.132,31.945],[131.116,31.938],[131.113,31.936],[131.109,31.936],[131.106,31.931],[131.101,31.931],[131.099,31.937],[131.094,31.939],[131.089,31.938],[131.088,31.931],[131.092,31.93],[131.104,31.921],[131.097,31.914],[131.096,31.91],[131.088,31.912],[131.083,31.909],[131.079,31.911],[131.076,31.914],[131.072,31.914],[131.066,31.917],[131.057,31.916],[131.05,31.922],[131.04,31.93],[131.036,31.93],[131.03,31.929],[131.023,31.919],[131.026,31.915],[131.02,31.915],[131.012,31.907],[131.008,31.899],[131.002,31.893],[130.999,31.889],[131.0,31.884],[130.994,31.883],[130.984,31.881],[130.957,31.887],[130.953,31.888],[130.949,31.891],[130.937,31.886],[130.932,31.886],[130.925,31.886],[130.914,31.886],[130.907,31.885],[130.902,31.884],[130.899,31.881],[130.895,31.878],[130.893,31.872],[130.888,31.861],[130.889,31.852],[130.888,31.848],[130.884,31.846],[130.876,31.844],[130.879,31.839],[130.882,31.834],[130.882,31.83],[130.878,31.829],[130.877,31.821],[130.877,31.816],[130.88,31.815],[130.883,31.807],[130.891,31.806],[130.895,31.804],[130.898,31.804],[130.909,31.801],[130.915,31.805],[130.918,31.799],[130.926,31.794],[130.925,31.791],[130.93,31.786],[130.942,31.785],[130.957,31.783],[130.961,31.782],[130.967,31.782],[130.971,31.785],[130.977,31.782],[130.98,31.779],[130.987,31.78],[130.991,31.777],[130.992,31.771],[130.988,31.765],[130.983,31.767],[130.982,31.763],[130.979,31.762],[130.979,31.752],[130.984,31.752],[130.991,31.751],[130.995,31.747],[130.998,31.746],[131.002,31.748],[131.007,31.749],[131.015,31.749],[131.018,31.745],[131.016,31.742],[131.017,31.737],[131.016,31.734],[131.018,31.724],[131.016,31.717],[131.013,31.713],[131.017,31.71],[131.018,31.705],[131.029,31.697],[131.024,31.692],[131.026,31.688],[131.024,31.685],[131.024,31.674],[131.028,31.669],[131.031,31.663],[131.037,31.662],[131.046,31.652],[131.048,31.646],[131.048,31.642],[131.052,31.64],[131.054,31.633],[131.057,31.634],[131.058,31.638],[131.065,31.647],[131.069,31.65],[131.073,31.658],[131.079,31.66],[131.083,31.656],[131.089,31.654],[131.093,31.649],[131.101,31.645],[131.108,31.638],[131.113,31.635],[131.115,31.631],[131.122,31.63],[131.128,31.626],[131.139,31.628],[131.142,31.63],[131.148,31.631],[131.151,31.633],[131.156,31.634],[131.159,31.637],[131.163,31.636],[131.169,31.637],[131.17,31.633],[131.179,31.63],[131.18,31.626],[131.188,31.625],[131.194,31.62],[131.197,31.628],[131.198,31.633],[131.202,31.635],[131.2,31.639],[131.197,31.644],[131.191,31.645],[131.181,31.651],[131.18,31.656],[131.176,31.659],[131.17,31.665],[131.168,31.669],[131.16,31.671],[131.145,31.668],[131.138,31.673],[131.134,31.677],[131.131,31.675],[131.127,31.677],[131.125,31.686],[131.122,31.69],[131.118,31.692],[131.115,31.699],[131.109,31.701],[131.104,31.704],[131.102,31.707],[131.096,31.711],[131.1,31.727],[131.104,31.728],[131.105,31.731],[131.101,31.732],[131.103,31.746],[131.108,31.751],[131.103,31.761],[131.111,31.772],[131.12,31.771],[131.127,31.774],[131.127,31.77],[131.136,31.762],[131.137,31.756],[131.142,31.755],[131.147,31.751],[131.149,31.74],[131.157,31.737],[131.163,31.738],[131.171,31.736],[131.176,31.739],[131.177,31.746],[131.182,31.751],[131.184,31.755],[131.188,31.756],[131.191,31.76],[131.198,31.759],[131.205,31.761],[131.205,31.766],[131.208,31.77],[131.211,31.769],[131.214,31.772],[131.214,31.775],[131.219,31.78],[131.22,31.783],[131.224,31.784],[131.229,31.788],[131.232,31.793],[131.234,31.797],[131.24,31.798],[131.238,31.808],[131.234,31.814],[131.23,31.816],[131.23,31.821],[131.222,31.829],[131.226,31.83],[131.228,31.836],[131.237,31.841],[131.241,31.841],[131.242,31.851],[131.237,31.851],[131.239,31.858],[131.249,31.857],[131.254,31.861],[131.25,31.866],[131.25,31.872],[131.254,31.877],[131.248,31.876],[131.247,31.879],[131.248,31.884],[131.248,31.888],[131.243,31.885],[131.243,31.879],[131.239,31.877],[131.229,31.88],[131.217,31.881],[131.214,31.875],[131.211,31.872],[131.208,31.865],[131.201,31.868],[131.196,31.87],[131.193,31.878],[131.19,31.881],[131.19,31.888],[131.192,31.892],[131.192,31.897],[131.189,31.9],[131.191,31.91],[131.196,31.912],[131.197,31.916],[131.203,31.917],[131.209,31.913],[131.22,31.919],[131.216,31.929],[131.208,31.931],[131.208,31.937],[131.202,31.94]]]]}},{"type":"Feature","properties":{"name":"延岡市","code":"45203"},"geometry":{"type":"MultiPolygon","coordinates":[[[[131.818,32.674],[131.812,32.67],[131.811,32.665],[131.812,32.658],[131.824,32.657],[131.828,32.657],[131.829,32.662],[131.837,32.666],[131.836,32.671],[131.829,32.668],[131.822,32.669],[131.819,32.671],[131.818,32.674]]],[[[131.728,32.497],[131.726,32.5],[131.721,32.502],[131.713,32.501],[131.712,32.51],[131.712,32.515],[131.705,32.516],[131.698,32.515],[131.701,32.511],[131.701,32.508],[131.697,32.508],[131.692,32.508],[131.685,32.509],[131.683,32.513],[131.684,32.516],[131.686,32.522],[131.686,32.528],[131.683,32.532],[131.682,32.54],[131.685,32.551],[131.689,32.56],[131.695,32.569],[131.703,32.581],[131.707,32.585],[131.713,32.59],[131.72,32.59],[131.732,32.592],[131.742,32.592],[131.744,32.597],[131.748,32.601],[131.754,32.602],[131.753,32.609],[131.758,32.61],[131.764,32.616],[131.761,32.62],[131.765,32.628],[131.768,32.629],[131.769,32.633],[131.773,32.634],[131.774,32.641],[131.766,32.641],[131.759,32.64],[131.76,32.636],[131.757,32.644],[131.763,32.642],[131.764,32.645],[131.767,32.647],[131.763,32.654],[131.763,32.659],[131.767,32.66],[131.772,32.66],[131.772,32.666],[131.778,32.671],[131.785,32.675],[131.786,32.664],[131.789,32.662],[131.791,32.672],[131.793,32.678],[131.802,32.684],[131.811,32.687],[131.815,32.687],[131.816,32.693],[131.815,32.697],[131.821,32.697],[131.817,32.703],[131.827,32.707],[131.832,32.7],[131.838,32.698],[131.839,32.693],[131.843,32.69],[131.849,32.696],[131.853,32.697],[131.854,32.703],[131.848,32.704],[131.846,32.708],[131.847,32.714],[131.85,32.722],[131.855,32.722],[131.858,32.719],[131.864,32.719],[131.865,32.723],[131.861,32.723],[131.858,32.729],[131.859,32.733],[131.87,32.735],[131.876,32.734],[131.877,32.739],[131.874,32.74],[131.861,32.74],[131.858,32.738],[131.847,32.736],[131.847,32.742],[131.844,32.748],[131.847,32.751],[131.85,32.756],[131.848,32.76],[131.849,32.765],[131.846,32.774],[131.844,32.777],[131.849,32.783],[131.85,32.789],[131.854,32.796],[131.86,32.806],[131.859,32.816],[131.859,32.821],[131.855,32.823],[131.848,32.818],[131.841,32.82],[131.834,32.82],[131.832,32.824],[131.826,32.826],[131.825,32.83],[131.82,32.828],[131.814,32.826],[131.807,32.822],[131.798,32.825],[131.794,32.822],[131.788,32.828],[131.787,32.834],[131.783,32.834],[131.777,32.836],[131.769,32.837],[131.754,32.836],[131.747,32.833],[131.741,32.834],[131.736,32.831],[131.737,32.826],[131.735,32.818],[131.731,32.816],[131.729,32.805],[131.728,32.797],[131.718,32.791],[131.715,32.785],[131.715,32.78],[131.712,32.774],[131.707,32.772],[131.7,32.773],[131.696,32.775],[131.691,32.772],[131.679,32.77],[131.669,32.768],[131.661,32.769],[131.648,32.772],[131.641,32.77],[131.633,32.772],[131.625,32.775],[131.618,32.773],[131.605,32.774],[131.601,32.772],[131.597,32.775],[131.59,32.774],[131.588,32.77],[131.582,32.765],[131.579,32.761],[131.569,32.754],[131.565,32.756],[131.556,32.755],[131.547,32.758],[131.536,32.759],[131.533,32.763],[131.524,32.764],[131.518,32.768],[131.512,32.77],[131.508,32.774],[131.504,32.773],[131.5,32.774],[131.496,32.773],[131.492,32.774],[131.488,32.771],[131.488,32.767],[131.483,32.763],[131.482,32.76],[131.489,32.757],[131.488,32.751],[131.488,32.742],[131.481,32.738],[131.484,32.73],[131.484,32.724],[131.483,32.718],[131.48,32.714],[131.48,32.71],[131.476,32.705],[131.466,32.702],[131.462,32.697],[131.457,32.695],[131.453,32.692],[131.452,32.684],[131.447,32.678],[131.448,32.672],[131.44,32.668],[131.44,32.664],[131.434,32.662],[131.44,32.655],[131.439,32.651],[131.437,32.643],[131.441,32.64],[131.436,32.638],[131.435,32.634],[131.449,32.627],[131.45,32.623],[131.45,32.619],[131.452,32.614],[131.449,32.602],[131.45,32.598],[131.446,32.594],[131.448,32.587],[131.443,32.577],[131.44,32.569],[131.436,32.566],[131.429,32.56],[131.43,32.556],[131.437,32.557],[131.442,32.559],[131.457,32.557],[131.464,32.559],[131.467,32.564],[131.473,32.567],[131.478,32.567],[131.486,32.565],[131.496,32.559],[131.499,32.559],[131.505,32.557],[131.51,32.551],[131.513,32.551],[131.515,32.546],[131.519,32.545],[131.527,32.54],[131.533,32.542],[131.545,32.538],[131.548,32.536],[131.552,32.538],[131.556,32.537],[131.563,32.539],[131.566,32.545],[131.571,32.544],[131.575,32.548],[131.579,32.546],[131.582,32.546],[131.584,32.543],[131.581,32.54],[131.582,32.536],[131.589,32.532],[131.592,32.526],[131.597,32.528],[131.604,32.532],[131.61,32.531],[131.613,32.527],[131.613,32.52],[131.615,32.517],[131.628,32.52],[131.634,32.52],[131.643,32.519],[131.645,32.516],[131.649,32.516],[131.652,32.511],[131.657,32.512],[131.664,32.508],[131.665,32.502],[131.669,32.499],[131.678,32.497],[131.68,32.493],[131.684,32.49],[131.691,32.494],[131.696,32.496],[131.701,32.495],[131.708,32.498],[131.713,32.498],[131.721,32.497],[131.728,32.497]]]]}},{"type":"Feature","properties":{"name":"日南市","code":"45204"},"geometry":{"type":"MultiPolygon","coordinates":[[[[131.411,31.542],[131.409,31.538],[131.403,31.53],[131.407,31.526],[131.41,31.519],[131.416,31.517],[131.416,31.523],[131.413,31.527],[131.416,31.532],[131.412,31.538],[131.414,31.541],[131.411,31.542]]],[[[131.27,31.769],[131.267,31.764],[131.269,31.755],[131.263,31.749],[131.262,31.745],[131.26,31.736],[131.257,31.735],[131.252,31.735],[131.248,31.733],[131.24,31.733],[131.238,31.728],[131.235,31.726],[131.235,31.723],[131.232,31.716],[131.218,31.714],[131.214,31.716],[131.211,31.715],[131.214,31.711],[131.206,31.706],[131.198,31.704],[131.191,31.699],[131.185,31.699],[131.175,31.692],[131.174,31.689],[131.169,31.686],[131.166,31.679],[131.162,31.675],[131.16,31.671],[131.168,31.669],[131.17,31.665],[131.176,31.659],[131.18,31.656],[131.181,31.651],[131.191,31.645],[131.197,31.644],[131.2,31.639],[131.205,31.637],[131.214,31.634],[131.216,31.626],[131.225,31.622],[131.234,31.627],[131.238,31.626],[131.242,31.624],[131.247,31.623],[131.25,31.618],[131.258,31.613],[131.259,31.608],[131.258,31.601],[131.254,31.595],[131.256,31.59],[131.255,31.586],[131.259,31.582],[131.259,31.579],[131.266,31.578],[131.271,31.576],[131.27,31.571],[131.274,31.568],[131.271,31.563],[131.267,31.561],[131.27,31.553],[131.276,31.551],[131.278,31.546],[131.282,31.541],[131.278,31.538],[131.282,31.535],[131.284,31.531],[131.29,31.53],[131.288,31.523],[131.288,31.511],[131.293,31.509],[131.297,31.506],[131.296,31.502],[131.3,31.497],[131.301,31.494],[131.307,31.496],[131.314,31.496],[131.323,31.501],[131.327,31.502],[131.33,31.498],[131.33,31.495],[131.34,31.494],[131.349,31.49],[131.357,31.491],[131.364,31.494],[131.371,31.491],[131.379,31.491],[131.383,31.494],[131.387,31.498],[131.385,31.503],[131.374,31.506],[131.373,31.509],[131.377,31.512],[131.373,31.518],[131.379,31.519],[131.379,31.515],[131.385,31.519],[131.384,31.524],[131.381,31.526],[131.382,31.531],[131.385,31.541],[131.382,31.545],[131.381,31.553],[131.384,31.558],[131.388,31.56],[131.393,31.557],[131.398,31.559],[131.392,31.562],[131.397,31.566],[131.399,31.573],[131.399,31.579],[131.402,31.582],[131.407,31.582],[131.408,31.577],[131.406,31.573],[131.407,31.568],[131.412,31.57],[131.411,31.578],[131.412,31.583],[131.409,31.588],[131.415,31.6],[131.423,31.609],[131.426,31.61],[131.432,31.611],[131.436,31.615],[131.441,31.615],[131.446,31.617],[131.449,31.62],[131.452,31.624],[131.457,31.625],[131.458,31.63],[131.462,31.633],[131.459,31.636],[131.453,31.638],[131.456,31.641],[131.458,31.647],[131.462,31.647],[131.469,31.645],[131.467,31.65],[131.463,31.653],[131.462,31.657],[131.463,31.663],[131.461,31.669],[131.457,31.668],[131.452,31.67],[131.452,31.674],[131.454,31.677],[131.45,31.679],[131.457,31.682],[131.468,31.687],[131.466,31.692],[131.459,31.693],[131.456,31.698],[131.46,31.701],[131.459,31.707],[131.462,31.715],[131.468,31.721],[131.464,31.721],[131.464,31.726],[131.46,31.729],[131.457,31.728],[131.448,31.728],[131.444,31.73],[131.435,31.731],[131.432,31.73],[131.427,31.732],[131.424,31.734],[131.416,31.738],[131.415,31.745],[131.41,31.749],[131.404,31.751],[131.397,31.751],[131.398,31.757],[131.398,31.762],[131.396,31.768],[131.39,31.768],[131.383,31.772],[131.38,31.779],[131.374,31.778],[131.373,31.773],[131.359,31.773],[131.348,31.774],[131.345,31.777],[131.339,31.779],[131.337,31.782],[131.326,31.781],[131.319,31.782],[131.314,31.779],[131.309,31.781],[131.31,31.771],[131.308,31.766],[131.301,31.767],[131.288,31.764],[131.282,31.766],[131.27,31.769]]]]}},{"type":"Feature","properties":{"name":"小林市","code":"45205"},"geometry":{"type":"MultiPolygon","coordinates":[[[[131.197,31.988],[131.192,31.988],[131.187,31.99],[131.179,31.991],[131.175,31.995],[131.174,31.99],[131.17,31.991],[131.166,31.994],[131.164,32.004],[131.164,32.008],[131.159,32.013],[131.153,32.018],[131.151,32.025],[131.158,32.027],[131.156,32.035],[131.158,32.04],[131.157,32.043],[131.167,32.052],[131.166,32.065],[131.16,32.071],[131.184,32.085],[131.184,32.089],[131.181,32.094],[131.177,32.097],[131.179,32.103],[131.18,32.109],[131.176,32.111],[131.176,32.116],[131.173,32.126],[131.17,32.129],[131.167,32.131],[131.168,32.136],[131.16,32.138],[131.156,32.137],[131.154,32.133],[131.15,32.132],[131.15,32.136],[131.143,32.138],[131.134,32.137],[131.133,32.143],[131.13,32.147],[131.126,32.145],[131.121,32.145],[131.118,32.149],[131.114,32.151],[131.112,32.16],[131.102,32.158],[131.096,32.152],[131.083,32.155],[131.077,32.158],[131.07,32.16],[131.06,32.156],[131.052,32.158],[131.049,32.163],[131.045,32.161],[131.038,32.17],[131.026,32.171],[131.023,32.169],[131.019,32.17],[131.013,32.174],[131.01,32.173],[131.004,32.17],[130.998,32.161],[130.994,32.158],[130.996,32.152],[130.993,32.148],[130.986,32.143],[130.975,32.137],[130.973,32.128],[130.975,32.121],[130.968,32.12],[130.961,32.12],[130.956,32.116],[130.955,32.109],[130.956,32.106],[130.961,32.101],[130.96,32.096],[130.964,32.087],[130.973,32.083],[130.966,32.081],[130.964,32.078],[130.959,32.074],[130.954,32.072],[130.952,32.065],[130.947,32.062],[130.945,32.058],[130.945,32.05],[130.941,32.048],[130.933,32.046],[130.93,32.041],[130.922,32.036],[130.914,32.038],[130.91,32.038],[130.907,32.037],[130.9,32.038],[130.889,32.036],[130.883,32.031],[130.878,32.025],[130.884,32.017],[130.881,32.012],[130.879,31.999],[130.878,31.992],[130.883,31.992],[130.889,31.991],[130.893,31.981],[130.893,31.975],[130.891,31.971],[130.88,31.968],[130.875,31.964],[130.871,31.947],[130.865,31.942],[130.861,31.934],[130.866,31.934],[130.87,31.93],[130.873,31.928],[130.878,31.922],[130.882,31.921],[130.883,31.915],[130.886,31.913],[130.886,31.91],[130.888,31.906],[130.898,31.889],[130.901,31.886],[130.905,31.887],[130.911,31.888],[130.912,31.9],[130.913,31.904],[130.913,31.909],[130.916,31.91],[130.917,31.916],[130.922,31.921],[130.928,31.922],[130.939,31.925],[130.944,31.927],[130.949,31.935],[130.956,31.933],[130.961,31.934],[130.963,31.931],[130.968,31.932],[130.971,31.937],[130.969,31.945],[130.966,31.95],[130.966,31.955],[130.969,31.959],[130.976,31.967],[130.981,31.976],[130.987,31.973],[130.989,31.966],[130.997,31.962],[130.998,31.954],[131.002,31.953],[131.005,31.949],[131.01,31.947],[131.012,31.944],[131.015,31.948],[131.016,31.952],[131.021,31.95],[131.026,31.952],[131.032,31.956],[131.037,31.954],[131.045,31.955],[131.046,31.958],[131.052,31.959],[131.057,31.959],[131.062,31.954],[131.071,31.952],[131.075,31.949],[131.081,31.943],[131.082,31.938],[131.089,31.938],[131.094,31.939],[131.099,31.937],[131.101,31.931],[131.106,31.931],[131.109,31.936],[131.113,31.936],[131.116,31.938],[131.132,31.945],[131.137,31.943],[131.142,31.942],[131.15,31.944],[131.153,31.943],[131.157,31.94],[131.164,31.94],[131.17,31.939],[131.174,31.944],[131.181,31.942],[131.189,31.942],[131.195,31.939],[131.199,31.94],[131.195,31.944],[131.193,31.949],[131.2,31.964],[131.205,31.964],[131.206,31.973],[131.209,31.978],[131.208,31.982],[131.204,31.98],[131.201,31.981],[131.197,31.988]]]]}},{"type":"Feature","properties":{"name":"日向市","code":"45206"},"geometry":{"type":"MultiPolygon","coordinates":[[[[131.651,32.458],[131.643,32.457],[131.634,32.458],[131.63,32.457],[131.621,32.465],[131.615,32.462],[131.609,32.461],[131.603,32.467],[131.603,32.471],[131.592,32.474],[131.586,32.472],[131.585,32.467],[131.581,32.467],[131.579,32.459],[131.573,32.453],[131.569,32.45],[131.565,32.444],[131.558,32.446],[131.551,32.445],[131.543,32.442],[131.538,32.437],[131.537,32.441],[131.525,32.444],[131.52,32.449],[131.517,32.45],[131.513,32.448],[131.506,32.456],[131.502,32.455],[131.497,32.455],[131.489,32.454],[131.484,32.452],[131.48,32.453],[131.476,32.45],[131.475,32.443],[131.483,32.44],[131.48,32.436],[131.483,32.428],[131.481,32.424],[131.484,32.416],[131.478,32.413],[131.477,32.406],[131.472,32.402],[131.462,32.399],[131.456,32.401],[131.452,32.399],[131.447,32.393],[131.44,32.392],[131.436,32.393],[131.428,32.389],[131.421,32.391],[131.412,32.39],[131.406,32.39],[131.403,32.386],[131.403,32.382],[131.397,32.371],[131.397,32.365],[131.389,32.364],[131.382,32.36],[131.381,32.356],[131.371,32.356],[131.369,32.36],[131.362,32.362],[131.358,32.366],[131.351,32.367],[131.349,32.362],[131.344,32.359],[131.345,32.355],[131.342,32.351],[131.34,32.344],[131.34,32.338],[131.342,32.329],[131.349,32.332],[131.358,32.328],[131.362,32.324],[131.37,32.322],[131.369,32.316],[131.363,32.315],[131.363,32.309],[131.373,32.313],[131.378,32.313],[131.393,32.313],[131.396,32.314],[131.405,32.312],[131.41,32.309],[131.425,32.306],[131.433,32.31],[131.442,32.312],[131.446,32.314],[131.459,32.309],[131.463,32.311],[131.466,32.316],[131.471,32.319],[131.475,32.317],[131.484,32.309],[131.483,32.302],[131.486,32.298],[131.49,32.3],[131.493,32.3],[131.494,32.296],[131.499,32.296],[131.515,32.306],[131.518,32.307],[131.521,32.311],[131.527,32.314],[131.529,32.319],[131.538,32.319],[131.549,32.323],[131.555,32.323],[131.557,32.317],[131.56,32.313],[131.558,32.305],[131.561,32.305],[131.564,32.3],[131.572,32.296],[131.575,32.3],[131.577,32.305],[131.58,32.309],[131.588,32.305],[131.592,32.306],[131.598,32.318],[131.604,32.326],[131.61,32.329],[131.612,32.334],[131.615,32.336],[131.615,32.34],[131.619,32.338],[131.623,32.341],[131.626,32.341],[131.628,32.344],[131.628,32.35],[131.622,32.356],[131.623,32.359],[131.627,32.366],[131.636,32.371],[131.632,32.377],[131.633,32.381],[131.637,32.39],[131.639,32.394],[131.646,32.409],[131.65,32.411],[131.658,32.413],[131.665,32.411],[131.673,32.417],[131.684,32.418],[131.687,32.422],[131.684,32.427],[131.675,32.422],[131.671,32.428],[131.667,32.427],[131.664,32.428],[131.655,32.427],[131.663,32.431],[131.668,32.432],[131.677,32.43],[131.681,32.433],[131.68,32.441],[131.676,32.443],[131.662,32.437],[131.666,32.443],[131.667,32.448],[131.664,32.449],[131.652,32.44],[131.651,32.435],[131.644,32.438],[131.65,32.441],[131.657,32.447],[131.652,32.452],[131.655,32.456],[131.651,32.458]]]]}},{"type":"Feature","properties":{"name":"串間市","code":"45207"},"geometry":{"type":"MultiPolygon","coordinates":[[[[131.379,31.457],[131.374,31.455],[131.372,31.451],[131.378,31.449],[131.379,31.455]]],[[[131.189,31.622],[131.189,31.619],[131.185,31.61],[131.187,31.604],[131.192,31.599],[131.197,31.595],[131.198,31.591],[131.205,31.58],[131.202,31.567],[131.2,31.564],[131.196,31.563],[131.189,31.557],[131.195,31.552],[131.196,31.547],[131.199,31.541],[131.201,31.531],[131.2,31.523],[131.201,31.518],[131.197,31.512],[131.193,31.51],[131.184,31.507],[131.179,31.506],[131.175,31.502],[131.172,31.502],[131.169,31.497],[131.166,31.489],[131.163,31.484],[131.164,31.481],[131.164,31.474],[131.16,31.46],[131.168,31.458],[131.17,31.452],[131.177,31.45],[131.177,31.453],[131.182,31.456],[131.187,31.457],[131.196,31.456],[131.207,31.453],[131.205,31.448],[131.21,31.448],[131.21,31.444],[131.219,31.441],[131.226,31.432],[131.229,31.424],[131.235,31.43],[131.24,31.429],[131.245,31.421],[131.24,31.418],[131.237,31.408],[131.239,31.403],[131.24,31.397],[131.243,31.39],[131.246,31.386],[131.25,31.384],[131.254,31.381],[131.26,31.381],[131.276,31.382],[131.282,31.381],[131.289,31.385],[131.291,31.389],[131.295,31.389],[131.297,31.385],[131.301,31.386],[131.309,31.391],[131.315,31.386],[131.316,31.373],[131.318,31.369],[131.323,31.365],[131.328,31.364],[131.336,31.361],[131.342,31.361],[131.346,31.363],[131.35,31.371],[131.345,31.377],[131.336,31.38],[131.332,31.389],[131.334,31.398],[131.343,31.399],[131.342,31.403],[131.342,31.411],[131.347,31.415],[131.353,31.415],[131.357,31.419],[131.365,31.421],[131.366,31.424],[131.371,31.428],[131.373,31.436],[131.371,31.445],[131.37,31.451],[131.365,31.455],[131.362,31.465],[131.363,31.472],[131.374,31.477],[131.385,31.48],[131.389,31.486],[131.388,31.491],[131.384,31.49],[131.383,31.494],[131.379,31.491],[131.371,31.491],[131.365,31.492],[131.357,31.491],[131.349,31.49],[131.34,31.494],[131.33,31.495],[131.33,31.498],[131.327,31.502],[131.323,31.501],[131.317,31.494],[131.307,31.496],[131.301,31.494],[131.3,31.497],[131.296,31.502],[131.297,31.506],[131.293,31.509],[131.288,31.511],[131.289,31.52],[131.291,31.528],[131.284,31.531],[131.282,31.535],[131.278,31.538],[131.282,31.541],[131.278,31.546],[131.279,31.551],[131.273,31.554],[131.266,31.559],[131.271,31.563],[131.274,31.568],[131.27,31.571],[131.271,31.576],[131.266,31.578],[131.262,31.577],[131.259,31.582],[131.255,31.586],[131.256,31.59],[131.254,31.595],[131.258,31.601],[131.259,31.608],[131.258,31.613],[131.25,31.618],[131.247,31.623],[131.242,31.624],[131.238,31.626],[131.234,31.627],[131.225,31.622],[131.216,31.626],[131.216,31.631],[131.205,31.637],[131.198,31.633],[131.197,31.628],[131.194,31.62],[131.189,31.622]]]]}},{"type":"Feature","properties":{"name":"東臼杵郡門川町","code":"45421"},"geometry":{"type":"MultiPolygon","coordinates":[[[[131.527,32.54],[131.523,32.535],[131.528,32.531],[131.531,32.526],[131.533,32.52],[131.531,32.515],[131.524,32.506],[131.526,32.502],[131.525,32.499],[131.528,32.497],[131.526,32.491],[131.512,32.487],[131.509,32.479],[131.513,32.472],[131.509,32.468],[131.512,32.459],[131.506,32.456],[131.513,32.448],[131.517,32.45],[131.52,32.449],[131.525,32.444],[131.535,32.444],[131.538,32.437],[131.543,32.442],[131.551,32.445],[131.558,32.446],[131.565,32.444],[131.569,32.45],[131.573,32.453],[131.576,32.458],[131.578,32.465],[131.585,32.467],[131.586,32.472],[131.59,32.476],[131.603,32.471],[131.603,32.467],[131.609,32.461],[131.615,32.462],[131.621,32.465],[131.629,32.46],[131.634,32.458],[131.643,32.457],[131.651,32.458],[131.651,32.463],[131.652,32.467],[131.658,32.469],[131.656,32.473],[131.657,32.48],[131.66,32.484],[131.67,32.481],[131.674,32.48],[131.678,32.483],[131.68,32.479],[131.677,32.475],[131.685,32.471],[131.688,32.469],[131.693,32.47],[131.704,32.477],[131.708,32.477],[131.711,32.482],[131.716,32.482],[131.717,32.489],[131.724,32.489],[131.726,32.495],[131.721,32.497],[131.716,32.495],[131.708,32.498],[131.701,32.495],[131.696,32.496],[131.691,32.494],[131.684,32.49],[131.68,32.493],[131.678,32.497],[131.669,32.499],[131.665,32.502],[131.666,32.505],[131.657,32.512],[131.652,32.511],[131.649,32.516],[131.645,32.516],[131.643,32.519],[131.634,32.52],[131.63,32.522],[131.615,32.517],[131.613,32.52],[131.613,32.527],[131.61,32.531],[131.605,32.534],[131.597,32.528],[131.592,32.526],[131.589,32.53],[131.585,32.535],[131.581,32.54],[131.584,32.543],[131.582,32.546],[131.579,32.546],[131.575,32.548],[131.571,32.544],[131.566,32.545],[131.563,32.539],[131.556,32.537],[131.552,32.538],[131.548,32.536],[131.545,32.538],[131.536,32.54],[131.529,32.543]]]]}},{"type":"Feature","properties":{"name":"西都市","code":"45208"},"geometry":{"type":"MultiPolygon","coordinates":[[[[131.433,32.056],[131.428,32.059],[131.422,32.062],[131.424,32.065],[131.42,32.069],[131.413,32.071],[131.418,32.076],[131.422,32.083],[131.417,32.089],[131.413,32.087],[131.409,32.08],[131.411,32.088],[131.415,32.094],[131.42,32.1],[131.425,32.108],[131.43,32.11],[131.438,32.118],[131.442,32.122],[131.443,32.128],[131.445,32.135],[131.449,32.138],[131.45,32.141],[131.433,32.146],[131.426,32.152],[131.421,32.161],[131.415,32.164],[131.415,32.17],[131.413,32.177],[131.41,32.178],[131.41,32.182],[131.405,32.184],[131.403,32.188],[131.399,32.19],[131.4,32.196],[131.395,32.201],[131.395,32.207],[131.387,32.215],[131.382,32.222],[131.377,32.226],[131.372,32.232],[131.367,32.234],[131.365,32.237],[131.361,32.239],[131.358,32.243],[131.358,32.247],[131.354,32.255],[131.35,32.258],[131.35,32.263],[131.355,32.263],[131.358,32.266],[131.356,32.271],[131.347,32.277],[131.341,32.278],[131.337,32.28],[131.328,32.276],[131.318,32.284],[131.314,32.284],[131.31,32.293],[131.305,32.298],[131.302,32.298],[131.297,32.302],[131.287,32.309],[131.28,32.31],[131.273,32.312],[131.27,32.315],[131.263,32.316],[131.256,32.322],[131.256,32.326],[131.249,32.329],[131.242,32.327],[131.235,32.329],[131.228,32.324],[131.224,32.324],[131.211,32.33],[131.204,32.337],[131.199,32.34],[131.19,32.341],[131.185,32.334],[131.183,32.329],[131.176,32.325],[131.177,32.319],[131.175,32.31],[131.184,32.309],[131.187,32.307],[131.191,32.309],[131.197,32.305],[131.199,32.3],[131.203,32.298],[131.202,32.294],[131.213,32.284],[131.218,32.282],[131.22,32.278],[131.225,32.274],[131.224,32.267],[131.221,32.26],[131.227,32.253],[131.23,32.251],[131.231,32.247],[131.237,32.24],[131.24,32.234],[131.24,32.23],[131.243,32.227],[131.248,32.218],[131.253,32.213],[131.261,32.213],[131.267,32.211],[131.277,32.213],[131.28,32.21],[131.277,32.204],[131.273,32.204],[131.268,32.201],[131.269,32.197],[131.277,32.19],[131.282,32.182],[131.277,32.179],[131.273,32.181],[131.268,32.18],[131.266,32.174],[131.256,32.166],[131.246,32.169],[131.239,32.166],[131.233,32.168],[131.226,32.171],[131.222,32.171],[131.219,32.167],[131.216,32.167],[131.214,32.159],[131.211,32.156],[131.211,32.15],[131.203,32.15],[131.197,32.151],[131.194,32.15],[131.191,32.146],[131.189,32.14],[131.193,32.132],[131.198,32.131],[131.199,32.125],[131.205,32.122],[131.21,32.125],[131.218,32.124],[131.226,32.116],[131.229,32.111],[131.234,32.106],[131.234,32.103],[131.242,32.1],[131.246,32.098],[131.267,32.099],[131.273,32.091],[131.273,32.086],[131.276,32.082],[131.285,32.075],[131.29,32.072],[131.296,32.069],[131.307,32.063],[131.312,32.061],[131.315,32.065],[131.319,32.061],[131.322,32.053],[131.33,32.046],[131.333,32.038],[131.339,32.033],[131.345,32.029],[131.35,32.027],[131.359,32.028],[131.365,32.025],[131.374,32.019],[131.382,32.02],[131.387,32.018],[131.387,32.021],[131.386,32.033],[131.391,32.035],[131.392,32.04],[131.396,32.048],[131.394,32.052],[131.398,32.054],[131.402,32.061],[131.403,32.066],[131.407,32.066],[131.411,32.063],[131.417,32.062],[131.421,32.058],[131.422,32.055],[131.425,32.052],[131.433,32.053]]]]}},{"type":"Feature","properties":{"name":"えびの市","code":"45209"},"geometry":{"type":"MultiPolygon","coordinates":[[[[130.953,32.115],[130.949,32.116],[130.944,32.12],[130.939,32.119],[130.933,32.116],[130.928,32.12],[130.921,32.125],[130.916,32.125],[130.913,32.13],[130.906,32.134],[130.901,32.132],[130.897,32.126],[130.888,32.123],[130.878,32.121],[130.876,32.117],[130.869,32.115],[130.867,32.112],[130.866,32.108],[130.862,32.102],[130.857,32.1],[130.849,32.104],[130.844,32.104],[130.839,32.107],[130.834,32.105],[130.823,32.1],[130.821,32.095],[130.808,32.099],[130.789,32.099],[130.783,32.1],[130.779,32.099],[130.775,32.102],[130.767,32.102],[130.759,32.097],[130.756,32.099],[130.754,32.103],[130.745,32.102],[130.742,32.098],[130.739,32.101],[130.74,32.105],[130.737,32.108],[130.733,32.108],[130.728,32.102],[130.721,32.101],[130.718,32.095],[130.716,32.086],[130.712,32.082],[130.706,32.08],[130.703,32.059],[130.736,32.048],[130.743,32.042],[130.746,32.042],[130.747,32.036],[130.753,32.033],[130.758,32.033],[130.759,32.03],[130.762,32.027],[130.769,32.02],[130.777,32.016],[130.779,31.998],[130.781,31.992],[130.782,31.983],[130.784,31.979],[130.791,31.975],[130.795,31.973],[130.796,31.966],[130.801,31.961],[130.8,31.957],[130.8,31.95],[130.805,31.95],[130.812,31.945],[130.818,31.941],[130.826,31.942],[130.837,31.942],[130.841,31.943],[130.845,31.94],[130.857,31.938],[130.861,31.934],[130.865,31.942],[130.871,31.947],[130.875,31.964],[130.88,31.968],[130.891,31.971],[130.893,31.975],[130.893,31.981],[130.889,31.991],[130.883,31.992],[130.878,31.992],[130.879,31.999],[130.881,32.012],[130.884,32.017],[130.878,32.025],[130.883,32.029],[130.889,32.036],[130.9,32.038],[130.907,32.037],[130.91,32.038],[130.914,32.038],[130.921,32.034],[130.93,32.041],[130.933,32.046],[130.941,32.048],[130.945,32.05],[130.945,32.058],[130.947,32.062],[130.952,32.065],[130.952,32.069],[130.959,32.074],[130.964,32.078],[130.966,32.081],[130.971,32.081],[130.964,32.087],[130.962,32.094],[130.961,32.101],[130.956,32.106],[130.955,32.109],[130.953,32.115]]]]}},{"type":"Feature","properties":{"name":"北諸県郡三股町","code":"45341"},"geometry":{"type":"MultiPolygon","coordinates":[[[[131.24,31.798],[131.234,31.797],[131.232,31.793],[131.229,31.788],[131.226,31.782],[131.22,31.783],[131.219,31.78],[131.214,31.775],[131.214,31.772],[131.211,31.769],[131.208,31.77],[131.205,31.766],[131.205,31.761],[131.198,31.759],[131.191,31.76],[131.188,31.756],[131.184,31.755],[131.182,31.751],[131.177,31.746],[131.176,31.739],[131.171,31.736],[131.163,31.738],[131.157,31.737],[131.149,31.74],[131.147,31.751],[131.142,31.755],[131.137,31.756],[131.135,31.76],[131.127,31.77],[131.127,31.774],[131.12,31.771],[131.111,31.772],[131.103,31.761],[131.108,31.751],[131.103,31.746],[131.101,31.735],[131.105,31.731],[131.104,31.728],[131.1,31.727],[131.097,31.713],[131.102,31.707],[131.104,31.704],[131.109,31.701],[131.115,31.699],[131.119,31.694],[131.122,31.69],[131.125,31.686],[131.127,31.677],[131.131,31.675],[131.134,31.677],[131.138,31.673],[131.145,31.668],[131.158,31.669],[131.162,31.675],[131.166,31.679],[131.169,31.686],[131.174,31.689],[131.175,31.692],[131.185,31.699],[131.191,31.699],[131.198,31.704],[131.203,31.704],[131.214,31.711],[131.211,31.715],[131.214,31.716],[131.218,31.714],[131.229,31.714],[131.235,31.723],[131.235,31.726],[131.238,31.728],[131.237,31.731],[131.248,31.733],[131.252,31.735],[131.257,31.735],[131.26,31.736],[131.262,31.745],[131.263,31.749],[131.269,31.755],[131.267,31.764],[131.27,31.769],[131.266,31.769],[131.265,31.776],[131.264,31.781],[131.261,31.78],[131.254,31.776],[131.245,31.777],[131.241,31.778],[131.238,31.783],[131.238,31.788],[131.241,31.795]]]]}},{"type":"Feature","properties":{"name":"西諸県郡高原町","code":"45361"},"geometry":{"type":"MultiPolygon","coordinates":[[[[131.089,31.938],[131.082,31.938],[131.081,31.943],[131.076,31.946],[131.071,31.952],[131.062,31.954],[131.057,31.959],[131.052,31.959],[131.046,31.958],[131.045,31.955],[131.037,31.954],[131.032,31.956],[131.026,31.952],[131.023,31.953],[131.016,31.952],[131.015,31.948],[131.012,31.944],[131.01,31.947],[131.005,31.949],[131.002,31.953],[130.998,31.954],[130.997,31.962],[130.989,31.966],[130.987,31.973],[130.981,31.976],[130.976,31.967],[130.969,31.959],[130.966,31.955],[130.966,31.95],[130.969,31.945],[130.971,31.937],[130.968,31.932],[130.963,31.931],[130.961,31.934],[130.956,31.933],[130.949,31.935],[130.944,31.927],[130.94,31.927],[130.929,31.924],[130.922,31.921],[130.917,31.916],[130.916,31.91],[130.913,31.909],[130.913,31.904],[130.912,31.9],[130.914,31.886],[130.925,31.886],[130.929,31.885],[130.937,31.886],[130.949,31.891],[130.953,31.888],[130.957,31.887],[130.984,31.881],[130.991,31.881],[131.0,31.884],[130.999,31.889],[131.002,31.893],[131.008,31.899],[131.012,31.907],[131.019,31.912],[131.026,31.915],[131.023,31.919],[131.03,31.929],[131.036,31.93],[131.04,31.93],[131.047,31.922],[131.057,31.916],[131.066,31.917],[131.072,31.914],[131.076,31.914],[131.079,31.911],[131.083,31.909],[131.088,31.912],[131.096,31.91],[131.097,31.914],[131.104,31.921],[131.093,31.927],[131.088,31.931],[131.089,31.938]]]]}},{"type":"Feature","properties":{"name":"東諸県郡国富町","code":"45382"},"geometry":{"type":"MultiPolygon","coordinates":[[[[131.387,32.018],[131.382,32.02],[131.374,32.019],[131.365,32.024],[131.359,32.028],[131.35,32.027],[131.345,32.029],[131.339,32.033],[131.333,32.038],[131.329,32.044],[131.324,32.052],[131.319,32.061],[131.315,32.065],[131.312,32.061],[131.307,32.063],[131.296,32.069],[131.293,32.069],[131.285,32.073],[131.276,32.082],[131.273,32.086],[131.273,32.091],[131.267,32.099],[131.246,32.098],[131.242,32.1],[131.234,32.103],[131.234,32.106],[131.229,32.111],[131.226,32.116],[131.218,32.124],[131.21,32.125],[131.205,32.122],[131.199,32.125],[131.198,32.131],[131.193,32.132],[131.189,32.131],[131.192,32.127],[131.191,32.122],[131.19,32.118],[131.191,32.115],[131.192,32.108],[131.191,32.104],[131.198,32.096],[131.2,32.092],[131.205,32.09],[131.205,32.085],[131.206,32.08],[131.21,32.076],[131.214,32.07],[131.216,32.067],[131.219,32.056],[131.224,32.052],[131.231,32.046],[131.238,32.042],[131.242,32.038],[131.244,32.034],[131.254,32.034],[131.256,32.03],[131.261,32.031],[131.269,32.021],[131.272,32.015],[131.277,32.011],[131.278,32.003],[131.275,31.996],[131.276,31.99],[131.27,31.984],[131.27,31.981],[131.273,31.981],[131.277,31.983],[131.28,31.983],[131.287,31.982],[131.293,31.982],[131.299,31.977],[131.304,31.971],[131.312,31.966],[131.322,31.967],[131.327,31.965],[131.329,31.97],[131.331,31.975],[131.332,31.978],[131.339,31.979],[131.343,31.981],[131.348,31.981],[131.351,31.977],[131.356,31.978],[131.36,31.977],[131.365,31.971],[131.371,31.968],[131.375,31.977],[131.375,31.983],[131.377,31.987],[131.377,31.99],[131.376,31.997],[131.38,32.001],[131.38,32.005],[131.386,32.008],[131.389,32.015],[131.387,32.018]]]]}},{"type":"Feature","properties":{"name":"東諸県郡綾町","code":"45383"},"geometry":{"type":"MultiPolygon","coordinates":[[[[131.27,31.981],[131.27,31.984],[131.276,31.99],[131.275,31.996],[131.278,32.003],[131.277,32.011],[131.272,32.015],[131.267,32.02],[131.261,32.031],[131.256,32.03],[131.254,32.034],[131.244,32.034],[131.242,32.038],[131.238,32.042],[131.231,32.046],[131.224,32.052],[131.219,32.056],[131.216,32.067],[131.214,32.07],[131.21,32.076],[131.206,32.08],[131.205,32.085],[131.205,32.09],[131.2,32.092],[131.198,32.096],[131.191,32.104],[131.192,32.108],[131.191,32.115],[131.19,32.118],[131.191,32.122],[131.192,32.127],[131.189,32.131],[131.179,32.128],[131.17,32.129],[131.173,32.126],[131.176,32.116],[131.176,32.111],[131.18,32.109],[131.178,32.105],[131.177,32.097],[131.181,32.094],[131.182,32.09],[131.184,32.085],[131.16,32.074],[131.166,32.065],[131.167,32.052],[131.157,32.043],[131.158,32.04],[131.156,32.035],[131.158,32.027],[131.151,32.025],[131.153,32.018],[131.159,32.014],[131.164,32.008],[131.164,32.004],[131.167,31.996],[131.17,31.991],[131.174,31.99],[131.175,31.995],[131.179,31.991],[131.185,31.993],[131.192,31.988],[131.197,31.988],[131.214,31.996],[131.217,31.992],[131.218,31.987],[131.221,31.983],[131.224,31.978],[131.225,31.973],[131.23,31.973],[131.233,31.975],[131.237,31.974],[131.243,31.976],[131.253,31.981],[131.257,31.978],[131.266,31.982],[131.27,31.981]]]]}},{"type":"Feature","properties":{"name":"児湯郡高鍋町","code":"45401"},"geometry":{"type":"MultiPolygon","coordinates":[[[[131.443,32.128],[131.451,32.127],[131.46,32.124],[131.465,32.117],[131.464,32.114],[131.468,32.113],[131.472,32.108],[131.481,32.105],[131.485,32.108],[131.489,32.11],[131.493,32.109],[131.498,32.11],[131.504,32.106],[131.505,32.097],[131.519,32.089],[131.526,32.102],[131.53,32.109],[131.532,32.115],[131.537,32.124],[131.54,32.132],[131.539,32.137],[131.541,32.149],[131.543,32.157],[131.537,32.156],[131.531,32.164],[131.524,32.165],[131.526,32.168],[131.519,32.172],[131.513,32.155],[131.504,32.159],[131.5,32.161],[131.493,32.162],[131.485,32.156],[131.478,32.156],[131.475,32.148],[131.47,32.146],[131.465,32.139],[131.461,32.139],[131.458,32.132],[131.445,32.135],[131.443,32.128]]]]}},{"type":"Feature","properties":{"name":"児湯郡新富町","code":"45402"},"geometry":{"type":"MultiPolygon","coordinates":[[[[131.508,32.046],[131.515,32.072],[131.52,32.087],[131.508,32.094],[131.504,32.106],[131.498,32.11],[131.493,32.109],[131.489,32.11],[131.485,32.108],[131.481,32.105],[131.472,32.108],[131.468,32.113],[131.464,32.114],[131.465,32.117],[131.46,32.124],[131.451,32.127],[131.443,32.128],[131.442,32.122],[131.438,32.12],[131.432,32.112],[131.425,32.108],[131.42,32.102],[131.415,32.094],[131.413,32.088],[131.407,32.081],[131.413,32.087],[131.417,32.089],[131.422,32.083],[131.418,32.076],[131.414,32.073],[131.42,32.069],[131.424,32.065],[131.422,32.062],[131.428,32.059],[131.433,32.056],[131.438,32.056],[131.449,32.055],[131.453,32.052],[131.46,32.05],[131.468,32.05],[131.472,32.049],[131.479,32.045],[131.487,32.041],[131.492,32.043],[131.5,32.044],[131.508,32.046]]]]}},{"type":"Feature","properties":{"name":"児湯郡西米良村","code":"45403"},"geometry":{"type":"MultiPolygon","coordinates":[[[[131.17,32.129],[131.179,32.128],[131.189,32.131],[131.193,32.132],[131.189,32.14],[131.191,32.146],[131.194,32.15],[131.197,32.151],[131.203,32.15],[131.211,32.15],[131.211,32.156],[131.214,32.159],[131.216,32.167],[131.219,32.167],[131.222,32.171],[131.226,32.171],[131.233,32.168],[131.239,32.166],[131.246,32.169],[131.256,32.166],[131.266,32.174],[131.268,32.18],[131.273,32.181],[131.277,32.179],[131.282,32.182],[131.278,32.189],[131.269,32.197],[131.268,32.201],[131.273,32.204],[131.277,32.204],[131.28,32.21],[131.277,32.213],[131.269,32.212],[131.261,32.213],[131.253,32.213],[131.248,32.218],[131.243,32.227],[131.24,32.23],[131.24,32.234],[131.237,32.24],[131.231,32.247],[131.23,32.251],[131.227,32.253],[131.221,32.26],[131.222,32.264],[131.225,32.274],[131.22,32.278],[131.218,32.282],[131.213,32.284],[131.202,32.294],[131.203,32.298],[131.199,32.3],[131.196,32.303],[131.191,32.309],[131.187,32.307],[131.184,32.309],[131.175,32.31],[131.169,32.302],[131.163,32.308],[131.159,32.311],[131.156,32.312],[131.147,32.312],[131.133,32.31],[131.128,32.307],[131.124,32.312],[131.121,32.314],[131.118,32.317],[131.109,32.316],[131.101,32.312],[131.096,32.305],[131.093,32.3],[131.09,32.294],[131.087,32.293],[131.086,32.29],[131.079,32.285],[131.079,32.281],[131.071,32.28],[131.068,32.283],[131.059,32.287],[131.051,32.287],[131.05,32.283],[131.055,32.272],[131.054,32.267],[131.051,32.265],[131.045,32.263],[131.042,32.258],[131.043,32.248],[131.047,32.244],[131.057,32.246],[131.061,32.244],[131.067,32.239],[131.071,32.235],[131.069,32.23],[131.069,32.225],[131.074,32.224],[131.078,32.219],[131.078,32.216],[131.083,32.21],[131.084,32.206],[131.094,32.205],[131.101,32.202],[131.1,32.196],[131.104,32.192],[131.102,32.186],[131.104,32.182],[131.101,32.178],[131.101,32.173],[131.104,32.169],[131.108,32.166],[131.109,32.16],[131.114,32.151],[131.118,32.149],[131.121,32.145],[131.126,32.145],[131.13,32.147],[131.133,32.143],[131.134,32.137],[131.143,32.138],[131.15,32.136],[131.15,32.132],[131.154,32.133],[131.156,32.137],[131.16,32.138],[131.168,32.136],[131.167,32.131],[131.17,32.129]]]]}},{"type":"Feature","properties":{"name":"児湯郡木城町","code":"45404"},"geometry":{"type":"MultiPolygon","coordinates":[[[[131.342,32.329],[131.338,32.329],[131.334,32.326],[131.326,32.325],[131.323,32.322],[131.319,32.323],[131.312,32.321],[131.305,32.315],[131.302,32.315],[131.294,32.311],[131.287,32.309],[131.294,32.303],[131.302,32.298],[131.305,32.298],[131.31,32.293],[131.311,32.286],[131.318,32.284],[131.328,32.276],[131.335,32.277],[131.341,32.278],[131.347,32.277],[131.356,32.271],[131.358,32.266],[131.355,32.263],[131.35,32.263],[131.35,32.258],[131.354,32.255],[131.358,32.247],[131.358,32.243],[131.361,32.239],[131.365,32.237],[131.367,32.234],[131.372,32.232],[131.377,32.226],[131.382,32.222],[131.387,32.215],[131.395,32.207],[131.395,32.201],[131.4,32.196],[131.399,32.19],[131.403,32.188],[131.405,32.184],[131.41,32.182],[131.41,32.178],[131.413,32.177],[131.415,32.17],[131.415,32.164],[131.421,32.161],[131.426,32.152],[131.432,32.148],[131.45,32.141],[131.449,32.138],[131.445,32.135],[131.458,32.132],[131.461,32.139],[131.465,32.139],[131.47,32.146],[131.475,32.148],[131.478,32.156],[131.484,32.153],[131.491,32.159],[131.491,32.163],[131.486,32.167],[131.481,32.167],[131.478,32.174],[131.476,32.181],[131.472,32.182],[131.466,32.187],[131.464,32.193],[131.458,32.197],[131.448,32.196],[131.449,32.2],[131.444,32.207],[131.443,32.212],[131.445,32.215],[131.442,32.22],[131.442,32.226],[131.444,32.231],[131.441,32.235],[131.438,32.243],[131.433,32.246],[131.43,32.249],[131.43,32.253],[131.435,32.256],[131.433,32.26],[131.432,32.267],[131.433,32.27],[131.429,32.277],[131.429,32.284],[131.425,32.287],[131.425,32.291],[131.424,32.297],[131.426,32.305],[131.41,32.309],[131.405,32.312],[131.396,32.314],[131.393,32.313],[131.381,32.316],[131.373,32.313],[131.363,32.309],[131.363,32.315],[131.369,32.316],[131.37,32.322],[131.362,32.324],[131.358,32.328],[131.35,32.331],[131.342,32.329]]]]}},{"type":"Feature","properties":{"name":"児湯郡川南町","code":"45405"},"geometry":{"type":"MultiPolygon","coordinates":[[[[131.543,32.157],[131.546,32.166],[131.553,32.179],[131.552,32.182],[131.553,32.189],[131.555,32.194],[131.556,32.198],[131.563,32.217],[131.569,32.23],[131.573,32.234],[131.573,32.238],[131.573,32.235],[131.569,32.233],[131.566,32.237],[131.56,32.236],[131.556,32.237],[131.55,32.24],[131.55,32.236],[131.546,32.234],[131.544,32.231],[131.539,32.229],[131.533,32.233],[131.536,32.236],[131.542,32.236],[131.542,32.241],[131.537,32.244],[131.523,32.245],[131.52,32.247],[131.504,32.248],[131.487,32.25],[131.482,32.251],[131.48,32.256],[131.472,32.259],[131.468,32.264],[131.46,32.262],[131.467,32.257],[131.467,32.25],[131.461,32.246],[131.457,32.248],[131.443,32.245],[131.438,32.243],[131.443,32.237],[131.444,32.231],[131.444,32.227],[131.442,32.22],[131.445,32.215],[131.443,32.212],[131.445,32.209],[131.449,32.2],[131.448,32.196],[131.456,32.195],[131.464,32.193],[131.466,32.187],[131.472,32.182],[131.476,32.181],[131.476,32.176],[131.478,32.17],[131.486,32.167],[131.491,32.163],[131.498,32.16],[131.504,32.159],[131.513,32.155],[131.519,32.172],[131.526,32.168],[131.524,32.165],[131.531,32.164],[131.537,32.156],[131.543,32.157]]]]}},{"type":"Feature","properties":{"name":"児湯郡都農町","code":"45406"},"geometry":{"type":"MultiPolygon","coordinates":[[[[131.425,32.306],[131.424,32.297],[131.425,32.291],[131.425,32.287],[131.429,32.284],[131.43,32.28],[131.433,32.27],[131.432,32.267],[131.433,32.26],[131.435,32.256],[131.43,32.253],[131.43,32.249],[131.433,32.246],[131.438,32.243],[131.443,32.245],[131.457,32.248],[131.461,32.246],[131.467,32.25],[131.465,32.256],[131.46,32.262],[131.468,32.264],[131.472,32.259],[131.48,32.256],[131.482,32.251],[131.487,32.25],[131.503,32.247],[131.517,32.245],[131.523,32.245],[131.537,32.244],[131.542,32.241],[131.542,32.236],[131.536,32.236],[131.533,32.233],[131.539,32.229],[131.544,32.231],[131.546,32.234],[131.55,32.236],[131.55,32.24],[131.556,32.237],[131.56,32.236],[131.566,32.237],[131.569,32.233],[131.573,32.235],[131.573,32.238],[131.575,32.241],[131.576,32.249],[131.572,32.253],[131.573,32.256],[131.576,32.259],[131.576,32.265],[131.577,32.271],[131.585,32.291],[131.592,32.306],[131.588,32.305],[131.58,32.309],[131.577,32.305],[131.575,32.3],[131.572,32.296],[131.566,32.301],[131.561,32.305],[131.558,32.305],[131.56,32.313],[131.557,32.317],[131.555,32.323],[131.549,32.323],[131.538,32.319],[131.529,32.319],[131.527,32.314],[131.521,32.311],[131.518,32.307],[131.515,32.306],[131.499,32.296],[131.494,32.296],[131.493,32.3],[131.49,32.3],[131.486,32.298],[131.483,32.302],[131.485,32.306],[131.475,32.317],[131.471,32.319],[131.466,32.316],[131.463,32.311],[131.459,32.309],[131.446,32.314],[131.442,32.312],[131.433,32.31],[131.425,32.306]]]]}},{"type":"Feature","properties":{"name":"東臼杵郡諸塚村","code":"45429"},"geometry":{"type":"MultiPolygon","coordinates":[[[[131.268,32.641],[131.256,32.642],[131.254,32.637],[131.258,32.631],[131.256,32.619],[131.253,32.614],[131.253,32.611],[131.251,32.606],[131.244,32.599],[131.237,32.596],[131.23,32.591],[131.224,32.594],[131.22,32.592],[131.216,32.592],[131.208,32.589],[131.208,32.581],[131.208,32.578],[131.211,32.577],[131.216,32.567],[131.219,32.562],[131.218,32.557],[131.214,32.548],[131.216,32.541],[131.215,32.537],[131.217,32.53],[131.231,32.528],[131.234,32.527],[131.244,32.521],[131.253,32.522],[131.262,32.526],[131.274,32.524],[131.275,32.521],[131.28,32.516],[131.28,32.51],[131.28,32.507],[131.285,32.508],[131.293,32.504],[131.298,32.508],[131.303,32.501],[131.306,32.498],[131.312,32.5],[131.317,32.498],[131.318,32.494],[131.324,32.491],[131.327,32.494],[131.323,32.497],[131.321,32.501],[131.322,32.506],[131.326,32.507],[131.328,32.511],[131.335,32.507],[131.339,32.509],[131.342,32.508],[131.34,32.504],[131.349,32.505],[131.357,32.504],[131.361,32.499],[131.368,32.498],[131.372,32.495],[131.369,32.49],[131.373,32.488],[131.379,32.492],[131.383,32.49],[131.378,32.478],[131.375,32.476],[131.377,32.468],[131.376,32.464],[131.381,32.466],[131.386,32.472],[131.399,32.476],[131.406,32.479],[131.408,32.484],[131.413,32.488],[131.413,32.496],[131.408,32.502],[131.4,32.507],[131.399,32.511],[131.397,32.525],[131.393,32.531],[131.386,32.534],[131.382,32.539],[131.377,32.541],[131.369,32.541],[131.369,32.55],[131.368,32.558],[131.369,32.561],[131.374,32.564],[131.367,32.576],[131.362,32.578],[131.364,32.584],[131.362,32.589],[131.356,32.595],[131.358,32.598],[131.357,32.602],[131.358,32.605],[131.357,32.609],[131.35,32.611],[131.341,32.613],[131.334,32.612],[131.329,32.612],[131.321,32.619],[131.316,32.629],[131.31,32.629],[131.29,32.636],[131.278,32.639],[131.268,32.641]]]]}},{"type":"Feature","properties":{"name":"東臼杵郡椎葉村","code":"45430"},"geometry":{"type":"MultiPolygon","coordinates":[[[[131.199,32.34],[131.201,32.346],[131.202,32.351],[131.197,32.353],[131.194,32.361],[131.196,32.366],[131.196,32.374],[131.204,32.373],[131.208,32.371],[131.212,32.372],[131.216,32.371],[131.222,32.38],[131.238,32.383],[131.243,32.387],[131.249,32.389],[131.252,32.395],[131.258,32.399],[131.259,32.408],[131.252,32.412],[131.253,32.416],[131.251,32.42],[131.252,32.423],[131.248,32.432],[131.249,32.437],[131.251,32.445],[131.255,32.444],[131.261,32.446],[131.264,32.45],[131.27,32.453],[131.277,32.454],[131.287,32.457],[131.298,32.46],[131.296,32.474],[131.294,32.478],[131.286,32.486],[131.281,32.495],[131.277,32.5],[131.274,32.505],[131.274,32.51],[131.28,32.507],[131.28,32.51],[131.28,32.516],[131.275,32.521],[131.274,32.524],[131.262,32.526],[131.256,32.521],[131.244,32.521],[131.234,32.527],[131.231,32.528],[131.219,32.527],[131.217,32.534],[131.216,32.541],[131.214,32.548],[131.218,32.557],[131.219,32.562],[131.216,32.567],[131.211,32.577],[131.208,32.578],[131.208,32.581],[131.206,32.586],[131.205,32.592],[131.197,32.601],[131.191,32.6],[131.186,32.601],[131.177,32.599],[131.177,32.595],[131.173,32.59],[131.176,32.584],[131.171,32.577],[131.172,32.574],[131.166,32.57],[131.162,32.565],[131.148,32.564],[131.142,32.564],[131.135,32.563],[131.131,32.558],[131.12,32.558],[131.111,32.562],[131.108,32.575],[131.105,32.58],[131.099,32.578],[131.093,32.579],[131.088,32.579],[131.079,32.582],[131.074,32.585],[131.068,32.584],[131.063,32.586],[131.059,32.586],[131.052,32.588],[131.049,32.585],[131.043,32.582],[131.042,32.574],[131.038,32.565],[131.04,32.561],[131.039,32.554],[131.035,32.553],[131.031,32.554],[131.024,32.553],[131.018,32.546],[131.019,32.542],[131.024,32.536],[131.025,32.532],[131.024,32.528],[131.025,32.523],[131.018,32.52],[131.015,32.516],[131.009,32.515],[131.01,32.509],[131.007,32.49],[131.011,32.483],[131.014,32.48],[131.014,32.477],[131.016,32.473],[131.014,32.464],[131.017,32.46],[131.016,32.456],[131.017,32.448],[131.02,32.442],[131.02,32.439],[131.031,32.427],[131.033,32.421],[131.041,32.415],[131.044,32.408],[131.048,32.407],[131.054,32.408],[131.065,32.408],[131.068,32.408],[131.07,32.4],[131.073,32.396],[131.073,32.391],[131.069,32.389],[131.069,32.384],[131.074,32.383],[131.077,32.377],[131.08,32.374],[131.076,32.371],[131.074,32.366],[131.074,32.361],[131.078,32.355],[131.082,32.354],[131.091,32.35],[131.096,32.351],[131.097,32.346],[131.099,32.342],[131.107,32.333],[131.112,32.33],[131.106,32.324],[131.104,32.319],[131.102,32.315],[131.101,32.312],[131.109,32.316],[131.118,32.317],[131.121,32.314],[131.124,32.312],[131.128,32.307],[131.133,32.31],[131.144,32.311],[131.156,32.312],[131.159,32.311],[131.163,32.308],[131.167,32.302],[131.174,32.307],[131.177,32.319],[131.176,32.325],[131.183,32.329],[131.185,32.334],[131.19,32.341],[131.197,32.338]]]]}},{"type":"Feature","properties":{"name":"東臼杵郡美郷町","code":"45431"},"geometry":{"type":"MultiPolygon","coordinates":[[[[131.429,32.56],[131.421,32.564],[131.418,32.564],[131.414,32.561],[131.409,32.561],[131.405,32.566],[131.396,32.569],[131.392,32.566],[131.384,32.565],[131.381,32.562],[131.374,32.564],[131.369,32.561],[131.368,32.558],[131.369,32.55],[131.369,32.541],[131.377,32.541],[131.382,32.539],[131.386,32.534],[131.393,32.531],[131.397,32.525],[131.399,32.511],[131.4,32.507],[131.408,32.502],[131.413,32.496],[131.413,32.488],[131.408,32.484],[131.406,32.479],[131.399,32.476],[131.386,32.472],[131.381,32.466],[131.378,32.463],[131.377,32.468],[131.375,32.476],[131.378,32.478],[131.384,32.487],[131.379,32.492],[131.373,32.488],[131.369,32.49],[131.372,32.495],[131.368,32.498],[131.361,32.499],[131.357,32.504],[131.349,32.505],[131.343,32.502],[131.342,32.508],[131.339,32.509],[131.335,32.507],[131.328,32.511],[131.326,32.507],[131.322,32.506],[131.321,32.501],[131.323,32.497],[131.327,32.494],[131.324,32.491],[131.318,32.494],[131.317,32.498],[131.312,32.5],[131.306,32.498],[131.303,32.501],[131.298,32.508],[131.294,32.506],[131.285,32.508],[131.28,32.507],[131.274,32.51],[131.274,32.505],[131.277,32.5],[131.281,32.495],[131.286,32.486],[131.294,32.478],[131.296,32.474],[131.298,32.46],[131.287,32.457],[131.277,32.454],[131.27,32.453],[131.264,32.45],[131.261,32.446],[131.255,32.444],[131.251,32.445],[131.249,32.437],[131.248,32.432],[131.252,32.423],[131.251,32.42],[131.253,32.416],[131.252,32.412],[131.256,32.408],[131.258,32.399],[131.252,32.395],[131.249,32.389],[131.243,32.387],[131.238,32.383],[131.222,32.38],[131.216,32.371],[131.212,32.372],[131.208,32.371],[131.204,32.373],[131.196,32.374],[131.196,32.366],[131.194,32.361],[131.197,32.353],[131.202,32.351],[131.201,32.346],[131.199,32.34],[131.204,32.337],[131.211,32.33],[131.224,32.324],[131.228,32.324],[131.235,32.329],[131.242,32.327],[131.249,32.329],[131.256,32.326],[131.256,32.322],[131.261,32.319],[131.27,32.315],[131.273,32.312],[131.28,32.31],[131.287,32.309],[131.294,32.311],[131.302,32.315],[131.305,32.315],[131.31,32.322],[131.319,32.323],[131.323,32.322],[131.326,32.325],[131.334,32.326],[131.338,32.329],[131.342,32.329],[131.338,32.336],[131.34,32.344],[131.342,32.351],[131.345,32.355],[131.344,32.359],[131.349,32.362],[131.351,32.367],[131.358,32.366],[131.362,32.362],[131.369,32.36],[131.371,32.356],[131.378,32.355],[131.382,32.36],[131.389,32.364],[131.397,32.365],[131.397,32.371],[131.403,32.382],[131.403,32.386],[131.406,32.39],[131.412,32.39],[131.418,32.389],[131.428,32.389],[131.433,32.391],[131.44,32.392],[131.447,32.393],[131.452,32.399],[131.456,32.401],[131.462,32.399],[131.472,32.402],[131.477,32.406],[131.478,32.413],[131.484,32.416],[131.481,32.424],[131.483,32.428],[131.482,32.433],[131.483,32.44],[131.475,32.443],[131.476,32.45],[131.48,32.453],[131.484,32.452],[131.489,32.454],[131.497,32.455],[131.502,32.455],[131.506,32.456],[131.512,32.459],[131.509,32.468],[131.513,32.472],[131.509,32.479],[131.51,32.484],[131.526,32.491],[131.53,32.494],[131.525,32.499],[131.526,32.502],[131.524,32.506],[131.531,32.515],[131.533,32.52],[131.531,32.526],[131.528,32.531],[131.523,32.535],[131.527,32.54],[131.521,32.542],[131.515,32.546],[131.513,32.551],[131.51,32.551],[131.505,32.557],[131.499,32.559],[131.496,32.559],[131.486,32.565],[131.478,32.567],[131.473,32.567],[131.467,32.564],[131.464,32.559],[131.457,32.557],[131.442,32.559],[131.439,32.556],[131.43,32.556],[131.429,32.56]]]]}},{"type":"Feature","properties":{"name":"西臼杵郡高千穂町","code":"45441"},"geometry":{"type":"MultiPolygon","coordinates":[[[[131.31,32.629],[131.311,32.638],[131.315,32.644],[131.318,32.661],[131.323,32.666],[131.322,32.671],[131.326,32.672],[131.328,32.677],[131.328,32.681],[131.323,32.683],[131.323,32.689],[131.318,32.694],[131.319,32.7],[131.323,32.706],[131.335,32.698],[131.351,32.7],[131.358,32.698],[131.36,32.704],[131.365,32.706],[131.368,32.713],[131.377,32.717],[131.385,32.725],[131.389,32.729],[131.393,32.73],[131.395,32.735],[131.4,32.739],[131.4,32.746],[131.401,32.753],[131.403,32.76],[131.407,32.77],[131.411,32.78],[131.415,32.787],[131.416,32.795],[131.42,32.798],[131.419,32.803],[131.42,32.809],[131.416,32.813],[131.41,32.813],[131.406,32.812],[131.4,32.813],[131.395,32.811],[131.389,32.812],[131.384,32.809],[131.378,32.809],[131.369,32.806],[131.364,32.803],[131.356,32.805],[131.353,32.809],[131.349,32.811],[131.351,32.817],[131.35,32.824],[131.344,32.831],[131.34,32.833],[131.336,32.833],[131.33,32.833],[131.323,32.829],[131.309,32.828],[131.302,32.83],[131.292,32.828],[131.286,32.831],[131.281,32.829],[131.276,32.829],[131.273,32.824],[131.265,32.826],[131.263,32.818],[131.258,32.818],[131.257,32.814],[131.255,32.809],[131.255,32.805],[131.252,32.801],[131.247,32.799],[131.245,32.794],[131.246,32.791],[131.245,32.787],[131.237,32.784],[131.235,32.781],[131.237,32.777],[131.246,32.769],[131.245,32.766],[131.242,32.76],[131.237,32.758],[131.234,32.747],[131.235,32.744],[131.243,32.743],[131.247,32.744],[131.255,32.735],[131.254,32.73],[131.254,32.722],[131.251,32.717],[131.246,32.717],[131.24,32.711],[131.233,32.707],[131.236,32.703],[131.242,32.699],[131.242,32.694],[131.234,32.689],[131.228,32.688],[131.229,32.685],[131.236,32.68],[131.237,32.674],[131.246,32.674],[131.252,32.677],[131.258,32.671],[131.265,32.671],[131.267,32.663],[131.269,32.658],[131.269,32.651],[131.268,32.647],[131.268,32.641],[131.278,32.639],[131.287,32.635],[131.31,32.629]]]]}},{"type":"Feature","properties":{"name":"西臼杵郡日之影町","code":"45442"},"geometry":{"type":"MultiPolygon","coordinates":[[[[131.508,32.774],[131.51,32.778],[131.508,32.781],[131.511,32.79],[131.517,32.801],[131.512,32.804],[131.508,32.806],[131.506,32.809],[131.502,32.81],[131.503,32.814],[131.499,32.816],[131.493,32.816],[131.484,32.825],[131.479,32.831],[131.476,32.836],[131.472,32.836],[131.463,32.831],[131.454,32.829],[131.444,32.83],[131.437,32.829],[131.432,32.821],[131.431,32.818],[131.426,32.816],[131.421,32.812],[131.422,32.805],[131.42,32.798],[131.416,32.795],[131.415,32.787],[131.409,32.783],[131.406,32.772],[131.403,32.76],[131.401,32.753],[131.402,32.749],[131.4,32.739],[131.395,32.735],[131.393,32.73],[131.389,32.729],[131.385,32.725],[131.38,32.716],[131.371,32.715],[131.365,32.706],[131.36,32.704],[131.358,32.698],[131.351,32.7],[131.335,32.698],[131.323,32.706],[131.319,32.7],[131.318,32.694],[131.323,32.689],[131.323,32.683],[131.328,32.681],[131.328,32.677],[131.326,32.672],[131.322,32.671],[131.323,32.666],[131.318,32.661],[131.315,32.644],[131.311,32.638],[131.31,32.629],[131.316,32.629],[131.321,32.621],[131.329,32.612],[131.332,32.61],[131.341,32.613],[131.347,32.612],[131.357,32.609],[131.358,32.605],[131.357,32.602],[131.358,32.598],[131.356,32.595],[131.362,32.589],[131.364,32.584],[131.362,32.58],[131.367,32.576],[131.372,32.566],[131.381,32.562],[131.384,32.565],[131.392,32.566],[131.396,32.569],[131.405,32.566],[131.409,32.561],[131.414,32.561],[131.418,32.564],[131.421,32.564],[131.429,32.56],[131.433,32.565],[131.44,32.569],[131.441,32.577],[131.448,32.587],[131.446,32.594],[131.45,32.598],[131.449,32.602],[131.449,32.611],[131.45,32.619],[131.45,32.623],[131.449,32.627],[131.435,32.634],[131.436,32.638],[131.441,32.64],[131.437,32.643],[131.437,32.648],[131.44,32.655],[131.434,32.662],[131.44,32.664],[131.44,32.668],[131.448,32.672],[131.447,32.678],[131.45,32.683],[131.453,32.692],[131.457,32.695],[131.462,32.697],[131.466,32.702],[131.476,32.705],[131.48,32.71],[131.48,32.714],[131.483,32.718],[131.483,32.723],[131.484,32.73],[131.481,32.738],[131.488,32.742],[131.49,32.748],[131.489,32.757],[131.482,32.76],[131.483,32.763],[131.488,32.767],[131.488,32.771],[131.492,32.774],[131.496,32.773],[131.5,32.774],[131.504,32.773],[131.508,32.774]]]]}},{"type":"Feature","properties":{"name":"西臼杵郡五ヶ瀬町","code":"45443"},"geometry":{"type":"MultiPolygon","coordinates":[[[[131.268,32.641],[131.268,32.647],[131.269,32.651],[131.269,32.658],[131.267,32.663],[131.268,32.668],[131.258,32.671],[131.252,32.677],[131.246,32.674],[131.239,32.673],[131.236,32.68],[131.229,32.685],[131.228,32.688],[131.234,32.689],[131.242,32.694],[131.242,32.699],[131.236,32.703],[131.232,32.705],[131.24,32.711],[131.246,32.717],[131.251,32.717],[131.254,32.722],[131.254,32.73],[131.255,32.735],[131.247,32.744],[131.243,32.743],[131.235,32.744],[131.231,32.744],[131.22,32.735],[131.215,32.73],[131.212,32.729],[131.206,32.73],[131.195,32.725],[131.19,32.722],[131.184,32.715],[131.181,32.713],[131.179,32.71],[131.182,32.706],[131.18,32.7],[131.177,32.697],[131.175,32.693],[131.176,32.687],[131.172,32.685],[131.175,32.679],[131.175,32.672],[131.171,32.672],[131.163,32.672],[131.158,32.678],[131.151,32.68],[131.143,32.676],[131.143,32.67],[131.14,32.665],[131.136,32.662],[131.131,32.658],[131.13,32.655],[131.124,32.647],[131.116,32.643],[131.115,32.639],[131.116,32.635],[131.119,32.633],[131.12,32.629],[131.116,32.621],[131.116,32.609],[131.121,32.605],[131.119,32.602],[131.12,32.599],[131.116,32.597],[131.113,32.591],[131.106,32.589],[131.106,32.585],[131.108,32.582],[131.105,32.58],[131.108,32.575],[131.111,32.562],[131.12,32.558],[131.131,32.558],[131.135,32.563],[131.142,32.564],[131.146,32.563],[131.16,32.564],[131.166,32.57],[131.17,32.571],[131.171,32.577],[131.174,32.583],[131.173,32.59],[131.177,32.595],[131.177,32.599],[131.186,32.601],[131.191,32.6],[131.197,32.601],[131.203,32.593],[131.208,32.589],[131.216,32.592],[131.22,32.592],[131.224,32.594],[131.23,32.591],[131.237,32.596],[131.243,32.596],[131.249,32.605],[131.253,32.611],[131.253,32.614],[131.256,32.619],[131.258,32.631],[131.254,32.637],[131.256,32.642],[131.266,32.64]]]]}}]}