{"type":"FeatureCollection","features":[{"type":"Feature","properties":{"name":"那覇市","code":"47201"},"geometry":{"type":"MultiPolygon","coordinates":[[[[127.677,26.245],[127.669,26.246],[127.669,26.242],[127.672,26.239],[127.669,26.239],[127.667,26.232],[127.674,26.232],[127.675,26.236],[127.675,26.24],[127.677,26.237],[127.678,26.24],[127.679,26.236],[127.68,26.232],[127.681,26.227],[127.677,26.224],[127.671,26.221],[127.665,26.222],[127.662,26.217],[127.665,26.215],[127.666,26.211],[127.674,26.209],[127.671,26.205],[127.666,26.21],[127.663,26.213],[127.658,26.214],[127.654,26.217],[127.649,26.217],[127.645,26.212],[127.642,26.208],[127.642,26.204],[127.635,26.204],[127.63,26.206],[127.631,26.2],[127.632,26.182],[127.631,26.179],[127.636,26.178],[127.635,26.2],[127.641,26.202],[127.637,26.199],[127.64,26.193],[127.642,26.19],[127.644,26.178],[127.653,26.176],[127.66,26.179],[127.664,26.183],[127.669,26.182],[127.674,26.185],[127.678,26.187],[127.682,26.196],[127.688,26.195],[127.694,26.194],[127.697,26.196],[127.701,26.194],[127.708,26.19],[127.712,26.194],[127.716,26.196],[127.722,26.198],[127.723,26.203],[127.723,26.21],[127.726,26.213],[127.732,26.217],[127.736,26.218],[127.736,26.225],[127.733,26.226],[127.736,26.23],[127.739,26.234],[127.735,26.236],[127.73,26.236],[127.726,26.233],[127.72,26.234],[127.717,26.233],[127.709,26.233],[127.704,26.233],[127.701,26.237],[127.698,26.237],[127.696,26.24],[127.691,26.241],[127.685,26.243],[127.681,26.244],[127.677,26.245]]]]}},{"type":"Feature","properties":{"name":"宜野湾市","code":"47205"},"geometry":{"type":"MultiPolygon","coordinates":[[[[127.779,26.296],[127.774,26.297],[127.771,26.297],[127.767,26.298],[127.762,26.293],[127.757,26.295],[127.753,26.296],[127.753,26.292],[127.748,26.29],[127.744,26.287],[127.741,26.284],[127.733,26.282],[127.732,26.279],[127.728,26.276],[127.724,26.273],[127.727,26.269],[127.731,26.264],[127.732,26.259],[127.732,26.255],[127.735,26.254],[127.739,26.253],[127.74,26.257],[127.745,26.256],[127.748,26.254],[127.752,26.253],[127.757,26.251],[127.762,26.252],[127.765,26.256],[127.769,26.254],[127.767,26.259],[127.771,26.262],[127.772,26.265],[127.774,26.269],[127.777,26.274],[127.78,26.278],[127.783,26.283],[127.787,26.288],[127.784,26.293],[127.78,26.294]]]]}},{"type":"Feature","properties":{"name":"石垣市","code":"47207"},"geometry":{"type":"MultiPolygon","coordinates":[[[[124.157,24.333],[124.153,24.335],[124.141,24.332],[124.142,24.327],[124.147,24.328],[124.154,24.328],[124.16,24.331],[124.157,24.333]]],[[[124.148,24.462],[124.146,24.458],[124.149,24.454],[124.153,24.455],[124.148,24.462]]],[[[124.316,24.612],[124.312,24.611],[124.312,24.603],[124.311,24.6],[124.312,24.595],[124.309,24.59],[124.307,24.585],[124.302,24.581],[124.301,24.577],[124.299,24.573],[124.294,24.568],[124.287,24.564],[124.283,24.562],[124.284,24.556],[124.289,24.552],[124.294,24.548],[124.294,24.545],[124.295,24.541],[124.289,24.539],[124.286,24.535],[124.286,24.531],[124.284,24.528],[124.281,24.522],[124.28,24.518],[124.277,24.509],[124.277,24.505],[124.274,24.507],[124.27,24.511],[124.267,24.514],[124.262,24.517],[124.258,24.52],[124.251,24.513],[124.246,24.508],[124.245,24.504],[124.239,24.499],[124.229,24.498],[124.229,24.49],[124.231,24.487],[124.227,24.486],[124.224,24.482],[124.222,24.474],[124.221,24.469],[124.225,24.468],[124.226,24.464],[124.226,24.461],[124.223,24.455],[124.219,24.454],[124.212,24.456],[124.206,24.458],[124.203,24.458],[124.196,24.458],[124.193,24.458],[124.188,24.456],[124.184,24.451],[124.179,24.449],[124.174,24.449],[124.17,24.449],[124.164,24.451],[124.157,24.453],[124.153,24.454],[124.15,24.451],[124.146,24.449],[124.142,24.445],[124.136,24.445],[124.135,24.449],[124.141,24.45],[124.139,24.453],[124.139,24.456],[124.142,24.46],[124.144,24.464],[124.14,24.471],[124.134,24.476],[124.126,24.478],[124.121,24.482],[124.113,24.479],[124.118,24.477],[124.122,24.474],[124.125,24.469],[124.123,24.465],[124.117,24.463],[124.117,24.459],[124.118,24.455],[124.117,24.452],[124.117,24.449],[124.116,24.445],[124.111,24.444],[124.106,24.445],[124.106,24.448],[124.102,24.451],[124.098,24.453],[124.095,24.454],[124.091,24.452],[124.086,24.452],[124.082,24.452],[124.077,24.453],[124.078,24.45],[124.078,24.444],[124.077,24.441],[124.072,24.438],[124.072,24.434],[124.07,24.429],[124.077,24.426],[124.081,24.42],[124.084,24.416],[124.086,24.42],[124.088,24.423],[124.093,24.428],[124.098,24.43],[124.103,24.433],[124.108,24.433],[124.112,24.432],[124.115,24.432],[124.121,24.435],[124.125,24.431],[124.128,24.425],[124.133,24.422],[124.134,24.415],[124.141,24.415],[124.144,24.411],[124.143,24.406],[124.14,24.401],[124.141,24.397],[124.141,24.392],[124.137,24.385],[124.132,24.381],[124.127,24.378],[124.123,24.379],[124.12,24.378],[124.116,24.374],[124.111,24.367],[124.115,24.364],[124.118,24.36],[124.124,24.357],[124.132,24.356],[124.137,24.354],[124.14,24.352],[124.145,24.351],[124.149,24.343],[124.147,24.339],[124.153,24.338],[124.157,24.338],[124.157,24.334],[124.163,24.334],[124.166,24.33],[124.17,24.33],[124.181,24.331],[124.184,24.332],[124.192,24.335],[124.197,24.341],[124.201,24.343],[124.201,24.347],[124.2,24.351],[124.203,24.355],[124.209,24.356],[124.215,24.355],[124.218,24.352],[124.229,24.346],[124.236,24.345],[124.24,24.347],[124.246,24.355],[124.25,24.359],[124.25,24.366],[124.253,24.375],[124.254,24.38],[124.252,24.389],[124.252,24.395],[124.253,24.399],[124.258,24.412],[124.258,24.416],[124.255,24.422],[124.252,24.426],[124.25,24.43],[124.251,24.435],[124.252,24.439],[124.258,24.444],[124.255,24.447],[124.252,24.451],[124.25,24.456],[124.251,24.46],[124.251,24.463],[124.252,24.467],[124.256,24.471],[124.26,24.477],[124.265,24.482],[124.27,24.483],[124.272,24.486],[124.278,24.488],[124.282,24.489],[124.281,24.495],[124.282,24.503],[124.284,24.508],[124.287,24.509],[124.291,24.513],[124.296,24.515],[124.298,24.519],[124.301,24.522],[124.306,24.526],[124.307,24.529],[124.306,24.535],[124.303,24.542],[124.304,24.547],[124.309,24.55],[124.312,24.556],[124.315,24.557],[124.319,24.559],[124.324,24.564],[124.33,24.566],[124.332,24.57],[124.337,24.579],[124.337,24.582],[124.341,24.587],[124.337,24.594],[124.337,24.598],[124.339,24.603],[124.335,24.605],[124.329,24.606],[124.322,24.608],[124.316,24.612]]],[[[123.541,25.735],[123.541,25.728],[123.545,25.726],[123.542,25.734]]],[[[123.476,25.752],[123.47,25.75],[123.464,25.747],[123.46,25.744],[123.458,25.739],[123.46,25.735],[123.464,25.735],[123.47,25.737],[123.474,25.739],[123.479,25.741],[123.482,25.74],[123.488,25.741],[123.492,25.741],[123.493,25.745],[123.488,25.748],[123.483,25.749],[123.476,25.752]]],[[[123.683,25.929],[123.678,25.926],[123.679,25.92],[123.686,25.92],[123.687,25.925],[123.683,25.929]]]]}},{"type":"Feature","properties":{"name":"浦添市","code":"47208"},"geometry":{"type":"MultiPolygon","coordinates":[[[[127.738,26.236],[127.74,26.239],[127.744,26.243],[127.747,26.245],[127.751,26.249],[127.752,26.253],[127.748,26.254],[127.745,26.256],[127.74,26.257],[127.739,26.253],[127.735,26.254],[127.732,26.255],[127.732,26.259],[127.728,26.262],[127.729,26.268],[127.724,26.273],[127.72,26.271],[127.72,26.275],[127.716,26.275],[127.713,26.275],[127.709,26.272],[127.705,26.269],[127.702,26.266],[127.692,26.257],[127.687,26.257],[127.678,26.257],[127.684,26.256],[127.684,26.248],[127.685,26.243],[127.689,26.242],[127.696,26.24],[127.698,26.237],[127.701,26.237],[127.704,26.233],[127.709,26.233],[127.715,26.234],[127.72,26.234],[127.726,26.233],[127.73,26.236],[127.735,26.236],[127.738,26.236]]]]}},{"type":"Feature","properties":{"name":"名護市","code":"47209"},"geometry":{"type":"MultiPolygon","coordinates":[[[[128.08,26.646],[128.072,26.644],[128.067,26.643],[128.063,26.641],[128.059,26.638],[128.056,26.637],[128.052,26.635],[128.049,26.634],[128.042,26.636],[128.037,26.636],[128.034,26.636],[128.031,26.632],[128.027,26.629],[128.024,26.628],[128.012,26.632],[128.009,26.63],[128.003,26.633],[128.004,26.636],[128.002,26.641],[127.99,26.647],[127.987,26.642],[127.983,26.639],[127.978,26.637],[127.975,26.641],[127.97,26.636],[127.967,26.638],[127.962,26.639],[127.959,26.639],[127.954,26.637],[127.95,26.635],[127.945,26.631],[127.938,26.631],[127.934,26.635],[127.931,26.634],[127.926,26.634],[127.923,26.634],[127.917,26.631],[127.912,26.628],[127.909,26.623],[127.909,26.619],[127.904,26.617],[127.9,26.615],[127.899,26.61],[127.9,26.606],[127.912,26.601],[127.917,26.604],[127.919,26.608],[127.927,26.609],[127.934,26.604],[127.937,26.603],[127.94,26.602],[127.944,26.603],[127.947,26.601],[127.952,26.597],[127.956,26.595],[127.959,26.594],[127.965,26.591],[127.968,26.591],[127.974,26.59],[127.978,26.588],[127.983,26.585],[127.983,26.581],[127.983,26.575],[127.98,26.566],[127.976,26.559],[127.973,26.556],[127.971,26.553],[127.966,26.548],[127.965,26.545],[127.964,26.542],[127.96,26.541],[127.958,26.547],[127.952,26.545],[127.948,26.539],[127.942,26.536],[127.937,26.538],[127.937,26.542],[127.934,26.543],[127.934,26.539],[127.929,26.531],[127.934,26.529],[127.936,26.526],[127.937,26.521],[127.94,26.513],[127.941,26.51],[127.945,26.512],[127.95,26.512],[127.954,26.511],[127.957,26.512],[127.958,26.517],[127.962,26.519],[127.967,26.523],[127.971,26.523],[127.974,26.528],[127.979,26.528],[127.977,26.524],[127.98,26.52],[127.984,26.519],[127.989,26.518],[127.994,26.515],[127.996,26.511],[128.0,26.51],[128.002,26.506],[128.007,26.506],[128.005,26.51],[128.008,26.514],[128.011,26.515],[128.015,26.513],[128.021,26.511],[128.026,26.51],[128.031,26.512],[128.033,26.516],[128.039,26.521],[128.048,26.521],[128.053,26.52],[128.051,26.525],[128.046,26.53],[128.045,26.536],[128.042,26.539],[128.039,26.543],[128.036,26.548],[128.035,26.552],[128.039,26.552],[128.042,26.556],[128.041,26.559],[128.042,26.554],[128.042,26.55],[128.049,26.549],[128.053,26.548],[128.056,26.551],[128.064,26.552],[128.069,26.549],[128.077,26.546],[128.08,26.543],[128.087,26.538],[128.091,26.536],[128.095,26.535],[128.093,26.54],[128.099,26.54],[128.102,26.539],[128.1,26.543],[128.103,26.546],[128.107,26.549],[128.111,26.551],[128.116,26.552],[128.121,26.554],[128.126,26.555],[128.134,26.556],[128.138,26.554],[128.139,26.562],[128.138,26.566],[128.142,26.568],[128.148,26.569],[128.145,26.572],[128.142,26.576],[128.14,26.58],[128.137,26.587],[128.131,26.59],[128.127,26.591],[128.12,26.589],[128.117,26.594],[128.113,26.595],[128.113,26.599],[128.109,26.6],[128.105,26.603],[128.1,26.607],[128.096,26.609],[128.099,26.612],[128.096,26.619],[128.092,26.623],[128.09,26.627],[128.086,26.629],[128.085,26.633],[128.085,26.636],[128.083,26.642],[128.08,26.646]]],[[[128.02,26.681],[128.014,26.679],[128.009,26.679],[128.005,26.675],[128.001,26.675],[127.998,26.671],[127.994,26.666],[127.994,26.66],[127.997,26.656],[128.001,26.656],[128.004,26.654],[128.007,26.651],[128.012,26.657],[128.021,26.654],[128.028,26.65],[128.033,26.648],[128.035,26.652],[128.034,26.656],[128.032,26.659],[128.029,26.661],[128.024,26.667],[128.022,26.672],[128.021,26.677],[128.02,26.681]]]]}},{"type":"Feature","properties":{"name":"島尻郡伊是名村","code":"47360"},"geometry":{"type":"MultiPolygon","coordinates":[[[[127.938,26.956],[127.931,26.951],[127.925,26.95],[127.92,26.948],[127.917,26.944],[127.914,26.939],[127.914,26.935],[127.918,26.935],[127.922,26.931],[127.921,26.927],[127.92,26.922],[127.921,26.919],[127.925,26.918],[127.93,26.914],[127.935,26.914],[127.939,26.912],[127.942,26.912],[127.947,26.913],[127.952,26.914],[127.952,26.917],[127.95,26.924],[127.95,26.928],[127.954,26.93],[127.955,26.934],[127.957,26.943],[127.951,26.948],[127.947,26.951],[127.942,26.953],[127.938,26.956]]],[[[127.948,26.978],[127.945,26.977],[127.948,26.973],[127.954,26.973],[127.958,26.976],[127.948,26.978]]],[[[127.922,26.902],[127.922,26.897],[127.926,26.893],[127.931,26.892],[127.932,26.895],[127.928,26.895],[127.926,26.898],[127.926,26.902],[127.922,26.902]]]]}},{"type":"Feature","properties":{"name":"島尻郡久米島町","code":"47361"},"geometry":{"type":"MultiPolygon","coordinates":[[[[126.828,26.343],[126.824,26.34],[126.825,26.336],[126.831,26.336],[126.834,26.336],[126.832,26.339],[126.831,26.342]]],[[[126.898,26.35],[126.894,26.35],[126.888,26.348],[126.884,26.345],[126.887,26.344],[126.892,26.349],[126.896,26.349]]],[[[126.776,26.391],[126.77,26.391],[126.766,26.39],[126.759,26.389],[126.754,26.387],[126.746,26.382],[126.74,26.378],[126.736,26.377],[126.727,26.375],[126.719,26.374],[126.713,26.372],[126.709,26.367],[126.708,26.363],[126.712,26.364],[126.709,26.355],[126.713,26.36],[126.715,26.356],[126.725,26.349],[126.729,26.348],[126.733,26.348],[126.739,26.347],[126.742,26.346],[126.746,26.346],[126.751,26.343],[126.756,26.341],[126.76,26.341],[126.755,26.339],[126.759,26.338],[126.763,26.334],[126.765,26.331],[126.768,26.329],[126.77,26.324],[126.771,26.321],[126.776,26.314],[126.777,26.309],[126.781,26.305],[126.785,26.304],[126.788,26.302],[126.792,26.3],[126.795,26.297],[126.8,26.294],[126.803,26.293],[126.807,26.292],[126.813,26.292],[126.81,26.298],[126.81,26.303],[126.804,26.307],[126.805,26.31],[126.806,26.315],[126.807,26.32],[126.805,26.324],[126.808,26.329],[126.816,26.335],[126.814,26.339],[126.817,26.341],[126.826,26.346],[126.822,26.349],[126.818,26.351],[126.812,26.358],[126.808,26.361],[126.81,26.365],[126.807,26.369],[126.801,26.368],[126.796,26.371],[126.793,26.375],[126.791,26.38],[126.786,26.386],[126.779,26.391]]],[[[128.223,27.885],[128.22,27.881],[128.218,27.878],[128.221,27.873],[128.223,27.869],[128.226,27.864],[128.229,27.863],[128.234,27.86],[128.235,27.864],[128.233,27.871],[128.232,27.874],[128.228,27.878],[128.227,27.883],[128.223,27.885]]]]}},{"type":"Feature","properties":{"name":"糸満市","code":"47210"},"geometry":{"type":"MultiPolygon","coordinates":[[[[127.704,26.17],[127.701,26.167],[127.701,26.164],[127.697,26.166],[127.691,26.166],[127.688,26.159],[127.685,26.157],[127.68,26.159],[127.676,26.158],[127.672,26.153],[127.665,26.151],[127.659,26.149],[127.648,26.145],[127.651,26.135],[127.65,26.132],[127.653,26.126],[127.654,26.133],[127.66,26.137],[127.659,26.134],[127.668,26.134],[127.663,26.13],[127.663,26.126],[127.662,26.121],[127.662,26.116],[127.664,26.112],[127.661,26.107],[127.659,26.103],[127.659,26.098],[127.659,26.094],[127.658,26.089],[127.657,26.084],[127.659,26.081],[127.662,26.082],[127.667,26.079],[127.673,26.078],[127.677,26.075],[127.682,26.077],[127.685,26.08],[127.695,26.085],[127.699,26.087],[127.707,26.09],[127.713,26.088],[127.717,26.088],[127.721,26.09],[127.724,26.09],[127.727,26.094],[127.728,26.097],[127.732,26.098],[127.726,26.104],[127.721,26.106],[127.718,26.112],[127.712,26.118],[127.713,26.123],[127.708,26.127],[127.706,26.133],[127.71,26.135],[127.711,26.138],[127.713,26.144],[127.71,26.148],[127.707,26.148],[127.703,26.146],[127.699,26.149],[127.699,26.156],[127.702,26.158],[127.703,26.162],[127.706,26.165],[127.706,26.168]]]]}},{"type":"Feature","properties":{"name":"沖縄市","code":"47211"},"geometry":{"type":"MultiPolygon","coordinates":[[[[127.843,26.334],[127.837,26.329],[127.842,26.329],[127.854,26.325],[127.843,26.334]]],[[[127.843,26.335],[127.836,26.341],[127.833,26.342],[127.83,26.344],[127.828,26.348],[127.825,26.352],[127.827,26.357],[127.822,26.358],[127.823,26.363],[127.827,26.364],[127.829,26.367],[127.831,26.373],[127.83,26.376],[127.837,26.382],[127.833,26.384],[127.831,26.389],[127.825,26.393],[127.821,26.389],[127.819,26.392],[127.815,26.396],[127.811,26.4],[127.81,26.395],[127.804,26.391],[127.798,26.4],[127.794,26.405],[127.794,26.41],[127.792,26.414],[127.788,26.421],[127.786,26.417],[127.785,26.414],[127.784,26.411],[127.788,26.407],[127.788,26.402],[127.787,26.398],[127.786,26.388],[127.783,26.385],[127.782,26.381],[127.783,26.377],[127.783,26.373],[127.78,26.368],[127.779,26.361],[127.779,26.356],[127.779,26.351],[127.783,26.352],[127.785,26.349],[127.781,26.344],[127.78,26.341],[127.775,26.342],[127.772,26.339],[127.777,26.333],[127.779,26.329],[127.777,26.326],[127.78,26.323],[127.779,26.319],[127.785,26.318],[127.789,26.317],[127.792,26.316],[127.796,26.319],[127.795,26.322],[127.799,26.323],[127.801,26.326],[127.806,26.326],[127.809,26.323],[127.807,26.319],[127.807,26.314],[127.807,26.311],[127.81,26.306],[127.813,26.305],[127.819,26.306],[127.825,26.307],[127.829,26.304],[127.829,26.308],[127.829,26.311],[127.834,26.304],[127.837,26.3],[127.84,26.301],[127.846,26.301],[127.847,26.304],[127.842,26.308],[127.836,26.307],[127.831,26.309],[127.829,26.313],[127.834,26.313],[127.837,26.315],[127.847,26.314],[127.846,26.32],[127.842,26.32],[127.837,26.323],[127.836,26.329],[127.843,26.335]]]]}},{"type":"Feature","properties":{"name":"豊見城市","code":"47212"},"geometry":{"type":"MultiPolygon","coordinates":[[[[127.654,26.161],[127.65,26.16],[127.65,26.155],[127.66,26.152],[127.667,26.153],[127.665,26.158],[127.66,26.161],[127.656,26.16]]],[[[127.644,26.177],[127.641,26.177],[127.643,26.173],[127.646,26.175],[127.649,26.169],[127.652,26.169],[127.65,26.166],[127.654,26.165],[127.649,26.16],[127.647,26.156],[127.649,26.16],[127.654,26.162],[127.659,26.161],[127.664,26.159],[127.669,26.152],[127.674,26.156],[127.68,26.159],[127.684,26.156],[127.688,26.159],[127.691,26.166],[127.697,26.166],[127.701,26.164],[127.701,26.167],[127.704,26.17],[127.708,26.175],[127.712,26.179],[127.712,26.184],[127.708,26.19],[127.704,26.191],[127.699,26.196],[127.694,26.194],[127.69,26.194],[127.683,26.198],[127.681,26.189],[127.674,26.185],[127.669,26.182],[127.666,26.182],[127.661,26.181],[127.655,26.177],[127.644,26.177]]]]}},{"type":"Feature","properties":{"name":"うるま市","code":"47213"},"geometry":{"type":"MultiPolygon","coordinates":[[[[127.945,26.262],[127.938,26.262],[127.939,26.259],[127.938,26.253],[127.935,26.25],[127.934,26.247],[127.938,26.244],[127.942,26.242],[127.943,26.246],[127.947,26.248],[127.946,26.254],[127.948,26.258],[127.945,26.262]]],[[[127.925,26.323],[127.921,26.323],[127.917,26.322],[127.919,26.318],[127.923,26.318],[127.929,26.314],[127.927,26.32],[127.925,26.323]]],[[[127.953,26.329],[127.951,26.325],[127.952,26.321],[127.953,26.314],[127.955,26.311],[127.96,26.309],[127.96,26.313],[127.961,26.317],[127.966,26.319],[127.967,26.323],[127.96,26.327],[127.953,26.329]]],[[[127.856,26.326],[127.855,26.331],[127.858,26.334],[127.862,26.332],[127.866,26.327],[127.87,26.33],[127.868,26.336],[127.865,26.341],[127.862,26.344],[127.855,26.342],[127.849,26.337],[127.843,26.334],[127.856,26.326]]],[[[127.966,26.365],[127.955,26.356],[127.951,26.358],[127.945,26.356],[127.946,26.351],[127.943,26.345],[127.946,26.342],[127.954,26.34],[127.959,26.338],[127.963,26.34],[127.974,26.35],[127.975,26.354],[127.97,26.355],[127.969,26.362],[127.966,26.365]]],[[[127.988,26.385],[127.984,26.382],[127.981,26.379],[127.974,26.376],[127.972,26.371],[127.969,26.368],[127.969,26.363],[127.971,26.355],[127.975,26.354],[127.981,26.356],[127.988,26.36],[127.992,26.359],[127.995,26.365],[127.996,26.368],[127.993,26.374],[127.986,26.374],[127.988,26.378],[127.989,26.382],[127.988,26.385]]],[[[128.0,26.401],[127.995,26.399],[127.994,26.395],[127.99,26.393],[127.991,26.389],[127.99,26.385],[127.995,26.384],[127.998,26.382],[127.999,26.388],[128.001,26.391],[128.003,26.398],[128.0,26.401]]],[[[127.843,26.335],[127.847,26.336],[127.856,26.343],[127.863,26.344],[127.865,26.341],[127.869,26.336],[127.87,26.33],[127.877,26.327],[127.88,26.324],[127.885,26.319],[127.888,26.316],[127.89,26.312],[127.894,26.31],[127.899,26.305],[127.904,26.303],[127.908,26.302],[127.913,26.299],[127.916,26.294],[127.921,26.295],[127.924,26.302],[127.921,26.306],[127.92,26.31],[127.918,26.317],[127.916,26.322],[127.912,26.326],[127.906,26.331],[127.9,26.332],[127.897,26.334],[127.894,26.338],[127.888,26.341],[127.885,26.345],[127.882,26.348],[127.88,26.353],[127.875,26.357],[127.873,26.36],[127.873,26.366],[127.875,26.371],[127.881,26.376],[127.877,26.381],[127.871,26.388],[127.867,26.389],[127.864,26.393],[127.859,26.396],[127.853,26.4],[127.85,26.403],[127.844,26.406],[127.841,26.406],[127.838,26.411],[127.837,26.414],[127.838,26.418],[127.833,26.418],[127.827,26.423],[127.83,26.424],[127.829,26.428],[127.831,26.432],[127.835,26.43],[127.84,26.427],[127.844,26.432],[127.841,26.434],[127.841,26.437],[127.841,26.442],[127.838,26.449],[127.834,26.449],[127.831,26.45],[127.827,26.448],[127.824,26.449],[127.82,26.446],[127.817,26.445],[127.814,26.44],[127.81,26.439],[127.808,26.436],[127.804,26.432],[127.796,26.427],[127.792,26.424],[127.788,26.422],[127.791,26.416],[127.794,26.41],[127.794,26.405],[127.796,26.401],[127.802,26.393],[127.808,26.393],[127.81,26.398],[127.815,26.396],[127.819,26.392],[127.821,26.389],[127.824,26.391],[127.829,26.391],[127.831,26.386],[127.836,26.383],[127.833,26.378],[127.83,26.374],[127.83,26.37],[127.827,26.364],[127.823,26.363],[127.821,26.359],[127.825,26.358],[127.825,26.354],[127.827,26.348],[127.83,26.344],[127.833,26.343],[127.836,26.341],[127.841,26.337]]]]}},{"type":"Feature","properties":{"name":"宮古島市","code":"47214"},"geometry":{"type":"MultiPolygon","coordinates":[[[[125.242,24.732],[125.239,24.722],[125.239,24.718],[125.242,24.715],[125.246,24.714],[125.25,24.713],[125.257,24.716],[125.258,24.719],[125.256,24.724],[125.252,24.728],[125.246,24.731],[125.242,24.732]]],[[[125.266,24.804],[125.26,24.803],[125.257,24.804],[125.257,24.798],[125.261,24.799],[125.263,24.803],[125.266,24.804]]],[[[125.142,24.843],[125.139,24.839],[125.135,24.835],[125.137,24.828],[125.135,24.825],[125.136,24.822],[125.14,24.822],[125.138,24.817],[125.143,24.815],[125.145,24.809],[125.149,24.807],[125.153,24.805],[125.157,24.805],[125.162,24.802],[125.167,24.803],[125.171,24.805],[125.174,24.807],[125.175,24.811],[125.175,24.814],[125.169,24.818],[125.166,24.822],[125.162,24.827],[125.159,24.83],[125.156,24.833],[125.148,24.832],[125.144,24.841]]],[[[125.163,24.865],[125.16,24.862],[125.157,24.857],[125.158,24.852],[125.159,24.848],[125.159,24.844],[125.16,24.84],[125.155,24.837],[125.158,24.834],[125.159,24.831],[125.163,24.826],[125.166,24.822],[125.169,24.821],[125.172,24.817],[125.176,24.815],[125.182,24.812],[125.187,24.809],[125.191,24.808],[125.195,24.806],[125.199,24.805],[125.205,24.804],[125.216,24.807],[125.221,24.814],[125.221,24.817],[125.221,24.821],[125.22,24.825],[125.218,24.829],[125.215,24.834],[125.215,24.838],[125.212,24.844],[125.209,24.847],[125.206,24.847],[125.201,24.851],[125.189,24.855],[125.185,24.857],[125.181,24.86],[125.175,24.862],[125.165,24.865]]],[[[125.267,24.915],[125.27,24.91],[125.271,24.906],[125.269,24.903],[125.265,24.903],[125.259,24.909],[125.263,24.901],[125.269,24.895],[125.272,24.892],[125.271,24.887],[125.273,24.883],[125.275,24.88],[125.279,24.876],[125.28,24.87],[125.284,24.867],[125.284,24.862],[125.286,24.859],[125.29,24.858],[125.293,24.853],[125.295,24.85],[125.296,24.845],[125.294,24.842],[125.296,24.838],[125.291,24.838],[125.29,24.841],[125.286,24.841],[125.282,24.841],[125.278,24.838],[125.277,24.833],[125.28,24.827],[125.281,24.824],[125.28,24.82],[125.28,24.816],[125.277,24.812],[125.278,24.809],[125.274,24.81],[125.275,24.807],[125.272,24.803],[125.268,24.802],[125.262,24.799],[125.259,24.796],[125.257,24.792],[125.257,24.789],[125.26,24.784],[125.263,24.784],[125.266,24.783],[125.271,24.78],[125.274,24.776],[125.28,24.768],[125.283,24.761],[125.283,24.757],[125.284,24.753],[125.281,24.75],[125.277,24.75],[125.272,24.754],[125.268,24.751],[125.264,24.756],[125.26,24.759],[125.262,24.764],[125.263,24.768],[125.26,24.763],[125.257,24.761],[125.254,24.757],[125.254,24.753],[125.258,24.747],[125.26,24.743],[125.261,24.739],[125.261,24.736],[125.267,24.734],[125.271,24.729],[125.276,24.728],[125.281,24.726],[125.286,24.724],[125.292,24.72],[125.296,24.719],[125.296,24.722],[125.295,24.728],[125.294,24.734],[125.298,24.733],[125.299,24.728],[125.296,24.721],[125.3,24.716],[125.306,24.713],[125.309,24.712],[125.314,24.712],[125.317,24.713],[125.322,24.719],[125.326,24.719],[125.333,24.719],[125.338,24.719],[125.344,24.72],[125.351,24.722],[125.36,24.725],[125.363,24.726],[125.368,24.727],[125.371,24.729],[125.377,24.725],[125.383,24.725],[125.393,24.729],[125.398,24.729],[125.402,24.729],[125.407,24.73],[125.412,24.729],[125.419,24.728],[125.423,24.727],[125.432,24.73],[125.437,24.728],[125.442,24.728],[125.445,24.725],[125.45,24.726],[125.451,24.73],[125.455,24.73],[125.458,24.726],[125.462,24.722],[125.466,24.719],[125.469,24.719],[125.464,24.724],[125.458,24.73],[125.455,24.733],[125.449,24.741],[125.445,24.745],[125.442,24.751],[125.441,24.755],[125.437,24.758],[125.433,24.761],[125.429,24.76],[125.426,24.76],[125.419,24.763],[125.415,24.764],[125.408,24.767],[125.403,24.766],[125.399,24.769],[125.393,24.773],[125.391,24.778],[125.389,24.783],[125.383,24.788],[125.378,24.789],[125.37,24.792],[125.364,24.789],[125.358,24.789],[125.352,24.79],[125.35,24.794],[125.344,24.796],[125.339,24.798],[125.335,24.799],[125.335,24.803],[125.332,24.805],[125.331,24.811],[125.331,24.816],[125.334,24.819],[125.332,24.824],[125.328,24.827],[125.325,24.831],[125.32,24.832],[125.317,24.835],[125.313,24.837],[125.312,24.841],[125.309,24.846],[125.306,24.849],[125.305,24.853],[125.306,24.86],[125.305,24.866],[125.301,24.871],[125.298,24.877],[125.294,24.878],[125.289,24.88],[125.285,24.883],[125.283,24.886],[125.283,24.89],[125.282,24.894],[125.278,24.896],[125.272,24.902],[125.271,24.906],[125.269,24.912]]],[[[125.24,24.938],[125.236,24.937],[125.233,24.936],[125.232,24.933],[125.233,24.93],[125.238,24.927],[125.241,24.925],[125.245,24.923],[125.249,24.924],[125.256,24.925],[125.253,24.93],[125.249,24.935],[125.244,24.938],[125.24,24.938]]]]}},{"type":"Feature","properties":{"name":"南城市","code":"47215"},"geometry":{"type":"MultiPolygon","coordinates":[[[[127.909,26.172],[127.905,26.168],[127.901,26.168],[127.898,26.167],[127.889,26.162],[127.885,26.159],[127.884,26.155],[127.888,26.154],[127.892,26.158],[127.895,26.16],[127.899,26.162],[127.903,26.165],[127.909,26.169]]],[[[127.776,26.189],[127.773,26.187],[127.77,26.186],[127.765,26.186],[127.764,26.191],[127.762,26.195],[127.759,26.195],[127.75,26.197],[127.746,26.199],[127.741,26.197],[127.739,26.194],[127.74,26.189],[127.734,26.183],[127.733,26.178],[127.734,26.173],[127.731,26.169],[127.73,26.162],[127.731,26.152],[127.736,26.152],[127.739,26.152],[127.741,26.148],[127.742,26.145],[127.746,26.141],[127.749,26.139],[127.753,26.133],[127.757,26.132],[127.761,26.128],[127.767,26.126],[127.767,26.13],[127.771,26.132],[127.775,26.135],[127.781,26.135],[127.785,26.133],[127.793,26.135],[127.798,26.141],[127.803,26.147],[127.807,26.149],[127.81,26.149],[127.811,26.153],[127.815,26.157],[127.818,26.157],[127.822,26.16],[127.825,26.165],[127.83,26.165],[127.83,26.169],[127.831,26.174],[127.828,26.179],[127.823,26.18],[127.822,26.189],[127.821,26.192],[127.815,26.191],[127.808,26.19],[127.805,26.188],[127.798,26.187],[127.795,26.186],[127.793,26.182],[127.791,26.178],[127.791,26.174],[127.791,26.171],[127.787,26.171],[127.782,26.172],[127.778,26.172],[127.779,26.176],[127.776,26.18],[127.779,26.183],[127.778,26.187]]]]}},{"type":"Feature","properties":{"name":"国頭郡国頭村","code":"47301"},"geometry":{"type":"MultiPolygon","coordinates":[[[[128.265,26.668],[128.268,26.669],[128.274,26.671],[128.277,26.675],[128.279,26.678],[128.278,26.681],[128.279,26.686],[128.28,26.692],[128.284,26.694],[128.283,26.698],[128.288,26.697],[128.291,26.7],[128.291,26.706],[128.296,26.711],[128.299,26.711],[128.297,26.716],[128.294,26.717],[128.299,26.721],[128.303,26.721],[128.305,26.725],[128.306,26.73],[128.312,26.733],[128.317,26.735],[128.319,26.741],[128.32,26.746],[128.324,26.749],[128.327,26.749],[128.327,26.753],[128.323,26.754],[128.323,26.76],[128.324,26.765],[128.325,26.769],[128.323,26.773],[128.325,26.776],[128.326,26.781],[128.323,26.786],[128.323,26.789],[128.317,26.793],[128.321,26.797],[128.319,26.8],[128.318,26.806],[128.318,26.81],[128.317,26.815],[128.316,26.82],[128.309,26.824],[128.308,26.827],[128.305,26.831],[128.307,26.836],[128.307,26.839],[128.307,26.843],[128.302,26.846],[128.298,26.846],[128.295,26.843],[128.29,26.842],[128.29,26.846],[128.285,26.847],[128.283,26.85],[128.281,26.854],[128.27,26.859],[128.268,26.862],[128.264,26.865],[128.262,26.87],[128.265,26.873],[128.257,26.876],[128.252,26.871],[128.247,26.868],[128.245,26.864],[128.244,26.859],[128.246,26.855],[128.25,26.854],[128.253,26.851],[128.253,26.844],[128.253,26.84],[128.249,26.837],[128.246,26.831],[128.244,26.828],[128.243,26.823],[128.238,26.818],[128.234,26.812],[128.233,26.808],[128.231,26.802],[128.231,26.797],[128.227,26.798],[128.224,26.79],[128.219,26.784],[128.214,26.782],[128.21,26.777],[128.204,26.774],[128.205,26.769],[128.202,26.766],[128.199,26.766],[128.196,26.765],[128.192,26.763],[128.189,26.757],[128.188,26.754],[128.185,26.75],[128.178,26.748],[128.172,26.747],[128.166,26.744],[128.157,26.743],[128.153,26.745],[128.15,26.741],[128.155,26.74],[128.16,26.734],[128.161,26.73],[128.161,26.726],[128.158,26.722],[128.155,26.718],[128.159,26.715],[128.165,26.713],[128.168,26.712],[128.173,26.706],[128.177,26.705],[128.18,26.705],[128.184,26.703],[128.189,26.7],[128.194,26.695],[128.198,26.692],[128.203,26.689],[128.206,26.69],[128.206,26.694],[128.208,26.699],[128.213,26.701],[128.219,26.704],[128.222,26.708],[128.228,26.707],[128.234,26.704],[128.239,26.704],[128.243,26.703],[128.242,26.698],[128.244,26.69],[128.249,26.687],[128.251,26.682],[128.256,26.676],[128.261,26.669],[128.265,26.668]]]]}},{"type":"Feature","properties":{"name":"八重山郡竹富町","code":"47381"},"geometry":{"type":"MultiPolygon","coordinates":[[[[123.787,24.072],[123.777,24.071],[123.77,24.068],[123.765,24.066],[123.759,24.063],[123.754,24.063],[123.755,24.059],[123.753,24.053],[123.757,24.049],[123.76,24.049],[123.765,24.049],[123.772,24.048],[123.782,24.048],[123.788,24.046],[123.795,24.046],[123.799,24.049],[123.803,24.049],[123.806,24.053],[123.81,24.059],[123.81,24.063],[123.807,24.066],[123.803,24.068],[123.796,24.07],[123.79,24.072],[123.787,24.072]]],[[[123.935,24.221],[123.929,24.22],[123.925,24.221],[123.921,24.217],[123.926,24.211],[123.93,24.209],[123.936,24.212],[123.937,24.217],[123.935,24.221]]],[[[123.951,24.243],[123.946,24.24],[123.941,24.237],[123.939,24.232],[123.936,24.228],[123.938,24.225],[123.942,24.226],[123.946,24.231],[123.954,24.237],[123.952,24.242]]],[[[124.004,24.254],[124.001,24.254],[123.993,24.25],[123.991,24.247],[123.991,24.241],[123.992,24.238],[123.996,24.233],[124.001,24.224],[124.008,24.22],[124.011,24.221],[124.021,24.226],[124.027,24.23],[124.03,24.238],[124.03,24.242],[124.029,24.245],[124.026,24.249],[124.022,24.248],[124.016,24.247],[124.004,24.252]]],[[[124.087,24.34],[124.083,24.339],[124.081,24.336],[124.079,24.328],[124.076,24.325],[124.077,24.322],[124.079,24.316],[124.082,24.312],[124.089,24.312],[124.093,24.314],[124.098,24.319],[124.102,24.321],[124.1,24.324],[124.099,24.329],[124.096,24.333],[124.093,24.337],[124.087,24.34]]],[[[123.974,24.355],[123.97,24.353],[123.965,24.351],[123.967,24.345],[123.969,24.34],[123.966,24.338],[123.963,24.337],[123.959,24.336],[123.954,24.337],[123.952,24.333],[123.955,24.333],[123.961,24.334],[123.971,24.333],[123.975,24.332],[123.983,24.331],[123.988,24.329],[123.989,24.325],[123.994,24.324],[123.997,24.325],[124.003,24.327],[124.002,24.333],[123.995,24.336],[123.99,24.341],[123.992,24.347],[123.984,24.352],[123.98,24.354],[123.974,24.355]]],[[[123.731,24.363],[123.724,24.365],[123.724,24.359],[123.73,24.353],[123.735,24.35],[123.738,24.348],[123.742,24.346],[123.743,24.351],[123.744,24.354],[123.741,24.357],[123.736,24.359],[123.732,24.361]]],[[[123.999,24.367],[123.996,24.364],[124.001,24.36],[124.004,24.362],[124.001,24.366]]],[[[123.725,24.38],[123.718,24.378],[123.714,24.378],[123.711,24.374],[123.712,24.371],[123.719,24.365],[123.72,24.373],[123.723,24.377],[123.727,24.377],[123.725,24.38]]],[[[123.782,24.437],[123.778,24.437],[123.77,24.437],[123.767,24.435],[123.764,24.43],[123.765,24.427],[123.768,24.428],[123.772,24.427],[123.774,24.422],[123.773,24.418],[123.768,24.416],[123.761,24.414],[123.761,24.411],[123.753,24.405],[123.751,24.401],[123.754,24.398],[123.754,24.393],[123.747,24.391],[123.743,24.394],[123.742,24.39],[123.746,24.389],[123.747,24.384],[123.751,24.38],[123.753,24.377],[123.753,24.374],[123.745,24.369],[123.744,24.365],[123.746,24.362],[123.751,24.36],[123.753,24.355],[123.751,24.35],[123.748,24.346],[123.745,24.343],[123.75,24.338],[123.748,24.331],[123.747,24.325],[123.748,24.322],[123.75,24.317],[123.752,24.313],[123.749,24.311],[123.745,24.318],[123.74,24.315],[123.739,24.318],[123.74,24.322],[123.737,24.327],[123.737,24.331],[123.731,24.331],[123.728,24.334],[123.73,24.339],[123.727,24.343],[123.723,24.339],[123.719,24.337],[123.715,24.335],[123.714,24.329],[123.711,24.332],[123.71,24.337],[123.706,24.34],[123.704,24.345],[123.704,24.35],[123.701,24.348],[123.701,24.34],[123.702,24.336],[123.704,24.333],[123.707,24.326],[123.708,24.32],[123.711,24.318],[123.71,24.315],[123.706,24.315],[123.705,24.319],[123.702,24.324],[123.699,24.327],[123.692,24.328],[123.687,24.333],[123.683,24.331],[123.681,24.325],[123.68,24.322],[123.683,24.322],[123.683,24.317],[123.685,24.313],[123.685,24.309],[123.679,24.313],[123.674,24.311],[123.671,24.314],[123.665,24.31],[123.662,24.308],[123.664,24.305],[123.668,24.301],[123.67,24.297],[123.674,24.292],[123.68,24.283],[123.686,24.282],[123.691,24.282],[123.696,24.284],[123.7,24.282],[123.703,24.279],[123.707,24.278],[123.71,24.278],[123.716,24.278],[123.719,24.278],[123.72,24.282],[123.722,24.287],[123.72,24.292],[123.722,24.297],[123.723,24.3],[123.733,24.296],[123.737,24.294],[123.741,24.29],[123.749,24.284],[123.753,24.281],[123.763,24.278],[123.767,24.277],[123.773,24.276],[123.778,24.275],[123.781,24.276],[123.786,24.275],[123.79,24.275],[123.795,24.274],[123.8,24.272],[123.806,24.27],[123.811,24.271],[123.819,24.27],[123.823,24.272],[123.83,24.272],[123.833,24.272],[123.845,24.268],[123.85,24.264],[123.863,24.256],[123.87,24.256],[123.874,24.255],[123.878,24.255],[123.883,24.261],[123.881,24.265],[123.884,24.27],[123.883,24.276],[123.879,24.276],[123.881,24.28],[123.884,24.281],[123.891,24.28],[123.896,24.278],[123.901,24.274],[123.904,24.275],[123.903,24.279],[123.903,24.283],[123.903,24.289],[123.902,24.295],[123.9,24.299],[123.902,24.304],[123.902,24.308],[123.907,24.312],[123.908,24.315],[123.91,24.319],[123.911,24.324],[123.914,24.325],[123.919,24.324],[123.922,24.321],[123.923,24.318],[123.928,24.316],[123.928,24.32],[123.925,24.324],[123.928,24.328],[123.927,24.332],[123.928,24.338],[123.927,24.343],[123.933,24.347],[123.936,24.35],[123.937,24.353],[123.938,24.359],[123.94,24.365],[123.935,24.366],[123.927,24.366],[123.923,24.367],[123.918,24.372],[123.917,24.378],[123.909,24.383],[123.903,24.386],[123.9,24.384],[123.895,24.387],[123.891,24.388],[123.887,24.385],[123.882,24.389],[123.881,24.393],[123.881,24.396],[123.881,24.399],[123.87,24.405],[123.868,24.402],[123.867,24.398],[123.864,24.395],[123.856,24.398],[123.855,24.403],[123.848,24.404],[123.845,24.403],[123.839,24.404],[123.832,24.408],[123.83,24.399],[123.824,24.397],[123.821,24.392],[123.817,24.391],[123.816,24.394],[123.811,24.398],[123.81,24.401],[123.812,24.405],[123.813,24.408],[123.81,24.412],[123.805,24.413],[123.801,24.416],[123.8,24.419],[123.8,24.422],[123.796,24.425],[123.792,24.427],[123.782,24.437]]],[[[123.817,24.477],[123.814,24.475],[123.817,24.469],[123.824,24.468],[123.826,24.472],[123.823,24.476],[123.817,24.477]]]]}},{"type":"Feature","properties":{"name":"国頭郡大宜味村","code":"47302"},"geometry":{"type":"MultiPolygon","coordinates":[[[[128.098,26.615],[128.103,26.617],[128.106,26.621],[128.107,26.627],[128.109,26.63],[128.113,26.632],[128.117,26.63],[128.118,26.633],[128.119,26.636],[128.123,26.637],[128.125,26.641],[128.129,26.638],[128.133,26.644],[128.133,26.648],[128.139,26.648],[128.145,26.646],[128.149,26.643],[128.152,26.644],[128.157,26.642],[128.159,26.646],[128.163,26.648],[128.165,26.652],[128.169,26.652],[128.172,26.658],[128.174,26.663],[128.179,26.666],[128.181,26.669],[128.188,26.672],[128.189,26.676],[128.193,26.682],[128.199,26.688],[128.198,26.692],[128.194,26.695],[128.19,26.7],[128.184,26.703],[128.18,26.705],[128.177,26.705],[128.173,26.706],[128.168,26.712],[128.165,26.713],[128.162,26.713],[128.157,26.717],[128.149,26.715],[128.145,26.71],[128.135,26.705],[128.129,26.704],[128.118,26.703],[128.115,26.7],[128.113,26.695],[128.107,26.69],[128.103,26.685],[128.099,26.681],[128.1,26.677],[128.104,26.674],[128.105,26.67],[128.108,26.672],[128.112,26.671],[128.119,26.669],[128.123,26.666],[128.125,26.662],[128.12,26.659],[128.117,26.661],[128.111,26.659],[128.113,26.665],[128.109,26.665],[128.103,26.664],[128.1,26.661],[128.097,26.662],[128.092,26.657],[128.088,26.652],[128.084,26.65],[128.08,26.646],[128.083,26.642],[128.085,26.636],[128.085,26.633],[128.086,26.629],[128.09,26.627],[128.092,26.623],[128.096,26.62],[128.098,26.615]]]]}},{"type":"Feature","properties":{"name":"国頭郡東村","code":"47303"},"geometry":{"type":"MultiPolygon","coordinates":[[[[128.129,26.593],[128.126,26.598],[128.124,26.603],[128.13,26.601],[128.136,26.601],[128.139,26.601],[128.146,26.598],[128.152,26.598],[128.151,26.602],[128.155,26.605],[128.155,26.609],[128.153,26.613],[128.149,26.615],[128.148,26.619],[128.146,26.623],[128.147,26.627],[128.152,26.63],[128.156,26.63],[128.159,26.631],[128.163,26.629],[128.169,26.628],[128.174,26.627],[128.179,26.626],[128.182,26.624],[128.191,26.625],[128.194,26.625],[128.198,26.626],[128.204,26.626],[128.209,26.626],[128.213,26.626],[128.217,26.629],[128.221,26.63],[128.224,26.63],[128.229,26.631],[128.232,26.632],[128.239,26.632],[128.245,26.638],[128.246,26.643],[128.25,26.643],[128.253,26.648],[128.252,26.653],[128.256,26.655],[128.256,26.659],[128.261,26.658],[128.264,26.659],[128.264,26.662],[128.265,26.668],[128.261,26.669],[128.256,26.674],[128.251,26.68],[128.25,26.686],[128.246,26.687],[128.243,26.697],[128.243,26.701],[128.239,26.704],[128.234,26.704],[128.229,26.706],[128.222,26.708],[128.221,26.705],[128.215,26.703],[128.208,26.699],[128.207,26.696],[128.206,26.69],[128.203,26.689],[128.199,26.688],[128.196,26.685],[128.192,26.678],[128.188,26.675],[128.183,26.669],[128.179,26.666],[128.174,26.663],[128.172,26.659],[128.17,26.655],[128.167,26.651],[128.163,26.65],[128.161,26.646],[128.157,26.642],[128.154,26.644],[128.15,26.644],[128.145,26.646],[128.14,26.647],[128.136,26.649],[128.132,26.645],[128.13,26.641],[128.125,26.641],[128.123,26.637],[128.119,26.636],[128.118,26.633],[128.117,26.63],[128.113,26.632],[128.109,26.63],[128.107,26.627],[128.108,26.623],[128.103,26.619],[128.098,26.615],[128.096,26.61],[128.1,26.607],[128.103,26.602],[128.109,26.6],[128.113,26.599],[128.113,26.595],[128.117,26.594],[128.12,26.589],[128.124,26.59],[128.129,26.593]]]]}},{"type":"Feature","properties":{"name":"国頭郡今帰仁村","code":"47306"},"geometry":{"type":"MultiPolygon","coordinates":[[[[127.989,26.647],[127.985,26.647],[127.982,26.651],[127.991,26.652],[127.989,26.655],[127.991,26.66],[127.993,26.663],[127.994,26.668],[127.993,26.672],[127.996,26.677],[128.0,26.678],[128.004,26.681],[128.008,26.683],[128.006,26.688],[128.0,26.69],[127.992,26.692],[127.989,26.692],[127.984,26.694],[127.979,26.696],[127.975,26.697],[127.972,26.697],[127.97,26.694],[127.967,26.696],[127.968,26.7],[127.966,26.703],[127.962,26.705],[127.959,26.707],[127.953,26.708],[127.948,26.708],[127.943,26.706],[127.935,26.703],[127.931,26.704],[127.926,26.704],[127.918,26.702],[127.919,26.697],[127.919,26.69],[127.919,26.687],[127.917,26.683],[127.923,26.682],[127.925,26.678],[127.928,26.675],[127.932,26.671],[127.935,26.671],[127.939,26.671],[127.943,26.671],[127.946,26.669],[127.95,26.666],[127.954,26.67],[127.959,26.668],[127.959,26.662],[127.96,26.656],[127.962,26.651],[127.963,26.647],[127.959,26.639],[127.962,26.639],[127.967,26.638],[127.97,26.636],[127.973,26.64],[127.978,26.637],[127.981,26.639],[127.986,26.64],[127.989,26.647]]],[[[128.017,26.714],[128.013,26.714],[128.008,26.709],[128.009,26.704],[128.011,26.699],[128.016,26.696],[128.021,26.695],[128.026,26.7],[128.027,26.709],[128.017,26.714]]]]}},{"type":"Feature","properties":{"name":"国頭郡本部町","code":"47308"},"geometry":{"type":"MultiPolygon","coordinates":[[[[127.815,26.651],[127.81,26.648],[127.816,26.647],[127.816,26.644],[127.821,26.645],[127.818,26.65]]],[[[127.867,26.654],[127.863,26.653],[127.858,26.651],[127.855,26.648],[127.857,26.641],[127.859,26.636],[127.858,26.632],[127.862,26.63],[127.864,26.635],[127.871,26.641],[127.873,26.647],[127.871,26.653],[127.867,26.654]]],[[[127.959,26.639],[127.961,26.645],[127.962,26.651],[127.96,26.656],[127.959,26.66],[127.958,26.665],[127.957,26.67],[127.952,26.667],[127.946,26.669],[127.943,26.671],[127.939,26.671],[127.936,26.67],[127.932,26.671],[127.928,26.675],[127.925,26.678],[127.923,26.682],[127.917,26.683],[127.919,26.687],[127.919,26.69],[127.919,26.695],[127.919,26.699],[127.915,26.703],[127.911,26.702],[127.904,26.699],[127.9,26.702],[127.897,26.702],[127.892,26.704],[127.887,26.706],[127.88,26.71],[127.88,26.704],[127.879,26.7],[127.877,26.695],[127.874,26.691],[127.874,26.688],[127.874,26.685],[127.882,26.68],[127.886,26.676],[127.889,26.672],[127.891,26.661],[127.895,26.661],[127.89,26.659],[127.886,26.66],[127.879,26.654],[127.881,26.651],[127.879,26.647],[127.88,26.641],[127.88,26.636],[127.885,26.634],[127.887,26.63],[127.887,26.625],[127.89,26.619],[127.894,26.615],[127.894,26.608],[127.899,26.605],[127.899,26.61],[127.9,26.615],[127.904,26.617],[127.909,26.619],[127.909,26.623],[127.912,26.626],[127.917,26.629],[127.92,26.634],[127.926,26.634],[127.931,26.634],[127.934,26.635],[127.938,26.631],[127.943,26.632],[127.948,26.632],[127.951,26.637],[127.957,26.639]]]]}},{"type":"Feature","properties":{"name":"国頭郡恩納村","code":"47311"},"geometry":{"type":"MultiPolygon","coordinates":[[[[127.929,26.531],[127.927,26.528],[127.922,26.529],[127.921,26.524],[127.921,26.521],[127.919,26.518],[127.915,26.517],[127.91,26.517],[127.906,26.518],[127.901,26.515],[127.897,26.512],[127.892,26.512],[127.889,26.504],[127.884,26.503],[127.88,26.505],[127.875,26.508],[127.873,26.512],[127.867,26.51],[127.865,26.507],[127.861,26.505],[127.859,26.508],[127.859,26.504],[127.857,26.5],[127.85,26.505],[127.844,26.504],[127.843,26.5],[127.84,26.496],[127.843,26.492],[127.845,26.487],[127.846,26.483],[127.84,26.478],[127.836,26.479],[127.833,26.476],[127.831,26.471],[127.827,26.468],[127.821,26.468],[127.814,26.462],[127.811,26.46],[127.806,26.454],[127.802,26.452],[127.802,26.449],[127.803,26.445],[127.802,26.44],[127.796,26.436],[127.793,26.437],[127.788,26.436],[127.783,26.435],[127.781,26.439],[127.778,26.44],[127.774,26.442],[127.772,26.446],[127.765,26.438],[127.761,26.435],[127.757,26.432],[127.753,26.43],[127.748,26.428],[127.744,26.424],[127.742,26.421],[127.747,26.417],[127.752,26.415],[127.757,26.421],[127.764,26.423],[127.77,26.421],[127.775,26.419],[127.779,26.416],[127.786,26.416],[127.788,26.422],[127.792,26.424],[127.796,26.427],[127.801,26.431],[127.808,26.434],[127.81,26.439],[127.814,26.44],[127.817,26.445],[127.82,26.446],[127.824,26.449],[127.827,26.448],[127.831,26.45],[127.834,26.449],[127.837,26.452],[127.836,26.457],[127.84,26.461],[127.844,26.463],[127.848,26.466],[127.853,26.469],[127.858,26.469],[127.861,26.473],[127.864,26.473],[127.868,26.477],[127.873,26.479],[127.88,26.477],[127.885,26.475],[127.891,26.477],[127.892,26.483],[127.893,26.486],[127.898,26.49],[127.901,26.49],[127.905,26.491],[127.908,26.485],[127.911,26.483],[127.916,26.485],[127.917,26.489],[127.919,26.494],[127.921,26.498],[127.923,26.502],[127.926,26.502],[127.93,26.502],[127.935,26.505],[127.936,26.508],[127.941,26.51],[127.94,26.513],[127.936,26.519],[127.938,26.523],[127.935,26.526],[127.931,26.53]]]]}},{"type":"Feature","properties":{"name":"国頭郡宜野座村","code":"47313"},"geometry":{"type":"MultiPolygon","coordinates":[[[[127.941,26.51],[127.936,26.508],[127.935,26.505],[127.93,26.502],[127.927,26.496],[127.93,26.493],[127.934,26.488],[127.937,26.485],[127.939,26.481],[127.94,26.476],[127.941,26.471],[127.944,26.467],[127.949,26.465],[127.95,26.47],[127.954,26.474],[127.961,26.474],[127.965,26.468],[127.975,26.47],[127.979,26.472],[127.986,26.474],[127.991,26.475],[127.993,26.478],[127.989,26.48],[127.994,26.48],[127.998,26.481],[128.002,26.486],[128.003,26.489],[128.001,26.493],[127.997,26.497],[127.994,26.499],[127.994,26.503],[127.996,26.509],[127.996,26.514],[127.992,26.518],[127.984,26.519],[127.98,26.52],[127.977,26.524],[127.979,26.528],[127.974,26.528],[127.974,26.523],[127.969,26.523],[127.964,26.521],[127.96,26.519],[127.959,26.514],[127.954,26.511],[127.95,26.512],[127.945,26.512],[127.941,26.51]]]]}},{"type":"Feature","properties":{"name":"国頭郡金武町","code":"47314"},"geometry":{"type":"MultiPolygon","coordinates":[[[[127.842,26.435],[127.845,26.44],[127.848,26.443],[127.85,26.448],[127.856,26.452],[127.859,26.452],[127.864,26.456],[127.869,26.458],[127.873,26.456],[127.885,26.457],[127.891,26.456],[127.894,26.452],[127.899,26.449],[127.903,26.449],[127.91,26.448],[127.916,26.447],[127.917,26.443],[127.924,26.439],[127.927,26.44],[127.931,26.44],[127.939,26.442],[127.942,26.442],[127.947,26.44],[127.95,26.439],[127.948,26.442],[127.944,26.442],[127.943,26.447],[127.943,26.451],[127.944,26.454],[127.948,26.454],[127.948,26.459],[127.947,26.462],[127.944,26.467],[127.941,26.471],[127.941,26.474],[127.94,26.479],[127.938,26.483],[127.934,26.488],[127.933,26.491],[127.928,26.494],[127.928,26.5],[127.923,26.502],[127.92,26.501],[127.92,26.497],[127.919,26.49],[127.916,26.486],[127.913,26.483],[127.908,26.485],[127.906,26.488],[127.904,26.492],[127.898,26.49],[127.894,26.486],[127.892,26.483],[127.893,26.478],[127.886,26.476],[127.88,26.477],[127.875,26.477],[127.87,26.477],[127.866,26.473],[127.863,26.474],[127.86,26.471],[127.855,26.47],[127.85,26.467],[127.844,26.463],[127.841,26.462],[127.837,26.458],[127.836,26.454],[127.835,26.45],[127.839,26.444],[127.841,26.437]]]]}},{"type":"Feature","properties":{"name":"国頭郡伊江村","code":"47315"},"geometry":{"type":"MultiPolygon","coordinates":[[[[127.808,26.739],[127.804,26.739],[127.798,26.737],[127.795,26.734],[127.788,26.733],[127.783,26.733],[127.78,26.735],[127.776,26.734],[127.769,26.737],[127.76,26.738],[127.755,26.735],[127.752,26.729],[127.75,26.725],[127.749,26.722],[127.75,26.718],[127.752,26.714],[127.756,26.71],[127.761,26.709],[127.769,26.708],[127.777,26.708],[127.781,26.709],[127.786,26.71],[127.793,26.71],[127.797,26.708],[127.803,26.707],[127.81,26.706],[127.822,26.709],[127.829,26.71],[127.83,26.714],[127.831,26.717],[127.831,26.721],[127.829,26.724],[127.825,26.727],[127.821,26.728],[127.819,26.733],[127.816,26.734],[127.811,26.738],[127.808,26.739]]]]}},{"type":"Feature","properties":{"name":"中頭郡読谷村","code":"47324"},"geometry":{"type":"MultiPolygon","coordinates":[[[[127.786,26.416],[127.78,26.417],[127.776,26.417],[127.772,26.421],[127.764,26.423],[127.759,26.42],[127.753,26.418],[127.749,26.416],[127.744,26.418],[127.742,26.422],[127.736,26.422],[127.732,26.43],[127.729,26.433],[127.726,26.438],[127.721,26.44],[127.714,26.441],[127.716,26.435],[127.715,26.43],[127.714,26.425],[127.714,26.417],[127.715,26.413],[127.715,26.409],[127.716,26.406],[127.717,26.402],[127.72,26.397],[127.723,26.391],[127.726,26.387],[127.727,26.383],[127.731,26.375],[127.733,26.372],[127.736,26.367],[127.738,26.362],[127.742,26.363],[127.746,26.361],[127.751,26.366],[127.755,26.368],[127.761,26.369],[127.765,26.37],[127.768,26.369],[127.768,26.373],[127.769,26.379],[127.772,26.383],[127.773,26.387],[127.773,26.391],[127.776,26.396],[127.781,26.401],[127.782,26.405],[127.785,26.406],[127.784,26.411],[127.785,26.414]]]]}},{"type":"Feature","properties":{"name":"中頭郡嘉手納町","code":"47325"},"geometry":{"type":"MultiPolygon","coordinates":[[[[127.785,26.408],[127.785,26.404],[127.781,26.401],[127.777,26.396],[127.773,26.391],[127.773,26.387],[127.772,26.383],[127.769,26.379],[127.769,26.375],[127.769,26.372],[127.765,26.37],[127.761,26.369],[127.757,26.368],[127.751,26.366],[127.746,26.363],[127.742,26.363],[127.738,26.362],[127.739,26.358],[127.741,26.35],[127.745,26.351],[127.745,26.348],[127.746,26.345],[127.75,26.344],[127.756,26.341],[127.76,26.34],[127.764,26.342],[127.769,26.341],[127.773,26.346],[127.777,26.343],[127.78,26.341],[127.781,26.344],[127.784,26.347],[127.783,26.352],[127.779,26.351],[127.779,26.356],[127.779,26.361],[127.778,26.366],[127.783,26.373],[127.782,26.377],[127.782,26.381],[127.783,26.385],[127.786,26.388],[127.787,26.395],[127.787,26.4],[127.789,26.404],[127.785,26.408]]]]}},{"type":"Feature","properties":{"name":"中頭郡北谷町","code":"47326"},"geometry":{"type":"MultiPolygon","coordinates":[[[[127.779,26.296],[127.779,26.3],[127.776,26.304],[127.776,26.309],[127.779,26.309],[127.784,26.313],[127.785,26.318],[127.781,26.317],[127.782,26.321],[127.777,26.326],[127.779,26.329],[127.777,26.333],[127.772,26.339],[127.775,26.342],[127.776,26.345],[127.769,26.341],[127.764,26.342],[127.76,26.34],[127.756,26.341],[127.75,26.344],[127.746,26.343],[127.746,26.338],[127.745,26.335],[127.743,26.331],[127.745,26.327],[127.746,26.323],[127.749,26.32],[127.752,26.322],[127.753,26.318],[127.754,26.314],[127.755,26.311],[127.76,26.31],[127.759,26.305],[127.758,26.3],[127.757,26.295],[127.762,26.293],[127.767,26.298],[127.771,26.297],[127.774,26.297],[127.779,26.296]]]]}},{"type":"Feature","properties":{"name":"中頭郡北中城村","code":"47327"},"geometry":{"type":"MultiPolygon","coordinates":[[[[127.787,26.288],[127.792,26.287],[127.795,26.287],[127.799,26.285],[127.804,26.285],[127.811,26.288],[127.814,26.29],[127.81,26.294],[127.813,26.298],[127.813,26.301],[127.816,26.305],[127.82,26.305],[127.827,26.303],[127.825,26.307],[127.819,26.306],[127.816,26.306],[127.811,26.305],[127.809,26.309],[127.807,26.314],[127.807,26.318],[127.809,26.323],[127.806,26.326],[127.801,26.326],[127.799,26.323],[127.795,26.322],[127.796,26.319],[127.792,26.316],[127.789,26.317],[127.785,26.318],[127.784,26.313],[127.781,26.311],[127.777,26.31],[127.777,26.306],[127.777,26.301],[127.779,26.296],[127.784,26.293],[127.784,26.289]]]]}},{"type":"Feature","properties":{"name":"中頭郡中城村","code":"47328"},"geometry":{"type":"MultiPolygon","coordinates":[[[[127.769,26.254],[127.766,26.251],[127.766,26.247],[127.765,26.244],[127.768,26.241],[127.772,26.237],[127.775,26.238],[127.782,26.234],[127.788,26.232],[127.789,26.236],[127.789,26.239],[127.79,26.249],[127.792,26.252],[127.794,26.255],[127.796,26.259],[127.798,26.265],[127.801,26.269],[127.807,26.273],[127.811,26.274],[127.816,26.277],[127.816,26.28],[127.816,26.289],[127.811,26.288],[127.804,26.285],[127.799,26.285],[127.795,26.287],[127.792,26.287],[127.787,26.288],[127.783,26.283],[127.78,26.278],[127.777,26.274],[127.774,26.269],[127.772,26.265],[127.771,26.262],[127.767,26.259],[127.769,26.254]]]]}},{"type":"Feature","properties":{"name":"中頭郡西原町","code":"47329"},"geometry":{"type":"MultiPolygon","coordinates":[[[[127.736,26.218],[127.739,26.217],[127.745,26.213],[127.748,26.213],[127.755,26.213],[127.761,26.212],[127.77,26.207],[127.772,26.212],[127.778,26.217],[127.783,26.225],[127.787,26.226],[127.79,26.23],[127.782,26.234],[127.778,26.237],[127.772,26.237],[127.767,26.239],[127.765,26.244],[127.766,26.247],[127.766,26.251],[127.769,26.254],[127.765,26.256],[127.762,26.252],[127.757,26.25],[127.754,26.252],[127.751,26.249],[127.747,26.245],[127.744,26.243],[127.742,26.24],[127.738,26.236],[127.738,26.232],[127.733,26.226],[127.736,26.225],[127.736,26.218]]]]}},{"type":"Feature","properties":{"name":"島尻郡与那原町","code":"47348"},"geometry":{"type":"MultiPolygon","coordinates":[[[[127.776,26.189],[127.771,26.193],[127.769,26.198],[127.771,26.202],[127.766,26.205],[127.77,26.207],[127.763,26.211],[127.758,26.213],[127.751,26.213],[127.745,26.213],[127.739,26.21],[127.745,26.207],[127.747,26.203],[127.746,26.199],[127.75,26.197],[127.757,26.196],[127.762,26.195],[127.764,26.191],[127.765,26.186],[127.77,26.186],[127.773,26.187],[127.776,26.189]]]]}},{"type":"Feature","properties":{"name":"島尻郡南風原町","code":"47350"},"geometry":{"type":"MultiPolygon","coordinates":[[[[127.708,26.19],[127.709,26.185],[127.714,26.18],[127.718,26.179],[127.724,26.176],[127.725,26.173],[127.727,26.169],[127.731,26.169],[127.734,26.173],[127.733,26.178],[127.734,26.183],[127.74,26.189],[127.739,26.194],[127.741,26.197],[127.746,26.199],[127.747,26.203],[127.745,26.207],[127.739,26.21],[127.742,26.215],[127.736,26.218],[127.732,26.217],[127.727,26.215],[127.723,26.21],[127.722,26.206],[127.722,26.198],[127.718,26.196],[127.713,26.196],[127.708,26.19]]]]}},{"type":"Feature","properties":{"name":"島尻郡渡嘉敷村","code":"47353"},"geometry":{"type":"MultiPolygon","coordinates":[[[[127.453,26.225],[127.45,26.221],[127.445,26.213],[127.44,26.204],[127.44,26.2],[127.443,26.201],[127.447,26.203],[127.448,26.209],[127.45,26.212],[127.455,26.218],[127.455,26.221],[127.453,26.225]]],[[[127.357,26.226],[127.353,26.225],[127.354,26.221],[127.355,26.216],[127.351,26.212],[127.35,26.208],[127.345,26.202],[127.346,26.194],[127.345,26.19],[127.348,26.186],[127.344,26.183],[127.339,26.182],[127.341,26.179],[127.342,26.174],[127.345,26.17],[127.348,26.167],[127.345,26.16],[127.346,26.156],[127.346,26.153],[127.347,26.148],[127.352,26.156],[127.358,26.157],[127.362,26.156],[127.362,26.164],[127.361,26.17],[127.36,26.175],[127.36,26.179],[127.36,26.183],[127.364,26.185],[127.369,26.19],[127.37,26.193],[127.371,26.198],[127.37,26.201],[127.374,26.202],[127.374,26.208],[127.371,26.212],[127.372,26.215],[127.37,26.219],[127.367,26.222],[127.362,26.224],[127.358,26.225]]],[[[127.369,26.237],[127.366,26.232],[127.368,26.228],[127.367,26.224],[127.372,26.228],[127.37,26.233],[127.369,26.237]]],[[[127.554,26.266],[127.547,26.267],[127.541,26.266],[127.545,26.265],[127.554,26.264]]]]}},{"type":"Feature","properties":{"name":"島尻郡座間味村","code":"47354"},"geometry":{"type":"MultiPolygon","coordinates":[[[[127.293,26.175],[127.289,26.17],[127.288,26.167],[127.29,26.163],[127.293,26.162],[127.295,26.167],[127.296,26.173],[127.293,26.175]]],[[[127.237,26.183],[127.234,26.176],[127.234,26.17],[127.234,26.163],[127.239,26.163],[127.242,26.164],[127.242,26.17],[127.242,26.173],[127.241,26.178],[127.238,26.181]]],[[[127.289,26.188],[127.282,26.183],[127.286,26.178],[127.289,26.176],[127.293,26.176],[127.295,26.179],[127.294,26.184],[127.289,26.188]]],[[[127.281,26.212],[127.275,26.208],[127.271,26.208],[127.27,26.204],[127.266,26.2],[127.268,26.194],[127.272,26.197],[127.276,26.195],[127.274,26.192],[127.276,26.187],[127.279,26.189],[127.286,26.189],[127.287,26.193],[127.291,26.194],[127.292,26.197],[127.286,26.204],[127.284,26.208],[127.281,26.212]]],[[[127.309,26.216],[127.309,26.211],[127.31,26.207],[127.31,26.202],[127.311,26.199],[127.314,26.2],[127.317,26.205],[127.313,26.207],[127.31,26.214]]],[[[127.249,26.223],[127.245,26.221],[127.241,26.221],[127.239,26.214],[127.239,26.211],[127.243,26.208],[127.248,26.213],[127.25,26.216],[127.25,26.222]]],[[[127.31,26.252],[127.309,26.249],[127.308,26.246],[127.307,26.24],[127.302,26.238],[127.299,26.241],[127.294,26.24],[127.293,26.236],[127.289,26.234],[127.282,26.234],[127.282,26.229],[127.287,26.228],[127.291,26.227],[127.296,26.224],[127.299,26.225],[127.302,26.227],[127.304,26.224],[127.304,26.221],[127.308,26.219],[127.308,26.222],[127.313,26.226],[127.313,26.23],[127.313,26.235],[127.313,26.239],[127.316,26.24],[127.32,26.24],[127.322,26.235],[127.322,26.232],[127.327,26.232],[127.333,26.23],[127.332,26.233],[127.329,26.232],[127.327,26.236],[127.331,26.239],[127.326,26.245],[127.318,26.247],[127.314,26.245],[127.311,26.248],[127.311,26.251]]]]}},{"type":"Feature","properties":{"name":"島尻郡粟国村","code":"47355"},"geometry":{"type":"MultiPolygon","coordinates":[[[[127.231,26.602],[127.227,26.601],[127.223,26.597],[127.217,26.593],[127.215,26.589],[127.211,26.586],[127.21,26.582],[127.209,26.579],[127.209,26.575],[127.217,26.577],[127.224,26.578],[127.229,26.579],[127.233,26.579],[127.237,26.577],[127.242,26.577],[127.246,26.583],[127.248,26.586],[127.246,26.593],[127.241,26.598],[127.237,26.602],[127.231,26.602]]]]}},{"type":"Feature","properties":{"name":"島尻郡渡名喜村","code":"47356"},"geometry":{"type":"MultiPolygon","coordinates":[[[[127.147,26.382],[127.145,26.377],[127.139,26.377],[127.14,26.371],[127.138,26.367],[127.138,26.363],[127.142,26.36],[127.141,26.356],[127.145,26.353],[127.144,26.35],[127.148,26.352],[127.152,26.355],[127.157,26.356],[127.16,26.359],[127.162,26.364],[127.154,26.361],[127.15,26.363],[127.149,26.366],[127.147,26.37],[127.148,26.374],[127.151,26.378],[127.147,26.382]]]]}},{"type":"Feature","properties":{"name":"島尻郡南大東村","code":"47357"},"geometry":{"type":"MultiPolygon","coordinates":[[[[131.241,25.872],[131.236,25.872],[131.228,25.87],[131.221,25.867],[131.221,25.859],[131.218,25.851],[131.217,25.848],[131.217,25.841],[131.218,25.835],[131.217,25.831],[131.213,25.823],[131.221,25.818],[131.225,25.815],[131.231,25.813],[131.238,25.813],[131.244,25.814],[131.251,25.816],[131.255,25.817],[131.264,25.823],[131.267,25.83],[131.267,25.835],[131.267,25.839],[131.271,25.847],[131.273,25.853],[131.271,25.858],[131.265,25.867],[131.258,25.87],[131.252,25.872],[131.244,25.872],[131.241,25.872]]]]}},{"type":"Feature","properties":{"name":"島尻郡北大東村","code":"47358"},"geometry":{"type":"MultiPolygon","coordinates":[[[[131.182,24.472],[131.184,24.464],[131.189,24.461],[131.195,24.468],[131.191,24.471],[131.186,24.471],[131.182,24.472]]],[[[131.286,25.961],[131.284,25.958],[131.285,25.948],[131.287,25.944],[131.288,25.941],[131.291,25.938],[131.294,25.934],[131.299,25.93],[131.305,25.928],[131.311,25.928],[131.319,25.929],[131.322,25.931],[131.324,25.935],[131.325,25.939],[131.328,25.943],[131.33,25.947],[131.332,25.951],[131.324,25.956],[131.319,25.956],[131.312,25.956],[131.306,25.956],[131.293,25.959],[131.286,25.961]]]]}},{"type":"Feature","properties":{"name":"島尻郡伊平屋村","code":"47359"},"geometry":{"type":"MultiPolygon","coordinates":[[[[127.924,27.001],[127.921,27.0],[127.914,26.997],[127.914,26.993],[127.921,26.989],[127.925,26.993],[127.927,26.999]]],[[[128.021,27.094],[128.015,27.092],[128.009,27.09],[128.004,27.089],[127.996,27.089],[127.994,27.084],[127.991,27.081],[127.989,27.077],[127.982,27.071],[127.975,27.067],[127.97,27.063],[127.967,27.057],[127.96,27.05],[127.956,27.047],[127.951,27.045],[127.949,27.041],[127.947,27.037],[127.946,27.033],[127.941,27.029],[127.938,27.025],[127.933,27.022],[127.932,27.014],[127.934,27.011],[127.938,27.007],[127.938,27.002],[127.936,26.999],[127.933,26.998],[127.935,26.995],[127.937,26.998],[127.94,27.005],[127.941,27.009],[127.942,27.015],[127.947,27.02],[127.952,27.022],[127.956,27.022],[127.962,27.022],[127.967,27.025],[127.967,27.029],[127.964,27.03],[127.965,27.035],[127.968,27.036],[127.973,27.04],[127.978,27.041],[127.983,27.04],[127.987,27.042],[127.991,27.044],[127.996,27.052],[127.997,27.057],[127.999,27.061],[127.997,27.068],[128.001,27.075],[128.006,27.08],[128.009,27.083],[128.016,27.089],[128.02,27.089],[128.022,27.093]]]]}},{"type":"Feature","properties":{"name":"島尻郡八重瀬町","code":"47362"},"geometry":{"type":"MultiPolygon","coordinates":[[[[127.732,26.098],[127.735,26.102],[127.738,26.108],[127.743,26.111],[127.745,26.115],[127.747,26.118],[127.756,26.12],[127.758,26.124],[127.762,26.125],[127.761,26.128],[127.759,26.133],[127.753,26.133],[127.749,26.139],[127.746,26.141],[127.742,26.145],[127.741,26.148],[127.739,26.152],[127.736,26.152],[127.731,26.152],[127.73,26.159],[127.732,26.166],[127.727,26.169],[127.725,26.173],[127.724,26.176],[127.721,26.176],[127.716,26.18],[127.712,26.179],[127.711,26.176],[127.704,26.172],[127.706,26.168],[127.706,26.165],[127.703,26.162],[127.702,26.158],[127.699,26.156],[127.697,26.152],[127.7,26.147],[127.705,26.148],[127.71,26.148],[127.713,26.144],[127.712,26.139],[127.71,26.135],[127.706,26.133],[127.708,26.127],[127.713,26.123],[127.712,26.118],[127.718,26.113],[127.72,26.108],[127.724,26.106],[127.73,26.1]]]]}},{"type":"Feature","properties":{"name":"宮古郡多良間村","code":"47375"},"geometry":{"type":"MultiPolygon","coordinates":[[[[124.711,24.677],[124.706,24.676],[124.697,24.677],[124.689,24.675],[124.683,24.673],[124.677,24.669],[124.673,24.665],[124.671,24.662],[124.671,24.656],[124.673,24.648],[124.675,24.643],[124.681,24.641],[124.69,24.639],[124.708,24.638],[124.716,24.642],[124.72,24.646],[124.726,24.65],[124.728,24.654],[124.728,24.657],[124.728,24.66],[124.727,24.667],[124.72,24.671],[124.711,24.674],[124.711,24.677]]],[[[124.695,24.762],[124.689,24.761],[124.683,24.759],[124.687,24.755],[124.692,24.752],[124.697,24.749],[124.703,24.745],[124.705,24.751],[124.704,24.754],[124.7,24.757],[124.695,24.762]]]]}},{"type":"Feature","properties":{"name":"八重山郡与那国町","code":"47382"},"geometry":{"type":"MultiPolygon","coordinates":[[[[123.007,24.474],[123.001,24.47],[122.995,24.473],[122.99,24.472],[122.98,24.469],[122.974,24.467],[122.971,24.468],[122.968,24.47],[122.964,24.472],[122.96,24.471],[122.955,24.467],[122.955,24.462],[122.951,24.46],[122.943,24.458],[122.941,24.454],[122.939,24.448],[122.935,24.451],[122.936,24.447],[122.939,24.446],[122.944,24.444],[122.948,24.444],[122.951,24.442],[122.955,24.442],[122.958,24.441],[122.963,24.44],[122.967,24.438],[122.971,24.438],[122.975,24.439],[122.982,24.438],[122.983,24.442],[122.989,24.441],[122.997,24.44],[123.002,24.441],[123.007,24.438],[123.011,24.437],[123.014,24.441],[123.018,24.443],[123.023,24.447],[123.028,24.45],[123.035,24.454],[123.035,24.457],[123.04,24.46],[123.044,24.463],[123.039,24.463],[123.034,24.465],[123.028,24.467],[123.025,24.469],[123.02,24.471],[123.016,24.471],[123.013,24.474],[123.007,24.473]]]]}}]}